{"type":"FeatureCollection","meta":{
 "source": "City of London INSPIRE map service: Airport Safeguarding Area",
 "borough": "City of London",
 "page": "https://www.mapping.cityoflondon.gov.uk/arcgis/rest/services/INSPIRE/MapServer/106",
 "api": "https://www.mapping.cityoflondon.gov.uk/arcgis/rest/services/INSPIRE/MapServer/106/query?where=1=1&geometry=<zone box>&geometryType=esriGeometryEnvelope&inSR=4326&spatialRel=esriSpatialRelIntersects&outFields=*&outSR=4326&f=geojson&resultOffset=<n>",
 "fetched": "2026-10-04",
 "licence": "Open Government Licence v3.0",
 "licence_evidence": "the City's INSPIRE record on data.gov.uk (airport-safeguarding-area5): [\"http://www.nationalarchives.gov.uk/doc/open-government-licence/version/3/\"] | [\"https://inspire.ec.europa.eu/metadata-codelist/LimitationsOnPublicAccess\", \"License\"]",
 "licence_url": "https://www.nationalarchives.gov.uk/doc/open-government-licence/version/3/",
 "attribution": "Contains public sector information licensed under the Open Government Licence v3.0 (City of London Corporation)",
 "zone": "the 3D model box, BNG E 532400-539900, N 176700-182300 (WGS84 -0.095, 51.474 to 0.015, 51.522)",
 "method": "walk-portals.mjs boroughs harvest city-airport-safeguarding-area: features that meet the zone box, WGS84 rounded to 6 decimals, whole geometries; whole_in_zone, in_cw; empty fields and ArcGIS shape measures left out; fields matching /e-?mail|phone|tel(ephone)?$|^tel|contact|^fax|mobile|^owner_?name|person|officer|case_?officer|agent_?name|applicant/i dropped",
 "counts": {
  "features": 1,
  "zone_count_at_walk": 1,
  "in_cw": 0
 },
 "fields_dropped": []
},
"features":[
{"type":"Feature","geometry":{"type":"Polygon","coordinates":[[[-0.098815,51.520514],[-0.099267,51.509659],[-0.09925,51.509657],[-0.099117,51.509649],[-0.098984,51.50964],[-0.098801,51.509625],[-0.098619,51.50961],[-0.097812,51.509541],[-0.097646,51.509525],[-0.097319,51.509494],[-0.097156,51.509477],[-0.096993,51.509461],[-0.096829,51.509441],[-0.096664,51.509419],[-0.096507,51.509398],[-0.096351,51.509375],[-0.096195,51.509352],[-0.096039,51.509328],[-0.095873,51.5093],[-0.095708,51.50927],[-0.095584,51.509243],[-0.09546,51.509216],[-0.095361,51.509195],[-0.095263,51.509174],[-0.09511,51.50914],[-0.094957,51.509105],[-0.0948,51.50907],[-0.094642,51.509035],[-0.094549,51.509014],[-0.094455,51.508993],[-0.09438,51.508976],[-0.094303,51.508959],[-0.094233,51.508943],[-0.094162,51.508928],[-0.094093,51.508912],[-0.094025,51.508895],[-0.093895,51.508859],[-0.093767,51.508822],[-0.093468,51.508739],[-0.093053,51.508621],[-0.092852,51.50857],[-0.092558,51.50849],[-0.092406,51.50845],[-0.092362,51.50844],[-0.092317,51.508429],[-0.092274,51.50842],[-0.09223,51.508409],[-0.092189,51.5084],[-0.092147,51.508389],[-0.092102,51.508383],[-0.091977,51.508368],[-0.091803,51.508345],[-0.091682,51.508331],[-0.091495,51.50831],[-0.09099,51.50825],[-0.090752,51.50822],[-0.090498,51.508188],[-0.09026,51.508161],[-0.090062,51.508138],[-0.08988,51.508118],[-0.089654,51.508093],[-0.089487,51.508074],[-0.089318,51.508056],[-0.089166,51.50804],[-0.089001,51.508022],[-0.088865,51.508008],[-0.088689,51.507988],[-0.088515,51.507969],[-0.088352,51.507949],[-0.088193,51.507929],[-0.088084,51.507919],[-0.08797,51.507904],[-0.087907,51.507898],[-0.087803,51.507888],[-0.087765,51.507884],[-0.087563,51.507867],[-0.087432,51.507857],[-0.087261,51.507844],[-0.087092,51.507833],[-0.087013,51.507827],[-0.086922,51.50782],[-0.086898,51.507818],[-0.086887,51.507817],[-0.086658,51.507796],[-0.086382,51.507775],[-0.085928,51.507742],[-0.085456,51.507706],[-0.084972,51.507673],[-0.084684,51.507617],[-0.08459,51.507598],[-0.084528,51.507585],[-0.084485,51.507577],[-0.084294,51.507542],[-0.084112,51.507511],[-0.083997,51.50749],[-0.083894,51.507473],[-0.083866,51.50747],[-0.083859,51.507469],[-0.083856,51.507468],[-0.083789,51.50746],[-0.083695,51.507449],[-0.083624,51.50744],[-0.083557,51.507431],[-0.083429,51.507414],[-0.083246,51.507389],[-0.083152,51.507377],[-0.083016,51.507358],[-0.082929,51.507346],[-0.082815,51.507328],[-0.082723,51.507314],[-0.082662,51.507304],[-0.082568,51.507291],[-0.082508,51.507281],[-0.082382,51.507263],[-0.082168,51.507231],[-0.081977,51.507199],[-0.081863,51.507183],[-0.081729,51.507163],[-0.08156,51.507139],[-0.08154,51.507136],[-0.081443,51.507119],[-0.081352,51.507101],[-0.081267,51.507085],[-0.081133,51.507061],[-0.080924,51.507022],[-0.080806,51.506997],[-0.080683,51.506973],[-0.080561,51.506951],[-0.080478,51.50693],[-0.080355,51.506906],[-0.080259,51.506884],[-0.080209,51.506871],[-0.079784,51.507582],[-0.079582,51.507699],[-0.079553,51.507715],[-0.07942,51.507792],[-0.079343,51.507907],[-0.079248,51.507891],[-0.079085,51.508253],[-0.079139,51.508264],[-0.079137,51.508267],[-0.079167,51.508277],[-0.079176,51.50828],[-0.079175,51.508294],[-0.079155,51.50832],[-0.079134,51.508347],[-0.079129,51.508354],[-0.079101,51.508346],[-0.079083,51.508371],[-0.07908,51.508376],[-0.079015,51.508461],[-0.078999,51.508482],[-0.07887,51.508652],[-0.078865,51.508659],[-0.078854,51.508673],[-0.078731,51.508833],[-0.078786,51.508856],[-0.078799,51.508875],[-0.078766,51.508869],[-0.078751,51.508883],[-0.078742,51.508894],[-0.078718,51.508932],[-0.078763,51.508948],[-0.079098,51.509063],[-0.079043,51.509121],[-0.079003,51.509107],[-0.078996,51.509109],[-0.078989,51.509111],[-0.078987,51.509112],[-0.078981,51.509116],[-0.078976,51.50912],[-0.07897,51.509124],[-0.078964,51.509132],[-0.07896,51.509139],[-0.078951,51.509162],[-0.078937,51.509195],[-0.078951,51.509196],[-0.078919,51.509272],[-0.078902,51.509315],[-0.078901,51.509316],[-0.078864,51.509404],[-0.078847,51.509445],[-0.078841,51.509459],[-0.078733,51.509449],[-0.078692,51.509443],[-0.078579,51.509423],[-0.078419,51.509622],[-0.078354,51.509704],[-0.078289,51.509776],[-0.078235,51.509829],[-0.078152,51.509901],[-0.078069,51.509967],[-0.077991,51.51002],[-0.077943,51.510049],[-0.077882,51.510084],[-0.077833,51.510104],[-0.07777,51.510124],[-0.077725,51.510136],[-0.077663,51.510149],[-0.077661,51.510149],[-0.077614,51.510155],[-0.077553,51.510158],[-0.077448,51.51017],[-0.076928,51.510208],[-0.076913,51.510231],[-0.076903,51.510255],[-0.076885,51.510289],[-0.076878,51.510325],[-0.076893,51.510479],[-0.076816,51.51049],[-0.076238,51.510559],[-0.076215,51.510483],[-0.076171,51.510487],[-0.076163,51.510455],[-0.076143,51.510364],[-0.076137,51.510365],[-0.076082,51.510102],[-0.075879,51.510119],[-0.075793,51.510122],[-0.075788,51.510097],[-0.075781,51.510012],[-0.075779,51.509979],[-0.075774,51.509932],[-0.075754,51.509872],[-0.075729,51.509875],[-0.075655,51.509825],[-0.075661,51.509796],[-0.075544,51.509735],[-0.075495,51.509764],[-0.075436,51.509794],[-0.075329,51.509835],[-0.075075,51.50991],[-0.074836,51.509992],[-0.074485,51.50994],[-0.074482,51.509939],[-0.074472,51.509936],[-0.074458,51.509932],[-0.074436,51.50993],[-0.074411,51.509932],[-0.074374,51.509943],[-0.074333,51.509959],[-0.074293,51.509983],[-0.074237,51.510007],[-0.074162,51.510032],[-0.074082,51.510053],[-0.0739,51.510088],[-0.073805,51.510099],[-0.073668,51.510108],[-0.073558,51.510107],[-0.073335,51.510102],[-0.073253,51.510099],[-0.073133,51.510094],[-0.073109,51.510094],[-0.073084,51.510093],[-0.07306,51.510093],[-0.073019,51.510098],[-0.072996,51.510104],[-0.072975,51.510111],[-0.072946,51.510126],[-0.072883,51.510183],[-0.072823,51.510256],[-0.072802,51.510287],[-0.072779,51.510335],[-0.072768,51.510369],[-0.072762,51.510412],[-0.072775,51.510774],[-0.072776,51.510805],[-0.072781,51.510928],[-0.072788,51.511028],[-0.072802,51.511085],[-0.072813,51.511114],[-0.07283,51.511149],[-0.072879,51.51121],[-0.072934,51.511293],[-0.072972,51.511367],[-0.073008,51.511465],[-0.07303,51.51155],[-0.073104,51.511941],[-0.073131,51.512089],[-0.073183,51.512372],[-0.073228,51.512685],[-0.073269,51.512995],[-0.073292,51.513187],[-0.073305,51.513232],[-0.073316,51.51328],[-0.073334,51.513324],[-0.073366,51.513409],[-0.073402,51.513502],[-0.073439,51.513588],[-0.073485,51.513704],[-0.073558,51.513871],[-0.073571,51.513927],[-0.073575,51.513963],[-0.073581,51.513999],[-0.073598,51.514045],[-0.07363,51.514091],[-0.073813,51.514283],[-0.073872,51.514332],[-0.073907,51.514365],[-0.073949,51.514404],[-0.074027,51.514474],[-0.074031,51.514477],[-0.074143,51.514558],[-0.074159,51.514571],[-0.074176,51.514581],[-0.074217,51.514613],[-0.074266,51.514648],[-0.074327,51.514691],[-0.074374,51.51472],[-0.07444,51.514764],[-0.074478,51.514797],[-0.074545,51.514846],[-0.07458,51.514872],[-0.074607,51.514895],[-0.074637,51.514924],[-0.074669,51.514952],[-0.074699,51.514977],[-0.07472,51.514998],[-0.07473,51.515007],[-0.074759,51.515036],[-0.074813,51.515089],[-0.074823,51.515102],[-0.074834,51.51512],[-0.074862,51.515146],[-0.074889,51.515171],[-0.074907,51.515185],[-0.074929,51.515197],[-0.075001,51.515243],[-0.075025,51.515258],[-0.075039,51.515268],[-0.075112,51.515316],[-0.075216,51.515386],[-0.075261,51.515417],[-0.075329,51.515462],[-0.075371,51.51549],[-0.07544,51.515536],[-0.075478,51.515561],[-0.075547,51.515607],[-0.075588,51.515633],[-0.075658,51.51568],[-0.075733,51.515729],[-0.075766,51.51575],[-0.075805,51.515778],[-0.075841,51.515803],[-0.075876,51.515826],[-0.075913,51.515852],[-0.075979,51.515894],[-0.076019,51.515924],[-0.076084,51.515969],[-0.07612,51.515996],[-0.076181,51.516037],[-0.076206,51.516053],[-0.076231,51.516065],[-0.0763,51.516111],[-0.076339,51.516137],[-0.076409,51.516183],[-0.076458,51.516213],[-0.076509,51.516249],[-0.076518,51.516245],[-0.076529,51.516255],[-0.076559,51.516287],[-0.076613,51.516339],[-0.076642,51.516367],[-0.076695,51.516418],[-0.07678,51.516504],[-0.076811,51.516537],[-0.076865,51.51659],[-0.076899,51.516624],[-0.076925,51.516648],[-0.076954,51.516681],[-0.077031,51.516784],[-0.077079,51.516843],[-0.077145,51.516936],[-0.077206,51.517027],[-0.077248,51.517098],[-0.0773,51.517183],[-0.077363,51.517277],[-0.077373,51.517292],[-0.077384,51.517314],[-0.077418,51.517375],[-0.077431,51.517398],[-0.077446,51.517427],[-0.077482,51.517494],[-0.077517,51.517558],[-0.077553,51.517621],[-0.077582,51.517676],[-0.077585,51.517683],[-0.077619,51.517748],[-0.077656,51.517814],[-0.077689,51.517876],[-0.07773,51.517955],[-0.077762,51.518015],[-0.077785,51.518057],[-0.077792,51.518071],[-0.077798,51.51808],[-0.077805,51.518089],[-0.077819,51.518105],[-0.077823,51.518109],[-0.077825,51.518112],[-0.077834,51.518121],[-0.077841,51.518126],[-0.077845,51.518129],[-0.077879,51.518156],[-0.07796,51.518215],[-0.077985,51.518233],[-0.077996,51.518243],[-0.078091,51.518347],[-0.078198,51.518467],[-0.078206,51.518485],[-0.078215,51.518504],[-0.07811,51.518517],[-0.078117,51.518613],[-0.078126,51.518977],[-0.0784,51.518958],[-0.078888,51.518925],[-0.079439,51.518885],[-0.079309,51.519186],[-0.079165,51.519574],[-0.079067,51.519852],[-0.079043,51.519939],[-0.079018,51.520052],[-0.079002,51.520164],[-0.078976,51.520325],[-0.078924,51.520728],[-0.078892,51.520655],[-0.078872,51.520616],[-0.078855,51.520695],[-0.078839,51.520818],[-0.078825,51.520886],[-0.078804,51.52095],[-0.078783,51.521015],[-0.078763,51.521083],[-0.078753,51.521107],[-0.078737,51.521148],[-0.07873,51.521164],[-0.078726,51.521173],[-0.078714,51.521199],[-0.078635,51.521368],[-0.078623,51.521397],[-0.07861,51.521425],[-0.078595,51.521451],[-0.078579,51.521478],[-0.078566,51.521496],[-0.078555,51.52151],[-0.079149,51.521597],[-0.079553,51.521659],[-0.079813,51.521703],[-0.080371,51.521801],[-0.080465,51.521816],[-0.080558,51.521837],[-0.080701,51.521877],[-0.080893,51.521931],[-0.081067,51.521971],[-0.081127,51.521849],[-0.081228,51.521635],[-0.081288,51.521514],[-0.081356,51.521386],[-0.08142,51.52127],[-0.081451,51.521218],[-0.081493,51.52115],[-0.081554,51.521044],[-0.081631,51.520937],[-0.08173,51.520816],[-0.081805,51.520739],[-0.081885,51.520669],[-0.081968,51.520603],[-0.082075,51.520532],[-0.082449,51.520288],[-0.082851,51.520019],[-0.083007,51.519927],[-0.083151,51.51985],[-0.083193,51.519836],[-0.083236,51.519825],[-0.083274,51.51982],[-0.083307,51.519818],[-0.08334,51.519817],[-0.083438,51.519829],[-0.083537,51.519849],[-0.08402,51.519993],[-0.08445,51.520115],[-0.084586,51.520154],[-0.085259,51.520347],[-0.08526,51.520345],[-0.085355,51.520183],[-0.08554,51.519886],[-0.085746,51.519552],[-0.085941,51.519248],[-0.086095,51.518999],[-0.086205,51.518833],[-0.086224,51.51881],[-0.087148,51.519079],[-0.087556,51.519197],[-0.087869,51.51932],[-0.088146,51.51941],[-0.088166,51.519417],[-0.088495,51.519524],[-0.088858,51.519644],[-0.088946,51.519675],[-0.089051,51.519708],[-0.089263,51.519771],[-0.089513,51.519836],[-0.08979,51.519912],[-0.09001,51.51997],[-0.089976,51.520052],[-0.089819,51.520431],[-0.0897,51.520717],[-0.089863,51.520734],[-0.090125,51.520775],[-0.090439,51.52083],[-0.090552,51.520845],[-0.090618,51.52085],[-0.090711,51.520859],[-0.091407,51.520941],[-0.091622,51.520963],[-0.091809,51.520983],[-0.092075,51.521007],[-0.092182,51.521017],[-0.092285,51.521025],[-0.092386,51.521034],[-0.092443,51.521202],[-0.092494,51.52135],[-0.092506,51.521398],[-0.092525,51.521471],[-0.092607,51.521457],[-0.092774,51.521426],[-0.092901,51.521405],[-0.093091,51.521372],[-0.093162,51.521358],[-0.093329,51.521328],[-0.093366,51.521412],[-0.09341,51.521506],[-0.093436,51.521558],[-0.093445,51.521556],[-0.093537,51.52154],[-0.093554,51.521573],[-0.093566,51.52157],[-0.093573,51.521587],[-0.093619,51.521577],[-0.093745,51.521554],[-0.093765,51.521551],[-0.09392,51.521529],[-0.094013,51.521516],[-0.094087,51.521507],[-0.094175,51.521497],[-0.094266,51.521489],[-0.094345,51.521484],[-0.094386,51.521693],[-0.094395,51.521738],[-0.094403,51.521769],[-0.094437,51.521761],[-0.09445,51.521803],[-0.094484,51.521917],[-0.094507,51.521986],[-0.094562,51.522106],[-0.094608,51.522216],[-0.094669,51.522342],[-0.094727,51.522451],[-0.094806,51.522586],[-0.094946,51.52283],[-0.095027,51.522968],[-0.095116,51.523107],[-0.095235,51.523081],[-0.095328,51.523061],[-0.095734,51.522974],[-0.095771,51.522967],[-0.096012,51.522913],[-0.096035,51.522951],[-0.096364,51.522853],[-0.096443,51.522829],[-0.096528,51.522981],[-0.096564,51.523048],[-0.096572,51.523046],[-0.096598,51.52309],[-0.09657,51.523096],[-0.096585,51.523121],[-0.096598,51.523144],[-0.096605,51.523142],[-0.096631,51.523136],[-0.096661,51.523181],[-0.096701,51.523171],[-0.096753,51.523258],[-0.096785,51.523312],[-0.096929,51.523259],[-0.097293,51.523124],[-0.097971,51.522873],[-0.097941,51.522842],[-0.097904,51.522803],[-0.097862,51.522751],[-0.097808,51.522693],[-0.097787,51.522671],[-0.097765,51.522646],[-0.097744,51.522619],[-0.097728,51.522598],[-0.097714,51.522577],[-0.097686,51.522538],[-0.097666,51.522506],[-0.097652,51.52248],[-0.097627,51.522434],[-0.097598,51.522374],[-0.097585,51.522342],[-0.097575,51.522319],[-0.097559,51.522288],[-0.097537,51.522246],[-0.097524,51.522215],[-0.09751,51.522188],[-0.097498,51.522162],[-0.097487,51.522135],[-0.097479,51.522119],[-0.097473,51.5221],[-0.097462,51.522071],[-0.097453,51.522043],[-0.097444,51.522023],[-0.097438,51.521998],[-0.09743,51.521974],[-0.097422,51.521949],[-0.097417,51.521926],[-0.097408,51.521896],[-0.0974,51.521868],[-0.097394,51.521839],[-0.097391,51.521816],[-0.097387,51.521795],[-0.097384,51.521776],[-0.097383,51.521753],[-0.097383,51.521736],[-0.097382,51.521719],[-0.097388,51.521697],[-0.097391,51.521671],[-0.097396,51.521646],[-0.097402,51.521623],[-0.097413,51.521583],[-0.097419,51.521584],[-0.097492,51.521599],[-0.097527,51.521604],[-0.097534,51.52156],[-0.09754,51.521519],[-0.097551,51.52148],[-0.097561,51.521432],[-0.097571,51.521385],[-0.097583,51.521315],[-0.097587,51.521238],[-0.097588,51.521217],[-0.097623,51.521066],[-0.097639,51.520996],[-0.097651,51.520944],[-0.097651,51.520942],[-0.097651,51.520917],[-0.097663,51.520876],[-0.097669,51.52084],[-0.097674,51.520807],[-0.09768,51.52077],[-0.097685,51.520738],[-0.097689,51.520711],[-0.097696,51.52071],[-0.097766,51.520698],[-0.097858,51.520683],[-0.097947,51.520667],[-0.098065,51.520649],[-0.09814,51.520636],[-0.098238,51.520619],[-0.098306,51.520607],[-0.098375,51.520595],[-0.098437,51.520585],[-0.098515,51.520573],[-0.098517,51.520572],[-0.098749,51.520531],[-0.098815,51.520514]]]},"properties":{"OBJECTID_12":1,"NAME":"Airport Safeguarding Area","COMPONENT":" Aerodrome (London City)","whole_in_zone":false,"in_cw":false}}
]}
