{"type":"FeatureCollection","meta":{
 "source": "London Datastore: Locally Significant Industrial Sites (Planning Constraints Map)",
 "dataset": "29z31",
 "page": "https://data.london.gov.uk/dataset/locally-significant-industrial-sites-29z31",
 "resources": [
  {
   "resource": "bd99251f-3441-482a-ad9d-5c2755a1c8d0",
   "file": "Locally_Significant_Industrial_Sites.gpkg",
   "url": "https://data.london.gov.uk/download/29z31/bd99251f-3441-482a-ad9d-5c2755a1c8d0/Locally_Significant_Industrial_Sites.gpkg",
   "size": 892928,
   "resource_date": "2025-12-23",
   "fetched": "2026-10-04"
  }
 ],
 "licence": "Open Government Licence v3",
 "licence_url": "https://www.nationalarchives.gov.uk/doc/open-government-licence/version/3/",
 "attribution": "Contains public sector information licensed under the Open Government Licence v3 (Planning Constraints Map). The GLA cannot warrant the quality or accuracy of the data (London Datastore terms).",
 "dataset_modified": "2025-12-23",
 "update_frequency": null,
 "geo": "Custom Polygons",
 "theme": "buildings-places",
 "layers": [
  {
   "table": "lsis",
   "srs": 27700
  }
 ],
 "crs_source": "EPSG:27700",
 "crs_output": "EPSG:4326 (WGS84), 6 decimal places; BNG to WGS84 through the OS OSTN15 grid (lib.mjs bngProjector)",
 "method": "walk-london-datastore.mjs harvest locally-significant-industrial-sites: download the newest matching resource (gpkg); read every feature; keep a feature whose geometry meets the zone (the 3D model box, BNG E 532400-539900, N 176700-182300; WGS84 -0.095, 51.474, 0.015, 51.522): a vertex inside, an edge crossing the box or the box inside a polygon. Whole geometries are kept (not cut at the box): whole_in_zone says whether all of it lies inside. in_cw: the geometry meets the Canary Wharf registry box -0.03, 51.498, -0.005, 51.51. Source attributes kept as published except fields matching e-?mail|phone|tel(ephone)?$|^tel|contact|^fax|mobile|website_contact|^owner_?name|person. uprn_suspect: a UPRN field that a spreadsheet rounded (an exponent, or 9+ digits ending in 5+ zeros); not a key (fault F22).",
 "counts": {
  "source_features": 324,
  "no_geometry": 0,
  "in_zone": 8,
  "in_cw": 1
 },
 "attributes_in_source": "none (geometry and object ids only)",
 "fields_dropped": []
},
"features":[
{"type":"Feature","properties":{"fid":159,"OBJECTID":159,"Shape_Length":719.9214783557524,"Shape_Area":22374.321150070413,"in_cw":false,"whole_in_zone":true},"geometry":{"type":"MultiPolygon","coordinates":[[[[-0.000286,51.515672],[-0.000319,51.51568],[-0.000305,51.515696],[-0.000192,51.515853],[-0.000096,51.515985],[0.000083,51.516235],[0.000201,51.516399],[0.000215,51.516418],[0.000239,51.516407],[0.000242,51.516405],[0.000263,51.516399],[0.000314,51.516381],[0.00052,51.516313],[0.000715,51.516249],[0.001351,51.51604],[0.001676,51.515931],[0.001818,51.515882],[0.001877,51.515861],[0.001915,51.515846],[0.002362,51.51566],[0.002387,51.51565],[0.002395,51.515647],[0.002405,51.515643],[0.002415,51.515638],[0.002423,51.515634],[0.002431,51.515631],[0.002443,51.515625],[0.002455,51.51562],[0.002673,51.515517],[0.002678,51.515515],[0.002683,51.515511],[0.002689,51.515509],[0.0027,51.515502],[0.002711,51.515495],[0.002815,51.515428],[0.00291,51.515367],[0.002996,51.515312],[0.003031,51.515291],[0.003119,51.515231],[0.003183,51.515184],[0.003197,51.515173],[0.003209,51.515163],[0.003278,51.515106],[0.003306,51.515081],[0.003328,51.515058],[0.003396,51.51498],[0.003428,51.514941],[0.003483,51.514868],[0.003494,51.514852],[0.003503,51.514832],[0.003513,51.514813],[0.003375,51.51478],[0.003239,51.514746],[0.003105,51.51471],[0.002974,51.514672],[0.00284,51.514631],[0.002711,51.514588],[0.002583,51.514543],[0.002457,51.514496],[0.002391,51.51447],[0.002311,51.514572],[0.002263,51.514633],[0.002255,51.514644],[0.002222,51.514652],[0.002068,51.514849],[0.002067,51.514851],[0.002038,51.514889],[0.002011,51.514932],[0.001934,51.515046],[0.001928,51.515048],[0.001867,51.515066],[0.001842,51.515073],[0.001774,51.515092],[0.001669,51.515123],[0.001581,51.515148],[0.001512,51.515167],[0.001472,51.515179],[0.001442,51.515188],[0.001436,51.515181],[0.001331,51.515209],[0.001022,51.515294],[0.000892,51.51533],[0.00082,51.515349],[0.000785,51.515358],[0.00073,51.515373],[0.000555,51.515422],[0.000522,51.515431],[0.000313,51.515488],[0.000031,51.515566],[-0.000152,51.515616],[-0.000263,51.515648],[-0.000291,51.515656],[-0.000286,51.515672]]]]}},
{"type":"Feature","properties":{"fid":247,"OBJECTID":247,"Shape_Length":907.3683199244277,"Shape_Area":24171.247375427345,"in_cw":false,"whole_in_zone":true},"geometry":{"type":"MultiPolygon","coordinates":[[[[-0.020988,51.477469],[-0.02098,51.477724],[-0.020983,51.477762],[-0.020984,51.477783],[-0.020984,51.477793],[-0.020984,51.477804],[-0.020984,51.477808],[-0.020986,51.477847],[-0.020985,51.477869],[-0.020986,51.477883],[-0.020985,51.477896],[-0.020984,51.477906],[-0.020981,51.477946],[-0.020978,51.477962],[-0.020975,51.477987],[-0.020969,51.478019],[-0.020962,51.47807],[-0.020958,51.478102],[-0.020954,51.478126],[-0.020953,51.478142],[-0.020945,51.478142],[-0.020932,51.478176],[-0.020932,51.478176],[-0.020932,51.478176],[-0.020932,51.478176],[-0.020932,51.478176],[-0.020932,51.478176],[-0.020932,51.478176],[-0.020932,51.478177],[-0.020933,51.478177],[-0.020933,51.478177],[-0.020933,51.478177],[-0.020933,51.478177],[-0.020933,51.478177],[-0.020933,51.478177],[-0.020933,51.478177],[-0.020933,51.478177],[-0.020933,51.478177],[-0.020933,51.478177],[-0.020933,51.478177],[-0.020933,51.478178],[-0.020933,51.478178],[-0.020933,51.478178],[-0.020933,51.478178],[-0.020933,51.478178],[-0.020933,51.478178],[-0.020933,51.478178],[-0.020933,51.478178],[-0.020933,51.478178],[-0.020933,51.478178],[-0.020928,51.478201],[-0.02088,51.478197],[-0.02076,51.478188],[-0.020649,51.478179],[-0.020518,51.478168],[-0.020396,51.478158],[-0.020286,51.478149],[-0.020193,51.478142],[-0.020073,51.478132],[-0.019971,51.478125],[-0.019964,51.478124],[-0.01996,51.478124],[-0.019939,51.478122],[-0.019871,51.478117],[-0.01986,51.478116],[-0.019666,51.478101],[-0.019662,51.478101],[-0.019655,51.4781],[-0.019623,51.478097],[-0.019568,51.478093],[-0.019547,51.478091],[-0.019536,51.47809],[-0.019529,51.478089],[-0.019451,51.478083],[-0.019453,51.478072],[-0.019448,51.478072],[-0.019419,51.47807],[-0.019417,51.47807],[-0.019415,51.47808],[-0.0194,51.478079],[-0.019413,51.478035],[-0.019418,51.478014],[-0.019421,51.478007],[-0.019421,51.478004],[-0.019424,51.478003],[-0.019439,51.478001],[-0.019445,51.478001],[-0.01945,51.478001],[-0.019495,51.478],[-0.019523,51.477999],[-0.019548,51.478003],[-0.019563,51.478003],[-0.019615,51.478012],[-0.019668,51.47802],[-0.019784,51.478039],[-0.019818,51.478045],[-0.01984,51.478048],[-0.019838,51.478035],[-0.019826,51.477936],[-0.019812,51.477936],[-0.019791,51.477936],[-0.019759,51.477936],[-0.019737,51.477934],[-0.019715,51.477934],[-0.019707,51.477934],[-0.019699,51.477934],[-0.019692,51.477935],[-0.019684,51.477936],[-0.019663,51.477936],[-0.019646,51.477937],[-0.019566,51.477944],[-0.019561,51.477945],[-0.019556,51.477945],[-0.019552,51.477944],[-0.019549,51.477943],[-0.019543,51.477942],[-0.019531,51.477937],[-0.019516,51.477932],[-0.019499,51.477926],[-0.019478,51.477918],[-0.019463,51.477911],[-0.019461,51.477911],[-0.019457,51.477908],[-0.019456,51.477907],[-0.019454,51.477904],[-0.019453,51.4779],[-0.019452,51.477897],[-0.019451,51.477896],[-0.019451,51.477895],[-0.019444,51.47787],[-0.019437,51.477854],[-0.019421,51.47781],[-0.019407,51.477773],[-0.019395,51.477739],[-0.019389,51.477724],[-0.019378,51.477697],[-0.019372,51.477687],[-0.019367,51.477681],[-0.019355,51.477672],[-0.019336,51.477656],[-0.019313,51.477637],[-0.019296,51.477625],[-0.019294,51.477623],[-0.019291,51.477621],[-0.01929,51.47762],[-0.019288,51.477618],[-0.019288,51.477616],[-0.019288,51.477615],[-0.019287,51.477602],[-0.019285,51.477585],[-0.019275,51.477418],[-0.019277,51.477403],[-0.019292,51.477286],[-0.019293,51.477267],[-0.019295,51.477264],[-0.019299,51.477256],[-0.019301,51.477252],[-0.019308,51.477242],[-0.019308,51.47724],[-0.019315,51.477232],[-0.019317,51.477229],[-0.019318,51.477228],[-0.019323,51.477224],[-0.019324,51.477223],[-0.019326,51.477221],[-0.019345,51.477206],[-0.019348,51.477204],[-0.019349,51.477203],[-0.019351,51.477202],[-0.019355,51.477199],[-0.019358,51.477198],[-0.019361,51.477197],[-0.019363,51.477196],[-0.019364,51.477195],[-0.019368,51.477193],[-0.019371,51.477193],[-0.019373,51.477192],[-0.019376,51.477191],[-0.019388,51.47719],[-0.019413,51.477186],[-0.019571,51.477163],[-0.019596,51.477159],[-0.019624,51.477154],[-0.019672,51.477144],[-0.01971,51.477135],[-0.019739,51.47713],[-0.019755,51.477127],[-0.019765,51.477128],[-0.019802,51.477131],[-0.019846,51.477134],[-0.019907,51.477142],[-0.019996,51.47715],[-0.020021,51.477154],[-0.020051,51.477131],[-0.020088,51.4771],[-0.020126,51.477071],[-0.020163,51.477043],[-0.020182,51.477027],[-0.020201,51.477012],[-0.020206,51.477009],[-0.020218,51.477008],[-0.020221,51.477008],[-0.020265,51.47701],[-0.020269,51.47701],[-0.020269,51.476979],[-0.020538,51.476829],[-0.020572,51.476812],[-0.020612,51.47679],[-0.020641,51.476776],[-0.020656,51.476769],[-0.020669,51.476762],[-0.020685,51.476753],[-0.0207,51.476744],[-0.020712,51.476736],[-0.020718,51.476732],[-0.020725,51.476727],[-0.020731,51.476723],[-0.020736,51.476717],[-0.020738,51.476716],[-0.020742,51.476713],[-0.020745,51.47671],[-0.020748,51.476707],[-0.02075,51.476704],[-0.020753,51.4767],[-0.020754,51.476699],[-0.020785,51.476667],[-0.020814,51.476636],[-0.020838,51.47661],[-0.020868,51.47658],[-0.020861,51.476576],[-0.020923,51.476512],[-0.020987,51.476448],[-0.021008,51.476329],[-0.021029,51.476304],[-0.021036,51.4763],[-0.021084,51.476281],[-0.021119,51.476268],[-0.021183,51.476243],[-0.021241,51.476234],[-0.021282,51.476227],[-0.021333,51.476218],[-0.021358,51.476214],[-0.021404,51.476219],[-0.021461,51.476224],[-0.021553,51.476233],[-0.021676,51.47621],[-0.021688,51.476205],[-0.021714,51.476199],[-0.021773,51.476186],[-0.021818,51.476175],[-0.021844,51.47617],[-0.02187,51.476163],[-0.021887,51.476158],[-0.021902,51.476155],[-0.021946,51.476142],[-0.02196,51.476139],[-0.022,51.476128],[-0.022577,51.475953],[-0.022611,51.475969],[-0.022657,51.476021],[-0.022659,51.476024],[-0.022695,51.47609],[-0.022703,51.47609],[-0.022705,51.47609],[-0.022711,51.47609],[-0.022712,51.476091],[-0.022713,51.476091],[-0.022717,51.476094],[-0.022718,51.476096],[-0.022718,51.476098],[-0.022721,51.476104],[-0.022722,51.47611],[-0.022723,51.476114],[-0.022724,51.476118],[-0.022724,51.476123],[-0.022724,51.476128],[-0.022725,51.476134],[-0.022724,51.476141],[-0.022725,51.476147],[-0.022724,51.476153],[-0.022724,51.476157],[-0.02272,51.476165],[-0.022719,51.47617],[-0.022718,51.476173],[-0.022715,51.476176],[-0.022714,51.476178],[-0.022712,51.47618],[-0.022583,51.476413],[-0.022583,51.476416],[-0.022583,51.47642],[-0.022583,51.476423],[-0.022583,51.476426],[-0.022582,51.47643],[-0.02258,51.476433],[-0.022539,51.476437],[-0.022525,51.476459],[-0.022509,51.476488],[-0.022493,51.476518],[-0.022483,51.476539],[-0.022473,51.476561],[-0.022463,51.476583],[-0.022455,51.476605],[-0.022436,51.476664],[-0.022426,51.4767],[-0.022416,51.476736],[-0.022405,51.476779],[-0.022397,51.476824],[-0.02239,51.476871],[-0.022386,51.476925],[-0.022385,51.47694],[-0.022385,51.476945],[-0.022201,51.476943],[-0.022166,51.476934],[-0.022111,51.476928],[-0.021991,51.47693],[-0.021875,51.476932],[-0.021641,51.476936],[-0.02143,51.476953],[-0.021169,51.476978],[-0.021046,51.477019],[-0.021028,51.477027],[-0.021028,51.477044],[-0.021028,51.477097],[-0.021028,51.477105],[-0.021017,51.477372],[-0.020993,51.477371],[-0.020992,51.477411],[-0.020991,51.477415],[-0.020988,51.477467],[-0.020988,51.477469]]]]}},
{"type":"Feature","properties":{"fid":255,"OBJECTID":255,"Shape_Length":446.97630876837064,"Shape_Area":11926.238618831849,"in_cw":false,"whole_in_zone":true},"geometry":{"type":"MultiPolygon","coordinates":[[[[-0.042016,51.489597],[-0.041872,51.489685],[-0.041835,51.489707],[-0.041829,51.489709],[-0.041516,51.489525],[-0.041421,51.489469],[-0.041197,51.489338],[-0.041114,51.489289],[-0.041076,51.489267],[-0.040967,51.489204],[-0.040955,51.489197],[-0.040917,51.489178],[-0.040907,51.489178],[-0.040903,51.489179],[-0.040899,51.489179],[-0.040893,51.489181],[-0.040794,51.48913],[-0.040792,51.48908],[-0.040804,51.489073],[-0.040999,51.488992],[-0.041081,51.488954],[-0.041139,51.488927],[-0.041195,51.488902],[-0.041253,51.488876],[-0.041307,51.48885],[-0.041364,51.488824],[-0.041422,51.488797],[-0.041478,51.488771],[-0.041531,51.488743],[-0.041589,51.488714],[-0.041644,51.488686],[-0.0417,51.488658],[-0.041703,51.488656],[-0.041755,51.48863],[-0.041764,51.488626],[-0.04181,51.488602],[-0.041863,51.488572],[-0.041917,51.488544],[-0.041969,51.488516],[-0.042022,51.488488],[-0.042073,51.488459],[-0.042126,51.48843],[-0.042178,51.4884],[-0.042244,51.488364],[-0.042263,51.488352],[-0.042412,51.488456],[-0.042535,51.48854],[-0.042587,51.488575],[-0.042951,51.488823],[-0.043127,51.488942],[-0.043133,51.488947],[-0.042867,51.489101],[-0.042856,51.489107],[-0.04258,51.489271],[-0.042579,51.489272],[-0.042501,51.489319],[-0.042016,51.489597]]]]}},
{"type":"Feature","properties":{"fid":288,"OBJECTID":288,"Shape_Length":570.4368018257377,"Shape_Area":10959.840419378133,"in_cw":false,"whole_in_zone":true},"geometry":{"type":"MultiPolygon","coordinates":[[[[-0.071402,51.484674],[-0.071396,51.484944],[-0.071348,51.485191],[-0.071335,51.485267],[-0.070877,51.485216],[-0.070849,51.484874],[-0.070766,51.484589],[-0.070744,51.483863],[-0.070757,51.483065],[-0.071425,51.48301],[-0.071452,51.484239],[-0.071402,51.484674]]]]}},
{"type":"Feature","properties":{"fid":289,"OBJECTID":289,"Shape_Length":1605.6244341937097,"Shape_Area":61877.66767158357,"in_cw":false,"whole_in_zone":true},"geometry":{"type":"MultiPolygon","coordinates":[[[[-0.052912,51.482644],[-0.052916,51.482644],[-0.052926,51.482593],[-0.052936,51.482528],[-0.052954,51.482434],[-0.052958,51.482398],[-0.052991,51.482087],[-0.052995,51.482056],[-0.052988,51.482056],[-0.05304,51.481739],[-0.053123,51.481375],[-0.053185,51.481163],[-0.0532,51.481161],[-0.053207,51.481138],[-0.05321,51.481126],[-0.053234,51.481052],[-0.053234,51.481042],[-0.053083,51.481022],[-0.053133,51.480903],[-0.053511,51.480873],[-0.053509,51.480908],[-0.053561,51.481009],[-0.05356,51.481092],[-0.05361,51.481388],[-0.053638,51.481519],[-0.053701,51.481793],[-0.05573,51.481841],[-0.055641,51.483474],[-0.054775,51.483447],[-0.054742,51.484472],[-0.055124,51.484479],[-0.055099,51.484636],[-0.055074,51.484894],[-0.053578,51.484819],[-0.053604,51.484905],[-0.053631,51.484969],[-0.053709,51.4851],[-0.053853,51.485465],[-0.05402,51.485853],[-0.053361,51.485951],[-0.053292,51.485812],[-0.053517,51.485782],[-0.053532,51.485734],[-0.053536,51.485717],[-0.053537,51.485697],[-0.053538,51.485689],[-0.053535,51.485643],[-0.053534,51.485633],[-0.053523,51.48557],[-0.053512,51.485487],[-0.053504,51.485488],[-0.053496,51.485469],[-0.053398,51.485306],[-0.053406,51.485305],[-0.053397,51.48529],[-0.053372,51.48529],[-0.053363,51.485282],[-0.053343,51.485267],[-0.053278,51.485208],[-0.053266,51.485207],[-0.053252,51.485197],[-0.05323,51.485199],[-0.053198,51.485197],[-0.053196,51.485189],[-0.053168,51.485187],[-0.053156,51.485185],[-0.053143,51.485183],[-0.053133,51.485181],[-0.053123,51.485178],[-0.05312,51.485176],[-0.053115,51.485174],[-0.053113,51.485173],[-0.053105,51.485167],[-0.053097,51.48516],[-0.053085,51.485125],[-0.053088,51.485124],[-0.053083,51.48511],[-0.053078,51.485096],[-0.053071,51.485062],[-0.053067,51.485046],[-0.053062,51.485047],[-0.053056,51.485031],[-0.053054,51.485021],[-0.053054,51.485004],[-0.053088,51.48496],[-0.053185,51.484934],[-0.053156,51.484763],[-0.053177,51.484756],[-0.053133,51.484695],[-0.053054,51.484698],[-0.053016,51.484695],[-0.053015,51.484689],[-0.052991,51.484686],[-0.052984,51.484648],[-0.052966,51.484569],[-0.052955,51.48452],[-0.052942,51.48447],[-0.052948,51.484471],[-0.05295,51.484457],[-0.05295,51.484454],[-0.052947,51.484454],[-0.052949,51.484449],[-0.052957,51.484412],[-0.05296,51.484409],[-0.052986,51.484401],[-0.052994,51.484397],[-0.053005,51.484393],[-0.053015,51.484389],[-0.053024,51.484386],[-0.053048,51.484387],[-0.053049,51.484387],[-0.053049,51.484383],[-0.053057,51.484382],[-0.053056,51.484385],[-0.053082,51.484379],[-0.053094,51.484379],[-0.053056,51.484159],[-0.05305,51.484128],[-0.052998,51.483827],[-0.052966,51.483667],[-0.052955,51.483599],[-0.052951,51.483581],[-0.052954,51.483579],[-0.052949,51.483572],[-0.052945,51.483563],[-0.052942,51.483562],[-0.05294,51.483555],[-0.052933,51.483555],[-0.052916,51.483435],[-0.05291,51.483402],[-0.05291,51.483399],[-0.052951,51.483398],[-0.052961,51.483398],[-0.052956,51.483323],[-0.052949,51.483246],[-0.052934,51.483046],[-0.052933,51.483032],[-0.052933,51.483017],[-0.052935,51.482857],[-0.052935,51.482837],[-0.052936,51.482791],[-0.052934,51.482758],[-0.05291,51.482756],[-0.052912,51.482644]]]]}},
{"type":"Feature","properties":{"fid":290,"OBJECTID":290,"Shape_Length":1646.4280785167032,"Shape_Area":123491.36919081442,"in_cw":false,"whole_in_zone":true},"geometry":{"type":"MultiPolygon","coordinates":[[[[-0.083013,51.492494],[-0.083183,51.492635],[-0.083314,51.492828],[-0.082728,51.493141],[-0.08245,51.492971],[-0.081732,51.493358],[-0.081047,51.493813],[-0.081258,51.493948],[-0.080394,51.494466],[-0.080062,51.494251],[-0.078458,51.493035],[-0.077605,51.492562],[-0.076895,51.492169],[-0.075459,51.491371],[-0.075446,51.49135],[-0.076436,51.490358],[-0.077388,51.489513],[-0.079645,51.490745],[-0.080662,51.491399],[-0.081438,51.491942],[-0.082508,51.492728],[-0.083013,51.492494]]]]}},
{"type":"Feature","properties":{"fid":295,"OBJECTID":295,"Shape_Length":615.3374956873465,"Shape_Area":13829.691051696067,"in_cw":false,"whole_in_zone":true},"geometry":{"type":"MultiPolygon","coordinates":[[[[-0.009492,51.521626],[-0.009308,51.521639],[-0.009307,51.521634],[-0.009306,51.521631],[-0.009292,51.521615],[-0.009148,51.521445],[-0.009132,51.521446],[-0.009046,51.521297],[-0.009041,51.521285],[-0.009036,51.521273],[-0.009033,51.521261],[-0.009029,51.52125],[-0.009026,51.521237],[-0.009024,51.521224],[-0.009018,51.521184],[-0.009017,51.521172],[-0.009019,51.521161],[-0.009022,51.52115],[-0.009027,51.521139],[-0.009032,51.521127],[-0.009038,51.521115],[-0.009087,51.521021],[-0.009126,51.520941],[-0.009127,51.520935],[-0.009143,51.52085],[-0.009177,51.520662],[-0.009199,51.520521],[-0.009211,51.520464],[-0.009198,51.5203],[-0.009186,51.520146],[-0.009176,51.520038],[-0.009174,51.520015],[-0.009166,51.519895],[-0.00901,51.519681],[-0.009013,51.519679],[-0.009017,51.519676],[-0.009021,51.519674],[-0.009025,51.519672],[-0.009041,51.519664],[-0.009056,51.519656],[-0.009095,51.519639],[-0.009105,51.519635],[-0.009114,51.519631],[-0.009131,51.519625],[-0.009147,51.519619],[-0.009169,51.519612],[-0.009191,51.519603],[-0.009199,51.5196],[-0.009207,51.519598],[-0.009305,51.519597],[-0.009514,51.519594],[-0.009572,51.519593],[-0.009649,51.519591],[-0.009909,51.519616],[-0.009955,51.51962],[-0.00999,51.519623],[-0.009975,51.519688],[-0.009975,51.519693],[-0.009973,51.519697],[-0.009971,51.519699],[-0.00997,51.519701],[-0.009965,51.519703],[-0.009959,51.519705],[-0.009954,51.519706],[-0.009948,51.519707],[-0.009942,51.519707],[-0.009923,51.519705],[-0.009905,51.519704],[-0.009888,51.519703],[-0.009853,51.51985],[-0.00991,51.519858],[-0.009915,51.519859],[-0.009921,51.51986],[-0.009928,51.519861],[-0.009933,51.519864],[-0.009934,51.519867],[-0.009934,51.519869],[-0.009933,51.51987],[-0.009926,51.519872],[-0.009918,51.519872],[-0.009914,51.519872],[-0.009908,51.519871],[-0.009851,51.519866],[-0.009839,51.519865],[-0.009845,51.519938],[-0.009858,51.51994],[-0.00987,51.519942],[-0.00988,51.519943],[-0.009888,51.519945],[-0.009891,51.519946],[-0.009898,51.519949],[-0.009903,51.519952],[-0.009907,51.519954],[-0.00991,51.519957],[-0.00991,51.51996],[-0.009911,51.519962],[-0.00991,51.519964],[-0.00991,51.519966],[-0.009896,51.520028],[-0.009891,51.520068],[-0.00989,51.520077],[-0.00989,51.520087],[-0.009891,51.520097],[-0.009893,51.520108],[-0.009897,51.520117],[-0.0099,51.520126],[-0.00991,51.520153],[-0.009951,51.52024],[-0.010042,51.52044],[-0.010043,51.520445],[-0.010042,51.52045],[-0.010042,51.520451],[-0.01004,51.520455],[-0.010036,51.52046],[-0.01003,51.520463],[-0.010024,51.520467],[-0.010008,51.520472],[-0.010003,51.520474],[-0.01001,51.520577],[-0.010019,51.520577],[-0.010029,51.520578],[-0.010031,51.520578],[-0.01004,51.52058],[-0.010049,51.520583],[-0.010056,51.520587],[-0.010062,51.520591],[-0.010064,51.520594],[-0.010067,51.520599],[-0.010069,51.520604],[-0.01007,51.520607],[-0.010087,51.520734],[-0.010096,51.520802],[-0.010095,51.520804],[-0.010092,51.520805],[-0.010088,51.520807],[-0.010084,51.520807],[-0.01008,51.520808],[-0.010062,51.520808],[-0.010065,51.520827],[-0.010076,51.520827],[-0.010082,51.520828],[-0.010086,51.520828],[-0.010091,51.520829],[-0.010095,51.520831],[-0.010098,51.520834],[-0.0101,51.520861],[-0.010098,51.520864],[-0.010096,51.520866],[-0.010093,51.520868],[-0.010089,51.520869],[-0.010086,51.52087],[-0.010082,51.520869],[-0.010069,51.520871],[-0.010074,51.520925],[-0.010087,51.520926],[-0.010095,51.520928],[-0.010102,51.520931],[-0.010107,51.520934],[-0.01011,51.520939],[-0.010112,51.520942],[-0.010113,51.520948],[-0.010112,51.520953],[-0.010125,51.521055],[-0.010139,51.521165],[-0.01014,51.521169],[-0.010138,51.521173],[-0.010136,51.521177],[-0.010132,51.52118],[-0.010128,51.521184],[-0.010122,51.521188],[-0.010117,51.521191],[-0.010109,51.521193],[-0.010085,51.521195],[-0.010092,51.521248],[-0.010092,51.521249],[-0.010093,51.521256],[-0.010094,51.521256],[-0.010109,51.521255],[-0.010116,51.521257],[-0.01013,51.521264],[-0.010153,51.521281],[-0.010161,51.521335],[-0.010173,51.521421],[-0.01019,51.521566],[-0.01019,51.521567],[-0.010189,51.52157],[-0.010188,51.521572],[-0.010185,51.521574],[-0.010183,51.521575],[-0.01018,51.521576],[-0.010175,51.521577],[-0.01017,51.521578],[-0.010161,51.521578],[-0.010154,51.521572],[-0.010139,51.521573],[-0.010132,51.521577],[-0.009968,51.52159],[-0.009967,51.52159],[-0.009492,51.521626]]]]}},
{"type":"Feature","properties":{"fid":298,"OBJECTID":298,"Shape_Length":557.2870817188298,"Shape_Area":15131.502631805048,"in_cw":true,"whole_in_zone":true},"geometry":{"type":"MultiPolygon","coordinates":[[[[-0.00992,51.508473],[-0.009902,51.508428],[-0.009833,51.508435],[-0.009448,51.508459],[-0.009373,51.50844],[-0.009358,51.50832],[-0.009358,51.508311],[-0.009356,51.508304],[-0.009356,51.508302],[-0.009354,51.508293],[-0.009326,51.508149],[-0.009324,51.50814],[-0.009321,51.508132],[-0.0093,51.508025],[-0.009296,51.508004],[-0.009271,51.50788],[-0.009285,51.507737],[-0.009378,51.507731],[-0.009407,51.50773],[-0.009644,51.507715],[-0.009693,51.507712],[-0.009731,51.50771],[-0.009814,51.507705],[-0.00982,51.507705],[-0.009846,51.507703],[-0.009952,51.507695],[-0.00997,51.507694],[-0.010001,51.507692],[-0.010027,51.50769],[-0.010034,51.507689],[-0.010122,51.507682],[-0.010182,51.507677],[-0.010212,51.507674],[-0.010278,51.507668],[-0.010325,51.507664],[-0.01041,51.507657],[-0.010448,51.507653],[-0.010623,51.507637],[-0.010643,51.507635],[-0.010778,51.507623],[-0.010816,51.50762],[-0.010904,51.507612],[-0.01122,51.507584],[-0.011283,51.507578],[-0.011538,51.507558],[-0.011545,51.507557],[-0.011644,51.507553],[-0.011742,51.50755],[-0.011818,51.507549],[-0.01184,51.507548],[-0.011885,51.507548],[-0.01193,51.507578],[-0.01191,51.507591],[-0.01189,51.507604],[-0.011871,51.507618],[-0.011843,51.50764],[-0.011827,51.507654],[-0.01181,51.507668],[-0.011795,51.507683],[-0.011781,51.507698],[-0.011757,51.507726],[-0.011744,51.507742],[-0.011733,51.507758],[-0.011722,51.507774],[-0.011702,51.507807],[-0.011693,51.507825],[-0.011684,51.507843],[-0.011676,51.507862],[-0.01167,51.50788],[-0.011661,51.507911],[-0.011658,51.507929],[-0.011655,51.507946],[-0.011653,51.507964],[-0.011652,51.507988],[-0.011653,51.508004],[-0.011654,51.50802],[-0.011656,51.508037],[-0.01166,51.508053],[-0.011664,51.50807],[-0.011673,51.508099],[-0.01168,51.508114],[-0.011694,51.508146],[-0.011717,51.508195],[-0.011729,51.508215],[-0.011733,51.508223],[-0.01175,51.508251],[-0.011765,51.508274],[-0.01178,51.508295],[-0.011798,51.508319],[-0.011876,51.50844],[-0.011819,51.508457],[-0.01167,51.508381],[-0.01162,51.508451],[-0.011424,51.508452],[-0.011283,51.508455],[-0.011079,51.50846],[-0.011059,51.50846],[-0.010858,51.508466],[-0.010621,51.508443],[-0.010379,51.508439],[-0.010366,51.508439],[-0.010344,51.508439],[-0.010345,51.508451],[-0.010338,51.508451],[-0.010333,51.508451],[-0.010306,51.508452],[-0.010247,51.508454],[-0.01019,51.508456],[-0.009945,51.508471],[-0.00992,51.508473]]]]}}
]}
