{"type":"FeatureCollection","meta":{
 "source": "City of London INSPIRE map service: St Pauls Heights Policy Area",
 "borough": "City of London",
 "page": "https://www.mapping.cityoflondon.gov.uk/arcgis/rest/services/INSPIRE/MapServer/127",
 "api": "https://www.mapping.cityoflondon.gov.uk/arcgis/rest/services/INSPIRE/MapServer/127/query?where=1=1&geometry=<zone box>&geometryType=esriGeometryEnvelope&inSR=4326&spatialRel=esriSpatialRelIntersects&outFields=*&outSR=4326&f=geojson&resultOffset=<n>",
 "fetched": "2026-10-04",
 "licence": "Open Government Licence v3.0",
 "licence_evidence": "the City's INSPIRE record on data.gov.uk (st-pauls-heights-policy-area8): [\"http://www.nationalarchives.gov.uk/doc/open-government-licence/version/3/\"] | [\"License\", \"https://inspire.ec.europa.eu/metadata-codelist/LimitationsOnPublicAccess\"]",
 "licence_url": "https://www.nationalarchives.gov.uk/doc/open-government-licence/version/3/",
 "attribution": "Contains public sector information licensed under the Open Government Licence v3.0 (City of London Corporation)",
 "zone": "the 3D model box, BNG E 532400-539900, N 176700-182300 (WGS84 -0.095, 51.474 to 0.015, 51.522)",
 "method": "walk-portals.mjs boroughs harvest city-st-pauls-heights-policy-area: features that meet the zone box, WGS84 rounded to 6 decimals, whole geometries; whole_in_zone, in_cw; empty fields and ArcGIS shape measures left out; fields matching /e-?mail|phone|tel(ephone)?$|^tel|contact|^fax|mobile|^owner_?name|person|officer|case_?officer|agent_?name|applicant/i dropped",
 "counts": {
  "features": 1,
  "zone_count_at_walk": 1,
  "in_cw": 0
 },
 "fields_dropped": []
},
"features":[
{"type":"Feature","geometry":{"type":"Polygon","coordinates":[[[-0.08783,51.506978],[-0.087832,51.507799],[-0.094912,51.513191],[-0.094163,51.513075],[-0.094101,51.513233],[-0.09519,51.513401],[-0.096634,51.514502],[-0.097514,51.515049],[-0.097734,51.515186],[-0.098085,51.515185],[-0.098395,51.516144],[-0.098635,51.516144],[-0.100587,51.520059],[-0.101287,51.519843],[-0.101443,51.519791],[-0.101259,51.519291],[-0.101355,51.519291],[-0.101656,51.519721],[-0.101775,51.519681],[-0.101801,51.519673],[-0.102039,51.519594],[-0.102816,51.519349],[-0.102525,51.518879],[-0.102743,51.518879],[-0.103148,51.519244],[-0.10356,51.519113],[-0.104423,51.518841],[-0.100585,51.514249],[-0.104318,51.514356],[-0.104316,51.513808],[-0.102999,51.513672],[-0.102998,51.513604],[-0.111562,51.511441],[-0.111562,51.51141],[-0.111569,51.511313],[-0.111578,51.511151],[-0.11158,51.511136],[-0.111586,51.511042],[-0.111588,51.511],[-0.111593,51.510944],[-0.111597,51.510911],[-0.111595,51.510873],[-0.111588,51.51081],[-0.111584,51.510776],[-0.111572,51.510644],[-0.111561,51.510556],[-0.11155,51.510447],[-0.111534,51.510314],[-0.111509,51.510106],[-0.111499,51.510024],[-0.11149,51.509931],[-0.111481,51.50984],[-0.11147,51.509773],[-0.111469,51.509771],[-0.111367,51.50978],[-0.111263,51.509788],[-0.111164,51.509795],[-0.111063,51.509799],[-0.110983,51.509803],[-0.110902,51.509807],[-0.110838,51.50981],[-0.110774,51.509813],[-0.110723,51.509815],[-0.110674,51.509817],[-0.110559,51.509821],[-0.110386,51.509825],[-0.110125,51.509832],[-0.110007,51.509836],[-0.109927,51.509839],[-0.109865,51.509842],[-0.109761,51.509846],[-0.109548,51.509856],[-0.10945,51.509861],[-0.109351,51.509865],[-0.109241,51.509871],[-0.1092,51.509873],[-0.109131,51.509876],[-0.109029,51.509881],[-0.108927,51.509885],[-0.108853,51.509887],[-0.10878,51.509889],[-0.108744,51.509889],[-0.108634,51.50989],[-0.108561,51.509891],[-0.108504,51.509891],[-0.108456,51.509892],[-0.108221,51.509892],[-0.107983,51.509895],[-0.107782,51.509897],[-0.107557,51.509901],[-0.107381,51.509903],[-0.107291,51.509904],[-0.107199,51.509904],[-0.107004,51.509906],[-0.106925,51.509907],[-0.106846,51.509907],[-0.106734,51.509904],[-0.106654,51.509903],[-0.106572,51.509902],[-0.106495,51.5099],[-0.106012,51.509887],[-0.105526,51.509879],[-0.105112,51.509873],[-0.104787,51.509869],[-0.104651,51.509868],[-0.104647,51.509864],[-0.104649,51.509829],[-0.104653,51.509657],[-0.104666,51.509657],[-0.104682,51.509656],[-0.104698,51.509654],[-0.104711,51.509652],[-0.104724,51.509649],[-0.10474,51.509646],[-0.104753,51.50964],[-0.104763,51.509635],[-0.104773,51.509629],[-0.104767,51.509625],[-0.104761,51.509622],[-0.104751,51.509617],[-0.10474,51.509614],[-0.104726,51.509609],[-0.104713,51.509606],[-0.104698,51.509604],[-0.104685,51.509603],[-0.104669,51.509602],[-0.104656,51.509602],[-0.104658,51.50953],[-0.10467,51.509224],[-0.104673,51.509123],[-0.104679,51.509123],[-0.104694,51.509121],[-0.104705,51.50912],[-0.104721,51.509118],[-0.104737,51.509115],[-0.104741,51.509113],[-0.104741,51.50908],[-0.104734,51.509079],[-0.104724,51.509076],[-0.104709,51.509073],[-0.104693,51.509072],[-0.104684,51.509071],[-0.104675,51.50907],[-0.104679,51.508957],[-0.104681,51.508914],[-0.104682,51.508907],[-0.10469,51.508751],[-0.104696,51.508631],[-0.104723,51.508631],[-0.104725,51.508615],[-0.104739,51.508606],[-0.104739,51.508554],[-0.10472,51.508544],[-0.104722,51.508526],[-0.104703,51.508525],[-0.104703,51.508523],[-0.10471,51.508404],[-0.104493,51.508413],[-0.104231,51.50842],[-0.104226,51.508518],[-0.104226,51.50852],[-0.104206,51.508519],[-0.104205,51.508533],[-0.104184,51.508542],[-0.10418,51.508595],[-0.104201,51.508608],[-0.104202,51.508626],[-0.104229,51.508626],[-0.104218,51.508858],[-0.104216,51.508913],[-0.104216,51.508919],[-0.104215,51.508927],[-0.104212,51.509059],[-0.104193,51.509059],[-0.10415,51.509064],[-0.104119,51.509073],[-0.104107,51.509083],[-0.10411,51.509091],[-0.104119,51.509096],[-0.10416,51.50911],[-0.104187,51.509115],[-0.104211,51.509115],[-0.104204,51.509404],[-0.104197,51.509591],[-0.104161,51.50959],[-0.104126,51.509598],[-0.104101,51.509606],[-0.104071,51.509621],[-0.104097,51.509637],[-0.10414,51.509648],[-0.104195,51.50965],[-0.104191,51.509749],[-0.104187,51.509865],[-0.104186,51.509866],[-0.104171,51.509868],[-0.103843,51.50986],[-0.103647,51.509855],[-0.103486,51.509848],[-0.1033,51.509841],[-0.103011,51.509831],[-0.102708,51.509822],[-0.102456,51.509816],[-0.102252,51.509812],[-0.102019,51.509808],[-0.101873,51.509806],[-0.101032,51.509782],[-0.100081,51.509718],[-0.099886,51.509705],[-0.099741,51.509695],[-0.099419,51.509674],[-0.0993,51.509663],[-0.09925,51.509657],[-0.099117,51.509649],[-0.098984,51.50964],[-0.098801,51.509625],[-0.098619,51.50961],[-0.097812,51.509541],[-0.097646,51.509525],[-0.097319,51.509494],[-0.097156,51.509477],[-0.096993,51.509461],[-0.096829,51.509441],[-0.096664,51.509419],[-0.096507,51.509398],[-0.096351,51.509375],[-0.096195,51.509352],[-0.096039,51.509328],[-0.095873,51.5093],[-0.095708,51.50927],[-0.095706,51.509269],[-0.095584,51.509243],[-0.09546,51.509216],[-0.095361,51.509195],[-0.095263,51.509174],[-0.09511,51.50914],[-0.094957,51.509105],[-0.0948,51.50907],[-0.094642,51.509035],[-0.094549,51.509014],[-0.094455,51.508993],[-0.09438,51.508976],[-0.094303,51.508959],[-0.094233,51.508943],[-0.094162,51.508928],[-0.094093,51.508912],[-0.094025,51.508895],[-0.093895,51.508859],[-0.093767,51.508822],[-0.093468,51.508739],[-0.093053,51.508621],[-0.092852,51.50857],[-0.092558,51.50849],[-0.092557,51.50849],[-0.092406,51.50845],[-0.092362,51.50844],[-0.092317,51.508429],[-0.092274,51.50842],[-0.09223,51.508409],[-0.092189,51.5084],[-0.092147,51.508389],[-0.092102,51.508383],[-0.091977,51.508368],[-0.091803,51.508345],[-0.091682,51.508331],[-0.091495,51.50831],[-0.09099,51.50825],[-0.090752,51.50822],[-0.090498,51.508188],[-0.09026,51.508161],[-0.090062,51.508138],[-0.08988,51.508118],[-0.089654,51.508093],[-0.089487,51.508074],[-0.089318,51.508056],[-0.089166,51.50804],[-0.089001,51.508022],[-0.088956,51.508017],[-0.088865,51.508008],[-0.088689,51.507988],[-0.088515,51.507969],[-0.088352,51.507949],[-0.088193,51.507929],[-0.088084,51.507919],[-0.087981,51.507906],[-0.088006,51.507836],[-0.088088,51.5076],[-0.088153,51.507412],[-0.088221,51.507217],[-0.088307,51.506968],[-0.088309,51.506964],[-0.088316,51.506942],[-0.088317,51.506938],[-0.088329,51.506908],[-0.088347,51.50686],[-0.088376,51.506865],[-0.088392,51.506816],[-0.088402,51.506791],[-0.088376,51.506787],[-0.08841,51.5067],[-0.088077,51.506545],[-0.087939,51.506526],[-0.087927,51.506561],[-0.087963,51.506566],[-0.087911,51.506722],[-0.087887,51.506719],[-0.087878,51.506746],[-0.087867,51.506745],[-0.087849,51.506807],[-0.087885,51.506812],[-0.087859,51.506893],[-0.087857,51.506899],[-0.087845,51.506934],[-0.08783,51.506978]]]},"properties":{"OBJECTID_1":5,"NAME":"St Paul's Heights Policy Area","COMPONENT":"In City","whole_in_zone":false,"in_cw":false}}
]}
