{"type":"FeatureCollection","meta":{
 "source": "data.gov.uk: Water recreation locations, zones and catchment summaries (England) (Environment Agency)",
 "dgu_dataset": "water-recreation-locations-zones-and-catchment-summaries-england",
 "page": "https://www.data.gov.uk/dataset/79b61813-d8f1-4888-8fcc-555305780a07/water-recreation-locations-zones-and-catchment-summaries-england",
 "api": "https://environment.data.gov.uk/spatialdata/water-recreation-locations-zones-catchment/wfs",
 "layers": [
  {
   "name": "dataset-40032292-6737-480f-a6c1-cd49f1e57695:WFD_waterbody_catchments_w_water_recreation",
   "zone_count": 4
  },
  {
   "name": "dataset-40032292-6737-480f-a6c1-cd49f1e57695:Water_recreation_locations",
   "zone_count": 2
  },
  {
   "name": "dataset-40032292-6737-480f-a6c1-cd49f1e57695:Water_recreation_zones",
   "zone_count": 5
  }
 ],
 "fetched": "2026-10-04",
 "licence": "Open Government Licence v3.0",
 "licence_evidence": "[\"Open Government Licence\"] | [\"There are no public access constraints to this data. Use of this data is subject to the licence identified.\", \"There are no public access constraints to this data. Use of this data is subject to the licence identified.\"]",
 "attribution": "Contains public sector information licensed under the Open Government Licence v3.0 (Environment Agency)",
 "zone": "the 3D model box, BNG E 532400-539900, N 176700-182300 (WGS84 -0.095, 51.474 to 0.015, 51.522)",
 "method": "walk-portals.mjs dgu harvest water-recreation-locations-zones-and-catchment-summaries-england: the service the probe counted, read with the zone box (WFS 2.0 GetFeature in EPSG:4326, or ArcGIS query with the envelope); polygons that cross the box edge are cut at the box (clipped_to_zone: for display, not for area sums); coordinates rounded to 6 decimals; empty fields, shape measures and fields matching /e-?mail|phone|tel(ephone)?$|^tel|contact|^fax|mobile|^owner_?name|person|officer|case_?officer|agent_?name|applicant/i left out",
 "counts": {
  "features": 11,
  "probe_zone_count": 11,
  "clipped": 9
 }
},
"features":[
{"type":"Feature","geometry":{"type":"MultiPolygon","coordinates":[[[[0.015,51.474188],[0.014882,51.47419],[0.014874,51.474011],[0.01473,51.474013],[0.014729,51.474],[0.013578,51.474],[0.013579,51.474033],[0.013291,51.474038],[0.01329,51.474],[0.011274,51.474],[0.011277,51.474072],[0.011133,51.474075],[0.011145,51.474344],[0.011001,51.474347],[0.011009,51.474527],[0.010865,51.474529],[0.010869,51.474619],[0.010725,51.474621],[0.010737,51.474891],[0.010593,51.474893],[0.010597,51.474983],[0.010309,51.474988],[0.010317,51.475168],[0.009886,51.475175],[0.009889,51.475265],[0.009458,51.475273],[0.009462,51.475362],[0.009318,51.475365],[0.009326,51.475545],[0.009182,51.475547],[0.009186,51.475637],[0.009042,51.475639],[0.00905,51.475819],[0.008906,51.475822],[0.008902,51.475732],[0.008758,51.475734],[0.008762,51.475824],[0.00833,51.475832],[0.008334,51.475921],[0.00819,51.475924],[0.008194,51.476014],[0.00805,51.476016],[0.008054,51.476106],[0.007911,51.476108],[0.007918,51.476288],[0.007775,51.476291],[0.007782,51.47647],[0.007926,51.476468],[0.00793,51.476558],[0.008074,51.476555],[0.008086,51.476825],[0.007942,51.476827],[0.007938,51.476738],[0.007794,51.47674],[0.007798,51.47683],[0.007654,51.476832],[0.007666,51.477102],[0.00781,51.477099],[0.007818,51.477279],[0.007674,51.477282],[0.007682,51.477461],[0.007394,51.477466],[0.007402,51.477646],[0.00697,51.477653],[0.006974,51.477743],[0.00683,51.477746],[0.006834,51.477836],[0.006547,51.47784],[0.00655,51.47793],[0.006407,51.477933],[0.006411,51.478023],[0.006267,51.478025],[0.006271,51.478115],[0.006127,51.478117],[0.006135,51.478297],[0.005847,51.478302],[0.005851,51.478392],[0.005707,51.478394],[0.005703,51.478305],[0.005559,51.478307],[0.005547,51.478037],[0.005403,51.47804],[0.005395,51.47786],[0.005251,51.477863],[0.005247,51.477773],[0.005104,51.477775],[0.0051,51.477685],[0.004668,51.477693],[0.004664,51.477603],[0.00452,51.477605],[0.004516,51.477515],[0.004084,51.477523],[0.004069,51.477163],[0.003637,51.477171],[0.003633,51.477081],[0.003345,51.477086],[0.003341,51.476996],[0.003053,51.477001],[0.00305,51.476911],[0.002762,51.476916],[0.002758,51.476826],[0.002614,51.476829],[0.00261,51.476739],[0.002466,51.476741],[0.002462,51.476651],[0.002318,51.476654],[0.002314,51.476564],[0.001883,51.476571],[0.001879,51.476481],[0.001735,51.476484],[0.001715,51.476035],[0.001571,51.476037],[0.001567,51.475947],[0.001423,51.47595],[0.001415,51.47577],[0.001272,51.475772],[0.001276,51.475862],[0.000844,51.47587],[0.00084,51.47578],[0.000696,51.475782],[0.000688,51.475602],[0.000832,51.4756],[0.000828,51.47551],[0.000684,51.475513],[0.00068,51.475423],[0.000536,51.475425],[0.000532,51.475335],[-0.000475,51.475352],[-0.000471,51.475442],[-0.000759,51.475447],[-0.000763,51.475357],[-0.000906,51.47536],[-0.00091,51.47527],[-0.001054,51.475272],[-0.001058,51.475183],[-0.001202,51.475185],[-0.001198,51.475275],[-0.001342,51.475277],[-0.001338,51.475367],[-0.001482,51.47537],[-0.001478,51.475459],[-0.002054,51.475469],[-0.002058,51.475379],[-0.002489,51.475387],[-0.002493,51.475297],[-0.002637,51.475299],[-0.002649,51.47503],[-0.003225,51.47504],[-0.003232,51.47486],[-0.003236,51.47477],[-0.003092,51.474768],[-0.003096,51.474678],[-0.002952,51.474675],[-0.00296,51.474495],[-0.002816,51.474493],[-0.00282,51.474403],[-0.002676,51.474401],[-0.00268,51.474311],[-0.002536,51.474308],[-0.002544,51.474129],[-0.0024,51.474126],[-0.002404,51.474036],[-0.00226,51.474034],[-0.002262,51.474],[0.015,51.474],[0.015,51.474188]]]]},"properties":{"layer":"dataset-40032292-6737-480f-a6c1-cd49f1e57695:WFD_waterbody_catchments_w_water_recreation","wfd_wb_id":"GB106039023290","waterbody_catchment":"Quaggy","waterbody_catchment_type":"River WB catchment","list_of_recreation_types":"Recreation site","number_of_recreation_locations":2,"number_of_recreation_reports":2,"number_of_data_sources":1,"number_of_recreation_types":1,"f__recreation_zone_coverage_of_":0.03744448485145766,"swimming__activity_presence_":1,"channel_swim_sites____of_report":0,"designated_bathing_waters____of":0,"lifeguard_units____of_reports_o":0,"marinas____of_reports_of_this_t":0,"multisport_events____of_reports":0,"open_water_venues____of_reports":0,"paddling_clubs____of_reports_of":0,"paddling_events____of_reports_o":0,"paddling_launches____of_reports":0,"recreation_sites____of_reports_":2,"rowing_clubs____of_reports_of_t":0,"rowing_events____of_reports_of_":0,"sailing_clubs____of_reports_of_":0,"slipways____of_reports_of_this_":0,"surf_schools____of_reports_of_t":0,"swimming_clubs____of_reports_of":0,"swimming_events____of_reports_o":0,"number_of_designated_bathing_wa":0,"maximum_number_of_bathers_per_1":0,"maximum_number_of_beach_users_p":0,"mean_number_of_bathers_per_100m":0,"mean_number_of_beach_users_per_":0,"number_of_days_with_events__201":0,"number_of_expected_competitors_":0,"number_of_rowing_club_members__":"0","number_of_channel_swimmers__201":0,"maximum_swim_distance__m_":0,"number_of_paddle_routes":0,"f__accessible_waterside":22.15747952478778,"length_of_navigable_waterway__k":0,"f__general_boating_area_coverag":0,"mean_log10_ais_intensity":-1,"mean_mmo1064_beach_activity_pot":0,"mean_mmo1064_paddling_potential":0,"mean_mmo1064_sailing_potential":0,"mean_mmo1064_surfing_potential":0,"overall_water_recreation_rank":0.022148619150294514,"clipped_to_zone":true,"in_cw":false}},
{"type":"Feature","geometry":{"type":"MultiPolygon","coordinates":[[[[-0.015766,51.481368],[-0.015762,51.481457],[-0.016231,51.481465],[-0.01622,51.48135],[-0.016166,51.481143],[-0.016182,51.480973],[-0.016365,51.480884],[-0.016481,51.480788],[-0.016474,51.480646],[-0.016493,51.480515],[-0.016601,51.480394],[-0.016708,51.48029],[-0.016785,51.48016],[-0.017007,51.479988],[-0.017433,51.479869],[-0.017849,51.479851],[-0.018122,51.47982],[-0.018271,51.479718],[-0.018861,51.479063],[-0.01904,51.478671],[-0.018968,51.47838],[-0.018993,51.478009],[-0.019004,51.477741],[-0.018907,51.477408],[-0.018969,51.477213],[-0.019216,51.477086],[-0.019513,51.47703],[-0.019819,51.476979],[-0.020171,51.476819],[-0.020635,51.476341],[-0.0205,51.47602],[-0.020529,51.475652],[-0.020855,51.475462],[-0.021301,51.475369],[-0.021731,51.475357],[-0.021976,51.475378],[-0.022018,51.475369],[-0.022183,51.475242],[-0.02219,51.475236],[-0.022197,51.475231],[-0.02233,51.47513],[-0.022416,51.475146],[-0.022528,51.475167],[-0.022925,51.475243],[-0.023082,51.475272],[-0.02295,51.475445],[-0.022652,51.475673],[-0.021871,51.475732],[-0.02155,51.475835],[-0.021414,51.475985],[-0.021509,51.476131],[-0.022024,51.476041],[-0.022054,51.476035],[-0.022082,51.476033],[-0.022125,51.476033],[-0.022134,51.476033],[-0.022179,51.476043],[-0.022212,51.476058],[-0.022239,51.476071],[-0.022249,51.476076],[-0.022273,51.476114],[-0.020832,51.476461],[-0.020793,51.476703],[-0.020776,51.476748],[-0.020745,51.476801],[-0.020714,51.476862],[-0.020684,51.47689],[-0.020668,51.476917],[-0.020638,51.476943],[-0.020609,51.476961],[-0.019827,51.477219],[-0.019456,51.477439],[-0.019455,51.477858],[-0.01946,51.478546],[-0.0194,51.479136],[-0.019312,51.479564],[-0.01906,51.479829],[-0.018395,51.480086],[-0.017598,51.480212],[-0.017173,51.480474],[-0.016738,51.480993],[-0.016625,51.481292],[-0.01697,51.481298],[-0.017928,51.481314],[-0.017932,51.481224],[-0.018364,51.481232],[-0.018368,51.481142],[-0.018512,51.481144],[-0.01852,51.480965],[-0.018376,51.480962],[-0.01838,51.480872],[-0.018955,51.480882],[-0.018959,51.480792],[-0.019247,51.480797],[-0.019251,51.480707],[-0.019395,51.48071],[-0.019399,51.48062],[-0.019543,51.480622],[-0.019546,51.480532],[-0.01969,51.480535],[-0.019694,51.480445],[-0.019838,51.480447],[-0.019842,51.480357],[-0.019986,51.48036],[-0.01999,51.48027],[-0.020134,51.480272],[-0.020142,51.480093],[-0.020286,51.480095],[-0.020293,51.479915],[-0.020437,51.479918],[-0.020445,51.479738],[-0.021021,51.479748],[-0.021005,51.480107],[-0.021437,51.480115],[-0.021433,51.480204],[-0.021577,51.480207],[-0.021581,51.480117],[-0.021869,51.480122],[-0.021876,51.479942],[-0.02202,51.479945],[-0.022024,51.479855],[-0.022312,51.47986],[-0.022316,51.47977],[-0.022604,51.479775],[-0.022608,51.479685],[-0.022751,51.479687],[-0.022748,51.479777],[-0.023035,51.479782],[-0.023032,51.479872],[-0.023319,51.479877],[-0.023331,51.479607],[-0.023475,51.479609],[-0.023471,51.479699],[-0.024191,51.479711],[-0.024195,51.479621],[-0.024626,51.479629],[-0.024622,51.479719],[-0.025342,51.479731],[-0.025338,51.479821],[-0.02577,51.479828],[-0.025774,51.479738],[-0.025918,51.47974],[-0.025925,51.479561],[-0.026213,51.479566],[-0.026217,51.479476],[-0.026361,51.479478],[-0.026369,51.479298],[-0.026513,51.479301],[-0.026528,51.478941],[-0.026672,51.478944],[-0.026676,51.478854],[-0.02682,51.478856],[-0.026824,51.478766],[-0.026968,51.478769],[-0.026972,51.478679],[-0.027115,51.478681],[-0.027127,51.478412],[-0.026983,51.478409],[-0.026987,51.47832],[-0.027131,51.478322],[-0.02715,51.477873],[-0.027294,51.477875],[-0.027298,51.477785],[-0.02701,51.47778],[-0.027014,51.477691],[-0.026726,51.477686],[-0.02673,51.477596],[-0.026155,51.477586],[-0.026159,51.477496],[-0.026015,51.477494],[-0.026019,51.477404],[-0.025875,51.477402],[-0.025937,51.475964],[-0.026081,51.475966],[-0.026088,51.475786],[-0.025945,51.475784],[-0.025968,51.475245],[-0.025824,51.475242],[-0.025828,51.475153],[-0.025972,51.475155],[-0.025979,51.474975],[-0.026267,51.47498],[-0.026263,51.47507],[-0.026695,51.475077],[-0.026691,51.475167],[-0.026835,51.47517],[-0.026839,51.47508],[-0.027271,51.475087],[-0.027275,51.474997],[-0.028138,51.475012],[-0.028134,51.475101],[-0.028854,51.475114],[-0.028857,51.475024],[-0.029001,51.475026],[-0.029005,51.474936],[-0.029437,51.474944],[-0.029441,51.474854],[-0.029729,51.474858],[-0.029732,51.474769],[-0.030164,51.474776],[-0.030168,51.474686],[-0.030312,51.474688],[-0.030327,51.474329],[-0.030471,51.474331],[-0.030475,51.474242],[-0.030331,51.474239],[-0.030335,51.474149],[-0.030191,51.474147],[-0.030198,51.474],[-0.002262,51.474],[-0.00226,51.474034],[-0.002404,51.474036],[-0.0024,51.474126],[-0.002544,51.474129],[-0.002536,51.474308],[-0.00268,51.474311],[-0.002676,51.474401],[-0.00282,51.474403],[-0.002816,51.474493],[-0.00296,51.474495],[-0.002952,51.474675],[-0.003096,51.474678],[-0.003092,51.474768],[-0.003236,51.47477],[-0.003232,51.47486],[-0.003376,51.474862],[-0.00338,51.474772],[-0.003956,51.474782],[-0.003952,51.474872],[-0.004527,51.474882],[-0.004523,51.474972],[-0.004667,51.474974],[-0.004663,51.475064],[-0.004807,51.475067],[-0.004803,51.475156],[-0.004947,51.475159],[-0.004943,51.475249],[-0.005087,51.475251],[-0.005083,51.475341],[-0.005515,51.475348],[-0.005519,51.475258],[-0.005807,51.475263],[-0.005803,51.475353],[-0.005947,51.475356],[-0.005927,51.475805],[-0.006071,51.475807],[-0.006067,51.475897],[-0.005923,51.475895],[-0.005904,51.476344],[-0.006047,51.476347],[-0.006036,51.476616],[-0.00618,51.476619],[-0.006176,51.476708],[-0.00632,51.476711],[-0.006316,51.476801],[-0.006747,51.476808],[-0.00674,51.476988],[-0.006596,51.476985],[-0.006588,51.477165],[-0.006732,51.477168],[-0.006728,51.477257],[-0.007016,51.477262],[-0.007004,51.477532],[-0.00686,51.477529],[-0.006856,51.477619],[-0.006712,51.477617],[-0.006708,51.477707],[-0.006852,51.477709],[-0.006848,51.477799],[-0.007136,51.477804],[-0.007128,51.477984],[-0.007272,51.477986],[-0.007268,51.478076],[-0.007412,51.478078],[-0.007408,51.478168],[-0.007696,51.478173],[-0.007692,51.478263],[-0.007836,51.478265],[-0.00784,51.478176],[-0.008271,51.478183],[-0.008287,51.477824],[-0.008431,51.477826],[-0.008435,51.477736],[-0.008579,51.477739],[-0.008583,51.477649],[-0.008727,51.477651],[-0.008731,51.477561],[-0.009018,51.477566],[-0.009022,51.477476],[-0.009166,51.477479],[-0.009162,51.477569],[-0.009306,51.477571],[-0.009294,51.477841],[-0.009007,51.477836],[-0.009003,51.477926],[-0.008859,51.477923],[-0.008855,51.478013],[-0.008711,51.478011],[-0.008703,51.47819],[-0.008847,51.478193],[-0.008839,51.478372],[-0.009127,51.478377],[-0.009123,51.478467],[-0.009411,51.478472],[-0.009415,51.478382],[-0.009703,51.478387],[-0.009695,51.478567],[-0.009551,51.478564],[-0.009539,51.478834],[-0.009395,51.478832],[-0.009387,51.479011],[-0.009244,51.479009],[-0.00924,51.479099],[-0.009096,51.479096],[-0.009088,51.479276],[-0.009232,51.479278],[-0.009208,51.479818],[-0.009352,51.47982],[-0.009348,51.47991],[-0.009636,51.479915],[-0.009632,51.480005],[-0.00992,51.48001],[-0.009908,51.480279],[-0.010628,51.480291],[-0.010636,51.480112],[-0.011211,51.480121],[-0.011207,51.480211],[-0.011639,51.480219],[-0.011635,51.480308],[-0.011779,51.480311],[-0.011775,51.480401],[-0.012063,51.480406],[-0.012059,51.480495],[-0.012347,51.4805],[-0.012343,51.48059],[-0.012487,51.480593],[-0.012491,51.480503],[-0.012635,51.480505],[-0.012639,51.480415],[-0.012783,51.480418],[-0.012786,51.480328],[-0.01293,51.48033],[-0.012926,51.48042],[-0.01307,51.480423],[-0.013055,51.480782],[-0.013343,51.480787],[-0.013335,51.480967],[-0.014054,51.480979],[-0.014058,51.480889],[-0.014346,51.480894],[-0.01435,51.480804],[-0.014782,51.480811],[-0.014778,51.480901],[-0.014922,51.480904],[-0.014918,51.480994],[-0.015062,51.480996],[-0.015058,51.481086],[-0.015202,51.481088],[-0.015198,51.481178],[-0.015342,51.481181],[-0.015338,51.48127],[-0.015626,51.481275],[-0.015622,51.481365],[-0.015766,51.481368]]]]},"properties":{"layer":"dataset-40032292-6737-480f-a6c1-cd49f1e57695:WFD_waterbody_catchments_w_water_recreation","wfd_wb_id":"GB106039023270","waterbody_catchment":"Ravensbourne (Catford to Deptford)","waterbody_catchment_type":"River WB catchment","list_of_recreation_types":"Recreation site","number_of_recreation_locations":1,"number_of_recreation_reports":1,"number_of_data_sources":1,"number_of_recreation_types":1,"f__recreation_zone_coverage_of_":0.06604995439171493,"swimming__activity_presence_":1,"channel_swim_sites____of_report":0,"designated_bathing_waters____of":0,"lifeguard_units____of_reports_o":0,"marinas____of_reports_of_this_t":0,"multisport_events____of_reports":0,"open_water_venues____of_reports":0,"paddling_clubs____of_reports_of":0,"paddling_events____of_reports_o":0,"paddling_launches____of_reports":0,"recreation_sites____of_reports_":1,"rowing_clubs____of_reports_of_t":0,"rowing_events____of_reports_of_":0,"sailing_clubs____of_reports_of_":0,"slipways____of_reports_of_this_":0,"surf_schools____of_reports_of_t":0,"swimming_clubs____of_reports_of":0,"swimming_events____of_reports_o":0,"number_of_designated_bathing_wa":0,"maximum_number_of_bathers_per_1":0,"maximum_number_of_beach_users_p":0,"mean_number_of_bathers_per_100m":0,"mean_number_of_beach_users_per_":0,"number_of_days_with_events__201":0,"number_of_expected_competitors_":0,"number_of_rowing_club_members__":"0","number_of_channel_swimmers__201":0,"maximum_swim_distance__m_":0,"number_of_paddle_routes":0,"f__accessible_waterside":19.94530224903699,"length_of_navigable_waterway__k":0,"f__general_boating_area_coverag":0,"mean_log10_ais_intensity":-1,"mean_mmo1064_beach_activity_pot":0,"mean_mmo1064_paddling_potential":0,"mean_mmo1064_sailing_potential":0,"mean_mmo1064_surfing_potential":0,"overall_water_recreation_rank":0.01958219022803204,"clipped_to_zone":true,"in_cw":false}},
{"type":"Feature","geometry":{"type":"MultiPolygon","coordinates":[[[[-0.095,51.510314],[-0.092693,51.509883],[-0.092024,51.50935],[-0.090736,51.509132],[-0.088422,51.508986],[-0.087408,51.509113],[-0.087208,51.509074],[-0.085437,51.509036],[-0.082039,51.508603],[-0.080995,51.508433],[-0.080939,51.508396],[-0.080626,51.508338],[-0.079065,51.508051],[-0.078579,51.507962],[-0.076692,51.507265],[-0.075937,51.507046],[-0.075035,51.506905],[-0.074078,51.506719],[-0.073214,51.506363],[-0.072771,51.506275],[-0.072083,51.506182],[-0.071228,51.505952],[-0.070624,51.505592],[-0.069305,51.504743],[-0.068305,51.504879],[-0.067809,51.504691],[-0.067416,51.504424],[-0.064123,51.503587],[-0.062491,51.503335],[-0.060551,51.50289],[-0.060322,51.502832],[-0.060159,51.502613],[-0.059765,51.5026],[-0.059641,51.502596],[-0.059632,51.502802],[-0.059299,51.502842],[-0.059211,51.502867],[-0.058091,51.503119],[-0.05752,51.503334],[-0.057082,51.503462],[-0.055904,51.504054],[-0.055708,51.504275],[-0.055186,51.50468],[-0.05458,51.50503],[-0.053326,51.505711],[-0.053577,51.505921],[-0.053106,51.506138],[-0.05281,51.50599],[-0.051078,51.507067],[-0.050768,51.507251],[-0.050619,51.507356],[-0.050148,51.507591],[-0.049194,51.508322],[-0.047937,51.508741],[-0.046556,51.509357],[-0.045967,51.509662],[-0.043481,51.509818],[-0.041593,51.509832],[-0.040801,51.509809],[-0.040095,51.509816],[-0.038618,51.509596],[-0.038012,51.509651],[-0.03763,51.509703],[-0.037116,51.510109],[-0.037084,51.510131],[-0.036798,51.510004],[-0.036683,51.509953],[-0.036711,51.509929],[-0.037194,51.509653],[-0.036955,51.509344],[-0.03673,51.50931],[-0.036142,51.50918],[-0.034132,51.508736],[-0.03209,51.508279],[-0.031954,51.508438],[-0.030571,51.508766],[-0.030551,51.508559],[-0.0315,51.508269],[-0.031561,51.507865],[-0.030848,51.50735],[-0.03041,51.507486],[-0.029297,51.50655],[-0.028291,51.506821],[-0.028051,51.506718],[-0.029107,51.506286],[-0.028713,51.505834],[-0.028654,51.505766],[-0.028217,51.505884],[-0.02805,51.505761],[-0.027896,51.505645],[-0.028139,51.505551],[-0.028364,51.505464],[-0.027915,51.504539],[-0.027554,51.504527],[-0.027368,51.504521],[-0.027298,51.504142],[-0.027757,51.504177],[-0.027768,51.503916],[-0.027757,51.503844],[-0.027496,51.503561],[-0.027203,51.503473],[-0.027055,51.503428],[-0.026912,51.503389],[-0.02641,51.503354],[-0.026583,51.502997],[-0.027147,51.503022],[-0.027561,51.503041],[-0.027566,51.502942],[-0.027635,51.50234],[-0.027699,51.501856],[-0.02777,51.499888],[-0.027746,51.499761],[-0.027776,51.498413],[-0.028025,51.49732],[-0.028179,51.495407],[-0.028228,51.494608],[-0.027802,51.49444],[-0.027605,51.494363],[-0.026055,51.49422],[-0.026094,51.493978],[-0.027013,51.494056],[-0.02754,51.493868],[-0.027732,51.493745],[-0.027652,51.493609],[-0.027371,51.493109],[-0.027121,51.492556],[-0.026959,51.492311],[-0.026558,51.491576],[-0.026246,51.49113],[-0.026154,51.49093],[-0.02525,51.489845],[-0.024567,51.48933],[-0.024088,51.48907],[-0.023479,51.48866],[-0.022961,51.488311],[-0.022773,51.488185],[-0.022077,51.487615],[-0.021711,51.48742],[-0.021046,51.487256],[-0.020943,51.4872],[-0.020844,51.487154],[-0.020731,51.487098],[-0.020632,51.487051],[-0.020519,51.487004],[-0.020397,51.486957],[-0.020278,51.48691],[-0.020165,51.486873],[-0.020051,51.486844],[-0.019923,51.486806],[-0.019809,51.486777],[-0.01968,51.486756],[-0.019551,51.486727],[-0.019423,51.486707],[-0.019294,51.486687],[-0.019165,51.486676],[-0.019088,51.486664],[-0.019036,51.486656],[-0.018907,51.486653],[-0.01808,51.48646],[-0.016217,51.486221],[-0.015986,51.486244],[-0.013716,51.486107],[-0.012648,51.486152],[-0.011955,51.486194],[-0.010155,51.486514],[-0.007742,51.487022],[-0.007086,51.487209],[-0.006116,51.487642],[-0.00582,51.487826],[-0.004991,51.488333],[-0.005398,51.488592],[-0.005114,51.488821],[-0.004692,51.488589],[-0.004441,51.488719],[-0.004217,51.488904],[-0.003834,51.489105],[-0.003585,51.489258],[-0.003508,51.489306],[-0.003363,51.489668],[-0.003282,51.489869],[-0.00357,51.490188],[-0.003213,51.491783],[-0.003567,51.492547],[-0.0037,51.492834],[-0.004267,51.493375],[-0.004401,51.493602],[-0.005082,51.494827],[-0.005285,51.494795],[-0.005801,51.494867],[-0.006088,51.495222],[-0.005667,51.495287],[-0.005769,51.495585],[-0.006189,51.49553],[-0.006404,51.495884],[-0.00588,51.49601],[-0.006053,51.496337],[-0.006603,51.496949],[-0.007024,51.49754],[-0.007238,51.498245],[-0.007536,51.498682],[-0.007745,51.499504],[-0.007884,51.499947],[-0.008012,51.500651],[-0.007634,51.500716],[-0.007619,51.500785],[-0.007618,51.50079],[-0.007617,51.500791],[-0.007851,51.501035],[-0.008446,51.501261],[-0.008303,51.501564],[-0.008088,51.501542],[-0.007611,51.501579],[-0.00752,51.501753],[-0.007391,51.501998],[-0.007338,51.502268],[-0.007261,51.502661],[-0.007021,51.503479],[-0.006956,51.503699],[-0.006998,51.504069],[-0.006965,51.504158],[-0.006374,51.50449],[-0.0061,51.504827],[-0.005474,51.505302],[-0.003903,51.506633],[-0.00254,51.507473],[-0.001925,51.507697],[-0.000849,51.507597],[0.001575,51.507988],[0.002469,51.508341],[0.003086,51.508267],[0.003137,51.508114],[0.003226,51.508105],[0.003481,51.508081],[0.003717,51.508535],[0.004433,51.508424],[0.004833,51.508346],[0.005233,51.508276],[0.005633,51.508197],[0.006033,51.508109],[0.00639,51.50804],[0.006733,51.507962],[0.00709,51.507884],[0.007441,51.507804],[0.007789,51.507728],[0.008538,51.507716],[0.008789,51.507855],[0.008837,51.507971],[0.009144,51.508398],[0.008911,51.50868],[0.008946,51.508815],[0.008444,51.509192],[0.007449,51.509506],[0.006605,51.509637],[0.005834,51.509812],[0.005526,51.510015],[0.005444,51.510116],[0.005585,51.510374],[0.005745,51.510731],[0.006338,51.51144],[0.006825,51.512035],[0.007139,51.513279],[0.007056,51.513667],[0.006921,51.513877],[0.006358,51.514183],[0.005998,51.514198],[0.005545,51.514053],[0.005203,51.513807],[0.005052,51.513648],[0.004869,51.513093],[0.00486,51.511906],[0.0047,51.511217],[0.004499,51.510905],[0.004202,51.510704],[0.003735,51.510577],[0.002583,51.510605],[0.001923,51.510679],[0.001588,51.510928],[0.001474,51.511281],[0.001592,51.511674],[0.001885,51.512092],[0.00202,51.512225],[0.002185,51.512689],[0.002415,51.513009],[0.002362,51.513118],[0.002319,51.513443],[0.002991,51.514321],[0.003158,51.514831],[0.003028,51.515166],[-0.000625,51.516641],[-0.003391,51.517992],[-0.003674,51.51779],[-0.003842,51.517568],[-0.003896,51.517335],[-0.004274,51.516919],[-0.004762,51.516639],[-0.005794,51.516441],[-0.006103,51.516635],[-0.006407,51.516937],[-0.00654,51.517856],[-0.00677,51.518202],[-0.007254,51.518651],[-0.008068,51.519159],[-0.009209,51.519763],[-0.009512,51.520101],[-0.009586,51.52039],[-0.009371,51.521007],[-0.008805,51.522],[-0.095,51.522],[-0.095,51.510314]]],[[[-0.030198,51.474],[-0.030191,51.474147],[-0.030335,51.474149],[-0.030331,51.474239],[-0.030475,51.474242],[-0.030471,51.474331],[-0.030327,51.474329],[-0.030312,51.474688],[-0.030168,51.474686],[-0.030164,51.474776],[-0.029732,51.474769],[-0.029729,51.474858],[-0.029441,51.474854],[-0.029437,51.474944],[-0.029005,51.474936],[-0.029001,51.475026],[-0.028857,51.475024],[-0.028854,51.475114],[-0.028134,51.475101],[-0.028138,51.475012],[-0.027275,51.474997],[-0.027271,51.475087],[-0.026839,51.47508],[-0.026835,51.47517],[-0.026691,51.475167],[-0.026695,51.475077],[-0.026263,51.47507],[-0.026267,51.47498],[-0.025979,51.474975],[-0.025972,51.475155],[-0.025828,51.475153],[-0.025824,51.475242],[-0.025968,51.475245],[-0.025945,51.475784],[-0.026088,51.475786],[-0.026081,51.475966],[-0.025937,51.475964],[-0.025875,51.477402],[-0.026019,51.477404],[-0.026015,51.477494],[-0.026159,51.477496],[-0.026155,51.477586],[-0.02673,51.477596],[-0.026726,51.477686],[-0.027014,51.477691],[-0.02701,51.47778],[-0.027298,51.477785],[-0.027294,51.477875],[-0.02715,51.477873],[-0.027131,51.478322],[-0.026987,51.47832],[-0.026983,51.478409],[-0.027127,51.478412],[-0.027115,51.478681],[-0.026972,51.478679],[-0.026968,51.478769],[-0.026824,51.478766],[-0.02682,51.478856],[-0.026676,51.478854],[-0.026672,51.478944],[-0.026528,51.478941],[-0.026513,51.479301],[-0.026369,51.479298],[-0.026361,51.479478],[-0.026217,51.479476],[-0.026213,51.479566],[-0.025925,51.479561],[-0.025918,51.47974],[-0.025774,51.479738],[-0.02577,51.479828],[-0.025338,51.479821],[-0.025342,51.479731],[-0.024622,51.479719],[-0.024626,51.479629],[-0.024195,51.479621],[-0.024191,51.479711],[-0.023471,51.479699],[-0.023475,51.479609],[-0.023331,51.479607],[-0.023319,51.479877],[-0.023032,51.479872],[-0.023035,51.479782],[-0.022748,51.479777],[-0.022751,51.479687],[-0.022608,51.479685],[-0.022604,51.479775],[-0.022316,51.47977],[-0.022312,51.47986],[-0.022024,51.479855],[-0.02202,51.479945],[-0.021876,51.479942],[-0.021869,51.480122],[-0.021581,51.480117],[-0.021577,51.480207],[-0.021433,51.480204],[-0.021437,51.480115],[-0.021005,51.480107],[-0.021021,51.479748],[-0.020445,51.479738],[-0.020437,51.479918],[-0.020293,51.479915],[-0.020286,51.480095],[-0.020142,51.480093],[-0.020134,51.480272],[-0.01999,51.48027],[-0.019986,51.48036],[-0.019842,51.480357],[-0.019838,51.480447],[-0.019694,51.480445],[-0.01969,51.480535],[-0.019546,51.480532],[-0.019543,51.480622],[-0.019399,51.48062],[-0.019395,51.48071],[-0.019251,51.480707],[-0.019247,51.480797],[-0.018959,51.480792],[-0.018955,51.480882],[-0.01838,51.480872],[-0.018376,51.480962],[-0.01852,51.480965],[-0.018512,51.481144],[-0.018368,51.481142],[-0.018364,51.481232],[-0.017932,51.481224],[-0.017928,51.481314],[-0.01697,51.481298],[-0.016625,51.481292],[-0.016621,51.481303],[-0.016739,51.481756],[-0.018137,51.482153],[-0.018295,51.482156],[-0.018364,51.482229],[-0.018477,51.482599],[-0.018742,51.483143],[-0.018899,51.483497],[-0.019234,51.483745],[-0.019452,51.483743],[-0.019566,51.483742],[-0.020548,51.484019],[-0.022164,51.484604],[-0.022964,51.484956],[-0.023623,51.485246],[-0.024737,51.485736],[-0.024892,51.48581],[-0.027461,51.487032],[-0.028191,51.487467],[-0.029284,51.488492],[-0.030335,51.489841],[-0.030932,51.490705],[-0.030987,51.490824],[-0.031117,51.491104],[-0.031636,51.492075],[-0.031734,51.492157],[-0.031816,51.492249],[-0.031913,51.49234],[-0.031996,51.492432],[-0.032063,51.492532],[-0.032146,51.492623],[-0.032214,51.492734],[-0.032281,51.492832],[-0.032334,51.492941],[-0.032374,51.493023],[-0.032387,51.493041],[-0.032426,51.49314],[-0.032465,51.493249],[-0.032504,51.493348],[-0.032528,51.493457],[-0.032552,51.493556],[-0.032576,51.493664],[-0.032602,51.493746],[-0.032624,51.49389],[-0.032632,51.494034],[-0.032655,51.494178],[-0.032649,51.494331],[-0.032524,51.494545],[-0.032373,51.495037],[-0.032359,51.495702],[-0.032591,51.49583],[-0.032697,51.495888],[-0.0326,51.496401],[-0.032585,51.496479],[-0.032613,51.496501],[-0.033296,51.497031],[-0.033251,51.498064],[-0.032833,51.498075],[-0.032744,51.499477],[-0.033059,51.499518],[-0.033001,51.500191],[-0.032562,51.500346],[-0.032621,51.500985],[-0.03266,51.502425],[-0.032685,51.503504],[-0.033047,51.503475],[-0.033086,51.503898],[-0.032765,51.503991],[-0.032974,51.50484],[-0.03324,51.505007],[-0.033254,51.50517],[-0.033316,51.505925],[-0.03377,51.506262],[-0.034419,51.506744],[-0.035419,51.506959],[-0.036359,51.507217],[-0.036802,51.507288],[-0.037187,51.507393],[-0.037617,51.507445],[-0.038133,51.507508],[-0.038691,51.507607],[-0.040184,51.507731],[-0.040542,51.507782],[-0.040851,51.507634],[-0.041081,51.50765],[-0.041354,51.507669],[-0.041585,51.507666],[-0.041902,51.507661],[-0.042526,51.507572],[-0.042758,51.50754],[-0.044196,51.507267],[-0.044548,51.507111],[-0.04483,51.506918],[-0.045104,51.50659],[-0.045277,51.506251],[-0.045311,51.506126],[-0.045415,51.506133],[-0.045642,51.506149],[-0.046212,51.505961],[-0.046376,51.50582],[-0.046411,51.505685],[-0.046343,51.505594],[-0.046208,51.505367],[-0.046646,51.505249],[-0.046801,51.505323],[-0.047061,51.5053],[-0.047427,51.505504],[-0.047691,51.505401],[-0.047869,51.505287],[-0.048095,51.505057],[-0.04813,51.504914],[-0.048133,51.504842],[-0.048023,51.504705],[-0.048333,51.504548],[-0.048948,51.50464],[-0.049258,51.504483],[-0.050259,51.503969],[-0.05238,51.502898],[-0.052804,51.502761],[-0.055351,51.501823],[-0.056348,51.501408],[-0.056693,51.50109],[-0.056871,51.500976],[-0.058113,51.500907],[-0.06136,51.50079],[-0.063696,51.500738],[-0.064769,51.500927],[-0.066986,51.501439],[-0.068793,51.501857],[-0.070348,51.502233],[-0.070709,51.502212],[-0.07214,51.501084],[-0.073059,51.50047],[-0.073341,51.50061],[-0.072125,51.501426],[-0.07176,51.501887],[-0.07065,51.50258],[-0.071027,51.502865],[-0.071263,51.503066],[-0.07184,51.503409],[-0.074301,51.50415],[-0.078742,51.505455],[-0.079084,51.50556],[-0.079397,51.505655],[-0.079923,51.505816],[-0.080824,51.505975],[-0.081124,51.506052],[-0.08271,51.506375],[-0.084149,51.506749],[-0.085384,51.50685],[-0.085613,51.50689],[-0.086089,51.506889],[-0.086402,51.506966],[-0.089195,51.507047],[-0.090282,51.507227],[-0.091783,51.507539],[-0.094814,51.508442],[-0.095,51.508464],[-0.095,51.474],[-0.030198,51.474]]],[[[0.015,51.496419],[0.014849,51.496348],[0.014778,51.496313],[0.014039,51.496875],[0.014437,51.497084],[0.014132,51.49735],[0.013729,51.497189],[0.013634,51.497151],[0.012707,51.497698],[0.012741,51.497823],[0.012606,51.498032],[0.012501,51.498121],[0.011383,51.499052],[0.010439,51.499859],[0.0093,51.500805],[0.008303,51.50173],[0.007262,51.502638],[0.006579,51.503163],[0.004449,51.504845],[0.003868,51.505089],[0.003238,51.50518],[0.002505,51.50522],[0.001767,51.505142],[0.000297,51.504799],[-0.000883,51.504189],[-0.001809,51.503441],[-0.001998,51.503148],[-0.002165,51.502889],[-0.002196,51.50217],[-0.002239,51.502038],[-0.00228,51.501911],[-0.002438,51.501376],[-0.002464,51.501287],[-0.002499,51.501168],[-0.002449,51.500025],[-0.002377,51.49935],[-0.002226,51.499194],[-0.002026,51.499091],[-0.001831,51.49899],[-0.00163,51.498644],[-0.001836,51.498598],[-0.00211,51.498536],[-0.001449,51.497517],[-0.001815,51.497389],[-0.001206,51.496488],[-0.000462,51.495387],[0.000281,51.495563],[0.000523,51.495505],[0.000733,51.495376],[0.000779,51.495105],[0.000669,51.4949],[0.000706,51.494747],[0.000716,51.494639],[0.000853,51.494492],[0.001046,51.494282],[0.001237,51.494045],[0.001421,51.493637],[0.001733,51.493138],[0.001825,51.492992],[0.002206,51.4925],[0.002298,51.492274],[0.002115,51.491737],[0.002082,51.490973],[0.00224,51.490305],[0.002102,51.489786],[0.001204,51.488353],[0.001194,51.488129],[0.000376,51.48754],[-0.001731,51.486137],[-0.002047,51.485944],[-0.002589,51.485612],[-0.004377,51.484914],[-0.00451,51.484893],[-0.005233,51.484776],[-0.006562,51.484358],[-0.008252,51.483866],[-0.008371,51.483831],[-0.008637,51.484006],[-0.008827,51.484005],[-0.008977,51.484004],[-0.009011,51.484004],[-0.009403,51.483948],[-0.009549,51.483896],[-0.010014,51.483814],[-0.010019,51.483679],[-0.011054,51.483409],[-0.01095,51.483155],[-0.010955,51.483137],[-0.010967,51.483093],[-0.012417,51.48313],[-0.01301,51.483145],[-0.014304,51.483185],[-0.015459,51.483133],[-0.015522,51.483008],[-0.015998,51.483072],[-0.016667,51.483162],[-0.016587,51.483359],[-0.016932,51.483356],[-0.018224,51.483467],[-0.018221,51.483434],[-0.018189,51.482945],[-0.018178,51.482864],[-0.017912,51.48268],[-0.017405,51.482428],[-0.016405,51.482223],[-0.016004,51.48218],[-0.015822,51.482051],[-0.015843,51.481898],[-0.016015,51.481919],[-0.016231,51.481465],[-0.015762,51.481457],[-0.015766,51.481368],[-0.015622,51.481365],[-0.015626,51.481275],[-0.015338,51.48127],[-0.015342,51.481181],[-0.015198,51.481178],[-0.015202,51.481088],[-0.015058,51.481086],[-0.015062,51.480996],[-0.014918,51.480994],[-0.014922,51.480904],[-0.014778,51.480901],[-0.014782,51.480811],[-0.01435,51.480804],[-0.014346,51.480894],[-0.014058,51.480889],[-0.014054,51.480979],[-0.013335,51.480967],[-0.013343,51.480787],[-0.013055,51.480782],[-0.01307,51.480423],[-0.012926,51.48042],[-0.01293,51.48033],[-0.012786,51.480328],[-0.012783,51.480418],[-0.012639,51.480415],[-0.012635,51.480505],[-0.012491,51.480503],[-0.012487,51.480593],[-0.012343,51.48059],[-0.012347,51.4805],[-0.012059,51.480495],[-0.012063,51.480406],[-0.011775,51.480401],[-0.011779,51.480311],[-0.011635,51.480308],[-0.011639,51.480219],[-0.011207,51.480211],[-0.011211,51.480121],[-0.010636,51.480112],[-0.010628,51.480291],[-0.009908,51.480279],[-0.00992,51.48001],[-0.009632,51.480005],[-0.009636,51.479915],[-0.009348,51.47991],[-0.009352,51.47982],[-0.009208,51.479818],[-0.009232,51.479278],[-0.009088,51.479276],[-0.009096,51.479096],[-0.00924,51.479099],[-0.009244,51.479009],[-0.009387,51.479011],[-0.009395,51.478832],[-0.009539,51.478834],[-0.009551,51.478564],[-0.009695,51.478567],[-0.009703,51.478387],[-0.009415,51.478382],[-0.009411,51.478472],[-0.009123,51.478467],[-0.009127,51.478377],[-0.008839,51.478372],[-0.008847,51.478193],[-0.008703,51.47819],[-0.008711,51.478011],[-0.008855,51.478013],[-0.008859,51.477923],[-0.009003,51.477926],[-0.009007,51.477836],[-0.009294,51.477841],[-0.009306,51.477571],[-0.009162,51.477569],[-0.009166,51.477479],[-0.009022,51.477476],[-0.009018,51.477566],[-0.008731,51.477561],[-0.008727,51.477651],[-0.008583,51.477649],[-0.008579,51.477739],[-0.008435,51.477736],[-0.008431,51.477826],[-0.008287,51.477824],[-0.008271,51.478183],[-0.00784,51.478176],[-0.007836,51.478265],[-0.007692,51.478263],[-0.007696,51.478173],[-0.007408,51.478168],[-0.007412,51.478078],[-0.007268,51.478076],[-0.007272,51.477986],[-0.007128,51.477984],[-0.007136,51.477804],[-0.006848,51.477799],[-0.006852,51.477709],[-0.006708,51.477707],[-0.006712,51.477617],[-0.006856,51.477619],[-0.00686,51.477529],[-0.007004,51.477532],[-0.007016,51.477262],[-0.006728,51.477257],[-0.006732,51.477168],[-0.006588,51.477165],[-0.006596,51.476985],[-0.00674,51.476988],[-0.006747,51.476808],[-0.006316,51.476801],[-0.00632,51.476711],[-0.006176,51.476708],[-0.00618,51.476619],[-0.006036,51.476616],[-0.006047,51.476347],[-0.005904,51.476344],[-0.005923,51.475895],[-0.006067,51.475897],[-0.006071,51.475807],[-0.005927,51.475805],[-0.005947,51.475356],[-0.005803,51.475353],[-0.005807,51.475263],[-0.005519,51.475258],[-0.005515,51.475348],[-0.005083,51.475341],[-0.005087,51.475251],[-0.004943,51.475249],[-0.004947,51.475159],[-0.004803,51.475156],[-0.004807,51.475067],[-0.004663,51.475064],[-0.004667,51.474974],[-0.004523,51.474972],[-0.004527,51.474882],[-0.003952,51.474872],[-0.003956,51.474782],[-0.00338,51.474772],[-0.003376,51.474862],[-0.003232,51.47486],[-0.003225,51.47504],[-0.002649,51.47503],[-0.002637,51.475299],[-0.002493,51.475297],[-0.002489,51.475387],[-0.002058,51.475379],[-0.002054,51.475469],[-0.001478,51.475459],[-0.001482,51.47537],[-0.001338,51.475367],[-0.001342,51.475277],[-0.001198,51.475275],[-0.001202,51.475185],[-0.001058,51.475183],[-0.001054,51.475272],[-0.00091,51.47527],[-0.000906,51.47536],[-0.000763,51.475357],[-0.000759,51.475447],[-0.000471,51.475442],[-0.000475,51.475352],[0.000532,51.475335],[0.000536,51.475425],[0.00068,51.475423],[0.000684,51.475513],[0.000828,51.47551],[0.000832,51.4756],[0.000688,51.475602],[0.000696,51.475782],[0.00084,51.47578],[0.000844,51.47587],[0.001276,51.475862],[0.001272,51.475772],[0.001415,51.47577],[0.001423,51.47595],[0.001567,51.475947],[0.001571,51.476037],[0.001715,51.476035],[0.001735,51.476484],[0.001879,51.476481],[0.001883,51.476571],[0.002314,51.476564],[0.002318,51.476654],[0.002462,51.476651],[0.002466,51.476741],[0.00261,51.476739],[0.002614,51.476829],[0.002758,51.476826],[0.002762,51.476916],[0.00305,51.476911],[0.003053,51.477001],[0.003341,51.476996],[0.003345,51.477086],[0.003633,51.477081],[0.003637,51.477171],[0.004069,51.477163],[0.004084,51.477523],[0.004516,51.477515],[0.00452,51.477605],[0.004664,51.477603],[0.004668,51.477693],[0.0051,51.477685],[0.005104,51.477775],[0.005247,51.477773],[0.005251,51.477863],[0.005395,51.47786],[0.005403,51.47804],[0.005547,51.478037],[0.005559,51.478307],[0.005703,51.478305],[0.005707,51.478394],[0.005851,51.478392],[0.005847,51.478302],[0.006135,51.478297],[0.006127,51.478117],[0.006271,51.478115],[0.006267,51.478025],[0.006411,51.478023],[0.006407,51.477933],[0.00655,51.47793],[0.006547,51.47784],[0.006834,51.477836],[0.00683,51.477746],[0.006974,51.477743],[0.00697,51.477653],[0.007402,51.477646],[0.007394,51.477466],[0.007682,51.477461],[0.007674,51.477282],[0.007818,51.477279],[0.00781,51.477099],[0.007666,51.477102],[0.007654,51.476832],[0.007798,51.47683],[0.007794,51.47674],[0.007938,51.476738],[0.007942,51.476827],[0.008086,51.476825],[0.008074,51.476555],[0.00793,51.476558],[0.007926,51.476468],[0.007782,51.47647],[0.007775,51.476291],[0.007918,51.476288],[0.007911,51.476108],[0.008054,51.476106],[0.00805,51.476016],[0.008194,51.476014],[0.00819,51.475924],[0.008334,51.475921],[0.00833,51.475832],[0.008762,51.475824],[0.008758,51.475734],[0.008902,51.475732],[0.008906,51.475822],[0.00905,51.475819],[0.009042,51.475639],[0.009186,51.475637],[0.009182,51.475547],[0.009326,51.475545],[0.009318,51.475365],[0.009462,51.475362],[0.009458,51.475273],[0.009889,51.475265],[0.009886,51.475175],[0.010317,51.475168],[0.010309,51.474988],[0.010597,51.474983],[0.010593,51.474893],[0.010737,51.474891],[0.010725,51.474621],[0.010869,51.474619],[0.010865,51.474529],[0.011009,51.474527],[0.011001,51.474347],[0.011145,51.474344],[0.011133,51.474075],[0.011277,51.474072],[0.011274,51.474],[0.01329,51.474],[0.013291,51.474038],[0.013579,51.474033],[0.013578,51.474],[0.014729,51.474],[0.01473,51.474013],[0.014874,51.474011],[0.014882,51.47419],[0.015,51.474188],[0.015,51.496419]]],[[[-0.008146,51.522],[-0.008222,51.521905],[-0.0087,51.521184],[-0.008754,51.520951],[-0.008733,51.520439],[-0.00846,51.520101],[-0.008393,51.519965],[-0.007462,51.5195],[-0.006761,51.519065],[-0.006009,51.518459],[-0.005798,51.518006],[-0.005681,51.517707],[-0.005577,51.517453],[-0.005516,51.517209],[-0.005042,51.517165],[-0.004895,51.517235],[-0.004678,51.517573],[-0.004409,51.518117],[-0.004115,51.518247],[-0.003867,51.518323],[-0.003486,51.518461],[-0.003209,51.518546],[-0.000714,51.517254],[0.000544,51.516692],[0.001588,51.516495],[0.002929,51.51586],[0.003465,51.515581],[0.003921,51.515133],[0.003967,51.51488],[0.003957,51.514323],[0.003462,51.513216],[0.002822,51.512112],[0.002549,51.511469],[0.002539,51.511245],[0.002608,51.511171],[0.002978,51.511057],[0.003454,51.5114],[0.003875,51.51213],[0.004011,51.512937],[0.004028,51.512991],[0.004045,51.513044],[0.004076,51.513098],[0.004107,51.513151],[0.004138,51.513205],[0.00417,51.513258],[0.004215,51.513302],[0.004246,51.513356],[0.004291,51.5134],[0.004337,51.513453],[0.004396,51.513497],[0.005885,51.514587],[0.006297,51.514769],[0.006687,51.51478],[0.007151,51.514529],[0.00754,51.51419],[0.00778,51.513754],[0.007991,51.51331],[0.007974,51.512923],[0.00797,51.512815],[0.007829,51.512251],[0.007458,51.511664],[0.006839,51.511036],[0.006307,51.510398],[0.006458,51.510242],[0.006786,51.510147],[0.008013,51.509883],[0.008827,51.509707],[0.009165,51.50953],[0.010072,51.508858],[0.010114,51.508489],[0.010006,51.508295],[0.009926,51.50815],[0.009749,51.507731],[0.00963,51.507328],[0.009763,51.507074],[0.010099,51.506852],[0.010397,51.506416],[0.011219,51.50579],[0.011995,51.505399],[0.012095,51.505386],[0.01264,51.505316],[0.012742,51.50535],[0.013033,51.505084],[0.012979,51.504519],[0.013112,51.504274],[0.014515,51.503089],[0.014789,51.502761],[0.015,51.502595],[0.015,51.522],[-0.008146,51.522]]]]},"properties":{"layer":"dataset-40032292-6737-480f-a6c1-cd49f1e57695:WFD_waterbody_catchments_w_water_recreation","wfd_wb_id":"WFD_River_Water_Body_Catchments_Cycle_2.18","waterbody_catchment":" ","waterbody_catchment_type":"Coastal/Estuarine catchment","list_of_recreation_types":"Designated bathing water; Marina; Multisport events; Open water venue; Paddling club; Paddling launch; Recreation site; Rowing club; Rowing events; Sailing club; Slipway; Swimming events","number_of_recreation_locations":19,"number_of_recreation_reports":168,"number_of_data_sources":11,"number_of_recreation_types":12,"f__recreation_zone_coverage_of_":0.21703102335992405,"swimming__activity_presence_":1,"multisports__activity_presence_":1,"paddling__activity_presence_":1,"rowing__activity_presence_":1,"sailing__activity_presence_":1,"unspecified_water_recreation__a":1,"channel_swim_sites____of_report":0,"designated_bathing_waters____of":4,"lifeguard_units____of_reports_o":0,"marinas____of_reports_of_this_t":6,"multisport_events____of_reports":21,"open_water_venues____of_reports":3,"paddling_clubs____of_reports_of":6,"paddling_events____of_reports_o":0,"paddling_launches____of_reports":15,"recreation_sites____of_reports_":51,"rowing_clubs____of_reports_of_t":12,"rowing_events____of_reports_of_":2,"sailing_clubs____of_reports_of_":22,"slipways____of_reports_of_this_":8,"surf_schools____of_reports_of_t":0,"swimming_clubs____of_reports_of":0,"swimming_events____of_reports_o":18,"list_of_years_identified_events":"2017; 2018; 2019; 2021; 2022; 2023; 2024; 2025","list_of_months_identified_event":"Feb; May; Jun; Jul; Aug; Sep; Nov","number_of_designated_bathing_wa":4,"maximum_number_of_bathers_per_1":300,"maximum_number_of_beach_users_p":708,"mean_number_of_bathers_per_100m":8.53066358213417,"mean_number_of_beach_users_per_":11.660426263367441,"number_of_days_with_events__201":21,"number_of_expected_competitors_":47690,"number_of_rowing_club_members__":"200+","number_of_channel_swimmers__201":0,"maximum_swim_distance__m_":9656.064,"number_of_paddle_routes":10,"f__accessible_waterside":3.391715162637443,"length_of_navigable_waterway__k":90.35920171388736,"f__general_boating_area_coverag":0,"mean_log10_ais_intensity":-1,"mean_mmo1064_beach_activity_pot":0,"mean_mmo1064_paddling_potential":0,"mean_mmo1064_sailing_potential":0,"mean_mmo1064_surfing_potential":0,"overall_water_recreation_rank":0.40696950136694704,"clipped_to_zone":true,"in_cw":true}},
{"type":"Feature","geometry":{"type":"MultiPolygon","coordinates":[[[[0.015,51.502595],[0.014789,51.502761],[0.014515,51.503089],[0.013112,51.504274],[0.012979,51.504519],[0.013033,51.505084],[0.012742,51.50535],[0.01264,51.505316],[0.012095,51.505386],[0.011995,51.505399],[0.011219,51.50579],[0.010397,51.506416],[0.010099,51.506852],[0.009763,51.507074],[0.00963,51.507328],[0.009749,51.507731],[0.009926,51.50815],[0.010006,51.508295],[0.010114,51.508489],[0.010072,51.508858],[0.009165,51.50953],[0.008827,51.509707],[0.008013,51.509883],[0.006786,51.510147],[0.006458,51.510242],[0.006307,51.510398],[0.006839,51.511036],[0.007458,51.511664],[0.007829,51.512251],[0.00797,51.512815],[0.007974,51.512923],[0.007991,51.51331],[0.00778,51.513754],[0.00754,51.51419],[0.007151,51.514529],[0.006687,51.51478],[0.006297,51.514769],[0.005885,51.514587],[0.004396,51.513497],[0.004337,51.513453],[0.004291,51.5134],[0.004246,51.513356],[0.004215,51.513302],[0.00417,51.513258],[0.004138,51.513205],[0.004107,51.513151],[0.004076,51.513098],[0.004045,51.513044],[0.004028,51.512991],[0.004011,51.512937],[0.003875,51.51213],[0.003454,51.5114],[0.002978,51.511057],[0.002608,51.511171],[0.002539,51.511245],[0.002549,51.511469],[0.002822,51.512112],[0.003462,51.513216],[0.003957,51.514323],[0.003967,51.51488],[0.003921,51.515133],[0.003465,51.515581],[0.002929,51.51586],[0.001588,51.516495],[0.000544,51.516692],[-0.000714,51.517254],[-0.003209,51.518546],[-0.003486,51.518461],[-0.003867,51.518323],[-0.004115,51.518247],[-0.004409,51.518117],[-0.004678,51.517573],[-0.004895,51.517235],[-0.005042,51.517165],[-0.005516,51.517209],[-0.005577,51.517453],[-0.005681,51.517707],[-0.005798,51.518006],[-0.006009,51.518459],[-0.006761,51.519065],[-0.007462,51.5195],[-0.008393,51.519965],[-0.00846,51.520101],[-0.008733,51.520439],[-0.008754,51.520951],[-0.0087,51.521184],[-0.008222,51.521905],[-0.008146,51.522],[-0.008805,51.522],[-0.009371,51.521007],[-0.009586,51.52039],[-0.009512,51.520101],[-0.009209,51.519763],[-0.008068,51.519159],[-0.007254,51.518651],[-0.00677,51.518202],[-0.00654,51.517856],[-0.006407,51.516937],[-0.006103,51.516635],[-0.005794,51.516441],[-0.004762,51.516639],[-0.004274,51.516919],[-0.003896,51.517335],[-0.003842,51.517568],[-0.003674,51.51779],[-0.003391,51.517992],[-0.000625,51.516641],[0.003028,51.515166],[0.003158,51.514831],[0.002991,51.514321],[0.002319,51.513443],[0.002362,51.513118],[0.002415,51.513009],[0.002185,51.512689],[0.00202,51.512225],[0.001885,51.512092],[0.001592,51.511674],[0.001474,51.511281],[0.001588,51.510928],[0.001923,51.510679],[0.002583,51.510605],[0.003735,51.510577],[0.004202,51.510704],[0.004499,51.510905],[0.0047,51.511217],[0.00486,51.511906],[0.004869,51.513093],[0.005052,51.513648],[0.005203,51.513807],[0.005545,51.514053],[0.005998,51.514198],[0.006358,51.514183],[0.006921,51.513877],[0.007056,51.513667],[0.007139,51.513279],[0.006825,51.512035],[0.006338,51.51144],[0.005745,51.510731],[0.005585,51.510374],[0.005444,51.510116],[0.005526,51.510015],[0.005834,51.509812],[0.006605,51.509637],[0.007449,51.509506],[0.008444,51.509192],[0.008946,51.508815],[0.008911,51.50868],[0.009144,51.508398],[0.008837,51.507971],[0.008789,51.507855],[0.008538,51.507716],[0.007789,51.507728],[0.007441,51.507804],[0.00709,51.507884],[0.006733,51.507962],[0.00639,51.50804],[0.006033,51.508109],[0.005633,51.508197],[0.005233,51.508276],[0.004833,51.508346],[0.004433,51.508424],[0.003717,51.508535],[0.003481,51.508081],[0.003226,51.508105],[0.003137,51.508114],[0.003086,51.508267],[0.002469,51.508341],[0.001575,51.507988],[-0.000849,51.507597],[-0.001925,51.507697],[-0.00254,51.507473],[-0.003903,51.506633],[-0.005474,51.505302],[-0.0061,51.504827],[-0.006374,51.50449],[-0.006965,51.504158],[-0.006998,51.504069],[-0.006956,51.503699],[-0.007021,51.503479],[-0.007261,51.502661],[-0.007338,51.502268],[-0.007391,51.501998],[-0.00752,51.501753],[-0.007611,51.501579],[-0.008088,51.501542],[-0.008303,51.501564],[-0.008446,51.501261],[-0.007851,51.501035],[-0.007617,51.500791],[-0.007618,51.50079],[-0.007619,51.500785],[-0.007634,51.500716],[-0.008012,51.500651],[-0.007884,51.499947],[-0.007745,51.499504],[-0.007536,51.498682],[-0.007238,51.498245],[-0.007024,51.49754],[-0.006603,51.496949],[-0.006053,51.496337],[-0.00588,51.49601],[-0.006404,51.495884],[-0.006189,51.49553],[-0.005769,51.495585],[-0.005667,51.495287],[-0.006088,51.495222],[-0.005801,51.494867],[-0.005285,51.494795],[-0.005082,51.494827],[-0.004401,51.493602],[-0.004267,51.493375],[-0.0037,51.492834],[-0.003567,51.492547],[-0.003213,51.491783],[-0.00357,51.490188],[-0.003282,51.489869],[-0.003363,51.489668],[-0.003508,51.489306],[-0.003585,51.489258],[-0.003834,51.489105],[-0.004217,51.488904],[-0.004441,51.488719],[-0.004692,51.488589],[-0.005114,51.488821],[-0.005398,51.488592],[-0.004991,51.488333],[-0.00582,51.487826],[-0.006116,51.487642],[-0.007086,51.487209],[-0.007742,51.487022],[-0.010155,51.486514],[-0.011955,51.486194],[-0.012648,51.486152],[-0.013716,51.486107],[-0.015986,51.486244],[-0.016217,51.486221],[-0.01808,51.48646],[-0.018907,51.486653],[-0.019036,51.486656],[-0.019088,51.486664],[-0.019165,51.486676],[-0.019294,51.486687],[-0.019423,51.486707],[-0.019551,51.486727],[-0.01968,51.486756],[-0.019809,51.486777],[-0.019923,51.486806],[-0.020051,51.486844],[-0.020165,51.486873],[-0.020278,51.48691],[-0.020397,51.486957],[-0.020519,51.487004],[-0.020632,51.487051],[-0.020731,51.487098],[-0.020844,51.487154],[-0.020943,51.4872],[-0.021046,51.487256],[-0.021711,51.48742],[-0.022077,51.487615],[-0.022773,51.488185],[-0.022961,51.488311],[-0.023479,51.48866],[-0.024088,51.48907],[-0.024567,51.48933],[-0.02525,51.489845],[-0.026154,51.49093],[-0.026246,51.49113],[-0.026558,51.491576],[-0.026959,51.492311],[-0.027121,51.492556],[-0.027371,51.493109],[-0.027652,51.493609],[-0.027732,51.493745],[-0.02754,51.493868],[-0.027013,51.494056],[-0.026094,51.493978],[-0.026055,51.49422],[-0.027605,51.494363],[-0.027802,51.49444],[-0.028228,51.494608],[-0.028179,51.495407],[-0.028025,51.49732],[-0.027776,51.498413],[-0.027746,51.499761],[-0.02777,51.499888],[-0.027699,51.501856],[-0.027635,51.50234],[-0.027566,51.502942],[-0.027561,51.503041],[-0.027147,51.503022],[-0.026583,51.502997],[-0.02641,51.503354],[-0.026912,51.503389],[-0.027055,51.503428],[-0.027203,51.503473],[-0.027496,51.503561],[-0.027757,51.503844],[-0.027768,51.503916],[-0.027757,51.504177],[-0.027298,51.504142],[-0.027368,51.504521],[-0.027554,51.504527],[-0.027915,51.504539],[-0.028364,51.505464],[-0.028139,51.505551],[-0.027896,51.505645],[-0.02805,51.505761],[-0.028217,51.505884],[-0.028654,51.505766],[-0.028713,51.505834],[-0.029107,51.506286],[-0.028051,51.506718],[-0.028291,51.506821],[-0.029297,51.50655],[-0.03041,51.507486],[-0.030848,51.50735],[-0.031561,51.507865],[-0.0315,51.508269],[-0.030551,51.508559],[-0.030571,51.508766],[-0.031954,51.508438],[-0.03209,51.508279],[-0.034132,51.508736],[-0.036142,51.50918],[-0.03673,51.50931],[-0.036955,51.509344],[-0.037194,51.509653],[-0.036711,51.509929],[-0.036683,51.509953],[-0.036798,51.510004],[-0.037084,51.510131],[-0.037116,51.510109],[-0.03763,51.509703],[-0.038012,51.509651],[-0.038618,51.509596],[-0.040095,51.509816],[-0.040801,51.509809],[-0.041593,51.509832],[-0.043481,51.509818],[-0.045967,51.509662],[-0.046556,51.509357],[-0.047937,51.508741],[-0.049194,51.508322],[-0.050148,51.507591],[-0.050619,51.507356],[-0.050768,51.507251],[-0.051078,51.507067],[-0.05281,51.50599],[-0.053106,51.506138],[-0.053577,51.505921],[-0.053326,51.505711],[-0.05458,51.50503],[-0.055186,51.50468],[-0.055708,51.504275],[-0.055904,51.504054],[-0.057082,51.503462],[-0.05752,51.503334],[-0.058091,51.503119],[-0.059211,51.502867],[-0.059299,51.502842],[-0.059632,51.502802],[-0.059641,51.502596],[-0.059765,51.5026],[-0.060159,51.502613],[-0.060322,51.502832],[-0.060551,51.50289],[-0.062491,51.503335],[-0.064123,51.503587],[-0.067416,51.504424],[-0.067809,51.504691],[-0.068305,51.504879],[-0.069305,51.504743],[-0.070624,51.505592],[-0.071228,51.505952],[-0.072083,51.506182],[-0.072771,51.506275],[-0.073214,51.506363],[-0.074078,51.506719],[-0.075035,51.506905],[-0.075937,51.507046],[-0.076692,51.507265],[-0.078579,51.507962],[-0.079065,51.508051],[-0.080626,51.508338],[-0.080939,51.508396],[-0.080995,51.508433],[-0.082039,51.508603],[-0.085437,51.509036],[-0.087208,51.509074],[-0.087408,51.509113],[-0.088422,51.508986],[-0.090736,51.509132],[-0.092024,51.50935],[-0.092693,51.509883],[-0.095,51.510314],[-0.095,51.508464],[-0.094814,51.508442],[-0.091783,51.507539],[-0.090282,51.507227],[-0.089195,51.507047],[-0.086402,51.506966],[-0.086089,51.506889],[-0.085613,51.50689],[-0.085384,51.50685],[-0.084149,51.506749],[-0.08271,51.506375],[-0.081124,51.506052],[-0.080824,51.505975],[-0.079923,51.505816],[-0.079397,51.505655],[-0.079084,51.50556],[-0.078742,51.505455],[-0.074301,51.50415],[-0.07184,51.503409],[-0.071263,51.503066],[-0.071027,51.502865],[-0.07065,51.50258],[-0.07176,51.501887],[-0.072125,51.501426],[-0.073341,51.50061],[-0.073059,51.50047],[-0.07214,51.501084],[-0.070709,51.502212],[-0.070348,51.502233],[-0.068793,51.501857],[-0.066986,51.501439],[-0.064769,51.500927],[-0.063696,51.500738],[-0.06136,51.50079],[-0.058113,51.500907],[-0.056871,51.500976],[-0.056693,51.50109],[-0.056348,51.501408],[-0.055351,51.501823],[-0.052804,51.502761],[-0.05238,51.502898],[-0.050259,51.503969],[-0.049258,51.504483],[-0.048948,51.50464],[-0.048333,51.504548],[-0.048023,51.504705],[-0.048133,51.504842],[-0.04813,51.504914],[-0.048095,51.505057],[-0.047869,51.505287],[-0.047691,51.505401],[-0.047427,51.505504],[-0.047061,51.5053],[-0.046801,51.505323],[-0.046646,51.505249],[-0.046208,51.505367],[-0.046343,51.505594],[-0.046411,51.505685],[-0.046376,51.50582],[-0.046212,51.505961],[-0.045642,51.506149],[-0.045415,51.506133],[-0.045311,51.506126],[-0.045277,51.506251],[-0.045104,51.50659],[-0.04483,51.506918],[-0.044548,51.507111],[-0.044196,51.507267],[-0.042758,51.50754],[-0.042526,51.507572],[-0.041902,51.507661],[-0.041585,51.507666],[-0.041354,51.507669],[-0.041081,51.50765],[-0.040851,51.507634],[-0.040542,51.507782],[-0.040184,51.507731],[-0.038691,51.507607],[-0.038133,51.507508],[-0.037617,51.507445],[-0.037187,51.507393],[-0.036802,51.507288],[-0.036359,51.507217],[-0.035419,51.506959],[-0.034419,51.506744],[-0.03377,51.506262],[-0.033316,51.505925],[-0.033254,51.50517],[-0.03324,51.505007],[-0.032974,51.50484],[-0.032765,51.503991],[-0.033086,51.503898],[-0.033047,51.503475],[-0.032685,51.503504],[-0.03266,51.502425],[-0.032621,51.500985],[-0.032562,51.500346],[-0.033001,51.500191],[-0.033059,51.499518],[-0.032744,51.499477],[-0.032833,51.498075],[-0.033251,51.498064],[-0.033296,51.497031],[-0.032613,51.496501],[-0.032585,51.496479],[-0.0326,51.496401],[-0.032697,51.495888],[-0.032591,51.49583],[-0.032359,51.495702],[-0.032373,51.495037],[-0.032524,51.494545],[-0.032649,51.494331],[-0.032655,51.494178],[-0.032632,51.494034],[-0.032624,51.49389],[-0.032602,51.493746],[-0.032576,51.493664],[-0.032552,51.493556],[-0.032528,51.493457],[-0.032504,51.493348],[-0.032465,51.493249],[-0.032426,51.49314],[-0.032387,51.493041],[-0.032374,51.493023],[-0.032334,51.492941],[-0.032281,51.492832],[-0.032214,51.492734],[-0.032146,51.492623],[-0.032063,51.492532],[-0.031996,51.492432],[-0.031913,51.49234],[-0.031816,51.492249],[-0.031734,51.492157],[-0.031636,51.492075],[-0.031117,51.491104],[-0.030987,51.490824],[-0.030932,51.490705],[-0.030335,51.489841],[-0.029284,51.488492],[-0.028191,51.487467],[-0.027461,51.487032],[-0.024892,51.48581],[-0.024737,51.485736],[-0.023623,51.485246],[-0.022964,51.484956],[-0.022164,51.484604],[-0.020548,51.484019],[-0.019566,51.483742],[-0.019452,51.483743],[-0.019234,51.483745],[-0.018899,51.483497],[-0.018742,51.483143],[-0.018477,51.482599],[-0.018364,51.482229],[-0.018295,51.482156],[-0.018137,51.482153],[-0.016739,51.481756],[-0.016621,51.481303],[-0.016625,51.481292],[-0.016738,51.480993],[-0.017173,51.480474],[-0.017598,51.480212],[-0.018395,51.480086],[-0.01906,51.479829],[-0.019312,51.479564],[-0.0194,51.479136],[-0.01946,51.478546],[-0.019455,51.477858],[-0.019456,51.477439],[-0.019827,51.477219],[-0.020609,51.476961],[-0.020638,51.476943],[-0.020668,51.476917],[-0.020684,51.47689],[-0.020714,51.476862],[-0.020745,51.476801],[-0.020776,51.476748],[-0.020793,51.476703],[-0.020832,51.476461],[-0.022273,51.476114],[-0.022249,51.476076],[-0.022239,51.476071],[-0.022212,51.476058],[-0.022179,51.476043],[-0.022134,51.476033],[-0.022125,51.476033],[-0.022082,51.476033],[-0.022054,51.476035],[-0.022024,51.476041],[-0.021509,51.476131],[-0.021414,51.475985],[-0.02155,51.475835],[-0.021871,51.475732],[-0.022652,51.475673],[-0.02295,51.475445],[-0.023082,51.475272],[-0.022925,51.475243],[-0.022528,51.475167],[-0.022416,51.475146],[-0.02233,51.47513],[-0.022197,51.475231],[-0.02219,51.475236],[-0.022183,51.475242],[-0.022018,51.475369],[-0.021976,51.475378],[-0.021731,51.475357],[-0.021301,51.475369],[-0.020855,51.475462],[-0.020529,51.475652],[-0.0205,51.47602],[-0.020635,51.476341],[-0.020171,51.476819],[-0.019819,51.476979],[-0.019513,51.47703],[-0.019216,51.477086],[-0.018969,51.477213],[-0.018907,51.477408],[-0.019004,51.477741],[-0.018993,51.478009],[-0.018968,51.47838],[-0.01904,51.478671],[-0.018861,51.479063],[-0.018271,51.479718],[-0.018122,51.47982],[-0.017849,51.479851],[-0.017433,51.479869],[-0.017007,51.479988],[-0.016785,51.48016],[-0.016708,51.48029],[-0.016601,51.480394],[-0.016493,51.480515],[-0.016474,51.480646],[-0.016481,51.480788],[-0.016365,51.480884],[-0.016182,51.480973],[-0.016166,51.481143],[-0.01622,51.48135],[-0.016231,51.481465],[-0.016015,51.481919],[-0.015843,51.481898],[-0.015822,51.482051],[-0.016004,51.48218],[-0.016405,51.482223],[-0.017405,51.482428],[-0.017912,51.48268],[-0.018178,51.482864],[-0.018189,51.482945],[-0.018221,51.483434],[-0.018224,51.483467],[-0.016932,51.483356],[-0.016587,51.483359],[-0.016667,51.483162],[-0.015998,51.483072],[-0.015522,51.483008],[-0.015459,51.483133],[-0.014304,51.483185],[-0.01301,51.483145],[-0.012417,51.48313],[-0.010967,51.483093],[-0.010955,51.483137],[-0.01095,51.483155],[-0.011054,51.483409],[-0.010019,51.483679],[-0.010014,51.483814],[-0.009549,51.483896],[-0.009403,51.483948],[-0.009011,51.484004],[-0.008977,51.484004],[-0.008827,51.484005],[-0.008637,51.484006],[-0.008371,51.483831],[-0.008252,51.483866],[-0.006562,51.484358],[-0.005233,51.484776],[-0.00451,51.484893],[-0.004377,51.484914],[-0.002589,51.485612],[-0.002047,51.485944],[-0.001731,51.486137],[0.000376,51.48754],[0.001194,51.488129],[0.001204,51.488353],[0.002102,51.489786],[0.00224,51.490305],[0.002082,51.490973],[0.002115,51.491737],[0.002298,51.492274],[0.002206,51.4925],[0.001825,51.492992],[0.001733,51.493138],[0.001421,51.493637],[0.001237,51.494045],[0.001046,51.494282],[0.000853,51.494492],[0.000716,51.494639],[0.000706,51.494747],[0.000669,51.4949],[0.000779,51.495105],[0.000733,51.495376],[0.000523,51.495505],[0.000281,51.495563],[-0.000462,51.495387],[-0.001206,51.496488],[-0.001815,51.497389],[-0.001449,51.497517],[-0.00211,51.498536],[-0.001836,51.498598],[-0.00163,51.498644],[-0.001831,51.49899],[-0.002026,51.499091],[-0.002226,51.499194],[-0.002377,51.49935],[-0.002449,51.500025],[-0.002499,51.501168],[-0.002464,51.501287],[-0.002438,51.501376],[-0.00228,51.501911],[-0.002239,51.502038],[-0.002196,51.50217],[-0.002165,51.502889],[-0.001998,51.503148],[-0.001809,51.503441],[-0.000883,51.504189],[0.000297,51.504799],[0.001767,51.505142],[0.002505,51.50522],[0.003238,51.50518],[0.003868,51.505089],[0.004449,51.504845],[0.006579,51.503163],[0.007262,51.502638],[0.008303,51.50173],[0.0093,51.500805],[0.010439,51.499859],[0.011383,51.499052],[0.012501,51.498121],[0.012606,51.498032],[0.012741,51.497823],[0.012707,51.497698],[0.013634,51.497151],[0.013729,51.497189],[0.014132,51.49735],[0.014437,51.497084],[0.014039,51.496875],[0.014778,51.496313],[0.014849,51.496348],[0.015,51.496419],[0.015,51.502595]]]]},"properties":{"layer":"dataset-40032292-6737-480f-a6c1-cd49f1e57695:WFD_waterbody_catchments_w_water_recreation","wfd_wb_id":"GB530603911402","waterbody_catchment":"Thames Middle","waterbody_catchment_type":"Transitional","list_of_recreation_types":"Paddling launch; Recreation site; Sailing club","number_of_recreation_locations":3,"number_of_recreation_reports":20,"number_of_data_sources":4,"number_of_recreation_types":3,"f__recreation_zone_coverage_of_":0.11302883461096035,"swimming__activity_presence_":1,"paddling__activity_presence_":1,"sailing__activity_presence_":1,"unspecified_water_recreation__a":1,"channel_swim_sites____of_report":0,"designated_bathing_waters____of":0,"lifeguard_units____of_reports_o":0,"marinas____of_reports_of_this_t":0,"multisport_events____of_reports":0,"open_water_venues____of_reports":0,"paddling_clubs____of_reports_of":0,"paddling_events____of_reports_o":0,"paddling_launches____of_reports":2,"recreation_sites____of_reports_":14,"rowing_clubs____of_reports_of_t":0,"rowing_events____of_reports_of_":0,"sailing_clubs____of_reports_of_":4,"slipways____of_reports_of_this_":0,"surf_schools____of_reports_of_t":0,"swimming_clubs____of_reports_of":0,"swimming_events____of_reports_o":0,"number_of_designated_bathing_wa":0,"maximum_number_of_bathers_per_1":0,"maximum_number_of_beach_users_p":0,"mean_number_of_bathers_per_100m":0,"mean_number_of_beach_users_per_":0,"number_of_days_with_events__201":0,"number_of_expected_competitors_":0,"number_of_rowing_club_members__":"0","number_of_channel_swimmers__201":0,"maximum_swim_distance__m_":0,"number_of_paddle_routes":1,"f__accessible_waterside":0,"length_of_navigable_waterway__k":372.42482895544885,"f__general_boating_area_coverag":0,"mean_log10_ais_intensity":0.18915192315183282,"mean_mmo1064_beach_activity_pot":25.230769230769212,"mean_mmo1064_paddling_potential":27.14168422957707,"mean_mmo1064_sailing_potential":62.007042253521085,"mean_mmo1064_surfing_potential":28.08488591182897,"overall_water_recreation_rank":0.1781018148280348,"clipped_to_zone":true,"in_cw":true}},
{"type":"Feature","geometry":{"type":"Point","coordinates":[-0.082315,51.51056]},"properties":{"layer":"dataset-40032292-6737-480f-a6c1-cd49f1e57695:Water_recreation_locations","location_id":"02225","waterbody_salinity":"Coastal/Estuarine","waterbody_type":"Unclassified","list_of_recreation_types":"Marina; Recreation site; Rowing club; Sailing club","number_of_recreation_reports":12,"number_of_data_sources":3,"number_of_recreation_types":4,"rowing__activity_presence_":1,"sailing__activity_presence_":1,"unspecified_water_recreation__a":1,"channel_swim_sites____of_report":0,"designated_bathing_waters____of":0,"lifeguard_units____of_reports_o":0,"marinas____of_reports_of_this_t":1,"multisport_events____of_reports":0,"open_water_venues____of_reports":0,"paddling_clubs____of_reports_of":0,"paddling_events____of_reports_o":0,"paddling_launches____of_reports":0,"recreation_sites____of_reports_":4,"rowing_clubs____of_reports_of_t":1,"rowing_events____of_reports_of_":0,"sailing_clubs____of_reports_of_":6,"slipways____of_reports_of_this_":0,"surf_schools____of_reports_of_t":0,"swimming_clubs____of_reports_of":0,"swimming_events____of_reports_o":0,"easting":533174.1971934319,"northing":180813.00747869734,"in_cw":false}},
{"type":"Feature","geometry":{"type":"Point","coordinates":[-0.02609,51.498031]},"properties":{"layer":"dataset-40032292-6737-480f-a6c1-cd49f1e57695:Water_recreation_locations","location_id":"02226","waterbody_salinity":"Coastal/Estuarine","waterbody_type":"Unclassified","list_of_recreation_types":"Marina; Multisport events; Open water venue; Paddling club; Paddling launch; Recreation site; Rowing club; Rowing events; Sailing club; Slipway","number_of_recreation_reports":33,"number_of_data_sources":7,"number_of_recreation_types":10,"swimming__activity_presence_":1,"multisports__activity_presence_":1,"paddling__activity_presence_":1,"rowing__activity_presence_":1,"sailing__activity_presence_":1,"unspecified_water_recreation__a":1,"channel_swim_sites____of_report":0,"designated_bathing_waters____of":0,"lifeguard_units____of_reports_o":0,"marinas____of_reports_of_this_t":3,"multisport_events____of_reports":4,"open_water_venues____of_reports":1,"paddling_clubs____of_reports_of":2,"paddling_events____of_reports_o":0,"paddling_launches____of_reports":4,"recreation_sites____of_reports_":6,"rowing_clubs____of_reports_of_t":3,"rowing_events____of_reports_of_":1,"sailing_clubs____of_reports_of_":5,"slipways____of_reports_of_this_":4,"surf_schools____of_reports_of_t":0,"swimming_clubs____of_reports_of":0,"swimming_events____of_reports_o":0,"easting":537113.176471465,"northing":179523.61771112983,"in_cw":true}},
{"type":"Feature","geometry":{"type":"MultiPolygon","coordinates":[[[[-0.03427,51.518563],[-0.033568,51.518616],[-0.032878,51.518711],[-0.032206,51.518849],[-0.031559,51.519027],[-0.030943,51.519243],[-0.030364,51.519496],[-0.029828,51.519784],[-0.029339,51.520102],[-0.028903,51.520449],[-0.028523,51.520822],[-0.028204,51.521215],[-0.027948,51.521626],[-0.02778,51.522],[-0.041783,51.522],[-0.041732,51.521857],[-0.041512,51.521438],[-0.041227,51.521034],[-0.04088,51.52065],[-0.040474,51.520289],[-0.040013,51.519954],[-0.039502,51.519649],[-0.038946,51.519377],[-0.038349,51.51914],[-0.037718,51.518941],[-0.037059,51.518781],[-0.036378,51.518663],[-0.035682,51.518586],[-0.034977,51.518553],[-0.03427,51.518563]]]]},"properties":{"layer":"dataset-40032292-6737-480f-a6c1-cd49f1e57695:Water_recreation_zones","location_id":"02217","waterbody_salinity":"Freshwater","waterbody_type":"Unclassified","list_of_recreation_types":"Recreation site","number_of_recreation_reports":2,"number_of_data_sources":1,"number_of_recreation_types":1,"swimming__activity_presence_":1,"channel_swim_sites____of_report":0,"designated_bathing_waters____of":0,"lifeguard_units____of_reports_o":0,"marinas____of_reports_of_this_t":0,"multisport_events____of_reports":0,"open_water_venues____of_reports":0,"paddling_clubs____of_reports_of":0,"paddling_events____of_reports_o":0,"paddling_launches____of_reports":0,"recreation_sites____of_reports_":2,"rowing_clubs____of_reports_of_t":0,"rowing_events____of_reports_of_":0,"sailing_clubs____of_reports_of_":0,"slipways____of_reports_of_this_":0,"surf_schools____of_reports_of_t":0,"swimming_clubs____of_reports_of":0,"swimming_events____of_reports_o":0,"easting":536458.4999999999,"northing":182403.00000000012,"clipped_to_zone":true,"in_cw":false}},
{"type":"Feature","geometry":{"type":"MultiPolygon","coordinates":[[[[-0.085867,51.501541],[-0.085163,51.501508],[-0.084456,51.501518],[-0.083755,51.501572],[-0.083065,51.501667],[-0.082393,51.501805],[-0.081747,51.501983],[-0.081131,51.5022],[-0.080553,51.502453],[-0.080017,51.502741],[-0.079528,51.50306],[-0.079093,51.503407],[-0.078713,51.503779],[-0.078395,51.504173],[-0.078139,51.504584],[-0.078132,51.504601],[-0.078026,51.504483],[-0.07762,51.504122],[-0.077159,51.503788],[-0.076648,51.503483],[-0.076092,51.503211],[-0.075629,51.503027],[-0.075432,51.502931],[-0.074835,51.502694],[-0.074204,51.502495],[-0.073545,51.502336],[-0.072865,51.502217],[-0.072169,51.502141],[-0.071464,51.502108],[-0.070757,51.502118],[-0.070056,51.502171],[-0.069366,51.502267],[-0.068694,51.502405],[-0.068048,51.502583],[-0.067432,51.502799],[-0.066853,51.503053],[-0.066317,51.50334],[-0.065829,51.503659],[-0.065393,51.504006],[-0.065014,51.504379],[-0.064695,51.504772],[-0.064439,51.505183],[-0.064249,51.505608],[-0.064127,51.506043],[-0.064074,51.506483],[-0.06409,51.506924],[-0.064175,51.507361],[-0.064329,51.507792],[-0.064549,51.508211],[-0.064834,51.508615],[-0.065181,51.508999],[-0.065587,51.50936],[-0.066048,51.509695],[-0.066273,51.509828],[-0.065994,51.510172],[-0.065738,51.510584],[-0.065548,51.511008],[-0.065426,51.511443],[-0.065373,51.511883],[-0.065389,51.512324],[-0.065474,51.512762],[-0.065628,51.513192],[-0.065848,51.513611],[-0.066133,51.514015],[-0.066481,51.514399],[-0.066887,51.51476],[-0.067347,51.515095],[-0.067859,51.515399],[-0.068415,51.515671],[-0.069012,51.515908],[-0.069643,51.516107],[-0.070302,51.516267],[-0.070983,51.516385],[-0.071679,51.516461],[-0.072384,51.516495],[-0.073091,51.516485],[-0.073793,51.516431],[-0.074483,51.516335],[-0.075155,51.516198],[-0.075444,51.516118],[-0.076043,51.516307],[-0.076702,51.516467],[-0.077383,51.516585],[-0.07808,51.516661],[-0.078785,51.516695],[-0.079492,51.516685],[-0.080193,51.516631],[-0.080884,51.516535],[-0.081555,51.516398],[-0.082202,51.51622],[-0.082818,51.516003],[-0.082872,51.515979],[-0.082825,51.516144],[-0.082772,51.516584],[-0.082788,51.517025],[-0.082874,51.517463],[-0.083028,51.517893],[-0.083248,51.518313],[-0.083534,51.518716],[-0.083881,51.5191],[-0.084287,51.519461],[-0.084748,51.519796],[-0.08526,51.5201],[-0.085816,51.520372],[-0.086413,51.520609],[-0.087044,51.520808],[-0.087703,51.520967],[-0.088384,51.521086],[-0.089081,51.521162],[-0.089786,51.521195],[-0.090493,51.521185],[-0.091195,51.521131],[-0.091885,51.521035],[-0.092557,51.520898],[-0.093203,51.52072],[-0.093819,51.520503],[-0.094398,51.520249],[-0.094934,51.519962],[-0.095,51.519919],[-0.095,51.505974],[-0.094844,51.505936],[-0.094163,51.505817],[-0.094094,51.50581],[-0.093797,51.505482],[-0.093391,51.505121],[-0.09293,51.504786],[-0.092419,51.504481],[-0.091863,51.50421],[-0.091456,51.504048],[-0.091413,51.503987],[-0.091065,51.503603],[-0.090659,51.503242],[-0.090198,51.502907],[-0.089687,51.502603],[-0.089131,51.502331],[-0.088534,51.502094],[-0.087903,51.501895],[-0.087244,51.501736],[-0.086564,51.501617],[-0.085867,51.501541]]]]},"properties":{"layer":"dataset-40032292-6737-480f-a6c1-cd49f1e57695:Water_recreation_zones","location_id":"02225","waterbody_salinity":"Coastal/Estuarine","waterbody_type":"Unclassified","list_of_recreation_types":"Marina; Recreation site; Rowing club; Sailing club","number_of_recreation_reports":12,"number_of_data_sources":3,"number_of_recreation_types":4,"rowing__activity_presence_":1,"sailing__activity_presence_":1,"unspecified_water_recreation__a":1,"channel_swim_sites____of_report":0,"designated_bathing_waters____of":0,"lifeguard_units____of_reports_o":0,"marinas____of_reports_of_this_t":1,"multisport_events____of_reports":0,"open_water_venues____of_reports":0,"paddling_clubs____of_reports_of":0,"paddling_events____of_reports_o":0,"paddling_launches____of_reports":0,"recreation_sites____of_reports_":4,"rowing_clubs____of_reports_of_t":1,"rowing_events____of_reports_of_":0,"sailing_clubs____of_reports_of_":6,"slipways____of_reports_of_this_":0,"surf_schools____of_reports_of_t":0,"swimming_clubs____of_reports_of":0,"swimming_events____of_reports_o":0,"easting":533174.1971934319,"northing":180813.00747869734,"clipped_to_zone":true,"in_cw":false}},
{"type":"Feature","geometry":{"type":"MultiPolygon","coordinates":[[[[-0.009326,51.474],[-0.009036,51.474127],[-0.0085,51.474414],[-0.008011,51.474733],[-0.007575,51.47508],[-0.007196,51.475452],[-0.006877,51.475845],[-0.006621,51.476256],[-0.00643,51.476681],[-0.006308,51.477115],[-0.006254,51.477555],[-0.006269,51.477996],[-0.006354,51.478434],[-0.006507,51.478865],[-0.006727,51.479284],[-0.007011,51.479688],[-0.007358,51.480072],[-0.007763,51.480433],[-0.008223,51.480768],[-0.008733,51.481073],[-0.009289,51.481345],[-0.009885,51.481582],[-0.010515,51.481782],[-0.010762,51.481842],[-0.010149,51.481812],[-0.009442,51.481822],[-0.009125,51.481846],[-0.008801,51.48161],[-0.008291,51.481305],[-0.007735,51.481033],[-0.007139,51.480796],[-0.006509,51.480596],[-0.005851,51.480436],[-0.00517,51.480318],[-0.004475,51.480241],[-0.00377,51.480207],[-0.003064,51.480217],[-0.002363,51.48027],[-0.001673,51.480365],[-0.001002,51.480502],[-0.000355,51.48068],[0.00026,51.480896],[0.000839,51.481149],[0.001375,51.481437],[0.001864,51.481755],[0.0023,51.482102],[0.00268,51.482474],[0.002999,51.482868],[0.003255,51.483279],[0.003445,51.483703],[0.003568,51.484138],[0.003622,51.484578],[0.003607,51.485019],[0.003522,51.485457],[0.00337,51.485887],[0.00315,51.486306],[0.002865,51.48671],[0.002519,51.487095],[0.002114,51.487456],[0.001654,51.487791],[0.001143,51.488096],[0.000588,51.488368],[-0.000008,51.488605],[-0.000638,51.488805],[-0.001297,51.488964],[-0.001977,51.489083],[-0.002673,51.48916],[-0.003378,51.489193],[-0.004084,51.489184],[-0.004401,51.48916],[-0.004725,51.489396],[-0.005236,51.489701],[-0.005792,51.489973],[-0.006387,51.49021],[-0.007018,51.49041],[-0.007676,51.49057],[-0.008357,51.490688],[-0.009053,51.490765],[-0.009757,51.490799],[-0.010463,51.490789],[-0.010771,51.490766],[-0.010941,51.490795],[-0.011637,51.490872],[-0.012341,51.490906],[-0.013048,51.490896],[-0.013749,51.490843],[-0.014439,51.490747],[-0.014473,51.49074],[-0.01448,51.49075],[-0.014827,51.491134],[-0.015232,51.491495],[-0.015692,51.49183],[-0.016203,51.492135],[-0.016758,51.492407],[-0.017354,51.492644],[-0.017887,51.492813],[-0.017847,51.492877],[-0.017657,51.493302],[-0.017534,51.493736],[-0.017481,51.494176],[-0.017496,51.494617],[-0.017581,51.495055],[-0.017734,51.495486],[-0.017954,51.495905],[-0.018239,51.496309],[-0.018585,51.496693],[-0.018991,51.497054],[-0.019451,51.497389],[-0.019718,51.497549],[-0.019715,51.497577],[-0.01973,51.498018],[-0.019815,51.498456],[-0.019968,51.498886],[-0.020046,51.499035],[-0.019468,51.499008],[-0.018762,51.499017],[-0.01806,51.49907],[-0.01737,51.499166],[-0.016699,51.499303],[-0.016052,51.499481],[-0.015921,51.499527],[-0.015799,51.499294],[-0.015514,51.49889],[-0.015167,51.498506],[-0.014762,51.498145],[-0.014302,51.49781],[-0.013791,51.497505],[-0.013235,51.497233],[-0.012948,51.497118],[-0.013025,51.496994],[-0.013215,51.496569],[-0.013338,51.496135],[-0.013392,51.495695],[-0.013376,51.495254],[-0.013291,51.494816],[-0.013138,51.494386],[-0.012918,51.493966],[-0.012634,51.493563],[-0.012287,51.493178],[-0.011882,51.492817],[-0.011422,51.492482],[-0.010911,51.492177],[-0.010355,51.491905],[-0.009759,51.491668],[-0.009129,51.491469],[-0.008471,51.491309],[-0.00779,51.49119],[-0.007094,51.491114],[-0.00639,51.49108],[-0.005683,51.49109],[-0.004982,51.491142],[-0.004292,51.491238],[-0.003621,51.491375],[-0.002974,51.491553],[-0.002358,51.491769],[-0.001779,51.492022],[-0.001243,51.492309],[-0.000754,51.492628],[-0.000318,51.492975],[0.000062,51.493347],[0.000381,51.49374],[0.000637,51.494151],[0.000828,51.494576],[0.00095,51.495011],[0.001004,51.49545],[0.000989,51.495891],[0.000905,51.496329],[0.000752,51.49676],[0.000532,51.497179],[0.000247,51.497583],[-0.000099,51.497967],[-0.000505,51.498329],[-0.000965,51.498663],[-0.001475,51.498968],[-0.002031,51.499241],[-0.002319,51.499355],[-0.002242,51.499479],[-0.002051,51.499904],[-0.001928,51.500338],[-0.001874,51.500778],[-0.00189,51.501219],[-0.001974,51.501657],[-0.002127,51.502088],[-0.002347,51.502507],[-0.002632,51.502911],[-0.002686,51.502971],[-0.002536,51.50309],[-0.002156,51.503462],[-0.001837,51.503856],[-0.00158,51.504267],[-0.00139,51.504692],[-0.001267,51.505126],[-0.001213,51.505566],[-0.001229,51.506007],[-0.001313,51.506445],[-0.001466,51.506875],[-0.001686,51.507295],[-0.001971,51.507698],[-0.002317,51.508083],[-0.002723,51.508444],[-0.003183,51.508779],[-0.003694,51.509084],[-0.00425,51.509356],[-0.004846,51.509593],[-0.005476,51.509793],[-0.006135,51.509953],[-0.006816,51.510071],[-0.007512,51.510148],[-0.008217,51.510182],[-0.008924,51.510172],[-0.009625,51.510119],[-0.010315,51.510024],[-0.010987,51.509886],[-0.011634,51.509709],[-0.01225,51.509492],[-0.012829,51.509239],[-0.013366,51.508952],[-0.013854,51.508633],[-0.014291,51.508286],[-0.01467,51.507914],[-0.01499,51.507521],[-0.015189,51.5072],[-0.015707,51.507406],[-0.015888,51.507463],[-0.01592,51.507633],[-0.016074,51.508064],[-0.016294,51.508483],[-0.016578,51.508887],[-0.016925,51.509271],[-0.017331,51.509633],[-0.017791,51.509967],[-0.018302,51.510272],[-0.018858,51.510544],[-0.019454,51.510781],[-0.020085,51.510981],[-0.020744,51.51114],[-0.021253,51.511229],[-0.021177,51.51124],[-0.020505,51.511377],[-0.019858,51.511555],[-0.019242,51.511771],[-0.018663,51.512025],[-0.018127,51.512312],[-0.017638,51.512631],[-0.017202,51.512978],[-0.016822,51.51335],[-0.016502,51.513743],[-0.016246,51.514154],[-0.016056,51.514579],[-0.015933,51.515014],[-0.01588,51.515453],[-0.015895,51.515894],[-0.01598,51.516332],[-0.016133,51.516763],[-0.016353,51.517182],[-0.016638,51.517586],[-0.016985,51.51797],[-0.01739,51.518331],[-0.017851,51.518666],[-0.018362,51.518971],[-0.018918,51.519243],[-0.019514,51.51948],[-0.020145,51.51968],[-0.020804,51.519839],[-0.021485,51.519958],[-0.022181,51.520035],[-0.022886,51.520068],[-0.023593,51.520058],[-0.024295,51.520005],[-0.024985,51.51991],[-0.025657,51.519772],[-0.026304,51.519595],[-0.02692,51.519378],[-0.027499,51.519125],[-0.028036,51.518838],[-0.028524,51.518519],[-0.028961,51.518172],[-0.02934,51.5178],[-0.02966,51.517406],[-0.029916,51.516995],[-0.030106,51.51657],[-0.030229,51.516136],[-0.030282,51.515696],[-0.030267,51.515255],[-0.030182,51.514817],[-0.030028,51.514387],[-0.029808,51.513967],[-0.029523,51.513564],[-0.029176,51.513179],[-0.028771,51.512818],[-0.02831,51.512483],[-0.0278,51.512179],[-0.027243,51.511906],[-0.026647,51.511669],[-0.026016,51.51147],[-0.025793,51.511416],[-0.026413,51.511407],[-0.026423,51.511407],[-0.026441,51.511409],[-0.027146,51.511442],[-0.027834,51.511433],[-0.028031,51.511713],[-0.028378,51.512097],[-0.028784,51.512458],[-0.029245,51.512793],[-0.029465,51.512924],[-0.029475,51.512976],[-0.029628,51.513406],[-0.029848,51.513826],[-0.030133,51.514229],[-0.03048,51.514614],[-0.030886,51.514975],[-0.031346,51.515309],[-0.031857,51.515614],[-0.032414,51.515887],[-0.03301,51.516123],[-0.033641,51.516323],[-0.0343,51.516482],[-0.034981,51.516601],[-0.035677,51.516677],[-0.036382,51.516711],[-0.037089,51.516701],[-0.037791,51.516648],[-0.038481,51.516552],[-0.039153,51.516415],[-0.0398,51.516237],[-0.040415,51.51602],[-0.040994,51.515767],[-0.041531,51.51548],[-0.042019,51.515161],[-0.042456,51.514814],[-0.042835,51.514442],[-0.043154,51.514048],[-0.04341,51.513637],[-0.0436,51.513212],[-0.043723,51.512778],[-0.043776,51.512338],[-0.043767,51.512085],[-0.04377,51.512061],[-0.043754,51.51162],[-0.043702,51.511351],[-0.043718,51.511218],[-0.043707,51.5109],[-0.043885,51.511059],[-0.044346,51.511393],[-0.044857,51.511698],[-0.045413,51.51197],[-0.04601,51.512207],[-0.04664,51.512406],[-0.047299,51.512566],[-0.04798,51.512685],[-0.048677,51.512761],[-0.049381,51.512794],[-0.049504,51.512793],[-0.049535,51.512796],[-0.05024,51.512829],[-0.050946,51.512819],[-0.051648,51.512766],[-0.052338,51.512671],[-0.05301,51.512533],[-0.053657,51.512355],[-0.054273,51.512139],[-0.054851,51.511885],[-0.055388,51.511598],[-0.055876,51.511279],[-0.056312,51.510932],[-0.056692,51.51056],[-0.057011,51.510166],[-0.057266,51.509755],[-0.057456,51.50933],[-0.057578,51.508895],[-0.057632,51.508456],[-0.057616,51.508015],[-0.057555,51.507699],[-0.057563,51.507627],[-0.057548,51.507186],[-0.057462,51.506748],[-0.057309,51.506317],[-0.057089,51.505898],[-0.056803,51.505494],[-0.056456,51.50511],[-0.05605,51.504749],[-0.05559,51.504414],[-0.055079,51.50411],[-0.054523,51.503838],[-0.053926,51.503601],[-0.053296,51.503402],[-0.052637,51.503242],[-0.051956,51.503124],[-0.05126,51.503047],[-0.050555,51.503014],[-0.049849,51.503024],[-0.049147,51.503077],[-0.048457,51.503173],[-0.047785,51.50331],[-0.047139,51.503488],[-0.046523,51.503705],[-0.045944,51.503958],[-0.045408,51.504245],[-0.044919,51.504564],[-0.044483,51.504911],[-0.044104,51.505283],[-0.043886,51.505552],[-0.043694,51.505705],[-0.043314,51.506077],[-0.042995,51.506471],[-0.042739,51.506882],[-0.042549,51.507307],[-0.042427,51.507741],[-0.042373,51.508181],[-0.042385,51.5085],[-0.042206,51.508341],[-0.041745,51.508006],[-0.041234,51.507701],[-0.040681,51.50743],[-0.040567,51.507305],[-0.040162,51.506944],[-0.039701,51.506609],[-0.03919,51.506304],[-0.038634,51.506032],[-0.038038,51.505795],[-0.037407,51.505596],[-0.036748,51.505436],[-0.036068,51.505318],[-0.035371,51.505241],[-0.034667,51.505208],[-0.033979,51.505218],[-0.033781,51.504938],[-0.033434,51.504553],[-0.033029,51.504192],[-0.032568,51.503857],[-0.032058,51.503553],[-0.031501,51.50328],[-0.030905,51.503043],[-0.030275,51.502844],[-0.029616,51.502684],[-0.028935,51.502566],[-0.028239,51.502489],[-0.027534,51.502456],[-0.026828,51.502466],[-0.026818,51.502466],[-0.026799,51.502464],[-0.026264,51.502439],[-0.026219,51.502313],[-0.026141,51.502164],[-0.026719,51.502191],[-0.027426,51.502181],[-0.028127,51.502129],[-0.028817,51.502033],[-0.029489,51.501896],[-0.030136,51.501718],[-0.030751,51.501501],[-0.03133,51.501248],[-0.031867,51.500961],[-0.032355,51.500642],[-0.032791,51.500295],[-0.033171,51.499923],[-0.03349,51.499529],[-0.033746,51.499118],[-0.033936,51.498693],[-0.034058,51.498259],[-0.034063,51.49822],[-0.03472,51.498251],[-0.035426,51.498241],[-0.036128,51.498188],[-0.036818,51.498093],[-0.037031,51.498049],[-0.037099,51.498066],[-0.03778,51.498184],[-0.038476,51.498261],[-0.039181,51.498294],[-0.039887,51.498284],[-0.040589,51.498231],[-0.040908,51.498187],[-0.040918,51.498196],[-0.041378,51.49853],[-0.041889,51.498835],[-0.042445,51.499107],[-0.043041,51.499344],[-0.043672,51.499543],[-0.044331,51.499703],[-0.045011,51.499821],[-0.045707,51.499898],[-0.046412,51.499931],[-0.047119,51.499921],[-0.04782,51.499868],[-0.04851,51.499773],[-0.049182,51.499635],[-0.049828,51.499457],[-0.050444,51.499241],[-0.051023,51.498987],[-0.051415,51.498777],[-0.051612,51.498839],[-0.052271,51.498999],[-0.052951,51.499117],[-0.053647,51.499194],[-0.054352,51.499227],[-0.055059,51.499217],[-0.05576,51.499164],[-0.05645,51.499068],[-0.057122,51.498931],[-0.057768,51.498753],[-0.058384,51.498536],[-0.058962,51.498283],[-0.059499,51.497995],[-0.059987,51.497676],[-0.060423,51.497329],[-0.060802,51.496957],[-0.061121,51.496563],[-0.061377,51.496152],[-0.061566,51.495727],[-0.061688,51.495293],[-0.061742,51.494853],[-0.061726,51.494412],[-0.061641,51.493974],[-0.061487,51.493543],[-0.061267,51.493124],[-0.060982,51.492721],[-0.060635,51.492337],[-0.060229,51.491975],[-0.059769,51.491641],[-0.059258,51.491336],[-0.058702,51.491064],[-0.058273,51.490894],[-0.058208,51.49071],[-0.057988,51.490291],[-0.057702,51.489888],[-0.057355,51.489503],[-0.05695,51.489142],[-0.056489,51.488808],[-0.055979,51.488503],[-0.055422,51.488231],[-0.054826,51.487994],[-0.054196,51.487795],[-0.053537,51.487635],[-0.052857,51.487517],[-0.052161,51.487441],[-0.051456,51.487407],[-0.05075,51.487417],[-0.050049,51.48747],[-0.049359,51.487566],[-0.048687,51.487703],[-0.048041,51.487881],[-0.047425,51.488098],[-0.046847,51.488351],[-0.046311,51.488638],[-0.045823,51.488957],[-0.045387,51.489304],[-0.045007,51.489677],[-0.044688,51.49007],[-0.044433,51.490481],[-0.044388,51.490582],[-0.044089,51.490404],[-0.043533,51.490132],[-0.042937,51.489895],[-0.042306,51.489696],[-0.041648,51.489536],[-0.040967,51.489417],[-0.040271,51.489341],[-0.039567,51.489308],[-0.03886,51.489317],[-0.038159,51.48937],[-0.037469,51.489466],[-0.037256,51.48951],[-0.037188,51.489493],[-0.036883,51.48944],[-0.036386,51.489197],[-0.03579,51.48896],[-0.03516,51.488761],[-0.034501,51.488601],[-0.033821,51.488483],[-0.033125,51.488406],[-0.03242,51.488373],[-0.031714,51.488383],[-0.031012,51.488436],[-0.030323,51.488531],[-0.029651,51.488668],[-0.029005,51.488846],[-0.028389,51.489063],[-0.028075,51.4892],[-0.028116,51.48886],[-0.028101,51.488419],[-0.028016,51.487981],[-0.027863,51.487551],[-0.027643,51.487132],[-0.027358,51.486728],[-0.027011,51.486344],[-0.026606,51.485982],[-0.026146,51.485648],[-0.025635,51.485343],[-0.025079,51.48507],[-0.024483,51.484834],[-0.023853,51.484634],[-0.023194,51.484475],[-0.022514,51.484356],[-0.021818,51.484279],[-0.021114,51.484246],[-0.020408,51.484256],[-0.019706,51.484308],[-0.019016,51.484404],[-0.018989,51.48441],[-0.018975,51.48439],[-0.018629,51.484005],[-0.018223,51.483644],[-0.017763,51.483309],[-0.017253,51.483004],[-0.016697,51.482732],[-0.016101,51.482495],[-0.015471,51.482296],[-0.014813,51.482136],[-0.014654,51.482108],[-0.014661,51.482108],[-0.015351,51.482012],[-0.016022,51.481875],[-0.016669,51.481697],[-0.017284,51.481481],[-0.017863,51.481228],[-0.018399,51.48094],[-0.018887,51.480622],[-0.019323,51.480275],[-0.019703,51.479903],[-0.020022,51.479509],[-0.020278,51.479098],[-0.020468,51.478673],[-0.020591,51.478239],[-0.020644,51.477799],[-0.020629,51.477358],[-0.020544,51.47692],[-0.020391,51.476489],[-0.020171,51.47607],[-0.019886,51.475667],[-0.01954,51.475282],[-0.019135,51.474921],[-0.018675,51.474586],[-0.018164,51.474281],[-0.017609,51.474009],[-0.017586,51.474],[-0.009326,51.474]]]]},"properties":{"layer":"dataset-40032292-6737-480f-a6c1-cd49f1e57695:Water_recreation_zones","location_id":"02226","waterbody_salinity":"Coastal/Estuarine","waterbody_type":"Unclassified","list_of_recreation_types":"Marina; Multisport events; Open water venue; Paddling club; Paddling launch; Recreation site; Rowing club; Rowing events; Sailing club; Slipway","number_of_recreation_reports":33,"number_of_data_sources":7,"number_of_recreation_types":10,"swimming__activity_presence_":1,"multisports__activity_presence_":1,"paddling__activity_presence_":1,"rowing__activity_presence_":1,"sailing__activity_presence_":1,"unspecified_water_recreation__a":1,"channel_swim_sites____of_report":0,"designated_bathing_waters____of":0,"lifeguard_units____of_reports_o":0,"marinas____of_reports_of_this_t":3,"multisport_events____of_reports":4,"open_water_venues____of_reports":1,"paddling_clubs____of_reports_of":2,"paddling_events____of_reports_o":0,"paddling_launches____of_reports":4,"recreation_sites____of_reports_":6,"rowing_clubs____of_reports_of_t":3,"rowing_events____of_reports_of_":1,"sailing_clubs____of_reports_of_":5,"slipways____of_reports_of_this_":4,"surf_schools____of_reports_of_t":0,"swimming_clubs____of_reports_of":0,"swimming_events____of_reports_o":0,"easting":537113.176471465,"northing":179523.61771112983,"clipped_to_zone":true,"in_cw":true}},
{"type":"Feature","geometry":{"type":"MultiPolygon","coordinates":[[[[0.008232,51.504888],[0.008516,51.504485],[0.008863,51.5041],[0.009268,51.503739],[0.009728,51.503404],[0.010239,51.503099],[0.010794,51.502827],[0.01139,51.502589],[0.012021,51.50239],[0.012679,51.50223],[0.01336,51.502111],[0.014056,51.502034],[0.014761,51.502001],[0.015,51.502004],[0.015,51.510985],[0.014451,51.510977],[0.013749,51.510925],[0.013059,51.510829],[0.012387,51.510692],[0.01174,51.510515],[0.011124,51.510298],[0.010545,51.510045],[0.010008,51.509758],[0.009519,51.50944],[0.009083,51.509093],[0.008703,51.508721],[0.008383,51.508327],[0.008127,51.507916],[0.007936,51.507491],[0.007813,51.507057],[0.007759,51.506617],[0.007775,51.506176],[0.007859,51.505738],[0.008012,51.505308],[0.008232,51.504888]]]]},"properties":{"layer":"dataset-40032292-6737-480f-a6c1-cd49f1e57695:Water_recreation_zones","location_id":"02229","waterbody_salinity":"Coastal/Estuarine","waterbody_type":"Unclassified","list_of_recreation_types":"Multisport events; Open water venue; Recreation site; Rowing club","number_of_recreation_reports":17,"number_of_data_sources":4,"number_of_recreation_types":4,"swimming__activity_presence_":1,"multisports__activity_presence_":1,"rowing__activity_presence_":1,"channel_swim_sites____of_report":0,"designated_bathing_waters____of":0,"lifeguard_units____of_reports_o":0,"marinas____of_reports_of_this_t":0,"multisport_events____of_reports":8,"open_water_venues____of_reports":1,"paddling_clubs____of_reports_of":0,"paddling_events____of_reports_o":0,"paddling_launches____of_reports":0,"recreation_sites____of_reports_":1,"rowing_clubs____of_reports_of_t":7,"rowing_events____of_reports_of_":0,"sailing_clubs____of_reports_of_":0,"slipways____of_reports_of_this_":0,"surf_schools____of_reports_of_t":0,"swimming_clubs____of_reports_of":0,"swimming_events____of_reports_o":0,"easting":540987.6609209137,"northing":180725.86392586416,"clipped_to_zone":true,"in_cw":false}},
{"type":"Feature","geometry":{"type":"MultiPolygon","coordinates":[[[[0.015,51.501266],[0.014425,51.501294],[0.013718,51.501284],[0.013017,51.501231],[0.012327,51.501136],[0.011655,51.500999],[0.011008,51.500821],[0.010392,51.500605],[0.009813,51.500352],[0.009276,51.500065],[0.008788,51.499746],[0.008351,51.499399],[0.007971,51.499027],[0.007652,51.498634],[0.007396,51.498223],[0.007205,51.497798],[0.007082,51.497364],[0.007028,51.496924],[0.007044,51.496483],[0.007128,51.496045],[0.007281,51.495614],[0.007501,51.495195],[0.007785,51.494791],[0.008132,51.494407],[0.008537,51.494046],[0.008997,51.493711],[0.009507,51.493406],[0.010063,51.493133],[0.010659,51.492896],[0.011151,51.492741],[0.011185,51.492692],[0.011531,51.492307],[0.011937,51.491946],[0.012397,51.491611],[0.012907,51.491306],[0.013463,51.491034],[0.014058,51.490796],[0.014689,51.490597],[0.015,51.490521],[0.015,51.501266]]]]},"properties":{"layer":"dataset-40032292-6737-480f-a6c1-cd49f1e57695:Water_recreation_zones","location_id":"02242","waterbody_salinity":"Coastal/Estuarine","waterbody_type":"Unclassified","list_of_recreation_types":"Sailing club; Slipway","number_of_recreation_reports":3,"number_of_data_sources":2,"number_of_recreation_types":2,"paddling__activity_presence_":1,"sailing__activity_presence_":1,"channel_swim_sites____of_report":0,"designated_bathing_waters____of":0,"lifeguard_units____of_reports_o":0,"marinas____of_reports_of_this_t":0,"multisport_events____of_reports":0,"open_water_venues____of_reports":0,"paddling_clubs____of_reports_of":0,"paddling_events____of_reports_o":0,"paddling_launches____of_reports":0,"recreation_sites____of_reports_":0,"rowing_clubs____of_reports_of_t":0,"rowing_events____of_reports_of_":0,"sailing_clubs____of_reports_of_":2,"slipways____of_reports_of_this_":1,"surf_schools____of_reports_of_t":0,"swimming_clubs____of_reports_of":0,"swimming_events____of_reports_o":0,"easting":540047.5389597473,"northing":179354.0591336,"clipped_to_zone":true,"in_cw":false}}
]}
