{"type":"FeatureCollection","meta":{
 "source": "City of London INSPIRE map service: Cycleways",
 "borough": "City of London",
 "page": "https://www.mapping.cityoflondon.gov.uk/arcgis/rest/services/INSPIRE/MapServer/160",
 "api": "https://www.mapping.cityoflondon.gov.uk/arcgis/rest/services/INSPIRE/MapServer/160/query?where=1=1&geometry=<zone box>&geometryType=esriGeometryEnvelope&inSR=4326&spatialRel=esriSpatialRelIntersects&outFields=*&outSR=4326&f=geojson&resultOffset=<n>",
 "fetched": "2026-10-04",
 "licence": "Open Government Licence v3.0",
 "licence_evidence": "the City's INSPIRE record on data.gov.uk (cycleways1): [\"http://www.nationalarchives.gov.uk/doc/open-government-licence/version/3/\"] | [\"https://inspire.ec.europa.eu/metadata-codelist/LimitationsOnPublicAccess\", \"License\"]",
 "licence_url": "https://www.nationalarchives.gov.uk/doc/open-government-licence/version/3/",
 "attribution": "Contains public sector information licensed under the Open Government Licence v3.0 (City of London Corporation)",
 "zone": "the 3D model box, BNG E 532400-539900, N 176700-182300 (WGS84 -0.095, 51.474 to 0.015, 51.522)",
 "method": "walk-portals.mjs boroughs harvest city-cycleways: features that meet the zone box, WGS84 rounded to 6 decimals, whole geometries; whole_in_zone, in_cw; empty fields and ArcGIS shape measures left out; fields matching /e-?mail|phone|tel(ephone)?$|^tel|contact|^fax|mobile|^owner_?name|person|officer|case_?officer|agent_?name|applicant/i dropped",
 "counts": {
  "features": 23,
  "zone_count_at_walk": 23,
  "in_cw": 2
 },
 "fields_dropped": []
},
"features":[
{"type":"Feature","geometry":{"type":"MultiLineString","coordinates":[[[-0.051136,51.491465],[-0.052566,51.491057],[-0.051136,51.491465]],[[-0.051136,51.491465],[-0.050707,51.491788],[-0.050392,51.492025],[-0.050305,51.492092]],[[-0.050305,51.492092],[-0.050136,51.49222]],[[-0.050305,51.492092],[-0.050136,51.49222]],[[-0.050136,51.49222],[-0.049959,51.492369],[-0.049538,51.492696],[-0.049059,51.493072],[-0.048731,51.493331],[-0.048594,51.493439],[-0.04852,51.493534],[-0.048423,51.493614],[-0.048355,51.493646],[-0.048277,51.493681],[-0.048209,51.493694]],[[-0.052566,51.491057],[-0.052625,51.490102],[-0.052429,51.489337],[-0.051231,51.488818],[-0.04906,51.487901],[-0.047299,51.487206],[-0.048858,51.485763]],[[-0.049478,51.484398],[-0.049503,51.483044],[-0.04967,51.482274],[-0.050197,51.481533],[-0.051409,51.481071],[-0.05274,51.48096],[-0.053663,51.480942],[-0.053826,51.479964],[-0.054017,51.479832],[-0.054209,51.479586],[-0.054411,51.479303],[-0.054631,51.479075],[-0.054901,51.478758],[-0.0551,51.478339],[-0.055174,51.477734],[-0.05523,51.477312],[-0.05791,51.47744],[-0.058321,51.477423],[-0.058558,51.477439],[-0.058663,51.477447],[-0.058771,51.477371],[-0.059013,51.477268],[-0.059862,51.477026],[-0.060759,51.47675],[-0.061156,51.476608],[-0.061548,51.476561],[-0.061921,51.476537],[-0.062872,51.476339],[-0.063251,51.476178],[-0.063467,51.476057],[-0.063582,51.475859],[-0.063667,51.475641],[-0.064199,51.475679],[-0.064885,51.475681],[-0.065314,51.475612],[-0.065957,51.475546],[-0.066431,51.475516],[-0.066933,51.475543],[-0.067484,51.475476],[-0.067963,51.475322],[-0.068397,51.475148],[-0.068811,51.475089],[-0.069073,51.475026],[-0.069834,51.474687],[-0.070325,51.474551]]]},"properties":{"OBJECTID_1":11,"OBJECTID":165,"LABEL":"Q","ROUTE_NAME":"Quietway","STATUS":"Planned","PROGRAMME_":"20230627","PROGRAMME":"Quietways","SHAPE_LENG":3536.3069568,"SHAPE.LEN":3536.3075927895,"whole_in_zone":true,"in_cw":false}},
{"type":"Feature","geometry":{"type":"MultiLineString","coordinates":[[[-0.058674,51.488668],[-0.058485,51.488705],[-0.058218,51.488665],[-0.057787,51.488586],[-0.05608,51.488411],[-0.055049,51.488266],[-0.055017,51.488374],[-0.054685,51.488308],[-0.054339,51.488218],[-0.05383,51.48808],[-0.05288,51.487791],[-0.051303,51.48728],[-0.050116,51.486725],[-0.049344,51.486142],[-0.048858,51.485763],[-0.048994,51.485624],[-0.049122,51.485485],[-0.049238,51.485326],[-0.04932,51.485148],[-0.049369,51.484991],[-0.049419,51.48482],[-0.049472,51.484517],[-0.049478,51.484398],[-0.04851,51.484375],[-0.046244,51.484321],[-0.042672,51.484274],[-0.042584,51.484291],[-0.042497,51.484316],[-0.042438,51.484342],[-0.042423,51.484351],[-0.042364,51.484386],[-0.04229,51.484439],[-0.042071,51.484386],[-0.041645,51.484008],[-0.041623,51.483978],[-0.041528,51.483838],[-0.041429,51.483615],[-0.041372,51.483533],[-0.041255,51.483439],[-0.041148,51.483366],[-0.040894,51.483284],[-0.0408,51.483132],[-0.040743,51.483102],[-0.039728,51.482787],[-0.039198,51.482979],[-0.038999,51.483083],[-0.038864,51.483212],[-0.038609,51.483461],[-0.038407,51.483681],[-0.037356,51.483286],[-0.036415,51.48293],[-0.035613,51.482627],[-0.034195,51.482096],[-0.033642,51.481893],[-0.032768,51.481556],[-0.03251,51.481406],[-0.032325,51.48134],[-0.03118,51.481011],[-0.0308,51.480605],[-0.030325,51.480626],[-0.030221,51.480634],[-0.030207,51.480635],[-0.030135,51.480641],[-0.029661,51.480702],[-0.028845,51.480782],[-0.02849,51.480817],[-0.028424,51.480822],[-0.02822,51.480838],[-0.028188,51.480786],[-0.028124,51.480541],[-0.028058,51.480287],[-0.02804,51.480227],[-0.027738,51.480228],[-0.027303,51.480039],[-0.027013,51.479983],[-0.026841,51.47998],[-0.026783,51.479979],[-0.026254,51.480043],[-0.026213,51.479835],[-0.026209,51.479794],[-0.026203,51.479744],[-0.025987,51.479724],[-0.025895,51.479648],[-0.025454,51.479455],[-0.025322,51.479469],[-0.02517,51.479496],[-0.025005,51.479436],[-0.024852,51.479364],[-0.02476,51.479279],[-0.024541,51.479229],[-0.02406,51.479249],[-0.023112,51.479288],[-0.022981,51.479225],[-0.022974,51.479141],[-0.022324,51.479193],[-0.021966,51.479224],[-0.021355,51.479276],[-0.020777,51.479329],[-0.020517,51.479352],[-0.020767,51.47891],[-0.020813,51.478825],[-0.020942,51.478514],[-0.020994,51.478299],[-0.021024,51.478164],[-0.020963,51.478158],[-0.019851,51.478063],[-0.019102,51.477996],[-0.018978,51.477984],[-0.018188,51.477781],[-0.017705,51.477845],[-0.017714,51.477884],[-0.017708,51.478369],[-0.017668,51.478944],[-0.017651,51.479007],[-0.017591,51.47906],[-0.017559,51.479082],[-0.01719,51.479341],[-0.017036,51.479248],[-0.016963,51.479205],[-0.01691,51.479174],[-0.015396,51.478523],[-0.015256,51.478463],[-0.014295,51.478356],[-0.014137,51.478358],[-0.013686,51.478368],[-0.013213,51.478407],[-0.013131,51.478414],[-0.012964,51.478514],[-0.01164,51.479392],[-0.011529,51.479485],[-0.011287,51.479568],[-0.01097,51.479658],[-0.010533,51.479765],[-0.010153,51.479878],[-0.009787,51.480024],[-0.009246,51.48002],[-0.00854,51.479682],[-0.008155,51.479475],[-0.006965,51.479772]],[[-0.058674,51.488668],[-0.058891,51.488635],[-0.059472,51.488537],[-0.059559,51.488511],[-0.060349,51.488578],[-0.060719,51.488675],[-0.060876,51.488704],[-0.060963,51.488706],[-0.060977,51.488706],[-0.061093,51.488699],[-0.061861,51.488586],[-0.06223,51.488518],[-0.062648,51.488434],[-0.063123,51.488418],[-0.063193,51.488419],[-0.063437,51.488432],[-0.063531,51.488443],[-0.063609,51.488453],[-0.06404,51.488496],[-0.064112,51.488497],[-0.06417,51.488489],[-0.064344,51.488447],[-0.064447,51.48842],[-0.064542,51.488395],[-0.064796,51.488328],[-0.064911,51.488321],[-0.066179,51.488333],[-0.06627,51.488335],[-0.066278,51.488335],[-0.066279,51.488335],[-0.067339,51.488478],[-0.068217,51.488607],[-0.068987,51.488723],[-0.069505,51.488703],[-0.070056,51.488743],[-0.071653,51.48899],[-0.072097,51.48906],[-0.07224,51.489089],[-0.072468,51.489147],[-0.072981,51.489272],[-0.073468,51.489343],[-0.074095,51.489506],[-0.074379,51.489583],[-0.074478,51.48963],[-0.074548,51.489685],[-0.074562,51.489703],[-0.07456,51.489739],[-0.074543,51.489811],[-0.074187,51.49038],[-0.074112,51.490469],[-0.073946,51.490628],[-0.074343,51.490797],[-0.075403,51.491273],[-0.075328,51.491352],[-0.075665,51.491547],[-0.075863,51.491649],[-0.076354,51.491922],[-0.076777,51.492158],[-0.078382,51.493057],[-0.07841,51.493075],[-0.07918,51.493601],[-0.079404,51.493766],[-0.079529,51.493867],[-0.079779,51.49409],[-0.079807,51.494114],[-0.079932,51.494215],[-0.080466,51.494548],[-0.081157,51.494901],[-0.081431,51.494939],[-0.081737,51.495153],[-0.081988,51.495337],[-0.082894,51.495943],[-0.083016,51.495903],[-0.083574,51.496263],[-0.083842,51.496445],[-0.08447,51.49686],[-0.084863,51.497061],[-0.085103,51.497184],[-0.085225,51.497256],[-0.085352,51.497313],[-0.085403,51.497389]],[[-0.085394,51.497378],[-0.08563,51.497305],[-0.085953,51.497335],[-0.086191,51.497492],[-0.086277,51.497503],[-0.086733,51.497247],[-0.086928,51.497138],[-0.087799,51.496697],[-0.088529,51.497379],[-0.090139,51.498878],[-0.090902,51.499574],[-0.090931,51.499566],[-0.091726,51.499227],[-0.092134,51.49903],[-0.092596,51.498694],[-0.093106,51.498891],[-0.093858,51.499173],[-0.094412,51.499371],[-0.0956,51.499893],[-0.095661,51.499917],[-0.095912,51.500015],[-0.09648,51.500204],[-0.097192,51.500414],[-0.097662,51.500547],[-0.098358,51.500775],[-0.098643,51.500869],[-0.09888,51.500993],[-0.099044,51.500913],[-0.099241,51.500875],[-0.099872,51.500763],[-0.100046,51.500739],[-0.100523,51.500693],[-0.100653,51.500695],[-0.100681,51.500695],[-0.100782,51.500697],[-0.103184,51.500799],[-0.103371,51.500811],[-0.104188,51.500905],[-0.104633,51.50096],[-0.105562,51.501045],[-0.105741,51.501062],[-0.105867,51.501076],[-0.106725,51.501225],[-0.10774,51.501421],[-0.107911,51.501478],[-0.107996,51.501515],[-0.109391,51.502253],[-0.109504,51.502331],[-0.109717,51.502833],[-0.10982,51.503046],[-0.109827,51.503061],[-0.110126,51.503663],[-0.110824,51.504906],[-0.110877,51.504997],[-0.110999,51.505196],[-0.111135,51.505385],[-0.111381,51.505724],[-0.111817,51.506325],[-0.112145,51.506744],[-0.114052,51.506289],[-0.114242,51.506229],[-0.114373,51.506186],[-0.115032,51.505936],[-0.115399,51.505771],[-0.115472,51.505736],[-0.115828,51.505499],[-0.116021,51.505349],[-0.116201,51.505181],[-0.116246,51.505137],[-0.116503,51.504844],[-0.116735,51.504556],[-0.116746,51.504542],[-0.116914,51.50432],[-0.117019,51.504156],[-0.117022,51.504151],[-0.117333,51.50359],[-0.117424,51.503419],[-0.117687,51.502832],[-0.118412,51.501138],[-0.118514,51.500792]]]},"properties":{"OBJECTID_1":14,"OBJECTID":180,"LABEL":"C10","ROUTE_NAME":"Cycleway 10","STATUS":"Open","PROGRAMME_":"20230627","PROGRAMME":"Cycleways","SHAPE_LENG":10542.6843963,"SHAPE.LEN":10542.6839613419,"whole_in_zone":false,"in_cw":false}},
{"type":"Feature","geometry":{"type":"LineString","coordinates":[[0.015935,51.469909],[0.014408,51.469899],[0.014235,51.469893],[0.013846,51.469882],[0.013317,51.46987],[0.013282,51.469941],[0.011434,51.470301],[0.011157,51.470351],[0.009285,51.470589],[0.005001,51.471204],[0.004779,51.471245],[0.004115,51.472163],[0.003988,51.472326],[0.003702,51.472664],[0.0034,51.473001],[0.003362,51.473031],[0.003338,51.473068],[0.003317,51.473105],[0.003284,51.473136],[0.00292,51.473549],[0.001425,51.47524],[0.000589,51.476185],[0.000445,51.476139],[0.000423,51.476132],[0.000357,51.476126],[0.000272,51.476118],[0.000121,51.476139],[0.00011,51.47614],[-0.000671,51.476462],[-0.001159,51.476663],[-0.001878,51.476977],[-0.002464,51.477233],[-0.003534,51.477697],[-0.003752,51.477787],[-0.004429,51.478066],[-0.004793,51.478225],[-0.004857,51.478253],[-0.005321,51.478469],[-0.005959,51.478766],[-0.006206,51.478933],[-0.006385,51.479103],[-0.006535,51.479245],[-0.00665,51.479399],[-0.006779,51.47952],[-0.006875,51.479657],[-0.006965,51.479772]]},"properties":{"OBJECTID_1":16,"OBJECTID":182,"LABEL":"C10","ROUTE_NAME":"Cycleway 10","STATUS":"Planned","PROGRAMME_":"20230627","PROGRAMME":"Cycleways","SHAPE_LENG":2102.17949709,"SHAPE.LEN":2102.17857032097,"whole_in_zone":false,"in_cw":false}},
{"type":"Feature","geometry":{"type":"LineString","coordinates":[[-0.072468,51.489147],[-0.072529,51.489042],[-0.072561,51.488987],[-0.072641,51.488799],[-0.071768,51.488686],[-0.071609,51.488665],[-0.072158,51.488112],[-0.072364,51.487913],[-0.072692,51.487586],[-0.072993,51.487276],[-0.072726,51.487174],[-0.071958,51.486882],[-0.072262,51.4865],[-0.072444,51.486287],[-0.072506,51.486198],[-0.072538,51.486109],[-0.072758,51.484314],[-0.07261,51.483727],[-0.072339,51.483092],[-0.072968,51.482873],[-0.073978,51.48295],[-0.074068,51.482955],[-0.07407,51.482906],[-0.074073,51.482833],[-0.074078,51.482726],[-0.074044,51.482168],[-0.074066,51.481988],[-0.074072,51.481844],[-0.074074,51.48179],[-0.074069,51.481566],[-0.07406,51.48144],[-0.074054,51.481275],[-0.074114,51.48113],[-0.074112,51.480467],[-0.074109,51.48032],[-0.074103,51.480073],[-0.074064,51.47929],[-0.074052,51.479227],[-0.074028,51.479119],[-0.073962,51.478956],[-0.073911,51.478829],[-0.073675,51.478268],[-0.073583,51.478062],[-0.07357,51.478032],[-0.073267,51.477371],[-0.073173,51.477189],[-0.073119,51.477108],[-0.07295,51.476691],[-0.072715,51.476112],[-0.072311,51.475089],[-0.072144,51.474619],[-0.072106,51.47451],[-0.072052,51.474401],[-0.072039,51.474383],[-0.072011,51.474365],[-0.071968,51.474346],[-0.071752,51.474351],[-0.071564,51.474366],[-0.071462,51.474379],[-0.071174,51.474414],[-0.070325,51.474551]]},"properties":{"OBJECTID_1":18,"OBJECTID":184,"LABEL":"C35","ROUTE_NAME":"Cycleway 35","STATUS":"Open","PROGRAMME_":"20230627","PROGRAMME":"Cycleways","SHAPE_LENG":2037.3474945,"SHAPE.LEN":2037.34757735436,"whole_in_zone":true,"in_cw":false}},
{"type":"Feature","geometry":{"type":"LineString","coordinates":[[0.001559,51.484781],[0.001999,51.485185],[0.002424,51.485363],[0.002925,51.485319],[0.003458,51.485146],[0.003965,51.485096],[0.004281,51.485082],[0.005506,51.485312],[0.007352,51.485893],[0.008383,51.486263],[0.009371,51.48636],[0.01178,51.486187],[0.014388,51.48606],[0.014828,51.486079],[0.01518,51.486148],[0.015608,51.486238],[0.017453,51.486485],[0.018544,51.486609],[0.020039,51.486798],[0.020932,51.486701],[0.021679,51.486656],[0.022639,51.486645],[0.023241,51.486943],[0.024057,51.487156],[0.02664,51.487397],[0.029337,51.487636],[0.031351,51.487923]]},"properties":{"OBJECTID_1":25,"OBJECTID":168,"LABEL":"C4","ROUTE_NAME":"Cycleway 4","STATUS":"Open","PROGRAMME_":"20230627","PROGRAMME":"Cycleways","SHAPE_LENG":2171.11746176,"SHAPE.LEN":2171.11849204414,"whole_in_zone":false,"in_cw":false}},
{"type":"Feature","geometry":{"type":"LineString","coordinates":[[-0.085403,51.497389],[-0.086115,51.498443],[-0.086157,51.498673],[-0.08602,51.498916],[-0.085805,51.499228],[-0.085595,51.499449],[-0.085404,51.499709],[-0.085082,51.500344],[-0.085208,51.50054]]},"properties":{"OBJECTID_1":28,"OBJECTID":171,"LABEL":"C","ROUTE_NAME":"Cycleway","STATUS":"Planned","PROGRAMME_":"20230627","PROGRAMME":"Cycleways","SHAPE_LENG":377.33394958,"SHAPE.LEN":377.33431377266805,"whole_in_zone":true,"in_cw":false}},
{"type":"Feature","geometry":{"type":"MultiLineString","coordinates":[[[-0.025902,51.444011],[-0.026014,51.444058],[-0.025957,51.444129],[-0.025601,51.44428],[-0.025417,51.444354],[-0.025281,51.444388],[-0.02518,51.444413],[-0.02515,51.44443],[-0.02513,51.444556],[-0.025121,51.444763],[-0.025118,51.444843],[-0.025166,51.44506],[-0.025216,51.445232],[-0.025266,51.445361],[-0.025358,51.445603],[-0.025332,51.44572],[-0.025425,51.445889],[-0.02543,51.445914],[-0.02543,51.445943],[-0.025423,51.445975],[-0.025266,51.446511],[-0.025264,51.446516],[-0.02538,51.446535],[-0.025843,51.446591],[-0.025968,51.446588],[-0.026069,51.446572],[-0.0262,51.44653],[-0.02639,51.446467],[-0.026465,51.446482],[-0.026522,51.446503],[-0.026561,51.446613],[-0.026676,51.447063],[-0.026763,51.447246],[-0.026681,51.447626],[-0.026582,51.448019],[-0.026581,51.448025],[-0.026556,51.448142],[-0.026467,51.448745],[-0.026385,51.449342],[-0.0259,51.449519],[-0.025859,51.449755],[-0.025209,51.450109],[-0.024767,51.450374],[-0.02448,51.450618],[-0.023943,51.451082],[-0.023931,51.451143],[-0.023912,51.451191],[-0.023893,51.451228],[-0.023871,51.451264],[-0.023836,51.451308],[-0.023782,51.451362],[-0.023739,51.451397],[-0.023684,51.451442],[-0.023581,51.451517],[-0.023524,51.451547],[-0.023445,51.451575],[-0.023365,51.4516],[-0.023288,51.45162],[-0.02318,51.451635],[-0.023102,51.451643],[-0.023032,51.451648],[-0.022943,51.451701],[-0.022774,51.451811],[-0.022656,51.451909],[-0.022127,51.452788],[-0.02135,51.454114],[-0.020819,51.455059],[-0.020739,51.455246],[-0.020674,51.455416],[-0.020657,51.455479],[-0.020618,51.455721],[-0.020614,51.45582],[-0.020625,51.455878],[-0.020661,51.456063],[-0.020741,51.456532],[-0.01986,51.456616],[-0.019831,51.456616],[-0.019834,51.456702],[-0.019843,51.456994],[-0.019863,51.45721],[-0.019113,51.458231],[-0.018752,51.458135],[-0.018359,51.45803],[-0.01833,51.458029],[-0.017186,51.459521],[-0.017154,51.459583],[-0.017096,51.461273],[-0.017011,51.461592],[-0.016961,51.461764],[-0.017048,51.462027],[-0.016814,51.462131],[-0.016574,51.462237],[-0.016551,51.462247],[-0.016417,51.462304],[-0.016374,51.462329],[-0.016272,51.462501],[-0.016115,51.462784],[-0.016065,51.462873],[-0.01603,51.462936],[-0.015955,51.463016],[-0.01588,51.463087],[-0.015775,51.463166],[-0.01541,51.463366],[-0.015186,51.463488],[-0.015096,51.463568],[-0.015064,51.46363],[-0.015063,51.463666],[-0.01507,51.463837],[-0.015076,51.463948],[-0.015109,51.464476],[-0.015112,51.464521],[-0.01504,51.464524],[-0.014795,51.464534],[-0.01455,51.464539],[-0.014603,51.465146],[-0.014607,51.465196],[-0.01462,51.465241],[-0.014633,51.465278],[-0.014674,51.465332],[-0.014757,51.465397],[-0.015038,51.465563],[-0.015482,51.46576],[-0.015919,51.465919],[-0.015827,51.466138],[-0.015722,51.466347],[-0.015703,51.466384],[-0.015654,51.466467],[-0.015305,51.466747]],[[-0.015308,51.466749],[-0.01576,51.466935],[-0.016053,51.467055],[-0.016109,51.467092],[-0.01625,51.467336],[-0.016511,51.467459],[-0.016538,51.467495],[-0.016565,51.467532],[-0.016527,51.467714],[-0.016537,51.467831],[-0.016629,51.468054],[-0.016419,51.468435],[-0.016528,51.468557],[-0.016893,51.468899],[-0.01671,51.469178],[-0.016699,51.469431],[-0.016952,51.46987],[-0.017596,51.470975],[-0.01781,51.471366],[-0.017929,51.471601],[-0.017941,51.471656],[-0.017926,51.471682],[-0.017911,51.471691],[-0.017768,51.471792],[-0.017708,51.472482],[-0.01788,51.473105],[-0.01817,51.473208],[-0.018165,51.473249],[-0.018139,51.473391],[-0.017964,51.473787],[-0.017935,51.473843],[-0.017421,51.473851],[-0.016297,51.474038],[-0.015137,51.474225],[-0.014557,51.474314],[-0.014372,51.474257],[-0.014275,51.474214],[-0.014175,51.474173],[-0.014031,51.47417],[-0.013742,51.474183],[-0.013641,51.474191],[-0.013583,51.474199],[-0.013452,51.474232],[-0.013364,51.474262],[-0.012809,51.474446],[-0.012727,51.474481],[-0.012706,51.47449],[-0.01259,51.474538],[-0.011676,51.475012],[-0.011528,51.47509],[-0.011277,51.475239],[-0.010597,51.475641],[-0.010464,51.475719],[-0.010198,51.475877],[-0.009931,51.476052],[-0.009812,51.47614],[-0.009753,51.476184],[-0.009692,51.476255],[-0.009631,51.476326],[-0.009586,51.476379],[-0.009507,51.476531],[-0.009491,51.476575],[-0.009469,51.476737],[-0.009476,51.476926],[-0.009514,51.477043],[-0.009567,51.477143],[-0.009622,51.477207],[-0.009677,51.477262],[-0.009746,51.477326],[-0.01005,51.477619],[-0.01016,51.477738],[-0.010256,51.477847],[-0.010324,51.477938],[-0.010392,51.478047],[-0.010076,51.478247],[-0.009515,51.478603],[-0.00941,51.478669],[-0.008155,51.479475]]]},"properties":{"OBJECTID_1":32,"OBJECTID":175,"LABEL":"C18","ROUTE_NAME":"Cycleway 18","STATUS":"In Progress","PROGRAMME_":"20230627","PROGRAMME":"Cycleways","SHAPE_LENG":5114.85900933,"SHAPE.LEN":5114.85768278145,"whole_in_zone":false,"in_cw":false}},
{"type":"Feature","geometry":{"type":"LineString","coordinates":[[-0.100176,51.537401],[-0.096653,51.536177],[-0.096216,51.535735],[-0.09609,51.535436],[-0.095662,51.535072],[-0.095448,51.534935],[-0.095307,51.534816],[-0.095189,51.534621],[-0.094779,51.534275],[-0.093586,51.533304],[-0.093602,51.533268],[-0.093604,51.533223],[-0.093591,51.533178],[-0.09333,51.532805],[-0.093292,51.532751],[-0.093143,51.532506],[-0.093077,51.532361],[-0.092961,51.532035],[-0.09291,51.531881],[-0.092877,51.53146],[-0.092689,51.53096],[-0.092199,51.529568],[-0.091855,51.528492],[-0.091648,51.528221],[-0.091578,51.527978],[-0.091502,51.527727],[-0.09111,51.526564],[-0.091034,51.526213],[-0.090834,51.52558],[-0.090716,51.525052],[-0.090616,51.524708],[-0.089829,51.523098],[-0.089861,51.521433],[-0.089973,51.520755],[-0.090339,51.52081]]},"properties":{"OBJECTID_1":45,"OBJECTID":264,"LABEL":"C11","ROUTE_NAME":"Cycleway 11","STATUS":"Open","PROGRAMME_":"20230627","PROGRAMME":"Cycleways","SHAPE_LENG":2123.4924294,"SHAPE.LEN":2123.49260196057,"whole_in_zone":false,"in_cw":false}},
{"type":"Feature","geometry":{"type":"LineString","coordinates":[[-0.033633,51.521631],[-0.03373,51.52179],[-0.033932,51.522094],[-0.034226,51.523049],[-0.034241,51.523078],[-0.034241,51.52311],[-0.034248,51.52314],[-0.034258,51.52317],[-0.034452,51.523967],[-0.034563,51.524416],[-0.034795,51.525086]]},"properties":{"OBJECTID_1":61,"OBJECTID":280,"LABEL":"C37","ROUTE_NAME":"Cycleway 37","STATUS":"Open","PROGRAMME_":"20230627","PROGRAMME":"Cycleways","SHAPE_LENG":393.83602477,"SHAPE.LEN":393.836797519632,"whole_in_zone":false,"in_cw":false}},
{"type":"Feature","geometry":{"type":"MultiLineString","coordinates":[[[-0.072933,51.511286],[-0.073,51.511412],[-0.073037,51.511548],[-0.073166,51.512261],[-0.073299,51.513207],[-0.073308,51.513241],[-0.073401,51.513505],[-0.073545,51.513849],[-0.073994,51.514446]],[[-0.072931,51.511285],[-0.072835,51.511167],[-0.072796,51.511085],[-0.072761,51.510887],[-0.072751,51.510437],[-0.072753,51.510383],[-0.072769,51.510339],[-0.072816,51.510267],[-0.072958,51.510109]]]},"properties":{"OBJECTID_1":69,"OBJECTID":196,"LABEL":"C","ROUTE_NAME":"Cycleway","STATUS":"Open","PROGRAMME_":"20230627","PROGRAMME":"Cycleways","SHAPE_LENG":498.68009472,"SHAPE.LEN":498.679801669325,"whole_in_zone":true,"in_cw":false}},
{"type":"Feature","geometry":{"type":"MultiLineString","coordinates":[[[-0.077845,51.549643],[-0.077735,51.549515],[-0.07768,51.549451],[-0.077063,51.548677],[-0.07741,51.548673],[-0.078059,51.548675],[-0.07875,51.548704],[-0.078923,51.548024],[-0.07904,51.547431],[-0.079139,51.546929],[-0.079142,51.546912],[-0.079269,51.546303],[-0.080722,51.54641],[-0.080737,51.546344],[-0.080827,51.545955],[-0.080916,51.545552],[-0.081061,51.544853],[-0.081061,51.544844],[-0.081204,51.544199],[-0.081468,51.543052],[-0.081521,51.542837],[-0.081863,51.541462],[-0.081933,51.54116],[-0.080656,51.540893],[-0.081172,51.539102],[-0.081374,51.538514],[-0.081502,51.538141],[-0.081717,51.53749],[-0.081817,51.537069],[-0.081823,51.537033],[-0.081841,51.536925],[-0.081914,51.536567],[-0.082075,51.535814],[-0.082294,51.535559],[-0.08258,51.535363],[-0.082659,51.535302],[-0.082825,51.535125],[-0.082866,51.535066],[-0.082887,51.535036],[-0.08292,51.53492],[-0.082914,51.534731],[-0.082964,51.533877],[-0.083051,51.533195],[-0.08307,51.53307],[-0.083077,51.532913],[-0.083079,51.532854],[-0.083046,51.532278],[-0.083009,51.531839],[-0.08299,51.531701],[-0.082961,51.531484],[-0.082941,51.531341],[-0.082937,51.531263],[-0.082933,51.531188],[-0.082926,51.531017],[-0.082928,51.530963],[-0.082932,51.530864],[-0.082939,51.530694],[-0.082942,51.53063],[-0.082943,51.530604],[-0.082945,51.530559],[-0.08296,51.530492],[-0.083016,51.530236],[-0.083097,51.530022],[-0.083113,51.529986],[-0.083179,51.529905],[-0.083271,51.529792],[-0.083295,51.529758],[-0.083458,51.529275],[-0.083606,51.528836],[-0.083626,51.528762],[-0.083629,51.528699],[-0.083631,51.528646],[-0.083631,51.528625],[-0.083641,51.52807],[-0.083634,51.52789],[-0.083645,51.52763],[-0.083654,51.527405],[-0.083666,51.527135],[-0.083867,51.526142],[-0.083986,51.525907],[-0.083826,51.525825],[-0.083888,51.525619],[-0.083958,51.525324],[-0.084387,51.523352],[-0.084423,51.523173],[-0.084473,51.522661],[-0.084626,51.521925],[-0.085008,51.520907],[-0.085072,51.520747],[-0.085247,51.520363],[-0.085263,51.520336],[-0.086499,51.52041],[-0.086803,51.520449],[-0.087118,51.520466],[-0.087426,51.520501],[-0.087733,51.520538],[-0.089715,51.520723]],[[-0.073721,51.601927],[-0.074113,51.601883],[-0.074225,51.60187],[-0.074341,51.601854],[-0.074821,51.601781],[-0.075257,51.601699],[-0.075359,51.601673],[-0.075403,51.601656],[-0.075419,51.601629],[-0.075423,51.601539],[-0.075394,51.601363],[-0.075331,51.600971],[-0.075334,51.600917],[-0.075364,51.600891],[-0.075437,51.600856],[-0.075973,51.600811],[-0.076032,51.600785],[-0.07604,51.600781],[-0.076047,51.600776],[-0.076077,51.60075],[-0.076156,51.600256],[-0.076159,51.600176],[-0.076127,51.599905],[-0.076103,51.599797],[-0.075984,51.599122],[-0.075946,51.5989],[-0.075874,51.598494],[-0.075947,51.59847],[-0.07603,51.598446],[-0.076155,51.598404],[-0.076083,51.598067],[-0.076064,51.59798],[-0.075981,51.597565],[-0.075756,51.596392],[-0.075709,51.59614],[-0.07567,51.595698],[-0.075638,51.595077],[-0.075614,51.594286],[-0.075989,51.594179],[-0.075824,51.593812],[-0.07593,51.593757],[-0.075925,51.593584],[-0.076075,51.593286],[-0.076496,51.592196],[-0.076675,51.591731],[-0.076691,51.591677],[-0.076708,51.591624],[-0.076744,51.59077],[-0.076758,51.590447],[-0.076794,51.589593],[-0.0768,51.589458],[-0.075423,51.589229],[-0.074491,51.589087],[-0.074333,51.589067],[-0.073989,51.589016],[-0.073932,51.589006],[-0.073764,51.588962],[-0.072856,51.588608],[-0.072606,51.588472],[-0.072255,51.587987],[-0.072132,51.587812],[-0.072099,51.587757],[-0.072077,51.58772],[-0.072066,51.587698],[-0.071959,51.587476],[-0.071746,51.587027],[-0.071623,51.586541],[-0.071552,51.586159],[-0.07176,51.585508],[-0.07184,51.585227],[-0.072098,51.584448],[-0.07212,51.584171],[-0.072235,51.583472],[-0.072304,51.582819],[-0.072374,51.582497],[-0.072374,51.582488],[-0.072706,51.580325],[-0.07284,51.579733],[-0.073279,51.579579],[-0.073584,51.579478],[-0.073593,51.579394],[-0.073631,51.579056],[-0.073846,51.578736],[-0.07395,51.578748],[-0.073953,51.578748],[-0.074408,51.578763],[-0.07448,51.578755],[-0.074496,51.578728],[-0.074525,51.578657],[-0.074528,51.578648],[-0.074531,51.578594],[-0.074499,51.578499],[-0.074439,51.577992],[-0.074421,51.577423],[-0.074426,51.577306],[-0.074827,51.577394],[-0.075177,51.577473],[-0.075656,51.577578],[-0.075766,51.577364],[-0.075775,51.577328],[-0.075801,51.577221],[-0.075802,51.577185],[-0.075827,51.576601],[-0.075654,51.576598],[-0.075583,51.576579],[-0.075555,51.57656],[-0.075541,51.576533],[-0.075544,51.576479],[-0.075725,51.575952],[-0.075849,51.575738],[-0.075872,51.575711],[-0.075895,51.575685],[-0.076319,51.575206],[-0.076425,51.575091],[-0.076537,51.574977],[-0.077119,51.574383],[-0.077233,51.574403],[-0.077341,51.574304],[-0.077526,51.574057],[-0.077529,51.574053],[-0.077797,51.573693],[-0.078303,51.572981],[-0.078382,51.572839],[-0.078623,51.572249],[-0.078639,51.572205],[-0.078691,51.571999],[-0.078734,51.571658],[-0.078773,51.571092],[-0.078766,51.570854],[-0.078758,51.570557],[-0.07894,51.570546],[-0.079272,51.570533],[-0.079518,51.570528],[-0.079648,51.570522],[-0.079735,51.570514],[-0.079909,51.57049],[-0.080186,51.570431],[-0.080623,51.570322],[-0.082215,51.569871],[-0.081646,51.56899],[-0.081525,51.568781],[-0.081209,51.568056],[-0.081145,51.567866],[-0.081018,51.567451],[-0.081022,51.567363],[-0.081028,51.567235],[-0.081089,51.566795],[-0.081139,51.566302],[-0.08108,51.565853],[-0.081037,51.565634],[-0.080937,51.565282],[-0.080924,51.565246],[-0.080844,51.565074],[-0.080724,51.564847],[-0.080602,51.564665],[-0.080451,51.564474],[-0.080049,51.564081],[-0.079874,51.563907],[-0.079691,51.563688],[-0.079336,51.563206],[-0.078715,51.562188],[-0.078815,51.562182],[-0.078886,51.562177],[-0.079048,51.562167],[-0.078983,51.561644],[-0.078982,51.561612],[-0.078973,51.561453],[-0.078927,51.560573],[-0.07891,51.560303],[-0.07889,51.560087],[-0.078746,51.560093],[-0.078586,51.560109],[-0.078504,51.559316],[-0.078496,51.559208],[-0.078476,51.558965],[-0.078426,51.558443],[-0.078394,51.558181],[-0.078395,51.558154],[-0.07841,51.558137],[-0.078455,51.558092],[-0.078734,51.557971],[-0.078764,51.557945],[-0.078809,51.5579],[-0.07884,51.557865],[-0.078852,51.557788],[-0.078858,51.557749],[-0.078879,51.557623],[-0.078891,51.557553],[-0.078917,51.557408],[-0.078942,51.557147],[-0.078946,51.557116],[-0.078963,51.556986],[-0.079051,51.556492],[-0.079077,51.556349],[-0.079096,51.556232],[-0.079116,51.556098],[-0.079177,51.555685],[-0.079214,51.555479],[-0.079244,51.55512],[-0.0792,51.55505],[-0.079194,51.55501],[-0.079212,51.554797],[-0.079191,51.554725],[-0.079209,51.554652],[-0.079241,51.554508],[-0.079277,51.554338],[-0.079309,51.554215],[-0.079331,51.554129],[-0.079414,51.55381],[-0.079433,51.553711],[-0.079433,51.553702],[-0.079435,51.553666],[-0.079392,51.553601],[-0.079361,51.553534],[-0.079314,51.553502],[-0.079264,51.553472],[-0.079176,51.553403],[-0.079151,51.553361],[-0.079132,51.553319],[-0.079107,51.553229],[-0.079049,51.552895],[-0.079038,51.552814],[-0.07903,51.552652],[-0.079026,51.552539],[-0.079074,51.551952],[-0.079133,51.551935],[-0.079207,51.551891],[-0.079296,51.55182],[-0.079393,51.5517],[-0.078978,51.551265],[-0.078536,51.550684],[-0.077995,51.549839],[-0.077973,51.549809],[-0.07794,51.549766],[-0.077844,51.549647]],[[-0.063441,51.617471],[-0.062085,51.620771],[-0.061774,51.621417],[-0.061624,51.621997],[-0.061554,51.622262],[-0.061184,51.623247],[-0.061144,51.623325]],[[-0.062391,51.620051],[-0.062381,51.620058]],[[-0.061144,51.623325],[-0.06119,51.623247]],[[-0.060199,51.624824],[-0.060347,51.624787],[-0.060508,51.624634],[-0.060547,51.624562],[-0.060669,51.624335],[-0.060992,51.623583],[-0.061144,51.623325]],[[-0.05983,51.625185],[-0.059804,51.625098],[-0.05979,51.625006],[-0.059789,51.625001],[-0.059795,51.624996],[-0.059898,51.62491],[-0.059943,51.624888],[-0.060071,51.624856],[-0.060199,51.624824]],[[-0.05983,51.625185],[-0.059938,51.625246],[-0.060298,51.625243],[-0.060398,51.625212],[-0.060568,51.625152],[-0.060643,51.625108],[-0.060688,51.625055],[-0.060705,51.62501],[-0.060693,51.624938],[-0.060624,51.624874],[-0.06048,51.624824],[-0.060369,51.624815],[-0.060199,51.624824]],[[-0.05983,51.625185],[-0.059769,51.625265],[-0.059739,51.625291],[-0.059694,51.625326],[-0.059636,51.625343],[-0.059446,51.625385],[-0.059292,51.625405],[-0.059141,51.625425],[-0.05882,51.625492],[-0.058645,51.625543],[-0.058441,51.625634],[-0.058028,51.625828],[-0.057824,51.626015],[-0.057793,51.626088],[-0.057789,51.626097],[-0.05717,51.626588],[-0.057018,51.626748],[-0.056908,51.626896],[-0.05688,51.626934],[-0.056741,51.627148],[-0.056699,51.627235],[-0.056632,51.627374],[-0.056442,51.627727],[-0.056393,51.627852],[-0.05631,51.628121],[-0.056297,51.628227],[-0.056261,51.629045],[-0.056194,51.629801],[-0.056076,51.630096],[-0.05594,51.630377],[-0.05561,51.630795],[-0.055347,51.631194],[-0.054736,51.6321],[-0.054119,51.632946],[-0.053743,51.633385],[-0.053465,51.633745],[-0.053229,51.634055],[-0.052917,51.634514],[-0.052585,51.634954],[-0.052408,51.635173],[-0.052188,51.63539],[-0.051923,51.635645],[-0.051909,51.635659],[-0.051453,51.636066],[-0.051352,51.636149],[-0.051235,51.636254],[-0.051026,51.636441],[-0.050636,51.636767],[-0.050516,51.636864],[-0.050172,51.637137],[-0.049859,51.637375],[-0.049589,51.637595],[-0.049412,51.637748],[-0.049123,51.63801],[-0.048806,51.638329],[-0.048579,51.638577],[-0.048415,51.638774],[-0.048227,51.639025],[-0.048037,51.639413],[-0.047893,51.639748],[-0.047732,51.640127],[-0.047468,51.640878],[-0.047242,51.641514]],[[-0.047242,51.641514],[-0.047189,51.641665],[-0.047166,51.641733]],[[-0.047166,51.641733],[-0.047167,51.641732],[-0.047242,51.641514]],[[-0.042798,51.666658],[-0.043019,51.666385],[-0.043069,51.666323],[-0.043114,51.666254],[-0.043164,51.666179],[-0.043658,51.665428],[-0.043674,51.665403],[-0.043756,51.665278],[-0.044053,51.664852],[-0.0441,51.664781],[-0.044122,51.664746],[-0.044145,51.66471],[-0.044196,51.664628],[-0.044529,51.664183],[-0.044604,51.6641],[-0.044732,51.663973],[-0.044989,51.663709],[-0.045013,51.663684],[-0.045044,51.663658],[-0.045089,51.663598],[-0.045277,51.663218],[-0.045322,51.663089],[-0.045421,51.662898],[-0.04546,51.662822],[-0.045574,51.662602],[-0.045629,51.662496],[-0.046072,51.661493],[-0.046249,51.661057],[-0.046273,51.660997],[-0.04653,51.660365],[-0.046549,51.660317],[-0.046742,51.659843],[-0.046806,51.659683],[-0.046808,51.659678],[-0.046905,51.659408],[-0.047149,51.658726],[-0.04715,51.658723],[-0.04715,51.65872],[-0.047297,51.657397],[-0.047321,51.657181],[-0.047332,51.656808],[-0.047498,51.656307],[-0.047554,51.656178],[-0.047676,51.655899],[-0.047736,51.655765],[-0.047918,51.655444],[-0.04805,51.655258],[-0.04825,51.654973],[-0.04827,51.654929],[-0.04833,51.654795],[-0.048337,51.654769],[-0.048435,51.654383],[-0.048527,51.653926],[-0.048527,51.653908],[-0.048534,51.653764],[-0.048524,51.653685],[-0.048512,51.653584],[-0.048487,51.653512],[-0.048364,51.65333],[-0.048349,51.653312],[-0.048209,51.653145],[-0.048029,51.652929],[-0.047569,51.652238],[-0.047114,51.65129],[-0.047102,51.651287],[-0.04664,51.650308],[-0.046355,51.649706],[-0.046351,51.649282],[-0.046391,51.648341],[-0.04656,51.647801],[-0.046801,51.64728],[-0.047004,51.646596],[-0.046708,51.645919],[-0.046474,51.64522],[-0.046364,51.644575],[-0.046548,51.643894],[-0.046957,51.642372],[-0.046997,51.642253],[-0.047004,51.642228],[-0.04702,51.642177],[-0.047166,51.641733]],[[-0.042758,51.666708],[-0.042761,51.666706],[-0.042798,51.666658]],[[-0.042758,51.666708],[-0.042798,51.666658]],[[-0.040048,51.671858],[-0.040177,51.671711],[-0.040272,51.671602],[-0.040746,51.670728],[-0.040831,51.67057],[-0.040834,51.670565],[-0.040871,51.67048],[-0.041209,51.669706],[-0.041265,51.669484],[-0.041289,51.669386],[-0.041286,51.669384],[-0.041355,51.668784],[-0.041381,51.668588],[-0.041408,51.668492],[-0.041435,51.668436],[-0.041589,51.668194],[-0.041703,51.668016],[-0.042146,51.667466],[-0.042239,51.667351],[-0.042277,51.667304],[-0.042661,51.666828],[-0.042758,51.666708]],[[-0.040044,51.671863],[-0.040047,51.671859],[-0.040048,51.671858]],[[-0.040044,51.671863],[-0.040048,51.671858]],[[-0.033449,51.682253],[-0.033888,51.68055],[-0.034008,51.679825],[-0.034017,51.679772],[-0.034032,51.679614],[-0.034124,51.678608],[-0.034575,51.677696],[-0.034894,51.67726],[-0.034951,51.67717],[-0.035057,51.677022],[-0.035144,51.676901],[-0.035174,51.676859],[-0.03525,51.676773],[-0.035531,51.676456],[-0.03567,51.676297],[-0.035808,51.676138],[-0.035968,51.675956],[-0.036117,51.675795],[-0.036329,51.675583],[-0.036331,51.675581],[-0.036787,51.675231],[-0.036842,51.675188],[-0.037171,51.674935],[-0.037597,51.674583],[-0.037933,51.674303],[-0.038303,51.67388],[-0.038545,51.673603],[-0.038845,51.673259],[-0.039671,51.672287],[-0.039818,51.67212],[-0.040044,51.671863]],[[-0.093032,51.510875],[-0.09305,51.510938],[-0.093027,51.511137],[-0.092826,51.511817],[-0.092726,51.51214],[-0.092542,51.512693],[-0.092513,51.512748],[-0.092504,51.512779],[-0.092512,51.512814],[-0.092513,51.512848],[-0.092503,51.51288],[-0.092473,51.513008],[-0.092437,51.513196],[-0.092355,51.513641],[-0.092362,51.513888],[-0.092286,51.51439],[-0.092192,51.51491],[-0.092155,51.515107],[-0.093297,51.515403],[-0.094252,51.515636],[-0.094466,51.515684],[-0.094623,51.515722],[-0.093982,51.516926],[-0.093108,51.518522],[-0.093065,51.518521],[-0.091751,51.518212],[-0.091491,51.518149],[-0.091209,51.518077],[-0.091027,51.518283],[-0.090865,51.518468],[-0.090804,51.518539],[-0.090709,51.518662],[-0.090212,51.519519],[-0.089736,51.520651],[-0.089715,51.520723]],[[-0.089715,51.520723],[-0.089973,51.520755]]]},"properties":{"OBJECTID_1":72,"OBJECTID":199,"LABEL":"C1","ROUTE_NAME":"Cycleway 1","STATUS":"Open","PROGRAMME_":"20230627","PROGRAMME":"Cycleways","SHAPE_LENG":20164.5174785,"SHAPE.LEN":20164.5162592677,"whole_in_zone":false,"in_cw":false}},
{"type":"Feature","geometry":{"type":"LineString","coordinates":[[-0.03025,51.489641],[-0.030868,51.490398],[-0.031626,51.491548],[-0.032258,51.49262],[-0.03266,51.493583],[-0.033062,51.494376],[-0.033025,51.494394],[-0.033003,51.494417],[-0.033001,51.494444],[-0.033018,51.494478],[-0.033068,51.494529],[-0.033192,51.49464],[-0.033235,51.494631],[-0.033282,51.49462],[-0.033497,51.494579],[-0.033775,51.495119],[-0.034192,51.495935],[-0.034378,51.49631],[-0.034442,51.496447],[-0.034655,51.496405],[-0.034982,51.49634],[-0.035358,51.496265],[-0.035423,51.496328],[-0.035851,51.49716],[-0.036095,51.497635],[-0.036275,51.498001],[-0.036352,51.498173],[-0.036376,51.498232],[-0.036339,51.498292],[-0.036307,51.498341],[-0.036484,51.4985],[-0.03677,51.498711],[-0.036995,51.498751],[-0.037716,51.49877],[-0.038293,51.49888],[-0.038743,51.498966],[-0.039315,51.498995],[-0.039607,51.498996],[-0.039959,51.499121],[-0.04028,51.499248],[-0.040362,51.499266],[-0.040514,51.499287],[-0.040923,51.499209],[-0.041006,51.499202],[-0.041109,51.49921],[-0.041304,51.499266],[-0.041321,51.499288],[-0.041314,51.499306],[-0.041088,51.49954],[-0.041093,51.49958],[-0.041146,51.499625],[-0.041515,51.499763],[-0.04195,51.499943],[-0.042167,51.500093],[-0.042394,51.500159],[-0.042524,51.500171],[-0.04261,51.500163],[-0.042693,51.500154],[-0.043522,51.500061],[-0.043798,51.50003],[-0.043796,51.499981],[-0.043817,51.499969],[-0.044304,51.499915],[-0.045125,51.500293],[-0.045138,51.5003],[-0.045195,51.500324],[-0.045413,51.5003],[-0.046496,51.499416],[-0.047648,51.499947],[-0.048336,51.499366],[-0.049167,51.499869],[-0.049394,51.500111],[-0.050414,51.500976],[-0.05093,51.500706],[-0.051236,51.50054],[-0.051611,51.500815],[-0.051742,51.500795],[-0.051852,51.500873],[-0.051941,51.500971],[-0.052161,51.501212],[-0.052229,51.501275],[-0.052503,51.501531],[-0.052772,51.50145],[-0.053071,51.501379],[-0.053645,51.501253],[-0.054653,51.500903],[-0.0548,51.500833],[-0.05483,51.500798],[-0.054846,51.500771],[-0.054822,51.500654],[-0.05478,51.500548],[-0.054752,51.500416],[-0.055689,51.500073],[-0.055751,51.500052],[-0.056242,51.499897],[-0.057916,51.499716],[-0.058048,51.500051],[-0.058176,51.500377],[-0.058198,51.500482],[-0.058221,51.500597],[-0.058367,51.500627],[-0.058913,51.500582],[-0.058962,51.500578],[-0.059322,51.50054],[-0.059858,51.500485],[-0.05993,51.500478],[-0.061621,51.500472],[-0.061761,51.500566],[-0.062054,51.500585],[-0.062454,51.50058],[-0.062694,51.500501],[-0.06291,51.500431],[-0.063214,51.500386],[-0.063833,51.500329],[-0.064158,51.500314],[-0.064374,51.500335],[-0.064488,51.500364],[-0.065132,51.49979],[-0.065655,51.500043],[-0.066373,51.500268],[-0.06871,51.501027],[-0.068848,51.500841],[-0.069076,51.500557],[-0.069423,51.500529],[-0.069538,51.500519],[-0.07029,51.500469],[-0.070592,51.500483],[-0.071046,51.500301],[-0.071597,51.500293],[-0.071637,51.500293],[-0.071926,51.50028],[-0.072042,51.500264],[-0.072201,51.50024],[-0.072274,51.500223],[-0.072362,51.500197],[-0.07242,51.500171],[-0.07257,51.500073],[-0.073933,51.500498],[-0.074154,51.500453],[-0.074398,51.500475],[-0.074911,51.500444],[-0.075442,51.500275],[-0.07585,51.500156],[-0.076055,51.500087],[-0.076639,51.499899],[-0.076872,51.49984],[-0.077076,51.499789],[-0.077177,51.499773],[-0.077279,51.499765],[-0.077336,51.499766],[-0.077365,51.499767],[-0.077465,51.499777],[-0.077665,51.499817],[-0.077822,51.499864],[-0.078645,51.500165],[-0.078946,51.500206],[-0.07932,51.500198],[-0.080321,51.500382],[-0.081054,51.500439],[-0.08137,51.500462],[-0.081743,51.500438],[-0.081771,51.500574],[-0.082178,51.500439],[-0.082677,51.500415],[-0.082726,51.500412],[-0.083606,51.50039],[-0.08375,51.500393],[-0.085208,51.50054],[-0.085419,51.500789],[-0.085452,51.50085],[-0.085473,51.500889],[-0.085522,51.501002],[-0.08567,51.501341],[-0.087259,51.501574],[-0.087271,51.501997],[-0.087301,51.502294],[-0.088128,51.502173],[-0.088243,51.502166],[-0.088373,51.502168],[-0.088515,51.502206],[-0.0887,51.502263],[-0.089083,51.502404],[-0.089832,51.502658],[-0.09055,51.502824],[-0.090621,51.502843],[-0.091009,51.503007],[-0.091773,51.503212],[-0.091712,51.503283],[-0.092237,51.503415],[-0.094035,51.50381],[-0.094969,51.504004],[-0.095,51.503987],[-0.095316,51.503931],[-0.095334,51.503929],[-0.095462,51.503921],[-0.09575,51.50392],[-0.096498,51.503874],[-0.097742,51.503822],[-0.098261,51.50378],[-0.098668,51.50372],[-0.098798,51.503713],[-0.099975,51.503696],[-0.101335,51.5037],[-0.10142,51.503702],[-0.101463,51.503955],[-0.101467,51.503981],[-0.101558,51.504576],[-0.101522,51.504708],[-0.10149,51.504827],[-0.101733,51.504858],[-0.102426,51.504831],[-0.103061,51.504807],[-0.103118,51.504826],[-0.103131,51.504862],[-0.103142,51.504935],[-0.103148,51.505133],[-0.103148,51.505142],[-0.103868,51.505162],[-0.104456,51.505169]]},"properties":{"OBJECTID_1":74,"OBJECTID":201,"LABEL":"C14","ROUTE_NAME":"Cycleway 14","STATUS":"Open","PROGRAMME_":"20230627","PROGRAMME":"Cycleways","SHAPE_LENG":6994.92661961,"SHAPE.LEN":6994.92730841327,"whole_in_zone":false,"in_cw":false}},
{"type":"Feature","geometry":{"type":"MultiLineString","coordinates":[[[-0.085745,51.470993],[-0.085105,51.471153],[-0.085552,51.471826],[-0.086343,51.472976],[-0.086421,51.47309],[-0.086742,51.473491],[-0.086816,51.473672],[-0.086912,51.47442],[-0.086973,51.475041],[-0.087149,51.476348],[-0.087299,51.477565],[-0.08738,51.47771],[-0.087783,51.4784],[-0.08788,51.478473],[-0.088148,51.478631],[-0.088262,51.478697],[-0.088918,51.47908],[-0.089548,51.479461],[-0.089918,51.479685],[-0.090367,51.479962],[-0.090596,51.48016],[-0.090785,51.480243],[-0.091156,51.480426],[-0.09137,51.480528],[-0.090975,51.48071],[-0.090755,51.480781],[-0.090299,51.480966],[-0.089804,51.481156],[-0.088988,51.481452],[-0.08876,51.481534],[-0.088484,51.481627],[-0.088333,51.481676],[-0.088353,51.481909],[-0.08833,51.481933]],[[-0.085638,51.481532],[-0.085778,51.481524],[-0.086129,51.481621],[-0.0873,51.482005],[-0.087379,51.482002],[-0.08833,51.481933]],[[-0.08833,51.481933],[-0.088365,51.482259],[-0.088459,51.483122],[-0.088561,51.483251],[-0.088044,51.483408],[-0.088209,51.483653],[-0.088423,51.483931],[-0.088793,51.484559],[-0.089151,51.485292],[-0.089191,51.485374],[-0.089577,51.486127],[-0.08974,51.486363],[-0.090051,51.486845],[-0.090348,51.487308],[-0.090368,51.48734],[-0.090632,51.487763],[-0.090821,51.488071],[-0.091417,51.48899],[-0.091687,51.489395],[-0.092155,51.489919],[-0.092702,51.490629],[-0.093189,51.491278],[-0.093474,51.491661],[-0.093544,51.491768],[-0.093728,51.49202],[-0.093791,51.4921],[-0.093808,51.492117],[-0.093969,51.492308],[-0.093418,51.492457],[-0.093569,51.492625],[-0.093656,51.492679],[-0.093736,51.492741],[-0.093952,51.492825],[-0.093944,51.49286],[-0.093932,51.492895],[-0.09391,51.492928],[-0.093902,51.492961],[-0.09387,51.493047],[-0.093863,51.493114],[-0.093866,51.493139],[-0.093928,51.493347],[-0.094131,51.493902],[-0.094226,51.494104],[-0.094563,51.494148],[-0.09541,51.494318],[-0.095629,51.494385],[-0.095612,51.494415],[-0.095581,51.494471],[-0.095396,51.494755],[-0.095073,51.495254],[-0.095,51.495345],[-0.094952,51.495405],[-0.094772,51.495573],[-0.094638,51.495678],[-0.093971,51.496126],[-0.093832,51.496208],[-0.093616,51.496336],[-0.09341,51.49645],[-0.092776,51.496782],[-0.092629,51.49686],[-0.091966,51.497218],[-0.091789,51.497314],[-0.091066,51.497724],[-0.090903,51.49783],[-0.090802,51.497932],[-0.090739,51.497995],[-0.091422,51.498256],[-0.091631,51.498336],[-0.092596,51.498694]]]},"properties":{"OBJECTID_1":75,"OBJECTID":202,"LABEL":"C17","ROUTE_NAME":"Cycleway 17","STATUS":"Open","PROGRAMME_":"20230627","PROGRAMME":"Cycleways","SHAPE_LENG":4001.5255407,"SHAPE.LEN":4001.5256801403903,"whole_in_zone":false,"in_cw":false}},
{"type":"Feature","geometry":{"type":"LineString","coordinates":[[-0.073994,51.514446],[-0.073583,51.514623],[-0.072852,51.514874],[-0.072093,51.515145],[-0.071705,51.515271],[-0.071338,51.51542],[-0.071037,51.515526],[-0.070802,51.51561],[-0.070552,51.515681],[-0.070328,51.51578],[-0.070003,51.515937],[-0.069673,51.516088],[-0.069438,51.516192],[-0.069377,51.516224],[-0.069312,51.51626],[-0.069172,51.516318],[-0.069099,51.516357],[-0.06835,51.516705],[-0.068026,51.516852],[-0.067912,51.516899],[-0.06745,51.51709],[-0.06716,51.517206],[-0.066977,51.517275],[-0.066459,51.517456],[-0.06621,51.517533],[-0.065933,51.517618],[-0.065072,51.517874],[-0.064503,51.518035],[-0.063846,51.518213],[-0.063429,51.518298],[-0.063281,51.518336],[-0.062278,51.518582],[-0.061257,51.518781],[-0.060865,51.518878],[-0.060068,51.519072],[-0.059218,51.51926],[-0.05914,51.519277],[-0.05866,51.519375],[-0.056842,51.51974],[-0.055871,51.519928],[-0.055061,51.520082],[-0.054087,51.520264],[-0.053143,51.520446],[-0.052416,51.520587],[-0.0483,51.521469],[-0.04524,51.522017],[-0.044256,51.52221],[-0.042965,51.522302],[-0.040763,51.522749],[-0.040398,51.522859],[-0.040032,51.522979],[-0.03956,51.523121],[-0.038671,51.52346],[-0.03839,51.523617],[-0.037992,51.523817],[-0.037374,51.524113],[-0.037153,51.524217],[-0.036362,51.52451],[-0.035513,51.52481],[-0.034941,51.525034],[-0.034795,51.525086],[-0.034182,51.525255],[-0.031404,51.525838],[-0.030574,51.526022],[-0.028513,51.526456],[-0.027518,51.526673],[-0.026633,51.526865],[-0.025495,51.527115],[-0.025222,51.527171],[-0.025128,51.527201],[-0.025018,51.527214],[-0.024909,51.527227],[-0.024813,51.527254],[-0.023611,51.527486],[-0.023529,51.52751],[-0.023437,51.527521],[-0.023342,51.527528],[-0.023263,51.527551],[-0.022116,51.527765],[-0.022041,51.527771],[-0.021968,51.527789],[-0.021895,51.527805],[-0.02182,51.527812],[-0.021673,51.527833],[-0.021487,51.52786],[-0.021395,51.527882],[-0.02131,51.527899],[-0.019859,51.528108],[-0.018366,51.528343],[-0.01757,51.52869],[-0.016663,51.528989],[-0.015585,51.529337],[-0.014498,51.529708],[-0.013418,51.530094],[-0.013032,51.530259],[-0.012326,51.530597],[-0.011913,51.530806],[-0.011692,51.530919],[-0.011572,51.53099],[-0.011262,51.531173],[-0.010433,51.5317],[-0.009913,51.532031],[-0.009562,51.532289],[-0.008632,51.532972],[-0.008224,51.533275],[-0.007915,51.533504],[-0.007869,51.533539],[-0.006977,51.534212],[-0.006543,51.534582],[-0.006369,51.534733],[-0.005723,51.535292],[-0.004715,51.536051],[-0.003847,51.536698],[-0.00302,51.537319],[-0.002976,51.537353],[-0.002289,51.537882],[-0.002233,51.537927],[-0.002095,51.53804],[-0.001795,51.538286],[-0.00143,51.538587],[-0.000928,51.539001],[-0.000368,51.53938],[0.000148,51.539864],[0.00033,51.540067],[0.00045,51.540173],[0.000708,51.540334],[0.001618,51.540828],[0.001825,51.540932],[0.001987,51.54101],[0.003269,51.541627],[0.003518,51.54173],[0.003807,51.541851]]},"properties":{"OBJECTID_1":76,"OBJECTID":203,"LABEL":"C2","ROUTE_NAME":"Cycleway 2","STATUS":"Open","PROGRAMME_":"20230627","PROGRAMME":"Cycleways","SHAPE_LENG":6369.85211769,"SHAPE.LEN":6369.851455775621,"whole_in_zone":false,"in_cw":false}},
{"type":"Feature","geometry":{"type":"MultiLineString","coordinates":[[[-0.034795,51.525086],[-0.03512,51.525624],[-0.035404,51.526047],[-0.03543,51.526086],[-0.035469,51.526122],[-0.035515,51.526158],[-0.035534,51.526197],[-0.035706,51.526369],[-0.03682,51.527425],[-0.036855,51.527458],[-0.037212,51.527792],[-0.037443,51.528006],[-0.037535,51.52809],[-0.037549,51.528102],[-0.03759,51.528136],[-0.038325,51.528823],[-0.039002,51.529509],[-0.039584,51.530148],[-0.039896,51.53049],[-0.040241,51.530869],[-0.040796,51.531852],[-0.041308,51.532745],[-0.04152,51.53306],[-0.041685,51.533376],[-0.042007,51.534055],[-0.042464,51.535014],[-0.042999,51.53614],[-0.043207,51.536341],[-0.043424,51.536491],[-0.043558,51.536563],[-0.043657,51.53661],[-0.043728,51.536629],[-0.0438,51.536648],[-0.043965,51.536516],[-0.044009,51.536481],[-0.044487,51.536093],[-0.044694,51.535961],[-0.044783,51.535909],[-0.044871,51.535874],[-0.045061,51.535824],[-0.045628,51.535716],[-0.046078,51.535634],[-0.046731,51.535546],[-0.047063,51.535524],[-0.04715,51.535526],[-0.047207,51.535527],[-0.047215,51.535527],[-0.047667,51.53557],[-0.047753,51.535581],[-0.048025,51.53563],[-0.048267,51.535697],[-0.04838,51.535744],[-0.048507,51.535809],[-0.048663,51.535893],[-0.048573,51.535954],[-0.048656,51.536145],[-0.048731,51.536316],[-0.049249,51.537341],[-0.049451,51.537677],[-0.050087,51.538659],[-0.050716,51.539594],[-0.051335,51.540505],[-0.051579,51.541211],[-0.05204,51.542576],[-0.05229,51.54348]],[[-0.024458,51.508816],[-0.024523,51.508837],[-0.024627,51.508872],[-0.024712,51.50891],[-0.024895,51.509003],[-0.025275,51.509225],[-0.025415,51.509317],[-0.026432,51.510117],[-0.026795,51.510401],[-0.028174,51.511495],[-0.028202,51.511522],[-0.028243,51.511568],[-0.028269,51.511631],[-0.02828,51.511712],[-0.028247,51.511811],[-0.028108,51.512024],[-0.027985,51.512211],[-0.027937,51.51242],[-0.027884,51.512685],[-0.027867,51.512791],[-0.027782,51.513278],[-0.027786,51.513383],[-0.027872,51.513622],[-0.027916,51.513707],[-0.02844,51.514683],[-0.028558,51.514945],[-0.028745,51.515299],[-0.029038,51.515853],[-0.029292,51.516325],[-0.029442,51.5166],[-0.029639,51.51696],[-0.029776,51.517245],[-0.029942,51.517529],[-0.030092,51.517817],[-0.03055,51.518673],[-0.0308,51.519079],[-0.030867,51.519157],[-0.030906,51.519248],[-0.030936,51.519293],[-0.031087,51.519501],[-0.031113,51.519539],[-0.031188,51.519618],[-0.031417,51.519858],[-0.032027,51.520399],[-0.032822,51.520937],[-0.03295,51.521004],[-0.033053,51.521092],[-0.033494,51.521494],[-0.033633,51.521631]]]},"properties":{"OBJECTID_1":91,"OBJECTID":218,"LABEL":"C37","ROUTE_NAME":"Cycleway 37","STATUS":"Planned","PROGRAMME_":"20230627","PROGRAMME":"Cycleways","SHAPE_LENG":4355.70688387,"SHAPE.LEN":4355.70729188053,"whole_in_zone":false,"in_cw":true}},
{"type":"Feature","geometry":{"type":"LineString","coordinates":[[-0.042195,51.490021],[-0.042976,51.490576],[-0.044783,51.491827],[-0.044811,51.491846],[-0.045435,51.49222],[-0.046076,51.492568],[-0.046555,51.492837],[-0.046765,51.492957],[-0.04727,51.49328],[-0.047687,51.493494],[-0.048122,51.493706],[-0.048281,51.493781],[-0.048385,51.49383],[-0.048562,51.493911],[-0.048694,51.493971],[-0.048919,51.494064],[-0.049516,51.494325],[-0.049942,51.49452],[-0.049991,51.494553],[-0.050049,51.49458],[-0.050114,51.494603],[-0.050163,51.494634],[-0.05024,51.494685],[-0.050964,51.49523],[-0.051557,51.495699],[-0.051673,51.495782],[-0.051981,51.495988],[-0.052163,51.496105],[-0.052497,51.496377],[-0.052647,51.496521],[-0.052815,51.496656],[-0.053219,51.497021],[-0.053706,51.497416],[-0.054167,51.497774],[-0.054976,51.498381],[-0.055018,51.498427],[-0.055168,51.498553],[-0.055291,51.49871]]},"properties":{"OBJECTID_1":96,"OBJECTID":223,"LABEL":"C4","ROUTE_NAME":"Cycleway 4","STATUS":"In Progress","PROGRAMME_":"20230627","PROGRAMME":"Cycleways","SHAPE_LENG":1335.08394285,"SHAPE.LEN":1335.08404286926,"whole_in_zone":true,"in_cw":false}},
{"type":"Feature","geometry":{"type":"LineString","coordinates":[[0.09204,51.529648],[0.091573,51.529571],[0.090174,51.529373],[0.089848,51.529327],[0.088972,51.52923],[0.088378,51.529177],[0.08613,51.528942],[0.085271,51.528759],[0.081775,51.527967],[0.081156,51.527805],[0.080314,51.52755],[0.079303,51.527241],[0.078726,51.527053],[0.078415,51.526958],[0.077917,51.526784],[0.077226,51.526537],[0.077109,51.526493],[0.077065,51.526477],[0.076852,51.526365],[0.076533,51.526198],[0.076032,51.525946],[0.075987,51.52592],[0.074813,51.525455],[0.071739,51.52443],[0.07098,51.524232],[0.07015,51.523996],[0.069834,51.523906],[0.067481,51.523191],[0.067268,51.523131],[0.064641,51.522231],[0.062396,51.521219],[0.061556,51.52086],[0.060921,51.520598],[0.060814,51.520557],[0.060399,51.520402],[0.059541,51.520124],[0.059414,51.52009],[0.059254,51.520047],[0.059114,51.520009],[0.058738,51.519909],[0.058388,51.519829],[0.057676,51.519668],[0.056362,51.519461],[0.055144,51.519349],[0.052846,51.519476],[0.051604,51.519565],[0.049007,51.51983],[0.047604,51.519988],[0.047209,51.520024],[0.047147,51.520028],[0.046967,51.520042],[0.046523,51.520062],[0.045692,51.52009],[0.045227,51.520095],[0.044945,51.520086],[0.043836,51.520035],[0.043023,51.519943],[0.042356,51.519847],[0.041658,51.519715],[0.040492,51.51943],[0.039616,51.519175],[0.039147,51.519012],[0.038603,51.518805],[0.038517,51.518772],[0.037186,51.518207],[0.036149,51.517749],[0.036055,51.517705],[0.035652,51.517572],[0.034239,51.517185],[0.033833,51.517099],[0.032967,51.516988],[0.032365,51.516933],[0.032242,51.516932],[0.032067,51.516927],[0.031528,51.516912],[0.031389,51.516908],[0.030543,51.516861],[0.029954,51.516811],[0.028723,51.516791],[0.028509,51.516797],[0.026219,51.517047],[0.025153,51.517228],[0.024972,51.517244],[0.024909,51.517245],[0.024713,51.517248],[0.024554,51.517251],[0.02353,51.517242],[0.023342,51.517227],[0.023025,51.517214],[0.020356,51.51717],[0.018986,51.517149],[0.018524,51.517139],[0.018163,51.517118],[0.017946,51.517104],[0.017411,51.51705],[0.016074,51.516893],[0.015253,51.51675],[0.011583,51.516069],[0.009044,51.515593],[0.00803,51.515392],[0.007485,51.515206],[0.005988,51.514917],[0.005302,51.514752],[0.00308,51.514208],[0.002815,51.514124],[0.002526,51.514005],[0.002246,51.513827],[0.001878,51.513573],[0.001689,51.513321],[0.001281,51.512986],[0.000941,51.512837],[0.000726,51.512776],[0.000489,51.512729],[0.000235,51.512684],[-0.000009,51.512667],[-0.000185,51.512652],[-0.000095,51.512374],[0.00008,51.511987],[0.000014,51.5118],[-0.000046,51.511747],[-0.00012,51.511703],[-0.000163,51.511695],[-0.000803,51.51158],[-0.000644,51.511276],[-0.000538,51.511072],[-0.000527,51.511011],[-0.000655,51.510965],[-0.000843,51.510928],[-0.001074,51.510886],[-0.001304,51.510843],[-0.002473,51.510628],[-0.003011,51.510524],[-0.004013,51.510331],[-0.003875,51.510042],[-0.003573,51.509608],[-0.003526,51.509489],[-0.003619,51.50947],[-0.005043,51.509188],[-0.00565,51.509162],[-0.006155,51.509144],[-0.006285,51.509137],[-0.006445,51.509104],[-0.006649,51.509054],[-0.006693,51.509027],[-0.006753,51.508965],[-0.006827,51.508931],[-0.006986,51.508915],[-0.008691,51.508789],[-0.008865,51.508779],[-0.010538,51.508769],[-0.010581,51.50877],[-0.011861,51.508831],[-0.012324,51.508854],[-0.013549,51.508882],[-0.015188,51.508904],[-0.017376,51.508939],[-0.017692,51.508962],[-0.018438,51.509037],[-0.018624,51.509059],[-0.018793,51.509086],[-0.018867,51.509099],[-0.019353,51.509188],[-0.020056,51.509263],[-0.021003,51.50936],[-0.021296,51.509358],[-0.021628,51.509286],[-0.021728,51.509264],[-0.021831,51.509203],[-0.021977,51.509178],[-0.0237,51.508936],[-0.023815,51.508948],[-0.024057,51.509008],[-0.024256,51.509066],[-0.024345,51.508969],[-0.024458,51.508816],[-0.024487,51.508771],[-0.02456,51.508721],[-0.024679,51.508691],[-0.024926,51.508649],[-0.024979,51.50874],[-0.026159,51.509136],[-0.026916,51.509393],[-0.027324,51.509295],[-0.028015,51.509262],[-0.028744,51.50931],[-0.029135,51.509272],[-0.029803,51.509157],[-0.02989,51.509141],[-0.030181,51.509082],[-0.03053,51.508989],[-0.030828,51.508897],[-0.031057,51.508818],[-0.031232,51.508758],[-0.031465,51.508699],[-0.031625,51.508675],[-0.031784,51.508651],[-0.031929,51.508644],[-0.032044,51.508646],[-0.032085,51.508647],[-0.032159,51.508648],[-0.032274,51.508659],[-0.033032,51.508789],[-0.033547,51.508887],[-0.033861,51.508955],[-0.033946,51.508975],[-0.034365,51.509103],[-0.034703,51.509197],[-0.035014,51.50928],[-0.035157,51.50931],[-0.036188,51.509494],[-0.037902,51.509814],[-0.037902,51.509818],[-0.037881,51.510076],[-0.037842,51.510542],[-0.03787,51.510569],[-0.037884,51.510578],[-0.037926,51.510597],[-0.038025,51.510599],[-0.038382,51.510608],[-0.039308,51.510629],[-0.039531,51.510628],[-0.039946,51.510895],[-0.040132,51.511058],[-0.040175,51.5111],[-0.040631,51.511242],[-0.040774,51.511278],[-0.040892,51.511277],[-0.041556,51.511093],[-0.041625,51.511092],[-0.042187,51.511172],[-0.04217,51.511268],[-0.042188,51.511358],[-0.042143,51.511547],[-0.042416,51.51158],[-0.042667,51.511612],[-0.043072,51.511591],[-0.043635,51.511556],[-0.045107,51.511517],[-0.045318,51.511516],[-0.045496,51.511515],[-0.046335,51.511486],[-0.046712,51.511473],[-0.046809,51.511469],[-0.046976,51.511453],[-0.04712,51.511436],[-0.047905,51.511347],[-0.048793,51.511255],[-0.04919,51.511221],[-0.050196,51.511135],[-0.051312,51.510982],[-0.05193,51.510898],[-0.05237,51.510838],[-0.052544,51.510823],[-0.052739,51.510814],[-0.052985,51.510813],[-0.053051,51.510817],[-0.053193,51.510825],[-0.053511,51.510854],[-0.053655,51.510876],[-0.053692,51.510882],[-0.053744,51.510893],[-0.05378,51.510901],[-0.053815,51.510911],[-0.05385,51.510921],[-0.053894,51.510935],[-0.054107,51.510988],[-0.054322,51.511039],[-0.054432,51.51106],[-0.054543,51.511078],[-0.054735,51.511103],[-0.054881,51.511113],[-0.056797,51.511136],[-0.057879,51.511109],[-0.058023,51.511103],[-0.058701,51.511078],[-0.058798,51.511076],[-0.059797,51.51106],[-0.061369,51.511041],[-0.0616,51.511045],[-0.062285,51.511065],[-0.062621,51.511098],[-0.062879,51.51112],[-0.063009,51.511122],[-0.06419,51.511124],[-0.064284,51.51112],[-0.064912,51.511099],[-0.065379,51.511069],[-0.066111,51.51102],[-0.068428,51.510839],[-0.0689,51.510782],[-0.069439,51.510715],[-0.070282,51.510549],[-0.070442,51.510507],[-0.071173,51.510351],[-0.071459,51.510308],[-0.07161,51.510287],[-0.072025,51.510227],[-0.072952,51.510099],[-0.072958,51.510109],[-0.07302,51.51011],[-0.073068,51.510099],[-0.073118,51.51009],[-0.073158,51.510084],[-0.073183,51.510082],[-0.073219,51.510079],[-0.073299,51.510084],[-0.07336,51.510088],[-0.073556,51.510091],[-0.073667,51.510091],[-0.073722,51.510089],[-0.073786,51.510085],[-0.07385,51.510078],[-0.07395,51.510065],[-0.074018,51.510054],[-0.074085,51.510041],[-0.074175,51.51002],[-0.074303,51.509985],[-0.07436,51.509965],[-0.074423,51.509944],[-0.074643,51.509918],[-0.074852,51.509851],[-0.075281,51.509758],[-0.075795,51.509624],[-0.075969,51.509579],[-0.076106,51.509551],[-0.076203,51.509533],[-0.076302,51.509519],[-0.076401,51.509507],[-0.076563,51.509492],[-0.07783,51.50942],[-0.077868,51.50942],[-0.077957,51.509423],[-0.078036,51.509429],[-0.078075,51.509434],[-0.078141,51.509443],[-0.078193,51.509452],[-0.078294,51.509475],[-0.078395,51.509498],[-0.078476,51.509517],[-0.078543,51.509533],[-0.078608,51.509549],[-0.07861,51.509549],[-0.078677,51.509561],[-0.078813,51.50958],[-0.078983,51.509597],[-0.079127,51.509607],[-0.079438,51.509612],[-0.07959,51.509614],[-0.079674,51.509616],[-0.079886,51.509593],[-0.080194,51.509536],[-0.080435,51.509439],[-0.08066,51.509343],[-0.08069,51.50933],[-0.080921,51.509241],[-0.081123,51.50919],[-0.081254,51.509163],[-0.081266,51.509161],[-0.081306,51.509154],[-0.081517,51.509118],[-0.081637,51.509101],[-0.081733,51.509089],[-0.081844,51.509083],[-0.082048,51.509079],[-0.082293,51.509093],[-0.083295,51.509211],[-0.083875,51.509281],[-0.086324,51.509583],[-0.086489,51.509604],[-0.086644,51.509624],[-0.087176,51.509701],[-0.087652,51.509736],[-0.088171,51.509815],[-0.088744,51.509976],[-0.089406,51.510156],[-0.089613,51.510211],[-0.089683,51.51023],[-0.090966,51.510483],[-0.09115,51.510516],[-0.09142,51.510563],[-0.091484,51.510561],[-0.091556,51.510558],[-0.092047,51.510652],[-0.092248,51.510691],[-0.092511,51.510741],[-0.092984,51.510865],[-0.093032,51.510875],[-0.093077,51.510883],[-0.093305,51.510921],[-0.095748,51.511204],[-0.095892,51.511253],[-0.096187,51.511284],[-0.096407,51.5113],[-0.099733,51.511399],[-0.100236,51.511413],[-0.101024,51.511434],[-0.101458,51.511445],[-0.101467,51.511445],[-0.101546,51.511446],[-0.101576,51.51143],[-0.101606,51.511395],[-0.101639,51.511297],[-0.10164,51.511134],[-0.102831,51.510988],[-0.104479,51.511005],[-0.105424,51.511007],[-0.105795,51.511008],[-0.107164,51.511022],[-0.107592,51.511031],[-0.107664,51.511032],[-0.107736,51.511034],[-0.108081,51.51104],[-0.108466,51.511048],[-0.110684,51.511066],[-0.110756,51.511066],[-0.111104,51.511066],[-0.111535,51.511058],[-0.112105,51.511032],[-0.112252,51.511022],[-0.112325,51.511017],[-0.112676,51.510988],[-0.112848,51.510972],[-0.11302,51.510955],[-0.113192,51.510938],[-0.113344,51.510922],[-0.113415,51.510909],[-0.113491,51.510906],[-0.113568,51.510902],[-0.113639,51.510888],[-0.115179,51.510659],[-0.115317,51.510646],[-0.11545,51.51061],[-0.115583,51.510579],[-0.11572,51.510561],[-0.115883,51.510531],[-0.116058,51.510493],[-0.116102,51.510484],[-0.116302,51.510438],[-0.116465,51.5104],[-0.116626,51.510359],[-0.116787,51.510319],[-0.117064,51.510246],[-0.117095,51.510238],[-0.117258,51.510191],[-0.117439,51.510138],[-0.117552,51.510104],[-0.117609,51.510086],[-0.117833,51.510012],[-0.118022,51.509949],[-0.118183,51.509898],[-0.118607,51.509752],[-0.118716,51.509706],[-0.118822,51.509672],[-0.118913,51.509621],[-0.119003,51.509567],[-0.119106,51.509532],[-0.119797,51.509177],[-0.119853,51.50915],[-0.119901,51.509115],[-0.119948,51.509079],[-0.120003,51.509052],[-0.120226,51.508915],[-0.12042,51.508774],[-0.120613,51.508633],[-0.120912,51.508368],[-0.120972,51.508315],[-0.120994,51.508294],[-0.121077,51.508218],[-0.121332,51.507961],[-0.121504,51.507733],[-0.121681,51.507497],[-0.121713,51.507455],[-0.121863,51.507283],[-0.121883,51.507226],[-0.121934,51.507175],[-0.121995,51.50713],[-0.122037,51.50708],[-0.122109,51.50699],[-0.122358,51.506667],[-0.12241,51.5066],[-0.122442,51.506558],[-0.122496,51.506475],[-0.122531,51.506411],[-0.122678,51.506139],[-0.122862,51.5058],[-0.123038,51.505363],[-0.123254,51.504674],[-0.123271,51.504563],[-0.12332,51.504459],[-0.123411,51.50416],[-0.123487,51.503913],[-0.123703,51.503162],[-0.123726,51.50308],[-0.124011,51.501953],[-0.124028,51.501873],[-0.124048,51.501764],[-0.124061,51.501654],[-0.12407,51.501555],[-0.124054,51.500944],[-0.124243,51.500953],[-0.124444,51.500963],[-0.125519,51.50098],[-0.126137,51.50099],[-0.126708,51.501034],[-0.127636,51.501129],[-0.128468,51.501205],[-0.129574,51.501286],[-0.129876,51.501299],[-0.130002,51.501304],[-0.130129,51.501299],[-0.130256,51.501293],[-0.130381,51.501298],[-0.131416,51.501203],[-0.131547,51.501177],[-0.131695,51.501173],[-0.13184,51.50117],[-0.131975,51.501146],[-0.133727,51.500972],[-0.133837,51.500957],[-0.13395,51.500948],[-0.134068,51.500944],[-0.134174,51.500924],[-0.13609,51.500723],[-0.136202,51.5007],[-0.136331,51.500681],[-0.136587,51.500671],[-0.138259,51.500492],[-0.138379,51.500493],[-0.138503,51.500471],[-0.138628,51.500447],[-0.138747,51.50045],[-0.139119,51.500412],[-0.139924,51.501169],[-0.139981,51.501222],[-0.14007,51.501332],[-0.140113,51.501397],[-0.140133,51.501495],[-0.140095,51.501672],[-0.140074,51.501731],[-0.140058,51.501785],[-0.140055,51.501848],[-0.140066,51.501929],[-0.140107,51.501993],[-0.140148,51.502038],[-0.140204,51.502093],[-0.140246,51.502121],[-0.140302,51.502149],[-0.140374,51.502168],[-0.140445,51.502187],[-0.140534,51.502197],[-0.140704,51.5022],[-0.141043,51.502205],[-0.141129,51.502206],[-0.142835,51.502234],[-0.146144,51.502345],[-0.146389,51.502353],[-0.148687,51.502448],[-0.148976,51.502481],[-0.149277,51.502485],[-0.150315,51.502526],[-0.150565,51.502534],[-0.151821,51.502583],[-0.152324,51.503225],[-0.152526,51.503589],[-0.152647,51.503668],[-0.152925,51.50343],[-0.153277,51.503264],[-0.153686,51.503182],[-0.154095,51.503128],[-0.158232,51.502753],[-0.158859,51.502699],[-0.160432,51.502591],[-0.16085,51.502563],[-0.162631,51.502444],[-0.163071,51.502415],[-0.16449,51.502318],[-0.164627,51.502309],[-0.165152,51.502277],[-0.165445,51.502259],[-0.165706,51.502246],[-0.166178,51.502232],[-0.1672,51.502222],[-0.168404,51.502211],[-0.170439,51.502189],[-0.170859,51.502178],[-0.173703,51.502152],[-0.173878,51.502157],[-0.174588,51.502176],[-0.17472,51.502173],[-0.174674,51.502423],[-0.174676,51.503003],[-0.174517,51.503441],[-0.174372,51.50367],[-0.17422,51.50388],[-0.173855,51.50434],[-0.17347,51.504852],[-0.173232,51.505222],[-0.173206,51.505276],[-0.173175,51.505366],[-0.173133,51.505539],[-0.173074,51.505733],[-0.17299,51.505847],[-0.172323,51.506687],[-0.172315,51.506696],[-0.172305,51.506704],[-0.17229,51.506718],[-0.172286,51.506721],[-0.17228,51.506725],[-0.172259,51.506738],[-0.172253,51.506741],[-0.172156,51.506792],[-0.17213,51.506799],[-0.172089,51.506808],[-0.172048,51.506813],[-0.17203,51.506814],[-0.172016,51.506814],[-0.171987,51.506814],[-0.171945,51.506812],[-0.171884,51.506802],[-0.171808,51.506782],[-0.171362,51.506677],[-0.171349,51.506676],[-0.171302,51.506675],[-0.171274,51.506676],[-0.171242,51.506679],[-0.171196,51.506686],[-0.171181,51.50669],[-0.171134,51.506702],[-0.17109,51.506718],[-0.171063,51.506731],[-0.171037,51.506746],[-0.170986,51.506777],[-0.170891,51.50684],[-0.170793,51.506916],[-0.170747,51.506956],[-0.170663,51.507035],[-0.170615,51.507086],[-0.170525,51.507192],[-0.170471,51.507264],[-0.17044,51.507317],[-0.170419,51.507372],[-0.170408,51.507432],[-0.170409,51.507493],[-0.170449,51.507921],[-0.17049,51.508358],[-0.170498,51.508425],[-0.170661,51.509802],[-0.170677,51.509874],[-0.1707,51.50993],[-0.170724,51.509977],[-0.170743,51.510007],[-0.170776,51.510052],[-0.170797,51.510078],[-0.170857,51.510141],[-0.170899,51.510179],[-0.170942,51.510216],[-0.171036,51.510286],[-0.171138,51.510351],[-0.171193,51.510381],[-0.171256,51.510414],[-0.171339,51.510453],[-0.171664,51.510587],[-0.171728,51.510613],[-0.172617,51.510978],[-0.172656,51.511006],[-0.172706,51.511051],[-0.172745,51.511101],[-0.172759,51.511127],[-0.172779,51.511192],[-0.17278,51.511247],[-0.172775,51.511275],[-0.172747,51.511342],[-0.17271,51.511392],[-0.172681,51.511421],[-0.172384,51.511654],[-0.172295,51.511779],[-0.172327,51.512013],[-0.174093,51.511849],[-0.174397,51.512135],[-0.175629,51.513058],[-0.176148,51.513446]]},"properties":{"OBJECTID_1":120,"OBJECTID":247,"LABEL":"C3","ROUTE_NAME":"Cycleway 3","STATUS":"Open","PROGRAMME_":"20230627","PROGRAMME":"Cycleways","SHAPE_LENG":22425.1966156,"SHAPE.LEN":22425.194634962198,"whole_in_zone":false,"in_cw":true}},
{"type":"Feature","geometry":{"type":"MultiLineString","coordinates":[[[-0.179127,51.417271],[-0.178958,51.417409],[-0.178924,51.417437],[-0.178846,51.417504],[-0.178667,51.417663],[-0.178402,51.417936],[-0.178228,51.418136],[-0.177644,51.418717],[-0.177564,51.418793],[-0.177469,51.418884],[-0.17742,51.418927],[-0.177374,51.418971],[-0.177338,51.419022],[-0.177285,51.419061],[-0.176692,51.419593],[-0.175859,51.42049],[-0.175368,51.421038],[-0.174407,51.422075],[-0.17357,51.422863],[-0.173332,51.423066],[-0.173094,51.423251],[-0.172901,51.423392],[-0.172665,51.423559],[-0.172384,51.423752],[-0.172021,51.424025],[-0.171583,51.42436],[-0.171063,51.424766],[-0.17072,51.425075],[-0.170642,51.425153],[-0.170592,51.425205],[-0.170465,51.425341],[-0.170223,51.425634],[-0.170105,51.425785],[-0.170056,51.425847],[-0.169752,51.426256],[-0.169509,51.426585],[-0.169327,51.426816],[-0.169117,51.427029],[-0.168938,51.427188],[-0.16864,51.427444],[-0.168255,51.427774],[-0.16801,51.428017],[-0.167961,51.428108],[-0.167904,51.428165],[-0.167858,51.428227],[-0.167294,51.428776],[-0.167276,51.428794],[-0.167255,51.428811],[-0.167219,51.428849],[-0.166905,51.429128],[-0.166867,51.429172],[-0.166819,51.429207],[-0.166177,51.429787],[-0.166098,51.429852],[-0.166035,51.429929],[-0.164996,51.430974],[-0.164943,51.431019],[-0.164905,51.431066],[-0.164057,51.431958],[-0.164032,51.432013],[-0.163995,51.432061],[-0.16385,51.432459],[-0.163787,51.432611],[-0.16374,51.4327],[-0.163662,51.432842],[-0.163571,51.432976],[-0.163449,51.433145],[-0.163312,51.433314],[-0.163073,51.433553],[-0.162788,51.433827],[-0.162358,51.434162],[-0.162185,51.434304],[-0.161764,51.434602],[-0.1612,51.434935],[-0.160632,51.435223],[-0.160324,51.435371],[-0.159928,51.435554],[-0.159605,51.435678],[-0.159366,51.435787],[-0.159165,51.43591],[-0.1589,51.436077],[-0.158885,51.436086],[-0.158781,51.436156],[-0.158217,51.436588],[-0.157697,51.437011],[-0.157056,51.43755],[-0.156796,51.437871],[-0.156318,51.438858],[-0.156244,51.439],[-0.155893,51.439591],[-0.155807,51.439731],[-0.15548,51.440282],[-0.155324,51.440531],[-0.154833,51.44119],[-0.154743,51.441282],[-0.154105,51.44199],[-0.153921,51.442203],[-0.15321,51.443026],[-0.152871,51.443444],[-0.152393,51.443996],[-0.151804,51.444665],[-0.151495,51.445007],[-0.151384,51.445122],[-0.15116,51.445307],[-0.151042,51.445396],[-0.150983,51.445431],[-0.150168,51.445873],[-0.149981,51.446017],[-0.149951,51.446046],[-0.149816,51.446177],[-0.149786,51.446212],[-0.149574,51.44646],[-0.149391,51.446709],[-0.149278,51.446887],[-0.149192,51.447021],[-0.14854,51.448021],[-0.14851,51.448086],[-0.148452,51.448149],[-0.148363,51.448285],[-0.148317,51.448356],[-0.148209,51.448534],[-0.148178,51.448588],[-0.148162,51.448632],[-0.148113,51.448775],[-0.148063,51.448955],[-0.148046,51.449017],[-0.147823,51.450614],[-0.147802,51.450776],[-0.147785,51.451157],[-0.147808,51.451702],[-0.147803,51.45181],[-0.147801,51.451873],[-0.147798,51.451936],[-0.147758,51.452214],[-0.147739,51.452322],[-0.147589,51.452603],[-0.147473,51.452852],[-0.147378,51.45297],[-0.147313,51.453089],[-0.147274,51.453151],[-0.147104,51.453383],[-0.146882,51.453594],[-0.146475,51.454017],[-0.14632,51.454189],[-0.146124,51.454347],[-0.145817,51.454647],[-0.144006,51.456523],[-0.143578,51.456986],[-0.143304,51.457299],[-0.143116,51.457519],[-0.143077,51.457553],[-0.143044,51.45759],[-0.143018,51.457629],[-0.142983,51.457663],[-0.14208,51.458752],[-0.142046,51.458798],[-0.142017,51.458846],[-0.141984,51.458893],[-0.141944,51.458938],[-0.141594,51.459362],[-0.141546,51.459428],[-0.14149,51.459489],[-0.141398,51.459554],[-0.141257,51.459662],[-0.141094,51.459752],[-0.140895,51.459885],[-0.140084,51.460429],[-0.139507,51.460815],[-0.139286,51.460935],[-0.138879,51.461204],[-0.138063,51.461781],[-0.137685,51.462115],[-0.137341,51.462177],[-0.136695,51.462344],[-0.136157,51.462489],[-0.135471,51.462711],[-0.134843,51.462935],[-0.13439,51.463099],[-0.133147,51.463565],[-0.132005,51.464032],[-0.131316,51.464327],[-0.131106,51.464428],[-0.130898,51.464535],[-0.130505,51.464764],[-0.129813,51.465208],[-0.129789,51.46524],[-0.129746,51.465269],[-0.129719,51.465303],[-0.129694,51.465338],[-0.129643,51.465395],[-0.129589,51.465472],[-0.129522,51.465543],[-0.129445,51.465654],[-0.12914,51.466154],[-0.128923,51.466499],[-0.128773,51.466738],[-0.12864,51.46695],[-0.128591,51.467004],[-0.128551,51.467061],[-0.12852,51.46712],[-0.128475,51.467174],[-0.128115,51.467621],[-0.128051,51.467695],[-0.127989,51.467769],[-0.127782,51.468011],[-0.127617,51.468171],[-0.127439,51.468321],[-0.127081,51.468621],[-0.125419,51.469826],[-0.124855,51.470222],[-0.124751,51.470301],[-0.124409,51.470583],[-0.124325,51.470658],[-0.124199,51.470769],[-0.123475,51.471441],[-0.122704,51.472112],[-0.122364,51.472428],[-0.122011,51.47274],[-0.121362,51.473389],[-0.121282,51.473447],[-0.121279,51.47345],[-0.120978,51.473753],[-0.120771,51.47396],[-0.120186,51.474514],[-0.120152,51.47454],[-0.12013,51.474572],[-0.120111,51.474604],[-0.120081,51.474631],[-0.120033,51.474681],[-0.120002,51.4747],[-0.119981,51.474725],[-0.119965,51.474753],[-0.119937,51.474772],[-0.119496,51.475198],[-0.119448,51.475248],[-0.119393,51.475297],[-0.118297,51.4763],[-0.118267,51.476323],[-0.118239,51.476348],[-0.118213,51.476374],[-0.118182,51.476396],[-0.117247,51.47724],[-0.117201,51.477277],[-0.117165,51.477318],[-0.117136,51.47736],[-0.117101,51.4774],[-0.117055,51.477439],[-0.117013,51.477481],[-0.116978,51.477525],[-0.116934,51.477564],[-0.116351,51.478143],[-0.115196,51.479266],[-0.115057,51.479389],[-0.115016,51.479415],[-0.114987,51.479449],[-0.114957,51.479481],[-0.11492,51.47951],[-0.114672,51.479744],[-0.114121,51.480228],[-0.11394,51.480388],[-0.113395,51.480873],[-0.113371,51.480901],[-0.113336,51.480927],[-0.113299,51.480951],[-0.113274,51.480979],[-0.112608,51.481667],[-0.112348,51.481882],[-0.112161,51.482097],[-0.112076,51.482193],[-0.111777,51.482525],[-0.111728,51.482579],[-0.111499,51.482822],[-0.111264,51.483072],[-0.111035,51.483314],[-0.110608,51.483741],[-0.110068,51.484261],[-0.109722,51.484615],[-0.109484,51.484896],[-0.108411,51.485911],[-0.108383,51.485951],[-0.108342,51.485987],[-0.10829,51.486021],[-0.108264,51.486059],[-0.107916,51.486397],[-0.106715,51.487565],[-0.10649,51.487786],[-0.106375,51.487901],[-0.106132,51.488144],[-0.106093,51.488193],[-0.10604,51.488236],[-0.105302,51.488999],[-0.105181,51.489123],[-0.104341,51.489905],[-0.104118,51.490113],[-0.103786,51.490467],[-0.103469,51.490813],[-0.103228,51.491078],[-0.102972,51.491344],[-0.10279,51.491522],[-0.102385,51.491852],[-0.102253,51.491945],[-0.101961,51.492152],[-0.101846,51.492227],[-0.101954,51.492263],[-0.102313,51.492522],[-0.103026,51.493174],[-0.10304,51.49319],[-0.103041,51.493192],[-0.103065,51.493262],[-0.102993,51.493269],[-0.103065,51.493603],[-0.10363,51.49354],[-0.10356,51.493827],[-0.103543,51.493898],[-0.103413,51.494598],[-0.103341,51.494929],[-0.103307,51.495063],[-0.103169,51.495277],[-0.103118,51.495348],[-0.102994,51.495523],[-0.102983,51.495537]],[[-0.093077,51.510883],[-0.093195,51.510482],[-0.09331,51.510225],[-0.093465,51.509957],[-0.093532,51.509845],[-0.094086,51.50891],[-0.094646,51.507967],[-0.094659,51.507945],[-0.094714,51.507844],[-0.094878,51.507543],[-0.094908,51.507482],[-0.094922,51.507447],[-0.094933,51.507404],[-0.094973,51.507326],[-0.09528,51.506148],[-0.095324,51.50595],[-0.095616,51.505092],[-0.095652,51.505018],[-0.095678,51.504931],[-0.095687,51.504762],[-0.09575,51.50392],[-0.095864,51.503243],[-0.096017,51.502952],[-0.096588,51.502816],[-0.096864,51.502765],[-0.097023,51.502731],[-0.097155,51.502679],[-0.097244,51.502636],[-0.097303,51.502601],[-0.097348,51.502557],[-0.097453,51.502441],[-0.097988,51.501722],[-0.098415,51.501144],[-0.098552,51.500975],[-0.098643,51.500869],[-0.099002,51.500542],[-0.099482,51.5001],[-0.099572,51.500003],[-0.099648,51.499905],[-0.09968,51.499834],[-0.099713,51.499726],[-0.099741,51.499591],[-0.099781,51.499395],[-0.099822,51.499198],[-0.099907,51.498875],[-0.10018,51.497851],[-0.100362,51.49704],[-0.100366,51.497028],[-0.100368,51.497024],[-0.100376,51.497012],[-0.100386,51.497001],[-0.100389,51.496998],[-0.100408,51.496985],[-0.10043,51.496976],[-0.10049,51.496998],[-0.100829,51.497153],[-0.100956,51.497211],[-0.100972,51.497179],[-0.101224,51.496666],[-0.101388,51.496413],[-0.101512,51.496443],[-0.101673,51.496365],[-0.102051,51.496124],[-0.102087,51.4961],[-0.10218,51.496007],[-0.102473,51.495715],[-0.102663,51.495458]]]},"properties":{"OBJECTID_1":121,"OBJECTID":248,"LABEL":"CS7","ROUTE_NAME":"Cycle Superhighway 7","STATUS":"Open","PROGRAMME_":"20230627","PROGRAMME":"Cycle Superhighways","SHAPE_LENG":12525.2016688,"SHAPE.LEN":12525.2023572373,"whole_in_zone":false,"in_cw":false}},
{"type":"Feature","geometry":{"type":"MultiLineString","coordinates":[[[-0.03025,51.489641],[-0.029745,51.489084],[-0.029721,51.489021],[-0.029823,51.488926],[-0.030126,51.488732],[-0.030295,51.488684],[-0.030541,51.488633],[-0.030844,51.488622],[-0.031107,51.488528],[-0.031765,51.488286],[-0.031778,51.488191],[-0.032249,51.488012],[-0.032509,51.487838],[-0.033109,51.487399],[-0.03348,51.487197],[-0.032603,51.48642],[-0.032382,51.486214],[-0.032002,51.485899],[-0.031781,51.485717],[-0.031739,51.485575],[-0.031794,51.485324],[-0.031778,51.484985],[-0.031825,51.484693],[-0.031858,51.484062],[-0.031092,51.484056],[-0.030673,51.484045],[-0.030599,51.483958],[-0.030594,51.483405],[-0.029832,51.483409],[-0.029097,51.483426],[-0.028765,51.483441],[-0.028334,51.483462],[-0.027884,51.483469],[-0.027603,51.483436],[-0.027426,51.483397],[-0.027093,51.483344],[-0.026898,51.48335],[-0.026347,51.4834],[-0.025794,51.483422],[-0.025589,51.483409],[-0.025567,51.483468],[-0.025539,51.483553],[-0.025436,51.483851],[-0.025332,51.484142],[-0.025282,51.484422],[-0.025225,51.484866],[-0.024781,51.484811],[-0.024527,51.484776],[-0.024421,51.484674],[-0.024389,51.484538],[-0.024368,51.48449],[-0.02423,51.484445],[-0.024146,51.484432],[-0.023902,51.484379],[-0.023729,51.484339],[-0.022762,51.484114],[-0.022521,51.484116],[-0.022473,51.484169],[-0.022377,51.484276],[-0.022199,51.484418],[-0.022023,51.484404],[-0.021608,51.484232],[-0.021123,51.484048],[-0.02046,51.483863],[-0.019801,51.483678],[-0.019344,51.483579],[-0.019265,51.483498],[-0.019317,51.483352],[-0.019206,51.483269],[-0.019076,51.48324],[-0.018995,51.483222],[-0.018871,51.483172],[-0.018823,51.483052],[-0.018766,51.482725],[-0.017859,51.482775],[-0.017844,51.48313],[-0.017598,51.483154],[-0.017276,51.483061],[-0.016891,51.483005],[-0.016668,51.482964],[-0.015986,51.482909],[-0.015059,51.482864],[-0.014617,51.482857],[-0.0129,51.4829],[-0.012269,51.482899],[-0.011808,51.482977],[-0.011204,51.483062],[-0.011155,51.482987],[-0.010883,51.483006],[-0.010755,51.483205],[-0.010361,51.48328],[-0.010197,51.483185],[-0.009858,51.483298],[-0.009655,51.48338],[-0.008828,51.482152],[-0.007428,51.482632],[-0.006812,51.482825],[-0.00541,51.483325],[-0.003924,51.483833],[-0.00363,51.48349],[-0.003018,51.483659],[-0.002886,51.483702],[-0.002828,51.483728],[-0.002095,51.483951],[-0.001252,51.484187],[-0.000801,51.484296],[-0.00067,51.484321],[0.000564,51.484534],[0.000635,51.484544],[0.000705,51.484555],[0.001463,51.484671],[0.001512,51.484707],[0.001559,51.484781],[0.001294,51.484896],[0.000475,51.48547],[0.000486,51.485479],[0.000654,51.485611],[0.001398,51.486165],[0.00171,51.486384],[0.001949,51.48656],[0.002158,51.486728],[0.002262,51.486816],[0.002536,51.487092],[0.002699,51.487258],[0.003024,51.487619],[0.003499,51.488164],[0.003582,51.488259],[0.003802,51.48863],[0.003893,51.488784],[0.003978,51.488897],[0.00402,51.488914],[0.004527,51.488863],[0.005302,51.488805],[0.005935,51.488767],[0.007189,51.488791],[0.007497,51.488798],[0.007866,51.488806],[0.008145,51.488817],[0.008198,51.488818],[0.00834,51.488771],[0.008221,51.488683],[0.008036,51.488539],[0.008154,51.48848],[0.008512,51.488426],[0.008771,51.488413],[0.010472,51.488333],[0.01048,51.488385],[0.010514,51.488648],[0.010344,51.48866],[0.010396,51.488997],[0.010411,51.489014],[0.010696,51.489279],[0.010887,51.489195],[0.011342,51.489609],[0.011388,51.489665],[0.011132,51.489855],[0.011331,51.489958],[0.011708,51.490106],[0.011874,51.490185],[0.011806,51.490276],[0.011755,51.490345],[0.011724,51.490386],[0.011883,51.490707],[0.011929,51.490778],[0.012488,51.491136],[0.012667,51.491251],[0.012803,51.491329],[0.013587,51.491836],[0.014538,51.492451],[0.014687,51.492556],[0.014762,51.492627],[0.015577,51.492774],[0.01598,51.492782],[0.016217,51.493203],[0.016311,51.493497],[0.016199,51.493724],[0.016237,51.49412],[0.016293,51.494317],[0.017495,51.49467],[0.018597,51.494316],[0.018719,51.49428],[0.018869,51.494244],[0.019016,51.494583],[0.019303,51.494811],[0.019899,51.494702],[0.021274,51.494483],[0.02165,51.494432],[0.021468,51.493947],[0.024113,51.493538],[0.024299,51.493476],[0.024392,51.493432],[0.026121,51.493386],[0.027505,51.493468],[0.028888,51.493662],[0.030093,51.493865],[0.031354,51.494081],[0.031966,51.494152],[0.032076,51.494155],[0.033354,51.494361],[0.035392,51.494759],[0.035586,51.494784],[0.035738,51.494783],[0.036602,51.494753],[0.036854,51.49474],[0.037039,51.494714],[0.037053,51.494559],[0.037083,51.494491],[0.03732,51.494113],[0.037386,51.494065],[0.037458,51.494064],[0.038568,51.494086],[0.039103,51.49413],[0.039166,51.494138],[0.039233,51.494146],[0.039277,51.494154],[0.03938,51.494198],[0.039451,51.494246],[0.039483,51.494307],[0.040148,51.494309],[0.040522,51.494291],[0.042477,51.494198],[0.044762,51.494091],[0.044754,51.494221],[0.044741,51.494419],[0.044727,51.49459],[0.045149,51.494598],[0.04625,51.494619],[0.046747,51.494653],[0.046743,51.494683],[0.046693,51.495055],[0.048413,51.494969],[0.048495,51.494965],[0.048595,51.49496],[0.049239,51.494925],[0.050174,51.494854],[0.051335,51.494743],[0.051891,51.494673],[0.053099,51.494589],[0.054887,51.494497],[0.057533,51.494422],[0.058805,51.49441],[0.059371,51.494341],[0.059475,51.49433],[0.059625,51.494331],[0.059709,51.494339],[0.059776,51.494354],[0.060067,51.494469],[0.060085,51.49447],[0.061013,51.494513],[0.061148,51.494517],[0.061228,51.494429],[0.061262,51.494332],[0.06127,51.494294],[0.061549,51.49419],[0.061904,51.494061],[0.061943,51.494053],[0.062388,51.494071],[0.062368,51.49411],[0.062339,51.494235],[0.062334,51.494335],[0.063133,51.494532],[0.063714,51.49462],[0.064202,51.494676],[0.06476,51.494704],[0.065986,51.494749],[0.067398,51.494844],[0.068844,51.49495],[0.070356,51.494963],[0.070792,51.494966],[0.070933,51.494974],[0.0709,51.495072],[0.070849,51.495126],[0.071403,51.495243],[0.071942,51.495342],[0.072886,51.495507],[0.073021,51.495509],[0.073337,51.495562],[0.075758,51.49598],[0.07658,51.496226],[0.077565,51.496604],[0.078272,51.496942],[0.080179,51.497842],[0.08197,51.498685],[0.082183,51.498827],[0.08235,51.498959],[0.082541,51.499137],[0.082899,51.499533],[0.083908,51.50059],[0.084052,51.500543],[0.084175,51.500592],[0.085372,51.501862],[0.085514,51.502016],[0.086163,51.50276],[0.086292,51.502888],[0.086385,51.502943],[0.086699,51.503039],[0.086809,51.503094],[0.086871,51.503147],[0.08718,51.503544],[0.087272,51.503641],[0.087385,51.503709],[0.087576,51.503777],[0.087664,51.503816],[0.087729,51.503856],[0.087778,51.503902],[0.087831,51.503984],[0.087999,51.504449],[0.088142,51.504849],[0.088155,51.504884],[0.088231,51.505043],[0.088305,51.505148],[0.088454,51.505323],[0.088677,51.505561],[0.088838,51.505713],[0.089008,51.50585],[0.090598,51.507242],[0.0909,51.50759],[0.091918,51.508575],[0.092272,51.508826],[0.092472,51.508947],[0.092582,51.508963],[0.093159,51.508953],[0.093542,51.508946],[0.093727,51.508935],[0.09381,51.50893],[0.094527,51.508846],[0.094769,51.508885],[0.0968,51.509277],[0.097479,51.509368],[0.098204,51.509455],[0.09883,51.509508],[0.099866,51.509532],[0.101054,51.509507],[0.102392,51.50946],[0.104341,51.509345],[0.105544,51.509245],[0.107313,51.509292],[0.107443,51.509386],[0.107552,51.509396],[0.107805,51.509418],[0.109012,51.509511],[0.11091,51.509698],[0.111143,51.509633],[0.111661,51.509688],[0.112775,51.5099],[0.112857,51.509956],[0.114753,51.510246],[0.116672,51.510565],[0.11733,51.510692],[0.120298,51.511292],[0.120859,51.511428],[0.121845,51.511717]],[[0.173279,51.487674],[0.173125,51.487959],[0.173073,51.488012],[0.172528,51.488562],[0.17248,51.488619],[0.172414,51.488721],[0.172332,51.488982],[0.17228,51.489359],[0.172278,51.489847],[0.172301,51.48997],[0.172258,51.490446],[0.172034,51.491206],[0.172034,51.491302],[0.172067,51.491401],[0.172139,51.491548],[0.172154,51.491632],[0.17215,51.491691],[0.172095,51.491805],[0.171953,51.492002],[0.171911,51.492096],[0.171892,51.492184],[0.17188,51.492292],[0.171897,51.492738],[0.171857,51.493672],[0.171836,51.494107],[0.171836,51.495124],[0.171843,51.496241],[0.171832,51.496518],[0.171791,51.496702],[0.171664,51.497078],[0.171359,51.497634],[0.171342,51.497669],[0.171549,51.497713],[0.171599,51.497724],[0.171093,51.498591],[0.171046,51.498581],[0.170807,51.498528],[0.170635,51.498861],[0.170076,51.499412],[0.170043,51.499508],[0.170103,51.499791],[0.170074,51.499875],[0.16951,51.500469],[0.169428,51.500548],[0.169322,51.500612],[0.169064,51.500715],[0.168959,51.500787],[0.168113,51.501633],[0.167502,51.502355],[0.167331,51.502612],[0.167226,51.502732],[0.166927,51.503044],[0.166665,51.503278],[0.166558,51.50334],[0.164455,51.504454],[0.164282,51.504539],[0.164148,51.504573],[0.161658,51.50511],[0.160479,51.505346],[0.159289,51.505515],[0.158915,51.50556],[0.158545,51.505601],[0.157172,51.505732],[0.155958,51.505831],[0.15566,51.505842],[0.155527,51.505847],[0.155499,51.505847],[0.155416,51.505845],[0.155397,51.505845],[0.155309,51.505852],[0.153896,51.505956],[0.15358,51.506031],[0.153355,51.506106],[0.15308,51.506204],[0.153058,51.506209],[0.152929,51.506239],[0.152861,51.506248],[0.1528,51.506255],[0.152224,51.506303],[0.152205,51.506304],[0.152004,51.506318],[0.151898,51.506317],[0.151806,51.506309],[0.151737,51.506302],[0.15168,51.50629],[0.15167,51.506287],[0.151643,51.506278],[0.151397,51.506188],[0.150817,51.506006],[0.150575,51.505933],[0.150334,51.505861],[0.15029,51.505851],[0.149606,51.505756],[0.149332,51.505771],[0.148542,51.506156],[0.147132,51.50662],[0.146342,51.506858],[0.144741,51.507354],[0.143046,51.50796],[0.142951,51.508034],[0.142647,51.50818],[0.142114,51.508377],[0.141434,51.508633]],[[0.141434,51.508633],[0.142186,51.508348]],[[0.140227,51.509091],[0.140392,51.509025],[0.141434,51.508633]],[[0.140227,51.509091],[0.141434,51.508633]],[[0.139215,51.509465],[0.139401,51.509313],[0.140227,51.509091]],[[0.139215,51.509465],[0.139382,51.509333],[0.140227,51.509091]],[[0.138526,51.509733],[0.138528,51.509733],[0.139215,51.509465]],[[0.138526,51.509733],[0.138547,51.509735],[0.139215,51.509465]],[[0.138526,51.509733],[0.138431,51.509734],[0.138383,51.509735],[0.138337,51.50974],[0.138319,51.509742],[0.138306,51.50975],[0.138292,51.509766],[0.138282,51.509782],[0.138279,51.509799],[0.138274,51.509816]],[[0.138093,51.509887],[0.138274,51.509816]],[[0.137313,51.509997],[0.137407,51.510089],[0.137503,51.510107],[0.138273,51.509825],[0.138274,51.509816]],[[0.137408,51.510078],[0.137313,51.509997]],[[0.121845,51.511717],[0.122329,51.511798]],[[0.121845,51.511717],[0.122293,51.511852]],[[0.122329,51.511798],[0.122364,51.511822],[0.122449,51.511844],[0.122874,51.511955],[0.122901,51.511996]],[[0.122293,51.511852],[0.122329,51.511798]],[[0.122293,51.511852],[0.122901,51.511996]],[[0.122901,51.511996],[0.122991,51.512132],[0.124458,51.512634],[0.12464,51.512696],[0.124939,51.512689],[0.12513,51.512787],[0.126215,51.512895],[0.126583,51.512907],[0.128218,51.512889],[0.128747,51.512852],[0.129441,51.512805],[0.129841,51.512732],[0.130143,51.512652],[0.130451,51.512559],[0.130789,51.512441],[0.131077,51.512317],[0.131367,51.512166],[0.131561,51.512077],[0.131887,51.511942],[0.132048,51.511882],[0.132637,51.511677],[0.132933,51.511569],[0.133199,51.511457],[0.133262,51.51143],[0.133433,51.511336],[0.133592,51.511231],[0.133998,51.511014],[0.134348,51.510834],[0.13449,51.510774],[0.134636,51.510717],[0.134734,51.510699],[0.134829,51.510692],[0.135108,51.510697],[0.135496,51.51068],[0.135713,51.510588],[0.137172,51.509993],[0.137218,51.509974],[0.137241,51.509962],[0.137263,51.509955],[0.137267,51.509953],[0.137313,51.509997]]]},"properties":{"OBJECTID_1":130,"OBJECTID":284,"LABEL":"Q14","ROUTE_NAME":"Quietway 14","STATUS":"Open","PROGRAMME_":"20230627","PROGRAMME":"Quietways","SHAPE_LENG":20122.9219763,"SHAPE.LEN":20122.920817077502,"whole_in_zone":false,"in_cw":false}},
{"type":"Feature","geometry":{"type":"LineString","coordinates":[[-0.090339,51.52081],[-0.090575,51.520845],[-0.091622,51.520961],[-0.092067,51.521005],[-0.092196,51.521016],[-0.092398,51.521019],[-0.092964,51.520917],[-0.097323,51.520115],[-0.098168,51.519872],[-0.098081,51.519767],[-0.098017,51.519689],[-0.09869,51.519457],[-0.099041,51.519337],[-0.099146,51.519294],[-0.099792,51.519031],[-0.099804,51.519026],[-0.099839,51.519008],[-0.100535,51.518611],[-0.10046,51.518472],[-0.100716,51.518188],[-0.101082,51.518094],[-0.101099,51.517989],[-0.10146,51.518003],[-0.101582,51.517991],[-0.10157,51.517926],[-0.101573,51.517843],[-0.101543,51.517689],[-0.102208,51.517716],[-0.102476,51.517731],[-0.102567,51.517737],[-0.103382,51.517789],[-0.103502,51.517804],[-0.103606,51.517981],[-0.103719,51.518118],[-0.104248,51.51795],[-0.104709,51.51782],[-0.105111,51.517695]]},"properties":{"OBJECTID_1":136,"OBJECTID":290,"LABEL":"C11","ROUTE_NAME":"Quietway 11","STATUS":"Open","PROGRAMME_":"20230627","PROGRAMME":"Quietways","SHAPE_LENG":1243.12034983,"SHAPE.LEN":1243.12020854525,"whole_in_zone":false,"in_cw":false}},
{"type":"Feature","geometry":{"type":"LineString","coordinates":[[-0.014892,51.481414],[-0.015088,51.481392],[-0.015404,51.481393],[-0.015731,51.481373],[-0.016059,51.481372],[-0.016547,51.481373],[-0.017031,51.481352],[-0.018669,51.48124],[-0.019189,51.481183],[-0.019452,51.481163],[-0.019709,51.481127],[-0.022209,51.480855],[-0.023349,51.480829],[-0.023403,51.480821],[-0.025291,51.481258],[-0.027868,51.48193],[-0.030464,51.483181],[-0.03207,51.483949],[-0.032448,51.48413],[-0.033267,51.48463],[-0.034278,51.485479],[-0.035647,51.486454],[-0.036426,51.486931],[-0.037858,51.487752],[-0.040283,51.488866],[-0.042195,51.490021]]},"properties":{"OBJECTID_1":141,"OBJECTID":295,"LABEL":"C4","ROUTE_NAME":"Cycleway 4","STATUS":"Open","PROGRAMME_":"20230627","PROGRAMME":"Cycleways","SHAPE_LENG":2277.48666063,"SHAPE.LEN":2277.48760429578,"whole_in_zone":true,"in_cw":false}},
{"type":"Feature","geometry":{"type":"LineString","coordinates":[[-0.085263,51.520336],[-0.083962,51.519954],[-0.083329,51.519782],[-0.082484,51.520282],[-0.082027,51.520617],[-0.081714,51.520812],[-0.081631,51.520972],[-0.080755,51.520758],[-0.079804,51.520533],[-0.078922,51.520461]]},"properties":{"OBJECTID_1":143,"OBJECTID":297,"LABEL":"C","ROUTE_NAME":"Cycleway","STATUS":"Open","PROGRAMME_":"20230627","PROGRAMME":"Cycleways","SHAPE_LENG":524.53979284,"SHAPE.LEN":524.539536466552,"whole_in_zone":true,"in_cw":false}},
{"type":"Feature","geometry":{"type":"MultiLineString","coordinates":[[[-0.07257,51.500073],[-0.071712,51.499548],[-0.07143,51.499391],[-0.071106,51.499232],[-0.071041,51.499203],[-0.070922,51.499148],[-0.070681,51.499046],[-0.070129,51.498821],[-0.06976,51.49868],[-0.069008,51.498415],[-0.068609,51.49831],[-0.068066,51.498193],[-0.067394,51.498083],[-0.066748,51.498028],[-0.06629,51.498012],[-0.066244,51.49801],[-0.065898,51.498014],[-0.065626,51.498033],[-0.064988,51.498079],[-0.064086,51.49819],[-0.063908,51.498211],[-0.063757,51.49823],[-0.06338,51.498278],[-0.061366,51.498541],[-0.060262,51.498696],[-0.057632,51.498956],[-0.056217,51.499013],[-0.055725,51.499077],[-0.05568,51.499104],[-0.055651,51.499121],[-0.055592,51.499147],[-0.05549,51.499172],[-0.055418,51.499171],[-0.055289,51.499169],[-0.055252,51.499158],[-0.055221,51.499147],[-0.055147,51.499122],[-0.055076,51.499084],[-0.055034,51.499048],[-0.054993,51.499002],[-0.054981,51.498957],[-0.054968,51.498912],[-0.05497,51.498876],[-0.055002,51.498795],[-0.055047,51.498751],[-0.055091,51.498725],[-0.055424,51.4987],[-0.055601,51.498762],[-0.055712,51.498838],[-0.055738,51.49895],[-0.055725,51.499077]],[[-0.073933,51.500498],[-0.074638,51.500751],[-0.074931,51.500892],[-0.075251,51.501045],[-0.075989,51.501414],[-0.076463,51.501676],[-0.078535,51.502969],[-0.079406,51.503323],[-0.080075,51.503502],[-0.080947,51.50375],[-0.082107,51.504204],[-0.083835,51.504901],[-0.085977,51.505744],[-0.086165,51.505883],[-0.086544,51.506118],[-0.087335,51.506352],[-0.088297,51.5064],[-0.087176,51.509701]]]},"properties":{"OBJECTID_1":146,"OBJECTID":300,"LABEL":"C4","ROUTE_NAME":"Cycleway","STATUS":"Open","PROGRAMME_":"20230627","PROGRAMME":"Cycleways","SHAPE_LENG":3007.3103395,"SHAPE.LEN":3007.31037267675,"whole_in_zone":true,"in_cw":false}}
]}
