{"type":"FeatureCollection","meta":{
 "source": "London Datastore: London Wide Ultra Low Emission Zone 2023 (Greater London Authority)",
 "dataset": "vd455",
 "page": "https://data.london.gov.uk/dataset/london-wide-ultra-low-emission-zone-2023-vd455",
 "resources": [
  {
   "resource": "4e077f1b-5bc7-4ed0-aa6d-bb932f02456b",
   "file": "LondonWideUltraLowEmissionZone.gpkg",
   "url": "https://data.london.gov.uk/download/vd455/4e077f1b-5bc7-4ed0-aa6d-bb932f02456b/LondonWideUltraLowEmissionZone.gpkg",
   "size": 520192,
   "resource_date": "2023-12-21",
   "fetched": "2026-10-04"
  }
 ],
 "licence": "Open Government Licence v2",
 "licence_url": "https://www.nationalarchives.gov.uk/doc/open-government-licence/version/2/",
 "attribution": "Contains public sector information licensed under the Open Government Licence v2 (Greater London Authority). The GLA cannot warrant the quality or accuracy of the data (London Datastore terms).",
 "dataset_modified": "2024-01-11",
 "update_frequency": "One off",
 "geo": "Custom Polygons",
 "theme": "environment",
 "layers": [
  {
   "table": "LondonWideUltraLowEmissionZone",
   "srs": 27700
  }
 ],
 "crs_source": "EPSG:27700",
 "crs_output": "EPSG:4326 (WGS84), 6 decimal places; BNG to WGS84 through the OS OSTN15 grid (lib.mjs bngProjector)",
 "method": "lds-harvest-auto.mjs run vd455: resources chosen by the written rules (harvest-log.json meta.rules: formats, dedupe, caps); every feature read (GeoPackage, GeoJSON, shapefile, or table rows with coordinate columns as points, the CRS judged per row by value); a feature is kept when it meets the zone (the 3D model box, BNG E 532400-539900, N 176700-182300): a vertex inside, an edge crossing or the box inside a polygon; whole geometries kept, whole_in_zone and in_cw added; WGS84 6 decimals through OSTN15; contact fields dropped.",
 "counts": {
  "source_features": 22,
  "no_geometry": 0,
  "in_zone": 1,
  "in_cw": 1
 },
 "attributes_in_source": "yes",
 "fields_dropped": [],
 "harvest_rules": "tools/lds-harvest-auto.mjs AUTO_RULES (feeds/london-datastore/harvest-log.json meta.rules)",
 "selection_notes": [
  "2 format variants of a picked stem not read",
  "LondonWideUltraLowEmissionZone.gpkg: 1 polygons with over 1000 vertices cut to the zone box plus 500 m (clipped_to_zone)"
 ]
},
"features":[
{"type":"Feature","properties":{"fid":2,"OBJECTID":2,"BOUNDARY":"Low Emission Zone","Shape_Leng":337892.448849,"Shape_Area":1513264997.09,"clipped_to_zone":true,"in_cw":true,"whole_in_zone":false},"geometry":{"type":"Polygon","coordinates":[[[-0.102388,51.469403],[-0.099922,51.528715],[0.022534,51.526667],[0.019909,51.467359],[-0.102388,51.469403]]]}}
]}
