{"type":"FeatureCollection","meta":{
 "source": "City of London INSPIRE map service: Cultural Spaces",
 "borough": "City of London",
 "page": "https://www.mapping.cityoflondon.gov.uk/arcgis/rest/services/INSPIRE/MapServer/175",
 "api": "https://www.mapping.cityoflondon.gov.uk/arcgis/rest/services/INSPIRE/MapServer/175/query?where=1=1&geometry=<zone box>&geometryType=esriGeometryEnvelope&inSR=4326&spatialRel=esriSpatialRelIntersects&outFields=*&outSR=4326&f=json (Esri rings converted)&resultOffset=<n>",
 "fetched": "2026-10-04",
 "licence": "Open Government Licence v3.0",
 "licence_evidence": "the City's INSPIRE record on data.gov.uk (cultural-spaces): uk-ogl",
 "licence_url": "https://www.nationalarchives.gov.uk/doc/open-government-licence/version/3/",
 "attribution": "Contains public sector information licensed under the Open Government Licence v3.0 (City of London Corporation)",
 "zone": "the 3D model box, BNG E 532400-539900, N 176700-182300 (WGS84 -0.095, 51.474 to 0.015, 51.522)",
 "method": "walk-portals.mjs boroughs harvest city-cultural-spaces: features that meet the zone box, WGS84 rounded to 6 decimals, whole geometries; whole_in_zone, in_cw; empty fields and ArcGIS shape measures left out; fields matching /e-?mail|phone|tel(ephone)?$|^tel|contact|^fax|mobile|^owner_?name|person|officer|case_?officer|agent_?name|applicant/i dropped",
 "counts": {
  "features": 237,
  "zone_count_at_walk": 237,
  "in_cw": 0
 },
 "fields_dropped": [],
 "geometry_withheld": "the map service returns no geometry for this layer (f=geojson and f=json); features are those its own spatial filter puts in the box, with geometry null; place them by address"
},
"features":[
{"type":"Feature","geometry":null,"properties":{"OBJECTID":1,"NAME":"The Baltic Exchange","ADDRESS":"The Baltic Exchange 38 St Mary Axe London EC3A 8EX","TYPE":"CULT_CONS","MAIN_USE_CULT_CONS":"LIBRARY","STATUS":"HISTORIC"}},
{"type":"Feature","geometry":null,"properties":{"OBJECTID":2,"NAME":"Bank of Engand Archive","ADDRESS":"The Bank Of England Threadneedle Street London EC2R 8AH","TYPE":"CULT_CONS","MAIN_USE_CULT_CONS":"LIBRARY","STATUS":"COMPLETED"}},
{"type":"Feature","geometry":null,"properties":{"OBJECTID":4,"NAME":"Schroder Archive","ADDRESS":"1 London Wall Place London EC2Y 5AU","TYPE":"CULT_CONS","MAIN_USE_CULT_CONS":"LIBRARY","STATUS":"HISTORIC"}},
{"type":"Feature","geometry":null,"properties":{"OBJECTID":5,"NAME":"The Rothschild Archive","ADDRESS":"New Court 1 - 10 St Swithin's Lane London EC4N 8AL","TYPE":"CULT_CONS","MAIN_USE_CULT_CONS":"LIBRARY","STATUS":"COMPLETED"}},
{"type":"Feature","geometry":null,"properties":{"OBJECTID":7,"NAME":"Employment Policy Institute","ADDRESS":"Beaufort House 15 St Botolph Street London EC3A 7DT","TYPE":"CULT_CONS","MAIN_USE_CULT_CONS":"LIBRARY","STATUS":"HISTORIC"}},
{"type":"Feature","geometry":null,"properties":{"OBJECTID":9,"NAME":"Guildhall Art Gallery and Lomdan's Roman Ampitheatre","ADDRESS":"Guildhall Art Gallery Guildhall Yard London EC2P 2EJ","TYPE":"CULT_CONS","MAIN_USE_CULT_CONS":"ART_GALLERY","STATUS":"COMPLETED"}},
{"type":"Feature","geometry":null,"properties":{"OBJECTID":10,"NAME":"Barbican Cinemas","ADDRESS":"25 Beech Street London EC2Y 8AE","TYPE":"CULT_CONS","MAIN_USE_CULT_CONS":"CINEMA","STATUS":"COMPLETED"}},
{"type":"Feature","geometry":null,"properties":{"OBJECTID":11,"NAME":"Everyman Broadgate","ADDRESS":"Basement Cinema 1 Finsbury Avenue London","TYPE":"CULT_CONS","MAIN_USE_CULT_CONS":"CINEMA","STATUS":"COMPLETED"}},
{"type":"Feature","geometry":null,"properties":{"OBJECTID":12,"NAME":"New London Architecture","ADDRESS":"Guildhall London EC2P 2EJ","TYPE":"CULT_CONS","MAIN_USE_CULT_CONS":"MUSEUM","STATUS":"COMPLETED"}},
{"type":"Feature","geometry":null,"properties":{"OBJECTID":14,"NAME":"City Centre","ADDRESS":"80 Basinghall Street London EC2V 5AG","TYPE":"CULT_CONS","MAIN_USE_CULT_CONS":"HIRE_SPACE","STATUS":"HISTORIC"}},
{"type":"Feature","geometry":null,"properties":{"OBJECTID":15,"NAME":"Bishopsgate Institute","ADDRESS":"Bishopsgate Institute 230 Bishopsgate London EC2M 4QH","TYPE":"CULT_CONS","MAIN_USE_CULT_CONS":"LIBRARY","STATUS":"COMPLETED"}},
{"type":"Feature","geometry":null,"properties":{"OBJECTID":16,"NAME":"Barbican Art Gallery","ADDRESS":"Arts Centre Barbican Arts And Conference Centre Silk Street London EC2Y 8DS","TYPE":"CULT_CONS","MAIN_USE_CULT_CONS":"ART_GALLERY","STATUS":"COMPLETED"}},
{"type":"Feature","geometry":null,"properties":{"OBJECTID":17,"NAME":"Barbican Library","ADDRESS":"Library Barbican Arts And Conference Centre Silk Street London EC2Y 8DS","TYPE":"CULT_CONS","MAIN_USE_CULT_CONS":"ART_GALLERY","STATUS":"COMPLETED"}},
{"type":"Feature","geometry":null,"properties":{"OBJECTID":18,"NAME":"The Pit","ADDRESS":"Pit Theatre Barbican Arts And Conference Centre Silk Street London EC2Y 8DS","TYPE":"CULT_CONS","MAIN_USE_CULT_CONS":"THEATRE","STATUS":"COMPLETED"}},
{"type":"Feature","geometry":null,"properties":{"OBJECTID":20,"NAME":"The Brewery","ADDRESS":"Conference Hall And Function Rooms The Whitbread Brewery 52 Chiswell Street London EC1Y 4SA","TYPE":"CULT_CONS","MAIN_USE_CULT_CONS":"HIRE_SPACE","STATUS":"COMPLETED"}},
{"type":"Feature","geometry":null,"properties":{"OBJECTID":21,"NAME":"Guildhall (Great Hall and Crypts)","ADDRESS":"Guildhall London EC2P 2EJ","TYPE":"CULT_CONS","MAIN_USE_CULT_CONS":"HIRE_SPACE","STATUS":"COMPLETED"}},
{"type":"Feature","geometry":null,"properties":{"OBJECTID":23,"NAME":"Insights","ADDRESS":"7 - 8 Bishopsgate Churchyard London EC2M 3TJ","TYPE":"CULT_CONS","MAIN_USE_CULT_CONS":"HIRE_SPACE","STATUS":"HISTORIC"}},
{"type":"Feature","geometry":null,"properties":{"OBJECTID":24,"NAME":"America Square Conference Centre","ADDRESS":"Offices 1 America Square London EC3N 2LS","TYPE":"CULT_CONS","MAIN_USE_CULT_CONS":"HIRE_SPACE","STATUS":"COMPLETED"}},
{"type":"Feature","geometry":null,"properties":{"OBJECTID":25,"NAME":"Our Story","ADDRESS":"Restaurant Unit 14 Cornhill London EC3V 3ND","TYPE":"CULT_CONS","MAIN_USE_CULT_CONS":"HIRE_SPACE","STATUS":"HISTORIC"}},
{"type":"Feature","geometry":null,"properties":{"OBJECTID":26,"NAME":"The City of London Club","ADDRESS":"19 Old Broad Street London EC2N 1DS","TYPE":"CULT_CONS","MAIN_USE_CULT_CONS":"HIRE_SPACE","STATUS":"COMPLETED"}},
{"type":"Feature","geometry":null,"properties":{"OBJECTID":27,"NAME":"Landing Forty-Two","ADDRESS":"The Leadenhall Building 122 Leadenhall Street London EC3V 4AB","TYPE":"CULT_CONS","MAIN_USE_CULT_CONS":"HIRE_SPACE","STATUS":"COMPLETED"}},
{"type":"Feature","geometry":null,"properties":{"OBJECTID":29,"NAME":"Guildhall School of Music and Drama","ADDRESS":"Guildhall School of Music And Drama Stage Door Milton Court London","TYPE":"CULT_CONS","MAIN_USE_CULT_CONS":"MUSIC","STATUS":"COMPLETED"}},
{"type":"Feature","geometry":null,"properties":{"OBJECTID":32,"NAME":"Jeff Wayne's War of the Worlds: Immersive Theatre","ADDRESS":"56 Leadenhall Street London EC3A 2BJ","TYPE":"CULT_CONS","MAIN_USE_CULT_CONS":"THEATRE","STATUS":"HISTORIC"}},
{"type":"Feature","geometry":null,"properties":{"OBJECTID":33,"NAME":"Casper Mueller Kneer Architects","ADDRESS":"Ground Floor Offices Shakespeare Tower Barbican London EC2Y 8DR","TYPE":"CULT_PROD","MAIN_USE_CULT_PROD":"CREATIVE_WORK","STATUS":"HISTORIC"}},
{"type":"Feature","geometry":null,"properties":{"OBJECTID":36,"NAME":"Old Billingsgate","ADDRESS":"1 Old Billingsgate Walk London EC3R 6DX","TYPE":"CULT_CONS","MAIN_USE_CULT_CONS":"HIRE_SPACE","STATUS":"COMPLETED"}},
{"type":"Feature","geometry":null,"properties":{"OBJECTID":37,"NAME":"Dutch Hall Venue","ADDRESS":"The Dutch Church 7 Austin Friars London EC2N 2HA","TYPE":"CULT_CONS","MAIN_USE_CULT_CONS":"HIRE_SPACE","STATUS":"COMPLETED"}},
{"type":"Feature","geometry":null,"properties":{"OBJECTID":38,"NAME":"Convene","ADDRESS":"133 Houndsditch London EC3A 7BX","TYPE":"CULT_CONS","MAIN_USE_CULT_CONS":"HIRE_SPACE","STATUS":"COMPLETED"}},
{"type":"Feature","geometry":null,"properties":{"OBJECTID":40,"NAME":"Artizan Street Library and Community Centre","ADDRESS":"Artizan Street Library And Community Centre 1 Artizan Street London E1 7AF","TYPE":"CULT_CONS","MAIN_USE_CULT_CONS":"LIBRARY","STATUS":"COMPLETED"}},
{"type":"Feature","geometry":null,"properties":{"OBJECTID":41,"NAME":"Treatment Room","ADDRESS":"Artizan Street Library And Community Centre 1 Artizan Street London E1 7AF","TYPE":"CULT_PROD","MAIN_USE_CULT_PROD":"CREATIVE_WORK","STATUS":"COMPLETED"}},
{"type":"Feature","geometry":null,"properties":{"OBJECTID":42,"NAME":"Multi Room","ADDRESS":"Artizan Street Library And Community Centre 1 Artizan Street London E1 7AF","TYPE":"CULT_CONS","MAIN_USE_CULT_CONS":"HIRE_SPACE","STATUS":"COMPLETED"}},
{"type":"Feature","geometry":null,"properties":{"OBJECTID":43,"NAME":"Guildhall Library","ADDRESS":"Guildhall Library 5 Aldermanbury London EC2V 7HH","TYPE":"CULT_CONS","MAIN_USE_CULT_CONS":"LIBRARY","STATUS":"COMPLETED"}},
{"type":"Feature","geometry":null,"properties":{"OBJECTID":46,"NAME":"British Red Cross Museum and Archives","ADDRESS":"44 Moorfields London EC2Y 9AL","TYPE":"CULT_CONS","MAIN_USE_CULT_CONS":"MUSEUM","STATUS":"COMPLETED"}},
{"type":"Feature","geometry":null,"properties":{"OBJECTID":49,"NAME":"Bank of Engand Archive","ADDRESS":"The Bank Of England Threadneedle Street London EC2R 8AH","TYPE":"CULT_CONS","MAIN_USE_CULT_CONS":"MUSEUM","STATUS":"COMPLETED"}},
{"type":"Feature","geometry":null,"properties":{"OBJECTID":53,"NAME":"CodeNode","ADDRESS":"Finsbury Circus House 10 South Place London EC2M 7EB","TYPE":"CULT_CONS","MAIN_USE_CULT_CONS":"HIRE_SPACE","STATUS":"COMPLETED"}},
{"type":"Feature","geometry":null,"properties":{"OBJECTID":57,"NAME":"David Game College","ADDRESS":"31 Jewry Street London EC3N 2ET","TYPE":"CULT_PROD","MAIN_USE_CULT_PROD":"CREATIVE_EDU","STATUS":"HISTORIC"}},
{"type":"Feature","geometry":null,"properties":{"OBJECTID":58,"NAME":"Portsoken Community Centre","ADDRESS":"Portsoken Community Centre 20 Little Somerset Street London E1 8AH","TYPE":"CULT_CONS","MAIN_USE_CULT_CONS":"COMM_CENTRE","STATUS":"COMPLETED"}},
{"type":"Feature","geometry":null,"properties":{"OBJECTID":62,"NAME":"Young Photographers' Exhibition","ADDRESS":"St Clare House 30 - 33 Minories London EC3N 1DD","TYPE":"CULT_PROD","MAIN_USE_CULT_PROD":"ARTIST","STATUS":"PERMITTED"}},
{"type":"Feature","geometry":null,"properties":{"OBJECTID":63,"NAME":"The Eastern Roman Cemetery and Minories Exhibition","ADDRESS":"St Clare House 30 - 33 Minories London EC3N 1DD","TYPE":"CULT_CONS","MAIN_USE_CULT_CONS":"MUSEUM","STATUS":"PERMITTED"}},
{"type":"Feature","geometry":null,"properties":{"OBJECTID":66,"NAME":"The Workshop","ADDRESS":"Museum Of London London Wall London EC2Y 5HN","TYPE":"CULT_CONS","MAIN_USE_CULT_CONS":"HIRE_SPACE","STATUS":"PERMITTED"}},
{"type":"Feature","geometry":null,"properties":{"OBJECTID":67,"NAME":"c12th Lambe's Crypts and Roman Exhibition","ADDRESS":"Development Site 50 Fenchurch Street London","TYPE":"CULT_CONS","MAIN_USE_CULT_CONS":"MUSEUM","STATUS":"U_C"}},
{"type":"Feature","geometry":null,"properties":{"OBJECTID":68,"NAME":"Auditorium","ADDRESS":"55 Bishopsgate London EC2N 3AS","TYPE":"CULT_CONS","MAIN_USE_CULT_CONS":"PERF_SPACE","STATUS":"PERMITTED"}},
{"type":"Feature","geometry":null,"properties":{"OBJECTID":69,"NAME":"Conservatory","ADDRESS":"55 Bishopsgate London EC2N 3AS","TYPE":"CULT_CONS","MAIN_USE_CULT_CONS":"HIRE_SPACE","STATUS":"PERMITTED"}},
{"type":"Feature","geometry":null,"properties":{"OBJECTID":70,"NAME":"The London Centre","ADDRESS":"55 Bishopsgate London EC2N 3AS","TYPE":"CULT_CONS","MAIN_USE_CULT_CONS":"MUSEUM","STATUS":"PERMITTED"}},
{"type":"Feature","geometry":null,"properties":{"OBJECTID":71,"NAME":"The Place Lab","ADDRESS":"55 Bishopsgate London EC2N 3AS","TYPE":"CULT_CONS","MAIN_USE_CULT_CONS":"PUBLIC_ART","STATUS":"PERMITTED"}},
{"type":"Feature","geometry":null,"properties":{"OBJECTID":74,"NAME":"Migration Museum","ADDRESS":"Development Site 65 Crutched Friars London","TYPE":"CULT_CONS","MAIN_USE_CULT_CONS":"MUSEUM","STATUS":"U_C"}},
{"type":"Feature","geometry":null,"properties":{"OBJECTID":75,"NAME":"BoxHall City","ADDRESS":"The Arcade Liverpool Street London","TYPE":"CULT_LEISURE","STATUS":"COMPLETED","MAIN_USE_LEISURE":"Temporary/Pop-up Market"}},
{"type":"Feature","geometry":null,"properties":{"OBJECTID":76,"NAME":"Insights","ADDRESS":"7 - 8 Bishopsgate Churchyard London EC2M 3TJ","TYPE":"CULT_CONS","MAIN_USE_CULT_CONS":"HIRE_SPACE","STATUS":"HISTORIC"}},
{"type":"Feature","geometry":null,"properties":{"OBJECTID":77,"NAME":"Bishopsgate Bath House","ADDRESS":"7 - 8 Bishopsgate Churchyard London EC2M 3TJ","TYPE":"CULT_PROD","MAIN_USE_CULT_PROD":"REH_DANCE","STATUS":"U_C"}},
{"type":"Feature","geometry":null,"properties":{"OBJECTID":78,"NAME":"Open Gate Studios","ADDRESS":"99 Bishopsgate London EC2M 3XD","TYPE":"CULT_PROD","MAIN_USE_CULT_PROD":"REH_DANCE","STATUS":"PERMITTED"}},
{"type":"Feature","geometry":null,"properties":{"OBJECTID":79,"NAME":"The Hall","ADDRESS":"99 Bishopsgate London EC2M 3XD","TYPE":"CULT_CONS","MAIN_USE_CULT_CONS":"PERF_SPACE","STATUS":"PERMITTED"}},
{"type":"Feature","geometry":null,"properties":{"OBJECTID":80,"NAME":"Tallow Chandlers' Hall","ADDRESS":"Livery Hall 16 St Mary At Hill London EC3R 8EF ","TYPE":"CULT_CONS","MAIN_USE_CULT_CONS":"LIVERY HALL","STATUS":"COMPLETED"}},
{"type":"Feature","geometry":null,"properties":{"OBJECTID":81,"NAME":"Artist Studio","ADDRESS":"1 Undershaft London EC3A 8EE","TYPE":"CULT_PROD","MAIN_USE_CULT_PROD":"ARTIST","STATUS":"HISTORIC"}},
{"type":"Feature","geometry":null,"properties":{"OBJECTID":82,"NAME":"London Museum Exhibition and Education Space (The Crown)","ADDRESS":"1 Undershaft London EC3A 8EE","TYPE":"CULT_PROD","MAIN_USE_CULT_PROD":"CREATIVE_EDU","STATUS":"U_C"}},
{"type":"Feature","geometry":null,"properties":{"OBJECTID":84,"NAME":"Cinema 1","ADDRESS":"Barbican Arts And Conference Centre Silk Street London EC2Y 8DS","TYPE":"CULT_CONS","MAIN_USE_CULT_CONS":"CINEMA","STATUS":"COMPLETED"}},
{"type":"Feature","geometry":null,"properties":{"OBJECTID":85,"NAME":"Barbican Hall","ADDRESS":"Barbican Arts And Conference Centre Silk Street London EC2Y 8DS","TYPE":"CULT_CONS","MAIN_USE_CULT_CONS":"MUSIC","STATUS":"COMPLETED"}},
{"type":"Feature","geometry":null,"properties":{"OBJECTID":86,"NAME":"Chartered Accountants' Hall","ADDRESS":"Chartered Accountants Hall Moorgate Place London EC2R 6EA ","TYPE":"CULT_CONS","MAIN_USE_CULT_CONS":"LIVERY HALL","STATUS":"COMPLETED"}},
{"type":"Feature","geometry":null,"properties":{"OBJECTID":87,"NAME":"Dyers' Hall","ADDRESS":"Livery Hall Dyers Hall 10 Dowgate Hill London EC4R 2ST ","TYPE":"CULT_CONS","MAIN_USE_CULT_CONS":"LIVERY HALL","STATUS":"COMPLETED"}},
{"type":"Feature","geometry":null,"properties":{"OBJECTID":88,"NAME":"Church of St Peter Upon Cornhill","ADDRESS":"St Peter Upon Cornhill Cornhill London EC3V 3PD","TYPE":"CULT_CONS","MAIN_USE_CULT_CONS":"PLACE OF WORSHIP","STATUS":"COMPLETED"}},
{"type":"Feature","geometry":null,"properties":{"OBJECTID":92,"NAME":"Guild Church of St Ethelburga the Virgin","ADDRESS":"St Ethelburga's Centre For Reconciliation And Peace 78 Bishopsgate London EC2N 4AG","TYPE":"CULT_CONS","MAIN_USE_CULT_CONS":"PLACE OF WORSHIP","STATUS":"COMPLETED"}},
{"type":"Feature","geometry":null,"properties":{"OBJECTID":94,"NAME":"SOM","ADDRESS":"The Broadgate Tower 20 Primrose Street London EC2A 2EW","TYPE":"CULT_PROD","MAIN_USE_CULT_PROD":"CREATIVE_WORK","STATUS":"HISTORIC"}},
{"type":"Feature","geometry":null,"properties":{"OBJECTID":95,"NAME":"Northern and Shell","ADDRESS":"10 Lower Thames Street London EC3R 6EN","TYPE":"CULT_PROD","MAIN_USE_CULT_PROD":"MANUFACTURING","STATUS":"HISTORIC"}},
{"type":"Feature","geometry":null,"properties":{"OBJECTID":96,"NAME":"Pei Media Group","ADDRESS":"100 Wood Street London EC2V 7AN","TYPE":"CULT_PROD","MAIN_USE_CULT_PROD":"MANUFACTURING","STATUS":"HISTORIC"}},
{"type":"Feature","geometry":null,"properties":{"OBJECTID":99,"NAME":"Roman Forum","ADDRESS":"85 Gracechurch Street London EC3V 0AA","TYPE":"CULT_LEISURE","STATUS":"U_C","MAIN_USE_LEISURE":"Temporary/Pop-up Market"}},
{"type":"Feature","geometry":null,"properties":{"OBJECTID":100,"NAME":"Basilica Exhibition","ADDRESS":"85 Gracechurch Street London EC3V 0AA","TYPE":"CULT_CONS","MAIN_USE_CULT_CONS":"ART_GALLERY","STATUS":"HISTORIC"}},
{"type":"Feature","geometry":null,"properties":{"OBJECTID":101,"NAME":"Bevis Marks Synagogue","ADDRESS":"Bevis Marks Synagogue Bevis Marks London EC3A 7LH","TYPE":"CULT_CONS","MAIN_USE_CULT_CONS":"PLACE OF WORSHIP","STATUS":"COMPLETED"}},
{"type":"Feature","geometry":null,"properties":{"OBJECTID":102,"NAME":"Church of All Hallows","ADDRESS":"All Hallows On The Wall London Wall London EC2M 5ND","TYPE":"CULT_CONS","MAIN_USE_CULT_CONS":"PLACE OF WORSHIP","STATUS":"COMPLETED"}},
{"type":"Feature","geometry":null,"properties":{"OBJECTID":108,"NAME":"Church of St James Garlickhythe","ADDRESS":"St James Garlickhythe Garlick Hill London EC4V 2AF","TYPE":"CULT_CONS","MAIN_USE_CULT_CONS":"PLACE OF WORSHIP","STATUS":"COMPLETED"}},
{"type":"Feature","geometry":null,"properties":{"OBJECTID":109,"NAME":"Church of St Katherine Cree","ADDRESS":"St Katharine Cree Church 86 Leadenhall Street London EC3A 3BP","TYPE":"CULT_CONS","MAIN_USE_CULT_CONS":"PLACE OF WORSHIP","STATUS":"COMPLETED"}},
{"type":"Feature","geometry":null,"properties":{"OBJECTID":110,"NAME":"Church of St Magnus-the-Martyr","ADDRESS":"The Parish Church of St Magnus The Martyr Lower Thames Street London EC3R 6DN","TYPE":"CULT_CONS","MAIN_USE_CULT_CONS":"PLACE OF WORSHIP","STATUS":"COMPLETED"}},
{"type":"Feature","geometry":null,"properties":{"OBJECTID":111,"NAME":"Church of St Mary Woolnoth","ADDRESS":"The Parish Church of St Mary Woolnoth Lombard Street London EC3V 9AN","TYPE":"CULT_CONS","MAIN_USE_CULT_CONS":"PLACE OF WORSHIP","STATUS":"COMPLETED"}},
{"type":"Feature","geometry":null,"properties":{"OBJECTID":113,"NAME":"Church of St Olave Hart Street","ADDRESS":"St Olaves Churchyard Seething Lane London","TYPE":"CULT_CONS","MAIN_USE_CULT_CONS":"PLACE OF WORSHIP","STATUS":"COMPLETED"}},
{"type":"Feature","geometry":null,"properties":{"OBJECTID":114,"NAME":"Bjarke Ingels Group (BIG)","ADDRESS":"1 Finsbury Avenue London EC2M 2PA","TYPE":"CULT_PROD","MAIN_USE_CULT_PROD":"CREATIVE_WORK","STATUS":"HISTORIC"}},
{"type":"Feature","geometry":null,"properties":{"OBJECTID":115,"NAME":"Mace","ADDRESS":"Moorgate Hall 155 Moorgate London EC2M 6XB","TYPE":"CULT_PROD","MAIN_USE_CULT_PROD":"CREATIVE_WORK","STATUS":"HISTORIC"}},
{"type":"Feature","geometry":null,"properties":{"OBJECTID":116,"NAME":"Prewett Bizley Architects","ADDRESS":"Offices Above 118A London Wall London EC2Y 5JA","TYPE":"CULT_PROD","MAIN_USE_CULT_PROD":"CREATIVE_WORK","STATUS":"HISTORIC"}},
{"type":"Feature","geometry":null,"properties":{"OBJECTID":117,"NAME":"Benoy","ADDRESS":"1 Monkwell Square London EC2Y 5BL","TYPE":"CULT_PROD","MAIN_USE_CULT_PROD":"CREATIVE_WORK","STATUS":"HISTORIC"}},
{"type":"Feature","geometry":null,"properties":{"OBJECTID":119,"NAME":"Rogers Stirk Harbour + Partners (RSHP)","ADDRESS":"The Leadenhall Building 122 Leadenhall Street London EC3V 4AB","TYPE":"CULT_PROD","MAIN_USE_CULT_PROD":"CREATIVE_WORK","STATUS":"HISTORIC"}},
{"type":"Feature","geometry":null,"properties":{"OBJECTID":123,"NAME":"Sparky Film Ltd","ADDRESS":"88 Wood Street London EC2V 7DA","TYPE":"CULT_PROD","MAIN_USE_CULT_PROD":"MEDIA_PROD","STATUS":"HISTORIC"}},
{"type":"Feature","geometry":null,"properties":{"OBJECTID":124,"NAME":"Chahat Limited","ADDRESS":"71 Queen Victoria Street London EC4V 4AY","TYPE":"CULT_PROD","MAIN_USE_CULT_PROD":"FASHION_DESIGN","STATUS":"HISTORIC"}},
{"type":"Feature","geometry":null,"properties":{"OBJECTID":128,"NAME":"the Jewellery Agency Limited","ADDRESS":"Tower 42 International Financial Centre 25 Old Broad Street London EC2N 1HQ","TYPE":"CULT_PROD","MAIN_USE_CULT_PROD":"FASHION_DESIGN","STATUS":"HISTORIC"}},
{"type":"Feature","geometry":null,"properties":{"OBJECTID":129,"NAME":"The Pink Peacock Limited","ADDRESS":"Regis House 45 King William Street London EC4R 9AN","TYPE":"CULT_PROD","MAIN_USE_CULT_PROD":"FASHION_DESIGN","STATUS":"HISTORIC"}},
{"type":"Feature","geometry":null,"properties":{"OBJECTID":130,"NAME":"FabLab London","ADDRESS":"1 - 3 Frederick's Place London EC2R 8AE","TYPE":"CULT_PROD","MAIN_USE_CULT_PROD":"FASHION_DESIGN","STATUS":"HISTORIC"}},
{"type":"Feature","geometry":null,"properties":{"OBJECTID":134,"NAME":"Crypt Museum","ADDRESS":"All Hallows By The Tower Byward Street London EC3R 5BJ","TYPE":"CULT_CONS","MAIN_USE_CULT_CONS":"MUSEUM","STATUS":"COMPLETED"}},
{"type":"Feature","geometry":null,"properties":{"OBJECTID":135,"NAME":"London Mithraeum","ADDRESS":"London Mithraeum 12 Walbrook London EC4N 8AA","TYPE":"CULT_CONS","MAIN_USE_CULT_CONS":"MUSEUM","STATUS":"COMPLETED"}},
{"type":"Feature","geometry":null,"properties":{"OBJECTID":136,"NAME":"Billingsgate Roman House and Baths","ADDRESS":"Roman Bath House 101 Lower Thames Street London","TYPE":"CULT_CONS","MAIN_USE_CULT_CONS":"MUSEUM","STATUS":"COMPLETED"}},
{"type":"Feature","geometry":null,"properties":{"OBJECTID":138,"NAME":"Royal Philatelic Society","ADDRESS":"15 Abchurch Lane London EC4N 7BW","TYPE":"CULT_CONS","MAIN_USE_CULT_CONS":"MUSEUM","STATUS":"COMPLETED"}},
{"type":"Feature","geometry":null,"properties":{"OBJECTID":140,"NAME":"Back Bar","ADDRESS":"Minories Public House 64 - 73 Minories London EC3N 1JL","TYPE":"CULT_CONS","MAIN_USE_CULT_CONS":"HIRE_SPACE","STATUS":"COMPLETED"}},
{"type":"Feature","geometry":null,"properties":{"OBJECTID":141,"NAME":"Eastcheap Records","ADDRESS":"Retail Unit 1 20 Eastcheap London EC3M 1EB","TYPE":"CULT_CONS","MAIN_USE_CULT_CONS":"MUSIC","STATUS":"COMPLETED"}},
{"type":"Feature","geometry":null,"properties":{"OBJECTID":144,"NAME":"St Botolph without Aldgate","ADDRESS":"St Botolph Without Aldgate Aldgate High Street London EC3N 1AB","TYPE":"CULT_CONS","MAIN_USE_CULT_CONS":"PLACE OF WORSHIP","STATUS":"COMPLETED"}},
{"type":"Feature","geometry":null,"properties":{"OBJECTID":146,"NAME":"St Edmund the King","ADDRESS":"St Edmund King And Martyr Lombard Street London EC3V 9EA","TYPE":"CULT_CONS","MAIN_USE_CULT_CONS":"PLACE OF WORSHIP","STATUS":"COMPLETED"}},
{"type":"Feature","geometry":null,"properties":{"OBJECTID":147,"NAME":"St Giles Cripplegate","ADDRESS":"St Giles's Church Cripplegate Fore Street London EC2Y 8DA","TYPE":"CULT_CONS","MAIN_USE_CULT_CONS":"PLACE OF WORSHIP","STATUS":"COMPLETED"}},
{"type":"Feature","geometry":null,"properties":{"OBJECTID":148,"NAME":"St Helen's Church,  Bishopsgate","ADDRESS":"St Helen's Bishopsgate Great St Helen's London EC3A 6AT","TYPE":"CULT_CONS","MAIN_USE_CULT_CONS":"PLACE OF WORSHIP","STATUS":"COMPLETED"}},
{"type":"Feature","geometry":null,"properties":{"OBJECTID":149,"NAME":"St Lawrence Jewry","ADDRESS":"St Lawrence Jewry Next Guildhall Church Guildhall Yard London EC2V 5AA","TYPE":"CULT_CONS","MAIN_USE_CULT_CONS":"PLACE OF WORSHIP","STATUS":"COMPLETED"}},
{"type":"Feature","geometry":null,"properties":{"OBJECTID":150,"NAME":"St Margaret Pattens Church of England, Eastcheap","ADDRESS":"The Guild Church of St Margaret Pattens Eastcheap London EC3M 1HS","TYPE":"CULT_CONS","MAIN_USE_CULT_CONS":"PLACE OF WORSHIP","STATUS":"COMPLETED"}},
{"type":"Feature","geometry":null,"properties":{"OBJECTID":151,"NAME":"St Mary-le-Bow Church","ADDRESS":"St Mary Le Bow Church Cheapside London EC2V 6AU","TYPE":"CULT_CONS","MAIN_USE_CULT_CONS":"PLACE OF WORSHIP","STATUS":"COMPLETED"}},
{"type":"Feature","geometry":null,"properties":{"OBJECTID":154,"NAME":"City Wall at Vine Street","ADDRESS":"35 Vine Street London","TYPE":"CULT_CONS","MAIN_USE_CULT_CONS":"MUSEUM","STATUS":"COMPLETED"}},
{"type":"Feature","geometry":null,"properties":{"OBJECTID":155,"NAME":"Merchant Taylors' Hall","ADDRESS":"Livery Hall Merchant Taylors Hall 30 Threadneedle Street London EC2R 8JB ","TYPE":"CULT_CONS","MAIN_USE_CULT_CONS":"LIVERY HALL","STATUS":"COMPLETED"}},
{"type":"Feature","geometry":null,"properties":{"OBJECTID":157,"NAME":"Grocers' Hall","ADDRESS":"Livery Hall Grocers Hall Prince's Street London EC2R 8AD","TYPE":"CULT_CONS","MAIN_USE_CULT_CONS":"LIVERY HALL","STATUS":"COMPLETED"}},
{"type":"Feature","geometry":null,"properties":{"OBJECTID":158,"NAME":"Church of All Hallows","ADDRESS":"All Hallows By The Tower Byward Street London EC3R 5BJ","TYPE":"CULT_CONS","MAIN_USE_CULT_CONS":"PLACE OF WORSHIP","STATUS":"COMPLETED"}},
{"type":"Feature","geometry":null,"properties":{"OBJECTID":161,"NAME":"Skinners' Hall","ADDRESS":"Livery Hall Skinners' Hall 8 Dowgate Hill London EC4R 2SP","TYPE":"CULT_CONS","MAIN_USE_CULT_CONS":"LIVERY HALL","STATUS":"COMPLETED"}},
{"type":"Feature","geometry":null,"properties":{"OBJECTID":162,"NAME":"St Margaret's Church","ADDRESS":"The Parish Church of St Margaret Lothbury London EC2R 7HH","TYPE":"CULT_CONS","MAIN_USE_CULT_CONS":"PLACE OF WORSHIP","STATUS":"COMPLETED"}},
{"type":"Feature","geometry":null,"properties":{"OBJECTID":163,"NAME":"Vintners' Hall","ADDRESS":"Vintners Hall 68A Upper Thames Street London EC4V 3BG ","TYPE":"CULT_CONS","MAIN_USE_CULT_CONS":"LIVERY HALL","STATUS":"COMPLETED"}},
{"type":"Feature","geometry":null,"properties":{"OBJECTID":164,"NAME":"Nick Scott Media","ADDRESS":"68 Lombard St, London EC3V 9LJ, United Kingdom","TYPE":"CULT_PROD","MAIN_USE_CULT_PROD":"MANUFACTURING","STATUS":"HISTORIC"}},
{"type":"Feature","geometry":null,"properties":{"OBJECTID":165,"NAME":"Mad4Digital","ADDRESS":"1 Primrose St, London EC2A 2EX, United Kingdom","TYPE":"CULT_PROD","MAIN_USE_CULT_PROD":"MANUFACTURING","STATUS":"HISTORIC"}},
{"type":"Feature","geometry":null,"properties":{"OBJECTID":167,"NAME":"Puttshack","ADDRESS":"Basement Unit 1 Poultry London EC2R 8EJ ","TYPE":"CULT_LEISURE","STATUS":"COMPLETED","MAIN_USE_LEISURE":"Competitive Socialising"}},
{"type":"Feature","geometry":null,"properties":{"OBJECTID":169,"NAME":"St Brides Partners","ADDRESS":"Offices Warnford Court 29 Throgmorton Street London EC2N 2AT","TYPE":"CULT_PROD","MAIN_USE_CULT_PROD":"MANUFACTURING","STATUS":"HISTORIC"}},
{"type":"Feature","geometry":null,"properties":{"OBJECTID":170,"NAME":"WeConvene","ADDRESS":"1 Fore Street Avenue London EC2Y 9DT ","TYPE":"CULT_PROD","MAIN_USE_CULT_PROD":"MANUFACTURING","STATUS":"HISTORIC"}},
{"type":"Feature","geometry":null,"properties":{"OBJECTID":171,"NAME":"Milestone Group","ADDRESS":"Offices Ormond House 63 Queen Victoria Street London EC4N 4UA ","TYPE":"CULT_PROD","MAIN_USE_CULT_PROD":"MANUFACTURING","STATUS":"HISTORIC"}},
{"type":"Feature","geometry":null,"properties":{"OBJECTID":175,"NAME":"Digital Theatre Plus","ADDRESS":"51 Eastcheap London EC3M 1DT ","TYPE":"CULT_PROD","MAIN_USE_CULT_PROD":"REH_MUSIC","STATUS":"HISTORIC"}},
{"type":"Feature","geometry":null,"properties":{"OBJECTID":177,"NAME":"City Centre","ADDRESS":"80 Basinghall Street London EC2V 5AG","TYPE":"CULT_PROD","MAIN_USE_CULT_PROD":"CREATIVE_WORK","STATUS":"HISTORIC"}},
{"type":"Feature","geometry":null,"properties":{"OBJECTID":180,"NAME":"Lloyd's Register Foundation Heritage & Eductation Centre","ADDRESS":"71 Fenchurch Street London EC3M 4BR ","TYPE":"CULT_PROD","MAIN_USE_CULT_PROD":"CREATIVE_EDU","STATUS":"HISTORIC"}},
{"type":"Feature","geometry":null,"properties":{"OBJECTID":183,"NAME":"Writers House","ADDRESS":"The Writers' House 13 Haydon Street London EC3N 1DB ","TYPE":"CULT_PROD","MAIN_USE_CULT_PROD":"CREATIVE_WORK","STATUS":"HISTORIC"}},
{"type":"Feature","geometry":null,"properties":{"OBJECTID":189,"NAME":"Elisiever","ADDRESS":"125 London Wall, Barbican, London EC2Y 5AS, United Kingdom","TYPE":"CULT_PROD","MAIN_USE_CULT_PROD":"CREATIVE_WORK","STATUS":"HISTORIC"}},
{"type":"Feature","geometry":null,"properties":{"OBJECTID":191,"NAME":"Story House Egmont UK","ADDRESS":"2 Minster Court London EC3R 7BB ","TYPE":"CULT_PROD","MAIN_USE_CULT_PROD":"CREATIVE_WORK","STATUS":"HISTORIC"}},
{"type":"Feature","geometry":null,"properties":{"OBJECTID":194,"NAME":"City Guides","ADDRESS":"71 Basinghall Street London EC2V 6DH","TYPE":"CULT_PROD","MAIN_USE_CULT_PROD":"CREATIVE_WORK","STATUS":"COMPLETED"}},
{"type":"Feature","geometry":null,"properties":{"OBJECTID":195,"NAME":"Hel Mort","ADDRESS":"Offices 65 London Wall London EC2M 5TU ","TYPE":"CULT_PROD","MAIN_USE_CULT_PROD":"ARTIST","STATUS":"COMPLETED"}},
{"type":"Feature","geometry":null,"properties":{"OBJECTID":198,"NAME":"Armourers' Hall","ADDRESS":"Livery Hall Armourers Hall 81 Coleman Street London EC2R 5BJ ","TYPE":"CULT_CONS","MAIN_USE_CULT_CONS":"LIVERY HALL","STATUS":"COMPLETED"}},
{"type":"Feature","geometry":null,"properties":{"OBJECTID":200,"NAME":"Innholders Hall","ADDRESS":"Livery Hall Innholders Hall 30 College Street London EC4R 2RH ","TYPE":"CULT_CONS","MAIN_USE_CULT_CONS":"LIVERY HALL","STATUS":"COMPLETED"}},
{"type":"Feature","geometry":null,"properties":{"OBJECTID":202,"NAME":"Mercers Hall","ADDRESS":"Livery Hall Mercers Hall 4 Ironmonger Lane London EC2V 8HE ","TYPE":"CULT_CONS","MAIN_USE_CULT_CONS":"LIVERY HALL","STATUS":"COMPLETED"}},
{"type":"Feature","geometry":null,"properties":{"OBJECTID":203,"NAME":"Pewterers Hall","ADDRESS":"Pewterers' Hall 8 Oat Lane London EC2V 7DE ","TYPE":"CULT_CONS","MAIN_USE_CULT_CONS":"LIVERY HALL","STATUS":"COMPLETED"}},
{"type":"Feature","geometry":null,"properties":{"OBJECTID":206,"NAME":"Fishmongers' Hall","ADDRESS":"Livery Hall Fishmongers' Hall London Bridge London EC4R 9EL ","TYPE":"CULT_CONS","MAIN_USE_CULT_CONS":"LIVERY HALL","STATUS":"COMPLETED"}},
{"type":"Feature","geometry":null,"properties":{"OBJECTID":209,"NAME":"ABRSM","ADDRESS":"Offices Salters Hall 4 London Wall Place London EC2Y 5DE ","TYPE":"CULT_PROD","MAIN_USE_CULT_PROD":"CREATIVE_EDU","STATUS":"HISTORIC"}},
{"type":"Feature","geometry":null,"properties":{"OBJECTID":210,"NAME":"St Michael's Church","ADDRESS":"The Parish Church of St Michael Cornhill London EC3V 9DS","TYPE":"CULT_CONS","MAIN_USE_CULT_CONS":"PLACE OF WORSHIP","STATUS":"COMPLETED"}},
{"type":"Feature","geometry":null,"properties":{"OBJECTID":211,"NAME":"St Stephen Walbrook","ADDRESS":"Parish Church of St Stephen Walbrook Walbrook London EC4N 8BN","TYPE":"CULT_CONS","MAIN_USE_CULT_CONS":"PLACE OF WORSHIP","STATUS":"COMPLETED"}},
{"type":"Feature","geometry":null,"properties":{"OBJECTID":213,"NAME":"Painters Hall","ADDRESS":"Livery Hall Painters Hall 9 Little Trinity Lane London EC4V 2AD","TYPE":"CULT_CONS","MAIN_USE_CULT_CONS":"LIVERY HALL","STATUS":"COMPLETED"}},
{"type":"Feature","geometry":null,"properties":{"OBJECTID":214,"NAME":"Coopers' Hall","ADDRESS":"Livery Hall Coopers Hall 13 Devonshire Square London EC2M 4TH","TYPE":"CULT_CONS","MAIN_USE_CULT_CONS":"LIVERY HALL","STATUS":"COMPLETED"}},
{"type":"Feature","geometry":null,"properties":{"OBJECTID":215,"NAME":"Drapers' Hall","ADDRESS":"Livery Hall Drapers Hall Throgmorton Avenue London EC2N 2DQ","TYPE":"CULT_CONS","MAIN_USE_CULT_CONS":"LIVERY HALL","STATUS":"COMPLETED"}},
{"type":"Feature","geometry":null,"properties":{"OBJECTID":216,"NAME":"Baring Archive","ADDRESS":"8 - 10 Moorgate London EC2R 6DA","TYPE":"CULT_CONS","MAIN_USE_CULT_CONS":"LIBRARY","STATUS":"COMPLETED"}},
{"type":"Feature","geometry":null,"properties":{"OBJECTID":221,"NAME":"Bakers Hall","ADDRESS":"Livery Hall Bakers Hall 7 - 9 Harp Lane London EC3R 6DP","TYPE":"CULT_CONS","MAIN_USE_CULT_CONS":"LIVERY HALL","STATUS":"COMPLETED"}},
{"type":"Feature","geometry":null,"properties":{"OBJECTID":222,"NAME":"Brewers' Hall","ADDRESS":"Livery Hall Brewers' Hall Aldermanbury Square London EC2V 7HR ","TYPE":"CULT_CONS","MAIN_USE_CULT_CONS":"LIVERY HALL","STATUS":"COMPLETED"}},
{"type":"Feature","geometry":null,"properties":{"OBJECTID":224,"NAME":"St Michael's Church","ADDRESS":"St Michael Paternoster Royal Church 18 College Hill London EC4R 2RL","TYPE":"CULT_CONS","MAIN_USE_CULT_CONS":"PLACE OF WORSHIP","STATUS":"COMPLETED"}},
{"type":"Feature","geometry":null,"properties":{"OBJECTID":225,"NAME":"Co-Working and Events","ADDRESS":"Boundary House 7 - 17 Jewry Street London EC3N 2EX ","TYPE":"CULT_PROD","MAIN_USE_CULT_PROD":"MEDIA_PROD","STATUS":"U_C"}},
{"type":"Feature","geometry":null,"properties":{"OBJECTID":226,"NAME":"Co-Working Space","ADDRESS":"Development Site 9 - 11 Angel Court London  ","TYPE":"CULT_PROD","MAIN_USE_CULT_PROD":"CREATIVE_WORK","STATUS":"U_C"}},
{"type":"Feature","geometry":null,"properties":{"OBJECTID":229,"NAME":"Public","ADDRESS":"91 Middlesex Street London E1 7DA ","TYPE":"CULT_CONS","MAIN_USE_CULT_CONS":"ART_GALLERY","STATUS":"COMPLETED"}},
{"type":"Feature","geometry":null,"properties":{"OBJECTID":230,"NAME":"Ballroom","ADDRESS":"1 Bishopsgate Plaza London  ","TYPE":"CULT_CONS","MAIN_USE_CULT_CONS":"HIRE_SPACE","STATUS":"COMPLETED"}},
{"type":"Feature","geometry":null,"properties":{"OBJECTID":231,"NAME":"Broadworks by Hive Curates","ADDRESS":"56A - 57 Old Broad Street London EC2M 1RX","TYPE":"CULT_PROD","MAIN_USE_CULT_PROD":"ARTIST","STATUS":"HISTORIC"}},
{"type":"Feature","geometry":null,"properties":{"OBJECTID":233,"NAME":"Guildhall School of Music and Drama","ADDRESS":"Guildhall School of Music And Drama Silk Street London EC2Y 8DT ","TYPE":"CULT_PROD","MAIN_USE_CULT_PROD":"CREATIVE_EDU","STATUS":"COMPLETED"}},
{"type":"Feature","geometry":null,"properties":{"OBJECTID":234,"NAME":"Guildhall School of Music and Drama","ADDRESS":"Guildhall School of Music And Drama Stage Door Milton Court London","TYPE":"CULT_PROD","MAIN_USE_CULT_PROD":"CREATIVE_EDU","STATUS":"HISTORIC"}},
{"type":"Feature","geometry":null,"properties":{"OBJECTID":241,"NAME":"Puttshack","ADDRESS":"Basement Unit 1 Poultry London EC2R 8EJ ","TYPE":"CULT_LEISURE","STATUS":"COMPLETED","MAIN_USE_LEISURE":"Competitive Socialising"}},
{"type":"Feature","geometry":null,"properties":{"OBJECTID":244,"NAME":"Tee Box","ADDRESS":"Basement Golf Range 88 Leadenhall Street London EC3A 3BP ","TYPE":"CULT_LEISURE","STATUS":"COMPLETED","MAIN_USE_LEISURE":"Competitive Socialising"}},
{"type":"Feature","geometry":null,"properties":{"OBJECTID":245,"NAME":"Local Community and Cultural Workshop Space","ADDRESS":"Cripplegate House 1 Golden Lane London EC1Y 0RR ","TYPE":"CULT_CONS","MAIN_USE_CULT_CONS":"COMM_CENTRE","STATUS":"U_C"}},
{"type":"Feature","geometry":null,"properties":{"OBJECTID":246,"NAME":"The Growing Rooms","ADDRESS":"Offices Cutlers Exchange 123 Houndsditch London EC3A 7BU ","TYPE":"CULT_CONS","MAIN_USE_CULT_CONS":"COMM_CENTRE","STATUS":"U_C"}},
{"type":"Feature","geometry":null,"properties":{"OBJECTID":247,"NAME":"Incubator Space","ADDRESS":"Offices Cutlers Exchange 123 Houndsditch London EC3A 7BU ","TYPE":"CULT_CONS","MAIN_USE_CULT_CONS":"HIRE_SPACE","STATUS":"U_C"}},
{"type":"Feature","geometry":null,"properties":{"OBJECTID":248,"NAME":"Red 8 Gallery","ADDRESS":"9 Royal Exchange London EC3V 3LL ","TYPE":"CULT_CONS","MAIN_USE_CULT_CONS":"ART_GALLERY","STATUS":"COMPLETED"}},
{"type":"Feature","geometry":null,"properties":{"OBJECTID":249,"NAME":"Clothworkers' Company","ADDRESS":"16 Eastcheap London EC3M 1BD ","TYPE":"CULT_CONS","MAIN_USE_CULT_CONS":"LIVERY HALL","STATUS":"COMPLETED"}},
{"type":"Feature","geometry":null,"properties":{"OBJECTID":251,"NAME":"Worshipful Company of Leathersellers","ADDRESS":"7 St Helen's Place London EC3A 6AB ","TYPE":"CULT_CONS","MAIN_USE_CULT_CONS":"LIVERY HALL","STATUS":"COMPLETED"}},
{"type":"Feature","geometry":null,"properties":{"OBJECTID":252,"NAME":"Salters' Hall","ADDRESS":"Livery Hall Salters Hall 4 London Wall Place London EC2Y 5DE","TYPE":"CULT_CONS","MAIN_USE_CULT_CONS":"LIVERY HALL","STATUS":"COMPLETED"}},
{"type":"Feature","geometry":null,"properties":{"OBJECTID":253,"NAME":"Worshipful Company of Solicitors","ADDRESS":"4 College Hill London EC4R 2RB ","TYPE":"CULT_CONS","MAIN_USE_CULT_CONS":"LIVERY HALL","STATUS":"COMPLETED"}},
{"type":"Feature","geometry":null,"properties":{"OBJECTID":255,"NAME":"City of London Police Museum","ADDRESS":"City of London Police Museum 5 Aldermanbury London EC2V 7HH","TYPE":"CULT_CONS","MAIN_USE_CULT_CONS":"MUSEUM","STATUS":"COMPLETED"}},
{"type":"Feature","geometry":null,"properties":{"OBJECTID":256,"NAME":"The Guild Church of St Mary Abchurch","ADDRESS":"The Guild Church of St Mary Abchurch Abchurch Yard London EC4N 7BA ","TYPE":"CULT_CONS","MAIN_USE_CULT_CONS":"PLACE OF WORSHIP","STATUS":"COMPLETED"}},
{"type":"Feature","geometry":null,"properties":{"OBJECTID":257,"NAME":"St Mary Moorfields Church","ADDRESS":"St Mary Moorfields Catholic Church Eldon Street London EC2M 7LS ","TYPE":"CULT_CONS","MAIN_USE_CULT_CONS":"PLACE OF WORSHIP","STATUS":"COMPLETED"}},
{"type":"Feature","geometry":null,"properties":{"OBJECTID":258,"NAME":"Exhibition Hall 1","ADDRESS":"Exhibition Hall 1 Barbican Trade Centre Golden Lane London  ","TYPE":"CULT_CONS","MAIN_USE_CULT_CONS":"TEMP_SPACE","STATUS":"COMPLETED"}},
{"type":"Feature","geometry":null,"properties":{"OBJECTID":259,"NAME":"Exhibition Hall 2","ADDRESS":"Exhibition Hall 2 Barbican Trade Centre Golden Lane London  ","TYPE":"CULT_CONS","MAIN_USE_CULT_CONS":"TEMP_SPACE","STATUS":"COMPLETED"}},
{"type":"Feature","geometry":null,"properties":{"OBJECTID":260,"NAME":"Chartered Insurance Institute Library","ADDRESS":"Library The Chartered Insurance Instutute 20 Aldemanbury London EC2V 7HP","TYPE":"CULT_CONS","MAIN_USE_CULT_CONS":"LIBRARY","STATUS":"COMPLETED"}},
{"type":"Feature","geometry":null,"properties":{"OBJECTID":261,"NAME":"Business Centre","ADDRESS":"Business Centre 1 Moorgate Place London EC2R 6EA ","TYPE":"CULT_CONS","MAIN_USE_CULT_CONS":"LIBRARY","STATUS":"HISTORIC"}},
{"type":"Feature","geometry":null,"properties":{"OBJECTID":262,"NAME":"Chartered Insurance Institute Museum","ADDRESS":"Museum The Chartered Insurance Instutute 20 Aldemanbury London EC2V 7HP","TYPE":"CULT_CONS","MAIN_USE_CULT_CONS":"MUSEUM","STATUS":"COMPLETED"}},
{"type":"Feature","geometry":null,"properties":{"OBJECTID":263,"NAME":"Chartered Insurance Institute Great Hall","ADDRESS":"Great Hall The Chartered Insurance Instutute 20 Aldemanbury London EC2V 7HP","TYPE":"CULT_CONS","MAIN_USE_CULT_CONS":"HIRE_SPACE","STATUS":"COMPLETED"}},
{"type":"Feature","geometry":null,"properties":{"OBJECTID":264,"NAME":"City Buisiness Library","ADDRESS":"City Business Library 5 Aldermanbury London EC2V 7HH","TYPE":"CULT_CONS","MAIN_USE_CULT_CONS":"LIBRARY","STATUS":"COMPLETED"}},
{"type":"Feature","geometry":null,"properties":{"OBJECTID":266,"NAME":"Learning Space","ADDRESS":"60 Gracechurch Street","TYPE":"CULT_PROD","MAIN_USE_CULT_PROD":"CREATIVE_EDU","STATUS":"U_C"}},
{"type":"Feature","geometry":null,"properties":{"OBJECTID":267,"NAME":"Programmable Community Space","ADDRESS":"Development Site 45 Moorfields London","TYPE":"CULT_CONS","MAIN_USE_CULT_CONS":"HIRE_SPACE","STATUS":"U_C"}},
{"type":"Feature","geometry":null,"properties":{"OBJECTID":269,"NAME":"Digital Exhibition Space","ADDRESS":"Site Boundary 1 - 12 Byward Street London  ","TYPE":"CULT_PROD","MAIN_USE_CULT_PROD":"CREATIVE_WORK","STATUS":"PERMITTED"}},
{"type":"Feature","geometry":null,"properties":{"OBJECTID":270,"NAME":"Mark Lane Heritage Centre","ADDRESS":"Site Boundary 1 - 12 Byward Street London  ","TYPE":"CULT_CONS","MAIN_USE_CULT_CONS":"MUSEUM","STATUS":"PERMITTED"}},
{"type":"Feature","geometry":null,"properties":{"OBJECTID":271,"NAME":"King's Arms","ADDRESS":"The Kings Arms Public House 27 Wormwood Street London EC2M 1RP ","TYPE":"CULT_LEISURE","STATUS":"U_C","MAIN_USE_LEISURE":"Public House with Heritage Value"}},
{"type":"Feature","geometry":null,"properties":{"OBJECTID":276,"NAME":"Girdlers Hall","ADDRESS":"Livery Hall Girdlers Hall Basinghall Avenue London EC2V 5DD ","TYPE":"CULT_CONS","MAIN_USE_CULT_CONS":"LIVERY HALL","STATUS":"COMPLETED"}},
{"type":"Feature","geometry":null,"properties":{"OBJECTID":277,"NAME":"Jewin Welsh Presbyterian Church","ADDRESS":"Jewin Welsh Presbyterian Church 70 Fann Street London EC1Y 0SA ","TYPE":"CULT_CONS","MAIN_USE_CULT_CONS":"PLACE OF WORSHIP","STATUS":"COMPLETED"}},
{"type":"Feature","geometry":null,"properties":{"OBJECTID":278,"NAME":"Gibson Hall","ADDRESS":"13 Bishopsgate London EC2N 3BA ","TYPE":"CULT_CONS","MAIN_USE_CULT_CONS":"HIRE_SPACE","STATUS":"COMPLETED"}},
{"type":"Feature","geometry":null,"properties":{"OBJECTID":279,"NAME":"Swingers","ADDRESS":"8 Brown's Buildings London EC3A 8AL ","TYPE":"CULT_LEISURE","STATUS":"COMPLETED","MAIN_USE_LEISURE":"Competitive Socialising"}},
{"type":"Feature","geometry":null,"properties":{"OBJECTID":280,"NAME":"Pitch Golf London","ADDRESS":"62 Bishopsgate London EC2N 4AW","TYPE":"CULT_LEISURE","STATUS":"COMPLETED","MAIN_USE_LEISURE":"Competitive Socialising"}},
{"type":"Feature","geometry":null,"properties":{"OBJECTID":281,"NAME":"Project Golf","ADDRESS":"Basement Unit 48-54 Moorgate London EC2R 6EJ","TYPE":"CULT_LEISURE","STATUS":"COMPLETED","MAIN_USE_LEISURE":"Competitive Socialising"}},
{"type":"Feature","geometry":null,"properties":{"OBJECTID":284,"NAME":"Viewing Gallery","ADDRESS":"70 Gracechurch Street","TYPE":"CULT_CONS","MAIN_USE_CULT_CONS":"HIRE_SPACE","STATUS":"HISTORIC"}},
{"type":"Feature","geometry":null,"properties":{"OBJECTID":286,"NAME":"Open Learning Hub","ADDRESS":"2 Finsbury Avenue London EC2M 2PF ","TYPE":"CULT_PROD","MAIN_USE_CULT_PROD":"CREATIVE_EDU","STATUS":"U_C"}},
{"type":"Feature","geometry":null,"properties":{"OBJECTID":287,"NAME":"Learning Gallery","ADDRESS":"Ibex House 42 - 47 Minories London EC3N 1DY ","TYPE":"CULT_PROD","MAIN_USE_CULT_PROD":"CREATIVE_EDU","STATUS":"U_C"}},
{"type":"Feature","geometry":null,"properties":{"OBJECTID":288,"NAME":"Monument Visitor Centre","ADDRESS":"Faryners House 25 Monument Street London EC3R 8BQ ","TYPE":"CULT_LEISURE","STATUS":"S106","MAIN_USE_LEISURE":"Tourist Facility"}},
{"type":"Feature","geometry":null,"properties":{"OBJECTID":289,"NAME":"Tourist Information Centre","ADDRESS":"Lower Concourse Tourist Information Centre Liverpool Street Station Liverpool Street London EC2M 7PY ","TYPE":"CULT_LEISURE","STATUS":"COMPLETED","MAIN_USE_LEISURE":"Tourist Facility"}},
{"type":"Feature","geometry":null,"properties":{"OBJECTID":291,"NAME":"Feeney's","ADDRESS":"Retail Unit 5 Lloyd's Avenue London EC3N 3AE ","TYPE":"CULT_CONS","MAIN_USE_CULT_CONS":"MUSIC","STATUS":"COMPLETED"}},
{"type":"Feature","geometry":null,"properties":{"OBJECTID":292,"NAME":"Three Cranes","ADDRESS":"28 Garlick Hill London EC4V 2BA ","TYPE":"CULT_CONS","MAIN_USE_CULT_CONS":"MUSIC","STATUS":"COMPLETED"}},
{"type":"Feature","geometry":null,"properties":{"OBJECTID":294,"NAME":"Community Hall","ADDRESS":"Community Hall Iveagh Court Haydon Walk London E1 8BQ ","TYPE":"CULT_CONS","MAIN_USE_CULT_CONS":"COMM_CENTRE","STATUS":"COMPLETED"}},
{"type":"Feature","geometry":null,"properties":{"OBJECTID":298,"NAME":"Cultural Forum","ADDRESS":"Winchester House 75 London Wall London EC2M 5NG ","TYPE":"CULT_CONS","MAIN_USE_CULT_CONS":"PERF_SPACE","STATUS":"U_C"}},
{"type":"Feature","geometry":null,"properties":{"OBJECTID":299,"NAME":"The Curve","ADDRESS":"Art Gallery Barbican Arts And Conference Centre Silk Street London EC2Y 8DS","TYPE":"CULT_CONS","MAIN_USE_CULT_CONS":"ART_GALLERY","STATUS":"COMPLETED"}},
{"type":"Feature","geometry":null,"properties":{"OBJECTID":300,"NAME":"Barbican Theatre","ADDRESS":"Theatre Barbican Arts And Conference Centre Silk Street London EC2Y 8DS","TYPE":"CULT_CONS","MAIN_USE_CULT_CONS":"THEATRE","STATUS":"COMPLETED"}},
{"type":"Feature","geometry":null,"properties":{"OBJECTID":306,"NAME":"65 Old Broad Street Studios","ADDRESS":"55 Old Broad Street London EC2M 1RX","TYPE":"CULT_PROD","MAIN_USE_CULT_PROD":"CREATIVE_EDU","STATUS":"U_C"}},
{"type":"Feature","geometry":null,"properties":{"OBJECTID":307,"NAME":"Church of St Andrew Undershaft","ADDRESS":"St Andrew Undershaft Church St Mary Axe London EC3A 8BN","TYPE":"CULT_CONS","MAIN_USE_CULT_CONS":"PLACE OF WORSHIP","STATUS":"COMPLETED"}},
{"type":"Feature","geometry":null,"properties":{"OBJECTID":308,"NAME":"Church of St Mary Aldermary","ADDRESS":"Guild Church of St Mary Aldermary Watling Street London EC4M 9BW","TYPE":"CULT_CONS","MAIN_USE_CULT_CONS":"PLACE OF WORSHIP","STATUS":"COMPLETED"}},
{"type":"Feature","geometry":null,"properties":{"OBJECTID":310,"NAME":"St Clement's Church","ADDRESS":"The Parish Church of St Clement Eastcheap Clement's Lane London EC4N 7HB","TYPE":"CULT_CONS","MAIN_USE_CULT_CONS":"PLACE OF WORSHIP","STATUS":"COMPLETED"}},
{"type":"Feature","geometry":null,"properties":{"OBJECTID":312,"NAME":"Barber Surgeons' Hall","ADDRESS":"Livery Hall Barber-Surgeons' Hall Monkwell Square London EC2Y 5BL","TYPE":"CULT_CONS","MAIN_USE_CULT_CONS":"LIVERY HALL","STATUS":"COMPLETED"}},
{"type":"Feature","geometry":null,"properties":{"OBJECTID":316,"NAME":"Carpenters' Hall","ADDRESS":"Livery Hall Carpenters Hall 1 Throgmorton Avenue London EC2N 2JJ ","TYPE":"CULT_CONS","MAIN_USE_CULT_CONS":"LIVERY HALL","STATUS":"COMPLETED"}},
{"type":"Feature","geometry":null,"properties":{"OBJECTID":318,"NAME":"st Botolph without Bishopsgate Church","ADDRESS":"St Botolph-Without-Bishopgate Bishopsgate London EC2M 3TL ","TYPE":"CULT_CONS","MAIN_USE_CULT_CONS":"PLACE OF WORSHIP","STATUS":"COMPLETED"}},
{"type":"Feature","geometry":null,"properties":{"OBJECTID":319,"NAME":"Seed 130","ADDRESS":"(Development Site) 130 Fenchurch Street London","TYPE":"CULT_CONS","MAIN_USE_CULT_CONS":"ART_GALLERY","STATUS":"COMPLETED"}},
{"type":"Feature","geometry":null,"properties":{"OBJECTID":322,"NAME":"Axperience","ADDRESS":"Basement Unit Prospero House 49 - 51 Minories London EC3N 1JJ ","TYPE":"CULT_LEISURE","STATUS":"COMPLETED","MAIN_USE_LEISURE":"Competitive Socialising"}},
{"type":"Feature","geometry":null,"properties":{"OBJECTID":323,"NAME":"St Katherine Cree Church Hall","ADDRESS":"Church Hall St Katharine Cree Church 86 Leadenhall Street London EC3A 3BP ","TYPE":"CULT_CONS","MAIN_USE_CULT_CONS":"HIRE_SPACE","STATUS":"COMPLETED"}},
{"type":"Feature","geometry":null,"properties":{"OBJECTID":324,"NAME":"The Aldgate Centre","ADDRESS":"The Aldgate Centre 6 Aldgate High Street London  ","TYPE":"CULT_CONS","MAIN_USE_CULT_CONS":"HIRE_SPACE","STATUS":"COMPLETED"}},
{"type":"Feature","geometry":null,"properties":{"OBJECTID":325,"NAME":"St Botolph without Bishopsgate Church Hall","ADDRESS":"St Botolph Without Bishopsgate Church Hall Alderman's Walk London EC2M 3TL ","TYPE":"CULT_CONS","MAIN_USE_CULT_CONS":"HIRE_SPACE","STATUS":"COMPLETED"}},
{"type":"Feature","geometry":null,"properties":{"OBJECTID":326,"NAME":"Still and Star","ADDRESS":"Still And Star Public House 1 Little Somerset Street London E1 8AH ","TYPE":"CULT_LEISURE","STATUS":"U_C","MAIN_USE_LEISURE":"ACV"}},
{"type":"Feature","geometry":null,"properties":{"OBJECTID":329,"NAME":"Exhibition Space and Library","ADDRESS":"Carpenters Hall 1 Throgmorton Avenue London  ","TYPE":"CULT_CONS","MAIN_USE_CULT_CONS":"LIBRARY","STATUS":"S106"}},
{"type":"Feature","geometry":null,"properties":{"OBJECTID":330,"NAME":"One Moorgate Place","ADDRESS":"Business Centre 1 Moorgate Place London EC2R 6EA ","TYPE":"CULT_CONS","MAIN_USE_CULT_CONS":"HIRE_SPACE","STATUS":"COMPLETED"}},
{"type":"Feature","geometry":null,"properties":{"OBJECTID":331,"NAME":"Watermen's Hall","ADDRESS":"Livery Hall 16 St Mary At Hill London EC3R 8EF ","TYPE":"CULT_CONS","MAIN_USE_CULT_CONS":"LIVERY HALL","STATUS":"COMPLETED"}},
{"type":"Feature","geometry":null,"properties":{"OBJECTID":332,"NAME":"Clothworkers Hall","ADDRESS":"Development Site 50 Fenchurch Street London  ","TYPE":"CULT_CONS","MAIN_USE_CULT_CONS":"LIVERY HALL","STATUS":"U_C"}},
{"type":"Feature","geometry":null,"properties":{"OBJECTID":333,"NAME":"Gallery Space","ADDRESS":"Custom House 20 Lower Thames Street London EC3R 6EA ","TYPE":"CULT_CONS","MAIN_USE_CULT_CONS":"ART_GALLERY","STATUS":"S106"}},
{"type":"Feature","geometry":null,"properties":{"OBJECTID":335,"NAME":"Poolhouse","ADDRESS":"90 Liverpool Street London EC2M 2AT","TYPE":"CULT_LEISURE","STATUS":"U_C","MAIN_USE_LEISURE":"Competitive Socialising"}},
{"type":"Feature","geometry":null,"properties":{"OBJECTID":336,"NAME":"Eventspace","ADDRESS":"114 London Wall London EC2M 5QA ","TYPE":"CULT_CONS","MAIN_USE_CULT_CONS":"HIRE_SPACE","STATUS":"COMPLETED"}},
{"type":"Feature","geometry":null,"properties":{"OBJECTID":337,"NAME":"Library","ADDRESS":"Site Boundary 1 New Change London  ","TYPE":"CULT_CONS","MAIN_USE_CULT_CONS":"LIBRARY","STATUS":"PERMITTED"}},
{"type":"Feature","geometry":null,"properties":{"OBJECTID":340,"NAME":"Community Centre","ADDRESS":"Street Record Petticoat Square London  ","TYPE":"CULT_CONS","MAIN_USE_CULT_CONS":"COMM_CENTRE","STATUS":"U_C"}},
{"type":"Feature","geometry":null,"properties":{"OBJECTID":341,"ADDRESS":"Offices 1 Prince's Street London EC2R 8BP ","TYPE":"CULT_CONS","MAIN_USE_CULT_CONS":"HIRE_SPACE","STATUS":"HISTORIC"}},
{"type":"Feature","geometry":null,"properties":{"OBJECTID":343,"NAME":"Convene","ADDRESS":"155 Bishopsgate London","TYPE":"CULT_CONS","MAIN_USE_CULT_CONS":"HIRE_SPACE","STATUS":"COMPLETED"}},
{"type":"Feature","geometry":null,"properties":{"OBJECTID":344,"ADDRESS":"155 Bishopsgate London","TYPE":"CULT_CONS","MAIN_USE_CULT_CONS":"HIRE_SPACE","STATUS":"HISTORIC"}},
{"type":"Feature","geometry":null,"properties":{"OBJECTID":345,"NAME":"Fairgame","ADDRESS":"2 New Change Passage London EC4M 9AG","TYPE":"CULT_LEISURE","STATUS":"COMPLETED","MAIN_USE_LEISURE":"Competitive Socialising"}},
{"type":"Feature","geometry":null,"properties":{"OBJECTID":346,"NAME":"Hypha Studios","ADDRESS":"1 Poultry London EC2R 8EJ ","TYPE":"CULT_CONS","MAIN_USE_CULT_CONS":"ART_GALLERY","STATUS":"COMPLETED"}},
{"type":"Feature","geometry":null,"properties":{"OBJECTID":347,"NAME":"Clays","ADDRESS":"55 Moorgate London EC2R 6BH ","TYPE":"CULT_LEISURE","STATUS":"COMPLETED","MAIN_USE_LEISURE":"Competitive Socialising"}},
{"type":"Feature","geometry":null,"properties":{"OBJECTID":348,"NAME":"Art Gallery and Culture Garden","ADDRESS":"Development Site 130 Fenchurch Street London","TYPE":"CULT_CONS","MAIN_USE_CULT_CONS":"ART_GALLERY","STATUS":"S106"}},
{"type":"Feature","geometry":null,"properties":{"OBJECTID":349,"NAME":"The Exchange","ADDRESS":"Development Site 130 Fenchurch Street London  ","TYPE":"CULT_PROD","MAIN_USE_CULT_PROD":"ARTIST","STATUS":"S106"}},
{"type":"Feature","geometry":null,"properties":{"OBJECTID":350,"NAME":"Main Hall","ADDRESS":"Artizan Street Library And Community Centre 1 Artizan Street London E1 7AF ","TYPE":"CULT_PROD","MAIN_USE_CULT_PROD":"REH_DANCE","STATUS":"COMPLETED"}},
{"type":"Feature","geometry":null,"properties":{"OBJECTID":351,"NAME":"Maker Space","ADDRESS":"Artizan Street Library And Community Centre 1 Artizan Street London E1 7AF ","TYPE":"CULT_PROD","MAIN_USE_CULT_PROD":"MANUFACTURING","STATUS":"COMPLETED"}},
{"type":"Feature","geometry":null,"properties":{"OBJECTID":961,"NAME":"Basilica Exhibition","ADDRESS":"85 Gracechurch Street London EC3V 0AA","TYPE":"CULT_CONS","MAIN_USE_CULT_CONS":"MUSEUM","STATUS":"U_C"}},
{"type":"Feature","geometry":null,"properties":{"OBJECTID":1281,"NAME":"Flexible Cultural Use","ADDRESS":"New London House 6 London Street London ","TYPE":"CULT_PROD","MAIN_USE_CULT_PROD":"CREATIVE_WORK","STATUS":"S106"}},
{"type":"Feature","geometry":null,"properties":{"OBJECTID":1602,"NAME":"Art Commission","ADDRESS":"1 Moor Lane London EC2Y 9AD ","TYPE":"CULT_CONS","MAIN_USE_CULT_CONS":"PUBLIC_ART","STATUS":"PROPOSED"}},
{"type":"Feature","geometry":null,"properties":{"OBJECTID":1603,"NAME":"Conference Venue","ADDRESS":"1 Basinghall Avenue London EC2V 5DD ","TYPE":"CULT_CONS","MAIN_USE_CULT_CONS":"HIRE_SPACE","STATUS":"U_C"}},
{"type":"Feature","geometry":null,"properties":{"OBJECTID":1921,"NAME":"Silk Street Hall","ADDRESS":"1 Silk Street London EC2Y 8AL ","TYPE":"CULT_CONS","MAIN_USE_CULT_CONS":"HIRE_SPACE","STATUS":"PROPOSED"}},
{"type":"Feature","geometry":null,"properties":{"OBJECTID":1922,"NAME":"The Honourable Company of Master Mariners","ADDRESS":"Swan Pier Swan Lane London  ","TYPE":"CULT_CONS","MAIN_USE_CULT_CONS":"LIVERY HALL","STATUS":"PROPOSED"}},
{"type":"Feature","geometry":null,"properties":{"OBJECTID":2561,"NAME":"London Museum Exhibition and Education Space (The Crown)","ADDRESS":"1 Undershaft London EC3A 8EE","TYPE":"CULT_PROD","MAIN_USE_CULT_PROD":"CREATIVE_EDU","STATUS":"HISTORIC"}},
{"type":"Feature","geometry":null,"properties":{"OBJECTID":2562,"NAME":"London Museum Exhibition and Education Space (The Crown)","ADDRESS":"1 Undershaft London EC3A 8EE","TYPE":"CULT_PROD","MAIN_USE_CULT_PROD":"CREATIVE_EDU","STATUS":"HISTORIC"}},
{"type":"Feature","geometry":null,"properties":{"OBJECTID":3201,"NAME":"Affordable Cultural Space","ADDRESS":"Development Site 1 Undershaft London  ","TYPE":"CULT_PROD","MAIN_USE_CULT_PROD":"CREATIVE_WORK","STATUS":"U_C"}},
{"type":"Feature","geometry":null,"properties":{"OBJECTID":3521,"NAME":"Auditorium","ADDRESS":"Liverpool Street Station Liverpool Street London","TYPE":"CULT_CONS","MAIN_USE_CULT_CONS":"COMM_CENTRE","STATUS":"S106"}},
{"type":"Feature","geometry":null,"properties":{"OBJECTID":3841,"NAME":"etcvenues","ADDRESS":"Gartmore House 8 Fenchurch Place London EC3M 4AJ ","TYPE":"CULT_CONS","MAIN_USE_CULT_CONS":"HIRE_SPACE","STATUS":"COMPLETED"}},
{"type":"Feature","geometry":null,"properties":{"OBJECTID":4161,"NAME":"Great Fire of London Museum","ADDRESS":"Public Convenience Monument Street London  ","TYPE":"CULT_CONS","MAIN_USE_CULT_CONS":"MUSEUM","STATUS":"PERMITTED"}},
{"type":"Feature","geometry":null,"properties":{"OBJECTID":4482,"NAME":"Heritage Interpretation Table","ADDRESS":"Open Space West of Barber-Surgeons' Hall Monkwell Square London","TYPE":"CULT_CONS","MAIN_USE_CULT_CONS":"MUSEUM","STATUS":"PROPOSED"}},
{"type":"Feature","geometry":null,"properties":{"OBJECTID":4801,"NAME":"Roxy Ball Room","ADDRESS":"37 St Mary Axe London EC3A 8AA ","TYPE":"CULT_LEISURE","STATUS":"COMPLETED","MAIN_USE_LEISURE":"Competitive Socialising"}},
{"type":"Feature","geometry":null,"properties":{"OBJECTID":5121,"NAME":"Multi-Functional Cultural Space","ADDRESS":"63 St Mary Axe London EC3A 8AA ","TYPE":"CULT_CONS","MAIN_USE_CULT_CONS":"TEMP_SPACE","STATUS":"PERMITTED"}},
{"type":"Feature","geometry":null,"properties":{"OBJECTID":5441,"NAME":"Community Use","ADDRESS":"Gallery Western Courtyard Devonshire Square London EC2M 4AE ","TYPE":"CULT_CONS","MAIN_USE_CULT_CONS":"COMM_CENTRE","STATUS":"COMPLETED"}},
{"type":"Feature","geometry":null,"properties":{"OBJECTID":5761,"NAME":"Flipp","ADDRESS":"1 Poultry London EC2R 8EJ ","TYPE":"CULT_PROD","MAIN_USE_CULT_PROD":"MANUFACTURING","STATUS":"HISTORIC"}},
{"type":"Feature","geometry":null,"properties":{"OBJECTID":6081,"NAME":"Public Art","ADDRESS":"20 Old Broad Street, London, EC2N 1DP","TYPE":"CULT_CONS","MAIN_USE_CULT_CONS":"HIRE_SPACE","STATUS":"U_C"}},
{"type":"Feature","geometry":null,"properties":{"OBJECTID":6721,"NAME":"Tourist Touchdown Cafe","ADDRESS":"47-50 Mark Lane","TYPE":"CULT_LEISURE","STATUS":"PROPOSED","MAIN_USE_LEISURE":"Tourist Facility"}},
{"type":"Feature","geometry":null,"properties":{"OBJECTID":7361,"NAME":"Open Gate Studios Creative Entrepenaur Hub","ADDRESS":"99 Bishopsgate London EC2M 3XD","TYPE":"CULT_PROD","MAIN_USE_CULT_PROD":"CREATIVE_WORK","STATUS":"PERMITTED"}},
{"type":"Feature","geometry":null,"properties":{"OBJECTID":7362,"NAME":"Glass Gallery","ADDRESS":"99 Bishopsgate London EC2M 3XD","TYPE":"CULT_CONS","MAIN_USE_CULT_CONS":"ART_GALLERY","STATUS":"PERMITTED"}},
{"type":"Feature","geometry":null,"properties":{"OBJECTID":8005,"NAME":"Pop Up Spaces","ADDRESS":"1 Poultry","TYPE":"CULT_CONS","MAIN_USE_CULT_CONS":"TEMP_SPACE","STATUS":"S106"}},
{"type":"Feature","geometry":null,"properties":{"OBJECTID":8006,"NAME":"The Tidewaters Room","ADDRESS":"Custom House 20 Lower Thames Street London EC3R 6EA ","TYPE":"CULT_CONS","MAIN_USE_CULT_CONS":"LIBRARY","STATUS":"PROPOSED"}},
{"type":"Feature","geometry":null,"properties":{"OBJECTID":8007,"NAME":"The Long Room","ADDRESS":"Custom House 20 Lower Thames Street London EC3R 6EA ","TYPE":"CULT_CONS","MAIN_USE_CULT_CONS":"HIRE_SPACE","STATUS":"PROPOSED"}},
{"type":"Feature","geometry":null,"properties":{"OBJECTID":8321,"NAME":"The Monument","TYPE":"CULT_LEISURE","STATUS":"COMPLETED","MAIN_USE_LEISURE":"Tourist Facility"}},
{"type":"Feature","geometry":null,"properties":{"OBJECTID":8641,"NAME":"Cultural Cafe","ADDRESS":"Custom House 20 Lower Thames Street London EC3R 6EA ","TYPE":"CULT_LEISURE","STATUS":"S106","MAIN_USE_LEISURE":"Tourist Facility"}}
]}
