{"type":"FeatureCollection","meta":{
 "source": "London Datastore: Low Emission Zone (Greater London Authority)",
 "dataset": "2kodd",
 "page": "https://data.london.gov.uk/dataset/low-emission-zone-2kodd",
 "resources": [
  {
   "resource": "9e1b6ab6-f165-4864-9dcb-5aa77229c21f",
   "file": "Low_Emission_Zone.gpkg",
   "url": "https://data.london.gov.uk/download/2kodd/9e1b6ab6-f165-4864-9dcb-5aa77229c21f/Low_Emission_Zone.gpkg",
   "size": 794624,
   "resource_date": "2019-09-03",
   "fetched": "2026-10-04"
  }
 ],
 "licence": "Open Government Licence v2",
 "licence_url": "https://www.nationalarchives.gov.uk/doc/open-government-licence/version/2/",
 "attribution": "Contains public sector information licensed under the Open Government Licence v2 (Greater London Authority). The GLA cannot warrant the quality or accuracy of the data (London Datastore terms).",
 "dataset_modified": "2019-09-03",
 "update_frequency": null,
 "geo": "Custom Polygons",
 "theme": "environment",
 "layers": [
  {
   "table": "Low_Emission_Zone",
   "srs": 27700
  }
 ],
 "crs_source": "EPSG:27700",
 "crs_output": "EPSG:4326 (WGS84), 6 decimal places; BNG to WGS84 through the OS OSTN15 grid (lib.mjs bngProjector)",
 "method": "lds-harvest-auto.mjs run 2kodd: resources chosen by the written rules (harvest-log.json meta.rules: formats, dedupe, caps); every feature read (GeoPackage, GeoJSON, shapefile, or table rows with coordinate columns as points, the CRS judged per row by value); a feature is kept when it meets the zone (the 3D model box, BNG E 532400-539900, N 176700-182300): a vertex inside, an edge crossing or the box inside a polygon; whole geometries kept, whole_in_zone and in_cw added; WGS84 6 decimals through OSTN15; contact fields dropped.",
 "counts": {
  "source_features": 1,
  "no_geometry": 0,
  "in_zone": 1,
  "in_cw": 1
 },
 "attributes_in_source": "yes",
 "fields_dropped": [],
 "harvest_rules": "tools/lds-harvest-auto.mjs AUTO_RULES (feeds/london-datastore/harvest-log.json meta.rules)",
 "selection_notes": [
  "Low_Emission_Zone.gpkg: 1 polygons with over 1000 vertices cut to the zone box plus 500 m (clipped_to_zone)"
 ]
},
"features":[
{"type":"Feature","properties":{"fid":1,"boundary":"Low Emission Zone","objectid":1,"shape_area":1528386755.3121672,"shape_length":389909.7360152061,"st_area(geom)":1528386755.3121676,"st_length(geom)":0,"url":"https://tfl.gov.uk/modes/driving/low-emission-zone","runtime":"08/29/2019","clipped_to_zone":true,"in_cw":true,"whole_in_zone":false},"geometry":{"type":"Polygon","coordinates":[[[-0.099922,51.528715],[-0.102388,51.469403],[0.019909,51.467359],[0.022534,51.526667],[-0.099922,51.528715]]]}}
]}
