{"type":"FeatureCollection","meta":{
 "source": "City of London INSPIRE map service: Special Act Land",
 "borough": "City of London",
 "page": "https://www.mapping.cityoflondon.gov.uk/arcgis/rest/services/INSPIRE/MapServer/103",
 "api": "https://www.mapping.cityoflondon.gov.uk/arcgis/rest/services/INSPIRE/MapServer/103/query?where=1=1&geometry=<zone box>&geometryType=esriGeometryEnvelope&inSR=4326&spatialRel=esriSpatialRelIntersects&outFields=*&outSR=4326&f=geojson&resultOffset=<n>",
 "fetched": "2026-10-04",
 "licence": "Open Government Licence v3.0",
 "licence_evidence": "the City's INSPIRE record on data.gov.uk (special-act-land3): [\"http://www.nationalarchives.gov.uk/doc/open-government-licence/version/3/\"] | [\"License\", \"https://inspire.ec.europa.eu/metadata-codelist/LimitationsOnPublicAccess\"]",
 "licence_url": "https://www.nationalarchives.gov.uk/doc/open-government-licence/version/3/",
 "attribution": "Contains public sector information licensed under the Open Government Licence v3.0 (City of London Corporation)",
 "zone": "the 3D model box, BNG E 532400-539900, N 176700-182300 (WGS84 -0.095, 51.474 to 0.015, 51.522)",
 "method": "walk-portals.mjs boroughs harvest city-special-act-land: features that meet the zone box, WGS84 rounded to 6 decimals, whole geometries; whole_in_zone, in_cw; empty fields and ArcGIS shape measures left out; fields matching /e-?mail|phone|tel(ephone)?$|^tel|contact|^fax|mobile|^owner_?name|person|officer|case_?officer|agent_?name|applicant/i dropped",
 "counts": {
  "features": 5,
  "zone_count_at_walk": 5,
  "in_cw": 0
 },
 "fields_dropped": []
},
"features":[
{"type":"Feature","geometry":{"type":"Polygon","coordinates":[[[-0.083142,51.512633],[-0.083132,51.512655],[-0.08313,51.512659],[-0.083115,51.512692],[-0.083115,51.512692],[-0.083109,51.512705],[-0.083107,51.51271],[-0.083214,51.512753],[-0.083281,51.512781],[-0.08334,51.512805],[-0.083414,51.51282],[-0.083436,51.512842],[-0.083424,51.51287],[-0.083452,51.512875],[-0.083523,51.512885],[-0.083544,51.512888],[-0.083551,51.512868],[-0.083593,51.512851],[-0.083741,51.512875],[-0.083864,51.512895],[-0.084167,51.512943],[-0.084259,51.512958],[-0.084288,51.512962],[-0.084293,51.512947],[-0.084312,51.512904],[-0.084317,51.512891],[-0.084103,51.512858],[-0.084019,51.512845],[-0.083957,51.512835],[-0.083885,51.512824],[-0.083622,51.512783],[-0.083602,51.512756],[-0.083629,51.512694],[-0.083661,51.512618],[-0.08368,51.512576],[-0.083663,51.512574],[-0.083652,51.512573],[-0.083561,51.512558],[-0.083545,51.512595],[-0.083528,51.512635],[-0.083528,51.512635],[-0.083508,51.512675],[-0.083484,51.512728],[-0.083439,51.51275],[-0.083297,51.512691],[-0.083238,51.512669],[-0.083142,51.512633]]]},"properties":{"OBJECTID":1,"STREET":"Leadenhall Market","whole_in_zone":true,"in_cw":false}},
{"type":"Feature","geometry":{"type":"Polygon","coordinates":[[[-0.084116,51.512264],[-0.084111,51.512269],[-0.084084,51.512301],[-0.084078,51.51231],[-0.084069,51.512325],[-0.084062,51.512334],[-0.084062,51.512334],[-0.084036,51.512371],[-0.084012,51.512407],[-0.083844,51.512365],[-0.08377,51.512347],[-0.083765,51.512405],[-0.083831,51.512421],[-0.083891,51.512437],[-0.084014,51.512468],[-0.084037,51.512466],[-0.084038,51.512434],[-0.084107,51.512334],[-0.084121,51.512337],[-0.084157,51.51227],[-0.084207,51.512178],[-0.084173,51.51217],[-0.084155,51.512194],[-0.084127,51.512248],[-0.084126,51.512251],[-0.084116,51.512264]]]},"properties":{"OBJECTID":2,"STREET":"Bulls Head Passage","whole_in_zone":true,"in_cw":false}},
{"type":"Feature","geometry":{"type":"Polygon","coordinates":[[[-0.083764,51.512215],[-0.08372,51.5122],[-0.083714,51.512197],[-0.083598,51.512136],[-0.083562,51.512117],[-0.083524,51.512127],[-0.083495,51.512147],[-0.083476,51.51215],[-0.083479,51.512152],[-0.083537,51.512191],[-0.083576,51.512221],[-0.083583,51.51223],[-0.083607,51.512254],[-0.083611,51.512261],[-0.083626,51.51229],[-0.083626,51.51229],[-0.083632,51.512308],[-0.083637,51.51233],[-0.083637,51.51237],[-0.083623,51.512414],[-0.083623,51.512415],[-0.083615,51.512431],[-0.083581,51.512509],[-0.083561,51.512558],[-0.083652,51.512573],[-0.083663,51.512574],[-0.08368,51.512576],[-0.083801,51.512596],[-0.083809,51.512586],[-0.083818,51.512573],[-0.083823,51.512565],[-0.083825,51.512552],[-0.083706,51.512532],[-0.083725,51.512491],[-0.083741,51.512457],[-0.083765,51.512405],[-0.08377,51.512347],[-0.083766,51.512302],[-0.083765,51.512287],[-0.083784,51.512262],[-0.083791,51.512254],[-0.083811,51.512228],[-0.08377,51.512217],[-0.083764,51.512215]]]},"properties":{"OBJECTID":3,"STREET":"Lime Street Passage","whole_in_zone":true,"in_cw":false}},
{"type":"Feature","geometry":{"type":"Polygon","coordinates":[[[-0.083238,51.512669],[-0.083297,51.512691],[-0.083325,51.512628],[-0.083448,51.512648],[-0.083508,51.512675],[-0.083528,51.512635],[-0.083528,51.512635],[-0.083398,51.512614],[-0.083338,51.512604],[-0.083369,51.512527],[-0.083429,51.512537],[-0.083561,51.512558],[-0.083581,51.512509],[-0.083355,51.512473],[-0.083159,51.512441],[-0.083138,51.512446],[-0.0831,51.512455],[-0.083139,51.512482],[-0.083098,51.512572],[-0.083093,51.512586],[-0.083075,51.512624],[-0.083142,51.512633],[-0.083167,51.512579],[-0.083201,51.512499],[-0.083322,51.512519],[-0.083288,51.512598],[-0.083264,51.512654],[-0.083238,51.512669]]]},"properties":{"OBJECTID":644,"DESCRIPTION":"Walkway at Leadenhall Market from Lime Street Passage to Leadenhall Place","whole_in_zone":true,"in_cw":false}},
{"type":"Feature","geometry":{"type":"MultiPolygon","coordinates":[[[[-0.083811,51.512228],[-0.083791,51.512254],[-0.083784,51.512262],[-0.084062,51.512334],[-0.084062,51.512334],[-0.084062,51.512334],[-0.084069,51.512325],[-0.084078,51.51231],[-0.084084,51.512301],[-0.083951,51.512266],[-0.083811,51.512228]]],[[[-0.083843,51.512183],[-0.084116,51.512264],[-0.084126,51.512251],[-0.083815,51.512158],[-0.083771,51.512216],[-0.08377,51.512217],[-0.083811,51.512228],[-0.083843,51.512183]]]]},"properties":{"OBJECTID":962,"DESCRIPTION":"Walkway at Leadenhall Market from Lime Street Passage to Bulls Head Passage","whole_in_zone":true,"in_cw":false}}
]}
