{"type":"FeatureCollection","meta":{
 "source": "data.gov.uk: Historic Flood Map (Environment Agency)",
 "dgu_dataset": "historic-flood-map1",
 "page": "https://www.data.gov.uk/dataset/76292bec-7d8b-43e8-9c98-02734fd89c81/historic-flood-map1",
 "api": "https://environment.data.gov.uk/spatialdata/historic-flood-map/wfs",
 "layers": [
  {
   "name": "dataset-889885c0-d465-11e4-9507-f0def148f590:Historic_Flood_Map",
   "zone_count": 30
  }
 ],
 "fetched": "2026-10-04",
 "licence": "Open Government Licence v3.0",
 "licence_evidence": "[\"Open Government Licence\"] | [\"There are no public access constraints to this data. Use of this data is subject to the licence identified.\", \"There are no public access constraints to this data. Use of this data is subject to the licence identified.\"]",
 "attribution": "Contains public sector information licensed under the Open Government Licence v3.0 (Environment Agency)",
 "zone": "the 3D model box, BNG E 532400-539900, N 176700-182300 (WGS84 -0.095, 51.474 to 0.015, 51.522)",
 "method": "walk-portals.mjs dgu harvest historic-flood-map1: the service the probe counted, read with the zone box (WFS 2.0 GetFeature in EPSG:4326, or ArcGIS query with the envelope); polygons that cross the box edge are cut at the box (clipped_to_zone: for display, not for area sums); coordinates rounded to 6 decimals; empty fields, shape measures and fields matching /e-?mail|phone|tel(ephone)?$|^tel|contact|^fax|mobile|^owner_?name|person|officer|case_?officer|agent_?name|applicant/i left out",
 "counts": {
  "features": 30,
  "probe_zone_count": 30,
  "clipped": 4
 }
},
"features":[
{"type":"Feature","geometry":{"type":"MultiPolygon","coordinates":[[[[-0.01723,51.479073],[-0.01765,51.478701],[-0.018125,51.478936],[-0.018255,51.478736],[-0.0187,51.478744],[-0.018641,51.479172],[-0.01839,51.47937],[-0.017895,51.479589],[-0.017685,51.479762],[-0.016904,51.480052],[-0.016399,51.480621],[-0.01595,51.480591],[-0.016584,51.479971],[-0.016597,51.479668],[-0.01723,51.479073]]]]},"properties":{"layer":"Historic Flood Map","in_cw":false}},
{"type":"Feature","geometry":{"type":"MultiPolygon","coordinates":[[[[-0.015869,51.480615],[-0.016396,51.480624],[-0.016351,51.480674],[-0.015869,51.480615]]]]},"properties":{"layer":"Historic Flood Map","in_cw":false}},
{"type":"Feature","geometry":{"type":"MultiPolygon","coordinates":[[[[-0.01778,51.481304],[-0.018148,51.481209],[-0.018708,51.481345],[-0.018856,51.481676],[-0.018314,51.482046],[-0.017714,51.481884],[-0.017526,51.481552],[-0.01778,51.481304]]]]},"properties":{"layer":"Historic Flood Map","in_cw":false}},
{"type":"Feature","geometry":{"type":"MultiPolygon","coordinates":[[[[-0.009566,51.483261],[-0.009365,51.482298],[-0.010056,51.482209],[-0.010661,51.482244],[-0.01147,51.482258],[-0.011699,51.482565],[-0.011679,51.483019],[-0.011271,51.483113],[-0.010992,51.483008],[-0.010988,51.483109],[-0.010978,51.483336],[-0.009923,51.483419],[-0.009918,51.48352],[-0.009794,51.483593],[-0.009518,51.483412],[-0.009566,51.483261]]]]},"properties":{"layer":"Historic Flood Map","in_cw":false}},
{"type":"Feature","geometry":{"type":"MultiPolygon","coordinates":[[[[-0.023126,51.482986],[-0.023345,51.482611],[-0.023792,51.483502],[-0.0236,51.484206],[-0.023628,51.484484],[-0.023445,51.484986],[-0.023441,51.485062],[-0.022647,51.48472],[-0.02287,51.484244],[-0.022709,51.484216],[-0.022824,51.483435],[-0.023126,51.482986]]]]},"properties":{"layer":"Historic Flood Map","in_cw":false}},
{"type":"Feature","geometry":{"type":"MultiPolygon","coordinates":[[[[-0.030035,51.485981],[-0.030362,51.485911],[-0.030759,51.486069],[-0.031029,51.486376],[-0.031216,51.486733],[-0.030925,51.486905],[-0.030448,51.48672],[-0.030089,51.486613],[-0.0301,51.486361],[-0.030035,51.485981]]]]},"properties":{"layer":"Historic Flood Map","in_cw":false}},
{"type":"Feature","geometry":{"type":"MultiPolygon","coordinates":[[[[0.000645,51.486446],[-0.000142,51.48603],[-0.000604,51.485634],[-0.001132,51.485593],[-0.001604,51.485904],[-0.00131,51.486151],[-0.001178,51.486376],[-0.000725,51.486571],[-0.000568,51.486467],[0.000137,51.486859],[0.000645,51.486446]]]]},"properties":{"layer":"Historic Flood Map","in_cw":false}},
{"type":"Feature","geometry":{"type":"MultiPolygon","coordinates":[[[[-0.031505,51.487546],[-0.03208,51.487328],[-0.032347,51.487712],[-0.033062,51.488961],[-0.03387,51.489909],[-0.034555,51.490905],[-0.034646,51.491614],[-0.034341,51.492139],[-0.033478,51.492428],[-0.03237,51.492813],[-0.032328,51.492838],[-0.032056,51.492581],[-0.031985,51.492352],[-0.03256,51.49216],[-0.033051,51.492017],[-0.033345,51.491769],[-0.033196,51.491463],[-0.033142,51.490856],[-0.033119,51.490452],[-0.032857,51.489943],[-0.032423,51.489708],[-0.032238,51.489301],[-0.032062,51.488692],[-0.031829,51.488461],[-0.031489,51.487899],[-0.031505,51.487546]]]]},"properties":{"layer":"Historic Flood Map","in_cw":false}},
{"type":"Feature","geometry":{"type":"MultiPolygon","coordinates":[[[[0.004279,51.494591],[0.004463,51.494184],[0.004949,51.494201],[0.005269,51.49412],[0.004279,51.493682],[0.00337,51.493243],[0.002427,51.492956],[0.002466,51.49293],[0.00194,51.492914],[0.001723,51.493499],[0.002542,51.493737],[0.003239,51.493953],[0.003657,51.494249],[0.003953,51.494547],[0.004279,51.494591]]]]},"properties":{"layer":"Historic Flood Map","in_cw":false}},
{"type":"Feature","geometry":{"type":"MultiPolygon","coordinates":[[[[-0.057438,51.503585],[-0.0572,51.50348],[-0.057159,51.50348],[-0.057654,51.50326],[-0.059373,51.502809],[-0.059858,51.502817],[-0.059991,51.502542],[-0.060354,51.502573],[-0.060382,51.502876],[-0.060741,51.502983],[-0.060868,51.502859],[-0.061589,51.503023],[-0.060935,51.503189],[-0.06113,51.503369],[-0.061,51.503568],[-0.060317,51.503456],[-0.059301,51.50354],[-0.058573,51.503528],[-0.057929,51.503467],[-0.057438,51.503585]]]]},"properties":{"layer":"Historic Flood Map","in_cw":false}},
{"type":"Feature","geometry":{"type":"MultiPolygon","coordinates":[[[[-0.005173,51.49086],[-0.005042,51.49002],[-0.006002,51.488205],[-0.006694,51.487719],[-0.008861,51.487049],[-0.010388,51.48663],[-0.012031,51.486449],[-0.013419,51.486341],[-0.015258,51.486477],[-0.017891,51.486653],[-0.018508,51.486925],[-0.021264,51.488149],[-0.022368,51.488796],[-0.022612,51.488957],[-0.02307,51.489043],[-0.024118,51.490003],[-0.02573,51.491522],[-0.026212,51.492001],[-0.025816,51.49244],[-0.024629,51.492734],[-0.023641,51.492325],[-0.022295,51.491438],[-0.021308,51.491003],[-0.016538,51.490791],[-0.012644,51.490673],[-0.008757,51.490398],[-0.007445,51.493568],[-0.008212,51.494236],[-0.009739,51.494785],[-0.012191,51.495298],[-0.014721,51.495943],[-0.014689,51.496675],[-0.014317,51.497506],[-0.014246,51.498186],[-0.013724,51.498622],[-0.012496,51.498889],[-0.010168,51.499373],[-0.008813,51.49969],[-0.008268,51.499681],[-0.008031,51.499336],[-0.008112,51.498448],[-0.007372,51.496185],[-0.006806,51.495704],[-0.006109,51.494383],[-0.005194,51.4923],[-0.005485,51.491389],[-0.005173,51.49086]]]]},"properties":{"layer":"Historic Flood Map","in_cw":true}},
{"type":"Feature","geometry":{"type":"MultiPolygon","coordinates":[[[[-0.026003,51.501682],[-0.025298,51.501513],[-0.023999,51.501491],[-0.022737,51.501575],[-0.022115,51.501407],[-0.02176,51.500904],[-0.021807,51.499805],[-0.021744,51.499333],[-0.022037,51.499338],[-0.022086,51.497245],[-0.021589,51.497106],[-0.020455,51.497139],[-0.020446,51.49638],[-0.020465,51.495935],[-0.02081,51.495732],[-0.021561,51.495797],[-0.022702,51.495607],[-0.023627,51.495544],[-0.024479,51.495244],[-0.025284,51.495048],[-0.025788,51.49503],[-0.026542,51.495043],[-0.026951,51.495286],[-0.027077,51.498193],[-0.026896,51.499472],[-0.026865,51.500178],[-0.026788,51.500989],[-0.026768,51.501459],[-0.027049,51.501752],[-0.027131,51.50178],[-0.026003,51.501682]]]]},"properties":{"layer":"Historic Flood Map","in_cw":true}},
{"type":"Feature","geometry":{"type":"MultiPolygon","coordinates":[[[[-0.0725,51.501435],[-0.073495,51.50087],[-0.073855,51.500977],[-0.072961,51.502023],[-0.073444,51.502082],[-0.074121,51.502345],[-0.074968,51.50241],[-0.075482,51.502696],[-0.076164,51.502833],[-0.075821,51.503282],[-0.074691,51.504173],[-0.074612,51.504146],[-0.072495,51.50348],[-0.07138,51.503058],[-0.070911,51.502671],[-0.071576,51.502253],[-0.072082,51.501756],[-0.0725,51.501435]]]]},"properties":{"layer":"Historic Flood Map","in_cw":false}},
{"type":"Feature","geometry":{"type":"MultiPolygon","coordinates":[[[[-0.047695,51.503689],[-0.047485,51.503773],[-0.047402,51.50362],[-0.047607,51.503548],[-0.047695,51.503689]]]]},"properties":{"layer":"Historic Flood Map","in_cw":false}},
{"type":"Feature","geometry":{"type":"MultiPolygon","coordinates":[[[[-0.007385,51.503578],[-0.006987,51.50342],[-0.006905,51.503444],[-0.007246,51.503046],[-0.007473,51.502494],[-0.007683,51.502296],[-0.008053,51.502176],[-0.008325,51.502433],[-0.008149,51.502758],[-0.007965,51.50326],[-0.007791,51.503535],[-0.007385,51.503578]]]]},"properties":{"layer":"Historic Flood Map","in_cw":true}},
{"type":"Feature","geometry":{"type":"MultiPolygon","coordinates":[[[[-0.047695,51.503689],[-0.04797,51.503579],[-0.049163,51.503119],[-0.048575,51.50268],[-0.049052,51.501931],[-0.051367,51.500782],[-0.053923,51.499663],[-0.055235,51.500215],[-0.056666,51.49986],[-0.058381,51.499485],[-0.059587,51.499681],[-0.061409,51.499636],[-0.062947,51.499636],[-0.064197,51.499732],[-0.064591,51.499991],[-0.065913,51.500291],[-0.067487,51.500393],[-0.069116,51.500142],[-0.070859,51.500069],[-0.071813,51.500464],[-0.072368,51.500751],[-0.07166,51.501219],[-0.071357,51.501694],[-0.070645,51.502263],[-0.070648,51.502187],[-0.069809,51.501921],[-0.069565,51.501967],[-0.067727,51.501407],[-0.067734,51.501255],[-0.067452,51.501225],[-0.0672,51.501423],[-0.064875,51.50093],[-0.064841,51.500778],[-0.063953,51.500713],[-0.063513,51.500605],[-0.063228,51.500651],[-0.062335,51.500712],[-0.060272,51.500703],[-0.059584,51.500691],[-0.057639,51.50076],[-0.056169,51.501089],[-0.055019,51.501474],[-0.054861,51.501396],[-0.054567,51.501644],[-0.053746,51.501908],[-0.05363,51.501805],[-0.05289,51.50207],[-0.050709,51.502918],[-0.050041,51.503412],[-0.049423,51.503654],[-0.04884,51.504048],[-0.049073,51.50428],[-0.048617,51.504525],[-0.048099,51.504339],[-0.047695,51.503689]]]]},"properties":{"layer":"Historic Flood Map","in_cw":false}},
{"type":"Feature","geometry":{"type":"MultiPolygon","coordinates":[[[[-0.077841,51.504326],[-0.078333,51.504182],[-0.07922,51.504247],[-0.079944,51.50436],[-0.080362,51.504039],[-0.080777,51.503793],[-0.080927,51.504073],[-0.080664,51.504549],[-0.080319,51.505073],[-0.080435,51.505201],[-0.081077,51.505313],[-0.081394,51.505495],[-0.08129,51.506024],[-0.081287,51.506099],[-0.080206,51.505829],[-0.079089,51.505457],[-0.077689,51.505055],[-0.077658,51.504828],[-0.077673,51.504474],[-0.077841,51.504326]]]]},"properties":{"layer":"Historic Flood Map","in_cw":false}},
{"type":"Feature","geometry":{"type":"MultiPolygon","coordinates":[[[[-0.07684,51.507756],[-0.075514,51.507374],[-0.074842,51.507421],[-0.074842,51.507851],[-0.074714,51.508675],[-0.074342,51.508669],[-0.07404,51.508327],[-0.074195,51.507724],[-0.074458,51.50724],[-0.074751,51.506908],[-0.075922,51.506997],[-0.077306,51.507322],[-0.077488,51.507418],[-0.077882,51.507797],[-0.078035,51.508136],[-0.078152,51.508476],[-0.077335,51.509276],[-0.077073,51.509307],[-0.07692,51.508955],[-0.077481,51.508023],[-0.07684,51.507756]]]]},"properties":{"layer":"Historic Flood Map","in_cw":false}},
{"type":"Feature","geometry":{"type":"MultiPolygon","coordinates":[[[[0.015,51.502614],[0.014827,51.502672],[0.014834,51.502841],[0.014179,51.503273],[0.013778,51.503364],[0.013662,51.503787],[0.013265,51.503962],[0.013145,51.504301],[0.01301,51.504303],[0.013021,51.504556],[0.013294,51.504635],[0.01344,51.504885],[0.014257,51.50504],[0.014811,51.505367],[0.015,51.505403],[0.015,51.502614]]]]},"properties":{"layer":"Historic Flood Map","clipped_to_zone":true,"in_cw":false}},
{"type":"Feature","geometry":{"type":"MultiPolygon","coordinates":[[[[-0.033762,51.50463],[-0.033767,51.504529],[-0.033079,51.504517],[-0.033171,51.504267],[-0.033031,51.503759],[-0.033083,51.503482],[-0.032601,51.503398],[-0.032609,51.503222],[-0.032658,51.50302],[-0.032382,51.502864],[-0.032416,51.500188],[-0.032825,51.500094],[-0.032732,51.499436],[-0.032495,51.499305],[-0.032672,51.497995],[-0.032836,51.497948],[-0.032886,51.497721],[-0.033121,51.496967],[-0.032679,51.49691],[-0.03247,51.496123],[-0.032802,51.495927],[-0.033944,51.495719],[-0.033833,51.495464],[-0.033425,51.495558],[-0.032528,51.49572],[-0.032772,51.494739],[-0.032706,51.49441],[-0.033523,51.494222],[-0.03368,51.494325],[-0.033591,51.494526],[-0.033489,51.495004],[-0.033678,51.49531],[-0.034122,51.495343],[-0.034195,51.495521],[-0.034173,51.496025],[-0.034589,51.496714],[-0.035729,51.496531],[-0.036136,51.498356],[-0.035728,51.498451],[-0.035071,51.498667],[-0.034451,51.49896],[-0.034233,51.499335],[-0.034215,51.499764],[-0.034467,51.500475],[-0.034601,51.501134],[-0.034618,51.501664],[-0.033965,51.501805],[-0.033794,51.502004],[-0.034224,51.503299],[-0.0346,51.503962],[-0.034993,51.505181],[-0.035463,51.505542],[-0.036338,51.505885],[-0.0367,51.505942],[-0.036892,51.506198],[-0.03639,51.506568],[-0.036048,51.506992],[-0.036005,51.507041],[-0.034849,51.506643],[-0.034334,51.506382],[-0.033472,51.505736],[-0.032864,51.504817],[-0.033112,51.504695],[-0.033762,51.50463]]]]},"properties":{"layer":"Historic Flood Map","in_cw":false}},
{"type":"Feature","geometry":{"type":"MultiPolygon","coordinates":[[[[-0.095,51.508109],[-0.093013,51.507632],[-0.092677,51.507533],[-0.092845,51.507072],[-0.094546,51.507099],[-0.094532,51.507431],[-0.094922,51.507756],[-0.095,51.507757],[-0.095,51.508109]]]]},"properties":{"layer":"Historic Flood Map","clipped_to_zone":true,"in_cw":false}},
{"type":"Feature","geometry":{"type":"MultiPolygon","coordinates":[[[[-0.047485,51.503773],[-0.048039,51.504793],[-0.04746,51.505086],[-0.047537,51.505188],[-0.047045,51.505332],[-0.046689,51.505149],[-0.0464,51.505271],[-0.046164,51.505115],[-0.046075,51.505316],[-0.046385,51.505624],[-0.046169,51.505948],[-0.045927,51.505919],[-0.04535,51.506162],[-0.045091,51.506562],[-0.044589,51.506932],[-0.044354,51.506752],[-0.043943,51.506896],[-0.043929,51.507224],[-0.043073,51.507362],[-0.040305,51.507745],[-0.039337,51.507678],[-0.039306,51.50745],[-0.038458,51.507411],[-0.038716,51.507061],[-0.03878,51.506507],[-0.039159,51.50616],[-0.039846,51.506197],[-0.041229,51.506018],[-0.042739,51.505715],[-0.043473,51.505601],[-0.043982,51.505053],[-0.044685,51.504686],[-0.046212,51.504005],[-0.046817,51.50404],[-0.047485,51.503773]]]]},"properties":{"layer":"Historic Flood Map","in_cw":false}},
{"type":"Feature","geometry":{"type":"MultiPolygon","coordinates":[[[[-0.082491,51.509048],[-0.080382,51.508642],[-0.080062,51.508528],[-0.080064,51.50821],[-0.080246,51.50803],[-0.080426,51.508114],[-0.081284,51.508359],[-0.081132,51.508613],[-0.081315,51.50865],[-0.081364,51.508529],[-0.081418,51.508523],[-0.081464,51.50845],[-0.081949,51.508539],[-0.081947,51.508573],[-0.081979,51.5086],[-0.082195,51.50861],[-0.082229,51.508584],[-0.08265,51.508638],[-0.082648,51.508665],[-0.083468,51.508787],[-0.083465,51.508848],[-0.083552,51.508849],[-0.083679,51.508398],[-0.084511,51.508493],[-0.086863,51.508775],[-0.086757,51.509233],[-0.086595,51.509488],[-0.086594,51.509508],[-0.085729,51.509447],[-0.084366,51.50935],[-0.083794,51.50928],[-0.082491,51.509048]]]]},"properties":{"layer":"Historic Flood Map","in_cw":false}},
{"type":"Feature","geometry":{"type":"MultiPolygon","coordinates":[[[[-0.026931,51.507268],[-0.027664,51.507154],[-0.028317,51.507039],[-0.028761,51.507071],[-0.029398,51.507309],[-0.029479,51.507311],[-0.029384,51.507637],[-0.02889,51.507831],[-0.028398,51.507974],[-0.027823,51.508167],[-0.027568,51.50844],[-0.027117,51.508584],[-0.026472,51.508523],[-0.025832,51.50836],[-0.025846,51.508032],[-0.026022,51.507707],[-0.026438,51.507436],[-0.026931,51.507268]]]]},"properties":{"layer":"Historic Flood Map","in_cw":true}},
{"type":"Feature","geometry":{"type":"MultiPolygon","coordinates":[[[[-0.00931,51.508611],[-0.007736,51.508509],[-0.006521,51.508539],[-0.006117,51.508507],[-0.005921,51.508377],[-0.005732,51.507136],[-0.005391,51.505691],[-0.005351,51.505665],[-0.005836,51.505674],[-0.005889,51.505397],[-0.006061,51.505172],[-0.006431,51.505027],[-0.007103,51.505392],[-0.007338,51.505573],[-0.007731,51.505832],[-0.007751,51.506312],[-0.00753,51.506738],[-0.007954,51.507225],[-0.008845,51.507215],[-0.009936,51.507233],[-0.010869,51.507198],[-0.01061,51.507573],[-0.009797,51.507635],[-0.008054,51.507706],[-0.008113,51.508212],[-0.009408,51.508209],[-0.011544,51.508422],[-0.011568,51.508801],[-0.009505,51.508766],[-0.00931,51.508611]]]]},"properties":{"layer":"Historic Flood Map","in_cw":true}},
{"type":"Feature","geometry":{"type":"MultiPolygon","coordinates":[[[[-0.031572,51.509442],[-0.03101,51.509331],[-0.030323,51.50932],[-0.030613,51.509148],[-0.030549,51.508768],[-0.031452,51.50848],[-0.031542,51.508254],[-0.031988,51.508237],[-0.032148,51.50829],[-0.032311,51.508267],[-0.032796,51.508276],[-0.033071,51.508457],[-0.033059,51.508734],[-0.033181,51.508736],[-0.03339,51.508563],[-0.034029,51.508776],[-0.033947,51.5088],[-0.033817,51.509],[-0.033891,51.509152],[-0.033721,51.509352],[-0.033316,51.509345],[-0.033305,51.509597],[-0.032501,51.509483],[-0.031572,51.509442]]]]},"properties":{"layer":"Historic Flood Map","in_cw":false}},
{"type":"Feature","geometry":{"type":"MultiPolygon","coordinates":[[[[-0.094284,51.510812],[-0.0937,51.510537],[-0.093171,51.510462],[-0.092699,51.51056],[-0.092172,51.510445],[-0.091287,51.510258],[-0.090081,51.510093],[-0.088751,51.509859],[-0.088096,51.509755],[-0.087146,51.50958],[-0.087319,51.509012],[-0.087277,51.508985],[-0.087933,51.509062],[-0.088021,51.509011],[-0.088662,51.508941],[-0.089085,51.508988],[-0.08968,51.508998],[-0.091033,51.509192],[-0.092422,51.509573],[-0.093643,51.509872],[-0.093859,51.509796],[-0.094449,51.509912],[-0.094552,51.510006],[-0.095,51.510137],[-0.095,51.510991],[-0.094284,51.510812]]]]},"properties":{"layer":"Historic Flood Map","clipped_to_zone":true,"in_cw":false}},
{"type":"Feature","geometry":{"type":"MultiPolygon","coordinates":[[[[-0.020405,51.508446],[-0.019483,51.508253],[-0.018876,51.508243],[-0.017946,51.508227],[-0.016699,51.508055],[-0.015278,51.508157],[-0.013897,51.508285],[-0.013813,51.50836],[-0.013817,51.508259],[-0.013949,51.508008],[-0.013714,51.507827],[-0.014705,51.50739],[-0.019267,51.507644],[-0.021798,51.508065],[-0.023439,51.508472],[-0.023834,51.508706],[-0.023822,51.508983],[-0.023577,51.50903],[-0.023206,51.509175],[-0.022875,51.509346],[-0.02233,51.509791],[-0.021826,51.510212],[-0.021654,51.510437],[-0.02133,51.510456],[-0.021014,51.510274],[-0.020784,51.509967],[-0.020759,51.509613],[-0.020738,51.509158],[-0.02076,51.508654],[-0.020405,51.508446]]]]},"properties":{"layer":"Historic Flood Map","in_cw":true}},
{"type":"Feature","geometry":{"type":"MultiPolygon","coordinates":[[[[-0.019315,51.510246],[-0.019569,51.509997],[-0.019932,51.510029],[-0.020286,51.510262],[-0.020482,51.510417],[-0.020471,51.510669],[-0.020337,51.510945],[-0.020572,51.511125],[-0.020431,51.511578],[-0.020388,51.511653],[-0.019789,51.511466],[-0.019473,51.511284],[-0.019283,51.511003],[-0.019173,51.510723],[-0.019185,51.510445],[-0.019315,51.510246]]]]},"properties":{"layer":"Historic Flood Map","in_cw":true}},
{"type":"Feature","geometry":{"type":"MultiPolygon","coordinates":[[[[-0.007954,51.521671],[-0.008227,51.521591],[-0.008377,51.521257],[-0.008512,51.521259],[-0.008523,51.521007],[-0.008658,51.521009],[-0.008691,51.520252],[-0.008556,51.520249],[-0.008567,51.519997],[-0.008432,51.519995],[-0.008439,51.519826],[-0.008177,51.519653],[-0.007641,51.51956],[-0.007251,51.519217],[-0.006982,51.519212],[-0.006326,51.51878],[-0.006333,51.518612],[-0.00594,51.518352],[-0.005951,51.5181],[-0.005549,51.518009],[-0.005553,51.517925],[-0.004474,51.517907],[-0.004197,51.51807],[-0.003793,51.518063],[-0.003789,51.518147],[-0.002163,51.518288],[-0.001905,51.518031],[-0.001635,51.518027],[-0.001241,51.517767],[-0.000549,51.518176],[-0.000541,51.518345],[0.000009,51.518588],[0.000017,51.518756],[0.00029,51.518836],[0.000297,51.519004],[0.00099,51.519413],[0.000997,51.519581],[0.001548,51.519825],[0.001555,51.519993],[0.001825,51.519988],[0.002106,51.520236],[0.002376,51.520232],[0.003207,51.520723],[0.003747,51.520713],[0.003878,51.520627],[0.004282,51.52062],[0.004279,51.520536],[0.004321,51.520535],[0.004403,51.520563],[0.00455,51.52048],[0.004648,51.52025],[0.004673,51.519847],[0.004806,51.519442],[0.005014,51.518808],[0.005207,51.518295],[0.005442,51.517768],[0.005689,51.517522],[0.006003,51.517329],[0.006069,51.517306],[0.006161,51.517304],[0.00616,51.517274],[0.00636,51.517204],[0.007502,51.517113],[0.0075,51.517058],[0.007643,51.516952],[0.007674,51.516683],[0.007642,51.515959],[0.007547,51.515746],[0.007175,51.515618],[0.006903,51.515529],[0.006801,51.515469],[0.007014,51.515218],[0.007016,51.515268],[0.007286,51.515264],[0.007278,51.515095],[0.007544,51.515007],[0.007537,51.514839],[0.007803,51.51475],[0.007795,51.514581],[0.008062,51.514493],[0.008055,51.514348],[0.008124,51.51429],[0.008582,51.514063],[0.008702,51.513724],[0.008972,51.513719],[0.008957,51.513383],[0.009092,51.51338],[0.009088,51.513296],[0.009033,51.513277],[0.009082,51.513213],[0.009085,51.513212],[0.009089,51.513204],[0.009375,51.512829],[0.009512,51.512531],[0.009594,51.51253],[0.009587,51.512368],[0.00959,51.512361],[0.009722,51.512359],[0.009797,51.512023],[0.009953,51.511786],[0.009962,51.511768],[0.010228,51.511593],[0.010217,51.51134],[0.010756,51.511331],[0.01076,51.511415],[0.011168,51.511492],[0.011188,51.511435],[0.011403,51.511506],[0.011887,51.511753],[0.012304,51.511961],[0.012599,51.512291],[0.012798,51.512905],[0.012689,51.513376],[0.012385,51.513797],[0.01225,51.514149],[0.012292,51.514604],[0.012351,51.514965],[0.012313,51.51557],[0.012167,51.516149],[0.012034,51.516568],[0.01188,51.516973],[0.011532,51.517355],[0.012277,51.517677],[0.012848,51.517936],[0.013042,51.517959],[0.013168,51.51789],[0.013295,51.517848],[0.01351,51.51783],[0.013618,51.517842],[0.01379,51.517839],[0.013938,51.517783],[0.013955,51.517689],[0.013972,51.517581],[0.014054,51.517499],[0.014285,51.517361],[0.014751,51.517205],[0.015,51.517158],[0.015,51.505617],[0.014687,51.505622],[0.014406,51.505374],[0.014137,51.505379],[0.013856,51.505131],[0.013313,51.505056],[0.013309,51.504972],[0.013174,51.504974],[0.013178,51.505058],[0.012774,51.505065],[0.012777,51.505149],[0.012373,51.505156],[0.01227,51.505224],[0.012202,51.50524],[0.011352,51.505482],[0.010766,51.505841],[0.01004,51.506444],[0.009413,51.506844],[0.00954,51.506973],[0.009215,51.506979],[0.008825,51.507322],[0.007882,51.507338],[0.007619,51.507511],[0.007215,51.507518],[0.006956,51.507775],[0.006147,51.507789],[0.005885,51.507962],[0.005076,51.507976],[0.00508,51.50806],[0.004001,51.508078],[0.004005,51.508163],[0.0036,51.508169],[0.003458,51.508004],[0.003189,51.508008],[0.003345,51.508511],[0.003076,51.508515],[0.003069,51.508347],[0.002934,51.508349],[0.002788,51.508099],[0.002383,51.508106],[0.00238,51.508022],[0.001301,51.50804],[0.001024,51.507877],[0.000619,51.507884],[0.000616,51.5078],[0.000211,51.507806],[0.000208,51.507722],[-0.000197,51.507729],[-0.000201,51.507645],[-0.00074,51.507654],[-0.001017,51.507491],[-0.00183,51.50742],[-0.001942,51.507927],[-0.002077,51.50793],[-0.002062,51.508266],[-0.002325,51.508439],[-0.002317,51.508607],[-0.002452,51.50861],[-0.002441,51.508862],[-0.002576,51.508864],[-0.002565,51.509117],[-0.002827,51.50929],[-0.00282,51.509458],[-0.002955,51.50946],[-0.002951,51.509544],[-0.003595,51.509555],[-0.003364,51.50947],[-0.003179,51.509063],[-0.003318,51.508661],[-0.00398,51.508344],[-0.004464,51.508378],[-0.005113,51.508338],[-0.005418,51.508773],[-0.005195,51.509249],[-0.005017,51.509327],[-0.005524,51.509336],[-0.005644,51.509674],[-0.005779,51.509677],[-0.005768,51.509929],[-0.005903,51.509931],[-0.006008,51.510607],[-0.006253,51.510689],[-0.006266,51.510656],[-0.006577,51.51003],[-0.006576,51.510055],[-0.007108,51.509912],[-0.007881,51.509825],[-0.008311,51.51016],[-0.008134,51.510511],[-0.007922,51.510734],[-0.007984,51.511165],[-0.007049,51.511275],[-0.006182,51.511124],[-0.005578,51.511189],[-0.005301,51.511353],[-0.004761,51.511344],[-0.004484,51.511507],[-0.003945,51.511498],[-0.003941,51.511582],[-0.003537,51.511575],[-0.003533,51.511659],[-0.003129,51.511653],[-0.002851,51.511816],[-0.002447,51.511809],[-0.002443,51.511893],[-0.001496,51.511961],[-0.001219,51.512125],[-0.000679,51.512116],[-0.000676,51.5122],[-0.000275,51.512109],[-0.000162,51.511602],[-0.000027,51.5116],[-0.000042,51.511263],[0.000093,51.511261],[0.000086,51.511092],[0.000355,51.511088],[0.000494,51.51117],[0.000505,51.511422],[0.00037,51.511424],[0.000254,51.511847],[0.000392,51.511929],[0.000257,51.511932],[0.000141,51.512355],[0.000006,51.512357],[-0.00011,51.51278],[0.000167,51.512944],[0.000979,51.513014],[0.001395,51.513259],[0.001402,51.513428],[0.002095,51.513837],[0.002365,51.513832],[0.002368,51.513916],[0.003582,51.513896],[0.003578,51.513812],[0.003848,51.513807],[0.003841,51.513639],[0.003975,51.513636],[0.003961,51.5133],[0.003684,51.513136],[0.003527,51.512634],[0.00325,51.51247],[0.003242,51.512302],[0.003107,51.512304],[0.0031,51.512136],[0.002965,51.512138],[0.00295,51.511801],[0.002673,51.511638],[0.002666,51.511469],[0.002531,51.511472],[0.002509,51.510967],[0.002644,51.510965],[0.00264,51.510881],[0.003044,51.510874],[0.003048,51.510958],[0.003588,51.510948],[0.003737,51.511283],[0.003872,51.51128],[0.003883,51.511533],[0.004018,51.511531],[0.004062,51.51254],[0.003927,51.512542],[0.003938,51.512795],[0.004073,51.512793],[0.004103,51.513466],[0.004519,51.513711],[0.004668,51.514046],[0.005222,51.514373],[0.005492,51.514368],[0.005499,51.514537],[0.006312,51.514607],[0.006327,51.514943],[0.006743,51.515189],[0.006957,51.515185],[0.006756,51.515443],[0.006615,51.515359],[0.006496,51.515438],[0.006457,51.515429],[0.006284,51.515578],[0.00624,51.515607],[0.006108,51.515609],[0.0062,51.515114],[0.005645,51.514787],[0.005376,51.514791],[0.00496,51.514546],[0.004953,51.514377],[0.004544,51.5143],[0.004402,51.514134],[0.002788,51.514246],[0.002649,51.514164],[0.002653,51.514248],[0.001979,51.51426],[0.001975,51.514176],[0.001705,51.51418],[0.00129,51.513935],[0.001282,51.513767],[0.00059,51.513357],[0.000236,51.513413],[0.000123,51.5133],[-0.00037,51.513131],[-0.003718,51.512481],[-0.00706,51.511932],[-0.007416,51.513049],[-0.007883,51.513487],[-0.0079,51.514017],[-0.008263,51.514983],[-0.008402,51.51549],[-0.008655,51.516202],[-0.008977,51.517167],[-0.008749,51.517744],[-0.008893,51.51815],[-0.008043,51.518161],[-0.006866,51.518242],[-0.006752,51.518063],[-0.00712,51.517969],[-0.006991,51.5163],[-0.001148,51.514786],[-0.001192,51.514711],[-0.000345,51.515555],[0.001206,51.515103],[0.00121,51.515199],[0.001345,51.515197],[0.001341,51.515113],[0.002282,51.515013],[0.002293,51.515265],[0.002428,51.515263],[0.002439,51.515515],[0.002577,51.515597],[0.002307,51.515602],[0.001783,51.515947],[0.001112,51.516043],[0.000985,51.516214],[0.00058,51.51622],[0.000318,51.516393],[0.000048,51.516398],[0.000052,51.516482],[-0.000488,51.516491],[-0.000765,51.516328],[-0.000772,51.516159],[-0.000907,51.516162],[-0.001053,51.515912],[-0.001454,51.516003],[-0.00145,51.516087],[-0.001989,51.516096],[-0.001986,51.51618],[-0.002394,51.516103],[-0.002656,51.516276],[-0.003735,51.516294],[-0.003874,51.516212],[-0.00387,51.516296],[-0.004541,51.516392],[-0.004818,51.516228],[-0.005762,51.516244],[-0.005758,51.516328],[-0.006028,51.516333],[-0.00629,51.516506],[-0.006283,51.516674],[-0.006418,51.516677],[-0.006362,51.517939],[-0.006625,51.518111],[-0.006617,51.51828],[-0.006752,51.518282],[-0.006745,51.51845],[-0.007401,51.518882],[-0.007671,51.518887],[-0.007798,51.519058],[-0.008068,51.519062],[-0.008327,51.519319],[-0.008596,51.519324],[-0.009252,51.519756],[-0.009219,51.520513],[-0.009354,51.520515],[-0.00935,51.5206],[-0.009215,51.520597],[-0.009208,51.520766],[-0.009748,51.520775],[-0.009744,51.520859],[-0.009879,51.520861],[-0.009988,51.521453],[-0.009853,51.52145],[-0.009842,51.521703],[-0.010247,51.521709],[-0.010243,51.521794],[-0.009824,51.522],[-0.007779,51.522],[-0.007808,51.521921],[-0.007943,51.521923],[-0.007954,51.521671]],[[0.007378,51.51122],[0.007217,51.510634],[0.006813,51.510641],[0.006663,51.510306],[0.006528,51.510309],[0.006513,51.509972],[0.006914,51.509881],[0.00706,51.510131],[0.007333,51.510211],[0.007341,51.510379],[0.007614,51.510459],[0.007621,51.510627],[0.008026,51.51062],[0.008153,51.510449],[0.00788,51.51037],[0.007588,51.50987],[0.007989,51.509779],[0.007985,51.509694],[0.008659,51.509683],[0.008922,51.50951],[0.009187,51.509505],[0.009407,51.509649],[0.009832,51.510017],[0.010022,51.51043],[0.009886,51.510754],[0.009653,51.511322],[0.009424,51.51158],[0.009145,51.511527],[0.008915,51.511679],[0.008873,51.511684],[0.008361,51.511773],[0.008188,51.51188],[0.008082,51.511882],[0.008084,51.511944],[0.008026,51.51198],[0.007928,51.512112],[0.007805,51.511718],[0.00767,51.511721],[0.007651,51.5113],[0.007378,51.51122]],[[0.009191,51.5095],[0.009188,51.509421],[0.009286,51.509419],[0.009191,51.5095]],[[0.010204,51.508632],[0.010229,51.508561],[0.010211,51.508628],[0.010204,51.508632]],[[0.004613,51.518594],[0.004587,51.518678],[0.004467,51.51868],[0.00446,51.518512],[0.004594,51.51851],[0.004669,51.518172],[0.004613,51.518594]],[[0.004471,51.518764],[0.004478,51.518933],[0.004343,51.518935],[0.004336,51.518767],[0.004471,51.518764]],[[0.00429,51.519273],[0.004238,51.51961],[0.004166,51.519612],[0.004223,51.519274],[0.00429,51.519273]],[[0.004116,51.519907],[0.004136,51.52037],[0.004037,51.520372],[0.004116,51.519907]]]]},"properties":{"layer":"Historic Flood Map","clipped_to_zone":true,"in_cw":true}}
]}
