{"type":"FeatureCollection","meta":{
 "source": "London Datastore: Ultra Low Emissions Zone 2019 (Greater London Authority)",
 "dataset": "v8onw",
 "page": "https://data.london.gov.uk/dataset/ultra-low-emissions-zone-2019-v8onw",
 "resources": [
  {
   "resource": "84a78e36-7c27-4ba0-868f-13a76e1b50cb",
   "file": "ULEZCentral_CongestionChargingZone.zip",
   "url": "https://data.london.gov.uk/download/v8onw/84a78e36-7c27-4ba0-868f-13a76e1b50cb/ULEZCentral_CongestionChargingZone.zip",
   "size": 19397,
   "resource_date": "2023-12-21",
   "fetched": "2026-10-04",
   "entries": 8
  },
  {
   "resource": "f26bddb3-4c6b-4455-8e9b-c082b1cf9350",
   "file": "CentralUltraLowEmissionZone.gpkg",
   "url": "https://data.london.gov.uk/download/v8onw/f26bddb3-4c6b-4455-8e9b-c082b1cf9350/CentralUltraLowEmissionZone.gpkg",
   "size": 122880,
   "resource_date": "2023-12-21",
   "fetched": "2026-10-04"
  }
 ],
 "licence": "Open Government Licence v2",
 "licence_url": "https://www.nationalarchives.gov.uk/doc/open-government-licence/version/2/",
 "attribution": "Contains public sector information licensed under the Open Government Licence v2 (Greater London Authority). The GLA cannot warrant the quality or accuracy of the data (London Datastore terms).",
 "dataset_modified": "2024-01-11",
 "update_frequency": "One off",
 "geo": "Custom Polygons",
 "theme": "environment",
 "layers": [
  {
   "table": "UltraLowEmissionsZoneBoundary(ULEZ)",
   "srs": 27700
  },
  {
   "table": "CentralUltraLowEmissionZone",
   "srs": 27700
  }
 ],
 "crs_source": "EPSG:27700",
 "crs_output": "EPSG:4326 (WGS84), 6 decimal places; BNG to WGS84 through the OS OSTN15 grid (lib.mjs bngProjector)",
 "method": "lds-harvest-auto.mjs run v8onw: resources chosen by the written rules (harvest-log.json meta.rules: formats, dedupe, caps); every feature read (GeoPackage, GeoJSON, shapefile, or table rows with coordinate columns as points, the CRS judged per row by value); a feature is kept when it meets the zone (the 3D model box, BNG E 532400-539900, N 176700-182300): a vertex inside, an edge crossing or the box inside a polygon; whole geometries kept, whole_in_zone and in_cw added; WGS84 6 decimals through OSTN15; contact fields dropped.",
 "counts": {
  "source_features": 2,
  "no_geometry": 0,
  "in_zone": 2,
  "in_cw": 0
 },
 "attributes_in_source": "yes",
 "fields_dropped": [],
 "harvest_rules": "tools/lds-harvest-auto.mjs AUTO_RULES (feeds/london-datastore/harvest-log.json meta.rules)",
 "selection_notes": [
  "1 format variants of a picked stem not read",
  "ULEZCentral_CongestionChargingZone.zip: 1 polygons with over 1000 vertices cut to the zone box plus 500 m (clipped_to_zone)",
  "CentralUltraLowEmissionZone.gpkg: 1 polygons with over 1000 vertices cut to the zone box plus 500 m (clipped_to_zone)"
 ]
},
"features":[
{"type":"Feature","properties":{"layer":"UltraLowEmissionsZoneBoundary(ULEZ)","OBJECTID":1,"BOUNDARY":"CSS Area","Shape_Area":21.3755714879,"clipped_to_zone":true,"in_cw":false,"whole_in_zone":false},"geometry":{"type":"Polygon","coordinates":[[[-0.099922,51.528715],[-0.09362,51.528613],[-0.093279,51.528527],[-0.092813,51.528409],[-0.092634,51.528372],[-0.092486,51.528335],[-0.092502,51.528363],[-0.092078,51.528259],[-0.091826,51.528194],[-0.091755,51.528175],[-0.091367,51.528049],[-0.0913,51.528029],[-0.090644,51.527859],[-0.090624,51.527868],[-0.090111,51.527736],[-0.089779,51.527655],[-0.08951,51.527577],[-0.089036,51.527441],[-0.088878,51.527376],[-0.08879,51.527334],[-0.088796,51.527327],[-0.088667,51.527245],[-0.088601,51.527171],[-0.088495,51.527053],[-0.08842,51.526965],[-0.088391,51.526964],[-0.088308,51.526839],[-0.088291,51.526812],[-0.08822,51.5267],[-0.088149,51.526585],[-0.08813,51.52656],[-0.088005,51.5263],[-0.088016,51.526298],[-0.08792,51.526068],[-0.087021,51.525698],[-0.086767,51.525651],[-0.085941,51.525926],[-0.085561,51.526017],[-0.085238,51.526094],[-0.0851,51.526125],[-0.085034,51.526113],[-0.085023,51.526102],[-0.085015,51.526087],[-0.084747,51.526117],[-0.084741,51.526107],[-0.084543,51.526132],[-0.084403,51.526132],[-0.084264,51.526122],[-0.084095,51.526107],[-0.083956,51.526083],[-0.083813,51.526057],[-0.083702,51.526016],[-0.083513,51.525935],[-0.082197,51.525268],[-0.081825,51.525085],[-0.081304,51.524814],[-0.08086,51.524566],[-0.080452,51.524321],[-0.080481,51.523934],[-0.080506,51.523645],[-0.080517,51.523526],[-0.080128,51.523613],[-0.079927,51.52363],[-0.079475,51.523659],[-0.079431,51.52366],[-0.079395,51.523664],[-0.079322,51.523621],[-0.078801,51.523309],[-0.078546,51.52315],[-0.078421,51.523075],[-0.078411,51.523069],[-0.078402,51.523064],[-0.077978,51.522799],[-0.077508,51.522686],[-0.07748,51.52268],[-0.077304,51.522541],[-0.077037,51.522357],[-0.076646,51.522071],[-0.076165,51.521692],[-0.075718,51.521348],[-0.075072,51.520768],[-0.074936,51.520621],[-0.074668,51.520305],[-0.074603,51.520105],[-0.074603,51.52005],[-0.074603,51.519884],[-0.074603,51.519831],[-0.074585,51.519825],[-0.074601,51.519673],[-0.074609,51.519607],[-0.074612,51.519552],[-0.074626,51.519402],[-0.074646,51.519402],[-0.074652,51.51934],[-0.074634,51.519339],[-0.07465,51.519187],[-0.074675,51.519029],[-0.074633,51.51901],[-0.074627,51.518699],[-0.074626,51.518392],[-0.07446,51.518296],[-0.073842,51.517547],[-0.073419,51.517034],[-0.073432,51.517007],[-0.073382,51.516887],[-0.073157,51.516611],[-0.07297,51.516401],[-0.072602,51.515961],[-0.072521,51.515863],[-0.072501,51.515804],[-0.072424,51.515719],[-0.072338,51.51562],[-0.072261,51.515568],[-0.072136,51.515424],[-0.07217,51.515299],[-0.072595,51.515113],[-0.072724,51.515067],[-0.073456,51.514814],[-0.073831,51.514681],[-0.073947,51.514505],[-0.07397,51.514402],[-0.073954,51.514242],[-0.073653,51.513906],[-0.073535,51.513599],[-0.073469,51.513436],[-0.073435,51.513304],[-0.073406,51.513193],[-0.073417,51.513182],[-0.073378,51.513033],[-0.073388,51.513031],[-0.073377,51.512987],[-0.073386,51.512976],[-0.073354,51.512846],[-0.073376,51.512825],[-0.073341,51.512728],[-0.07334,51.512704],[-0.07333,51.512667],[-0.073368,51.512645],[-0.073361,51.512617],[-0.073336,51.512606],[-0.073312,51.512509],[-0.073327,51.51249],[-0.073321,51.512463],[-0.073305,51.512456],[-0.073258,51.51227],[-0.073246,51.51218],[-0.073185,51.511836],[-0.073196,51.511717],[-0.073119,51.511681],[-0.073115,51.511567],[-0.07312,51.51136],[-0.073175,51.511339],[-0.073394,51.511336],[-0.0737,51.511331],[-0.07427,51.511323],[-0.07427,51.51134],[-0.074397,51.511351],[-0.074392,51.511324],[-0.074438,51.51132],[-0.074596,51.511364],[-0.074719,51.511358],[-0.074718,51.511346],[-0.074916,51.51133],[-0.075152,51.51126],[-0.075296,51.511086],[-0.075061,51.510202],[-0.074709,51.509709],[-0.074644,51.509684],[-0.074543,51.509622],[-0.074489,51.509579],[-0.0742,51.509365],[-0.074069,51.509257],[-0.074038,51.509225],[-0.074022,51.50919],[-0.07403,51.509145],[-0.074147,51.5086],[-0.074459,51.507101],[-0.075221,51.505981],[-0.07533,51.505806],[-0.075669,51.505298],[-0.075793,51.505119],[-0.076242,51.504438],[-0.076693,51.503762],[-0.077086,51.503163],[-0.077204,51.503],[-0.077255,51.502958],[-0.077298,51.502933],[-0.077386,51.502915],[-0.077473,51.502917],[-0.077807,51.502993],[-0.078216,51.50309],[-0.078281,51.503006],[-0.078316,51.502966],[-0.078464,51.502874],[-0.077789,51.502437],[-0.077675,51.502357],[-0.077731,51.502282],[-0.077754,51.502273],[-0.077807,51.502179],[-0.077883,51.502015],[-0.078046,51.501685],[-0.078161,51.501464],[-0.078759,51.50012],[-0.079098,51.499411],[-0.07937,51.498842],[-0.079523,51.498512],[-0.079681,51.498167],[-0.079819,51.497865],[-0.079885,51.497773],[-0.079922,51.497765],[-0.079983,51.49768],[-0.080073,51.497599],[-0.080221,51.497507],[-0.080576,51.497352],[-0.080816,51.497247],[-0.081446,51.496971],[-0.081846,51.496802],[-0.082062,51.49672],[-0.08217,51.496675],[-0.082616,51.496464],[-0.08268,51.496386],[-0.082788,51.496256],[-0.082823,51.496218],[-0.082896,51.496141],[-0.082937,51.496103],[-0.083047,51.496001],[-0.083167,51.495888],[-0.083251,51.495824],[-0.083488,51.495661],[-0.083751,51.49548],[-0.08424,51.495167],[-0.084347,51.495109],[-0.084758,51.494876],[-0.085661,51.495042],[-0.085815,51.495005],[-0.086022,51.49494],[-0.086159,51.494887],[-0.08637,51.494797],[-0.086549,51.494661],[-0.086663,51.494419],[-0.086731,51.494379],[-0.08705,51.494373],[-0.087052,51.494394],[-0.087226,51.49439],[-0.087229,51.494369],[-0.088619,51.494341],[-0.089098,51.494356],[-0.089539,51.494325],[-0.090149,51.494317],[-0.090262,51.49431],[-0.090603,51.494302],[-0.090689,51.494302],[-0.090802,51.494299],[-0.091052,51.494293],[-0.091144,51.494287],[-0.092535,51.494262],[-0.092539,51.494288],[-0.092703,51.494284],[-0.093184,51.494266],[-0.093561,51.494258],[-0.094393,51.494269],[-0.094477,51.494271],[-0.094562,51.494277],[-0.094725,51.4943],[-0.094963,51.494339],[-0.095497,51.494449],[-0.09568,51.494483],[-0.096699,51.494694],[-0.096934,51.494742],[-0.097182,51.494799],[-0.098273,51.495023],[-0.099332,51.495244],[-0.099333,51.495294],[-0.099696,51.495293],[-0.099797,51.495461],[-0.099878,51.495564],[-0.100024,51.495646],[-0.100158,51.495685],[-0.100316,51.495721],[-0.100499,51.49573],[-0.100716,51.495728],[-0.100808,51.495727],[-0.10091,51.495714],[-0.101027,51.495675],[-0.101145,51.495614],[-0.101223,51.495547],[-0.101266,51.495413],[-0.101295,51.495342],[-0.101312,51.4953],[-0.10133,51.49489],[-0.101082,51.494783],[-0.101,51.494747],[-0.101009,51.494662],[-0.100973,51.494273],[-0.10089,51.494276],[-0.100867,51.493897],[-0.100951,51.493896],[-0.100952,51.493791],[-0.100977,51.493582],[-0.10099,51.493355],[-0.101031,51.493235],[-0.100989,51.493163],[-0.101049,51.493035],[-0.101116,51.492898],[-0.101142,51.492875],[-0.101206,51.492827],[-0.101421,51.492686],[-0.099922,51.528715]]]}},
{"type":"Feature","properties":{"layer":"CentralUltraLowEmissionZone","fid":1,"OBJECTID":1,"BOUNDARY":"CSS Area","Shape_Area":21.3755714879,"clipped_to_zone":true,"in_cw":false,"whole_in_zone":false},"geometry":{"type":"Polygon","coordinates":[[[-0.099922,51.528715],[-0.09362,51.528613],[-0.093279,51.528527],[-0.092813,51.528409],[-0.092634,51.528372],[-0.092486,51.528335],[-0.092502,51.528363],[-0.092078,51.528259],[-0.091826,51.528194],[-0.091755,51.528175],[-0.091367,51.528049],[-0.0913,51.528029],[-0.090644,51.527859],[-0.090624,51.527868],[-0.090111,51.527736],[-0.089779,51.527655],[-0.08951,51.527577],[-0.089036,51.527441],[-0.088878,51.527376],[-0.08879,51.527334],[-0.088796,51.527327],[-0.088667,51.527245],[-0.088601,51.527171],[-0.088495,51.527053],[-0.08842,51.526965],[-0.088391,51.526964],[-0.088308,51.526839],[-0.088291,51.526812],[-0.08822,51.5267],[-0.088149,51.526585],[-0.08813,51.52656],[-0.088005,51.5263],[-0.088016,51.526298],[-0.08792,51.526068],[-0.087021,51.525698],[-0.086767,51.525651],[-0.085941,51.525926],[-0.085561,51.526017],[-0.085238,51.526094],[-0.0851,51.526125],[-0.085034,51.526113],[-0.085023,51.526102],[-0.085015,51.526087],[-0.084747,51.526117],[-0.084741,51.526107],[-0.084543,51.526132],[-0.084403,51.526132],[-0.084264,51.526122],[-0.084095,51.526107],[-0.083956,51.526083],[-0.083813,51.526057],[-0.083702,51.526016],[-0.083513,51.525935],[-0.082197,51.525268],[-0.081825,51.525085],[-0.081304,51.524814],[-0.08086,51.524566],[-0.080452,51.524321],[-0.080481,51.523934],[-0.080506,51.523645],[-0.080517,51.523526],[-0.080128,51.523613],[-0.079927,51.52363],[-0.079475,51.523659],[-0.079431,51.52366],[-0.079395,51.523664],[-0.079322,51.523621],[-0.078801,51.523309],[-0.078546,51.52315],[-0.078421,51.523075],[-0.078411,51.523069],[-0.078402,51.523064],[-0.077978,51.522799],[-0.077508,51.522686],[-0.07748,51.52268],[-0.077304,51.522541],[-0.077037,51.522357],[-0.076646,51.522071],[-0.076165,51.521692],[-0.075718,51.521348],[-0.075072,51.520768],[-0.074936,51.520621],[-0.074668,51.520305],[-0.074603,51.520105],[-0.074603,51.52005],[-0.074603,51.519884],[-0.074603,51.519831],[-0.074585,51.519825],[-0.074601,51.519673],[-0.074609,51.519607],[-0.074612,51.519552],[-0.074626,51.519402],[-0.074646,51.519402],[-0.074652,51.51934],[-0.074634,51.519339],[-0.07465,51.519187],[-0.074675,51.519029],[-0.074633,51.51901],[-0.074627,51.518699],[-0.074626,51.518392],[-0.07446,51.518296],[-0.073842,51.517547],[-0.073419,51.517034],[-0.073432,51.517007],[-0.073382,51.516887],[-0.073157,51.516611],[-0.07297,51.516401],[-0.072602,51.515961],[-0.072521,51.515863],[-0.072501,51.515804],[-0.072424,51.515719],[-0.072338,51.51562],[-0.072261,51.515568],[-0.072136,51.515424],[-0.07217,51.515299],[-0.072595,51.515113],[-0.072724,51.515067],[-0.073456,51.514814],[-0.073831,51.514681],[-0.073947,51.514505],[-0.07397,51.514402],[-0.073954,51.514242],[-0.073653,51.513906],[-0.073535,51.513599],[-0.073469,51.513436],[-0.073435,51.513304],[-0.073406,51.513193],[-0.073417,51.513182],[-0.073378,51.513033],[-0.073388,51.513031],[-0.073377,51.512987],[-0.073386,51.512976],[-0.073354,51.512846],[-0.073376,51.512825],[-0.073341,51.512728],[-0.07334,51.512704],[-0.07333,51.512667],[-0.073368,51.512645],[-0.073361,51.512617],[-0.073336,51.512606],[-0.073312,51.512509],[-0.073327,51.51249],[-0.073321,51.512463],[-0.073305,51.512456],[-0.073258,51.51227],[-0.073246,51.51218],[-0.073185,51.511836],[-0.073196,51.511717],[-0.073119,51.511681],[-0.073115,51.511567],[-0.07312,51.51136],[-0.073175,51.511339],[-0.073394,51.511336],[-0.0737,51.511331],[-0.07427,51.511323],[-0.07427,51.51134],[-0.074397,51.511351],[-0.074392,51.511324],[-0.074438,51.51132],[-0.074596,51.511364],[-0.074719,51.511358],[-0.074718,51.511346],[-0.074916,51.51133],[-0.075152,51.51126],[-0.075296,51.511086],[-0.075061,51.510202],[-0.074709,51.509709],[-0.074644,51.509684],[-0.074543,51.509622],[-0.074489,51.509579],[-0.0742,51.509365],[-0.074069,51.509257],[-0.074038,51.509225],[-0.074022,51.50919],[-0.07403,51.509145],[-0.074147,51.5086],[-0.074459,51.507101],[-0.075221,51.505981],[-0.07533,51.505806],[-0.075669,51.505298],[-0.075793,51.505119],[-0.076242,51.504438],[-0.076693,51.503762],[-0.077086,51.503163],[-0.077204,51.503],[-0.077255,51.502958],[-0.077298,51.502933],[-0.077386,51.502915],[-0.077473,51.502917],[-0.077807,51.502993],[-0.078216,51.50309],[-0.078281,51.503006],[-0.078316,51.502966],[-0.078464,51.502874],[-0.077789,51.502437],[-0.077675,51.502357],[-0.077731,51.502282],[-0.077754,51.502273],[-0.077807,51.502179],[-0.077883,51.502015],[-0.078046,51.501685],[-0.078161,51.501464],[-0.078759,51.50012],[-0.079098,51.499411],[-0.07937,51.498842],[-0.079523,51.498512],[-0.079681,51.498167],[-0.079819,51.497865],[-0.079885,51.497773],[-0.079922,51.497765],[-0.079983,51.49768],[-0.080073,51.497599],[-0.080221,51.497507],[-0.080576,51.497352],[-0.080816,51.497247],[-0.081446,51.496971],[-0.081846,51.496802],[-0.082062,51.49672],[-0.08217,51.496675],[-0.082616,51.496464],[-0.08268,51.496386],[-0.082788,51.496256],[-0.082823,51.496218],[-0.082896,51.496141],[-0.082937,51.496103],[-0.083047,51.496001],[-0.083167,51.495888],[-0.083251,51.495824],[-0.083488,51.495661],[-0.083751,51.49548],[-0.08424,51.495167],[-0.084347,51.495109],[-0.084758,51.494876],[-0.085661,51.495042],[-0.085815,51.495005],[-0.086022,51.49494],[-0.086159,51.494887],[-0.08637,51.494797],[-0.086549,51.494661],[-0.086663,51.494419],[-0.086731,51.494379],[-0.08705,51.494373],[-0.087052,51.494394],[-0.087226,51.49439],[-0.087229,51.494369],[-0.088619,51.494341],[-0.089098,51.494356],[-0.089539,51.494325],[-0.090149,51.494317],[-0.090262,51.49431],[-0.090603,51.494302],[-0.090689,51.494302],[-0.090802,51.494299],[-0.091052,51.494293],[-0.091144,51.494287],[-0.092535,51.494262],[-0.092539,51.494288],[-0.092703,51.494284],[-0.093184,51.494266],[-0.093561,51.494258],[-0.094393,51.494269],[-0.094477,51.494271],[-0.094562,51.494277],[-0.094725,51.4943],[-0.094963,51.494339],[-0.095497,51.494449],[-0.09568,51.494483],[-0.096699,51.494694],[-0.096934,51.494742],[-0.097182,51.494799],[-0.098273,51.495023],[-0.099332,51.495244],[-0.099333,51.495294],[-0.099696,51.495293],[-0.099797,51.495461],[-0.099878,51.495564],[-0.100024,51.495646],[-0.100158,51.495685],[-0.100316,51.495721],[-0.100499,51.49573],[-0.100716,51.495728],[-0.100808,51.495727],[-0.10091,51.495714],[-0.101027,51.495675],[-0.101145,51.495614],[-0.101223,51.495547],[-0.101266,51.495413],[-0.101295,51.495342],[-0.101312,51.4953],[-0.10133,51.49489],[-0.101082,51.494783],[-0.101,51.494747],[-0.101009,51.494662],[-0.100973,51.494273],[-0.10089,51.494276],[-0.100867,51.493897],[-0.100951,51.493896],[-0.100952,51.493791],[-0.100977,51.493582],[-0.10099,51.493355],[-0.101031,51.493235],[-0.100989,51.493163],[-0.101049,51.493035],[-0.101116,51.492898],[-0.101142,51.492875],[-0.101206,51.492827],[-0.101421,51.492686],[-0.099922,51.528715]]]}}
]}
