{"type":"FeatureCollection","meta":{
 "source": "City of London INSPIRE map service: Places of Interest",
 "borough": "City of London",
 "page": "https://www.mapping.cityoflondon.gov.uk/arcgis/rest/services/INSPIRE/MapServer/120",
 "api": "https://www.mapping.cityoflondon.gov.uk/arcgis/rest/services/INSPIRE/MapServer/120/query?where=1=1&geometry=<zone box>&geometryType=esriGeometryEnvelope&inSR=4326&spatialRel=esriSpatialRelIntersects&outFields=*&outSR=4326&f=geojson&resultOffset=<n>",
 "fetched": "2026-10-04",
 "licence": "Open Government Licence v3.0",
 "licence_evidence": "the City's INSPIRE record on data.gov.uk (places-of-interest4): [\"http://www.nationalarchives.gov.uk/doc/open-government-licence/version/3/\"] | [\"https://inspire.ec.europa.eu/metadata-codelist/LimitationsOnPublicAccess\", \"License\"]",
 "licence_url": "https://www.nationalarchives.gov.uk/doc/open-government-licence/version/3/",
 "attribution": "Contains public sector information licensed under the Open Government Licence v3.0 (City of London Corporation)",
 "zone": "the 3D model box, BNG E 532400-539900, N 176700-182300 (WGS84 -0.095, 51.474 to 0.015, 51.522)",
 "method": "walk-portals.mjs boroughs harvest city-places-of-interest: features that meet the zone box, WGS84 rounded to 6 decimals, whole geometries; whole_in_zone, in_cw; empty fields and ArcGIS shape measures left out; fields matching /e-?mail|phone|tel(ephone)?$|^tel|contact|^fax|mobile|^owner_?name|person|officer|case_?officer|agent_?name|applicant/i dropped",
 "counts": {
  "features": 17,
  "zone_count_at_walk": 17,
  "in_cw": 0
 },
 "fields_dropped": []
},
"features":[
{"type":"Feature","geometry":{"type":"Polygon","coordinates":[[[-0.089205,51.513933],[-0.089137,51.513841],[-0.088957,51.513594],[-0.088975,51.51359],[-0.088969,51.513582],[-0.088955,51.513586],[-0.088945,51.513588],[-0.088934,51.513589],[-0.088923,51.51359],[-0.088912,51.513591],[-0.088905,51.51359],[-0.088898,51.51359],[-0.088893,51.513588],[-0.088887,51.513587],[-0.088874,51.513581],[-0.088863,51.513575],[-0.088859,51.513573],[-0.088857,51.513571],[-0.088853,51.513567],[-0.088848,51.513562],[-0.088645,51.513621],[-0.088341,51.513708],[-0.088334,51.513698],[-0.088025,51.513783],[-0.088034,51.513796],[-0.087474,51.513955],[-0.08747,51.513959],[-0.087466,51.513963],[-0.087463,51.513968],[-0.087462,51.513974],[-0.087462,51.513979],[-0.087464,51.513984],[-0.087466,51.513988],[-0.087469,51.513992],[-0.087538,51.514094],[-0.08762,51.514211],[-0.087716,51.514351],[-0.087816,51.514494],[-0.087876,51.514579],[-0.087881,51.514585],[-0.087888,51.51459],[-0.087892,51.514595],[-0.087897,51.514598],[-0.087898,51.514598],[-0.087904,51.5146],[-0.087911,51.514601],[-0.087918,51.514603],[-0.087926,51.514604],[-0.08794,51.514604],[-0.087963,51.514604],[-0.087964,51.514598],[-0.088348,51.514613],[-0.088354,51.514614],[-0.088399,51.514615],[-0.088431,51.514617],[-0.088749,51.514629],[-0.088778,51.514631],[-0.088803,51.514631],[-0.089183,51.514647],[-0.08945,51.514657],[-0.089526,51.514659],[-0.089526,51.514652],[-0.089528,51.514645],[-0.089529,51.514642],[-0.089532,51.514637],[-0.089534,51.514635],[-0.089551,51.514619],[-0.089549,51.514613],[-0.089601,51.514563],[-0.089614,51.514562],[-0.089627,51.514547],[-0.089629,51.514545],[-0.089632,51.514542],[-0.089638,51.514538],[-0.089641,51.514537],[-0.089644,51.514535],[-0.08965,51.514533],[-0.089499,51.51433],[-0.089364,51.514147],[-0.089316,51.514082],[-0.089205,51.513933]]]},"properties":{"OBJECTID":3,"NAME":"Bank of England","whole_in_zone":true,"in_cw":false}},
{"type":"Feature","geometry":{"type":"Polygon","coordinates":[[[-0.08067,51.514635],[-0.080693,51.514617],[-0.080714,51.514596],[-0.080732,51.514574],[-0.080746,51.514551],[-0.080757,51.514527],[-0.080763,51.514503],[-0.080766,51.514478],[-0.080765,51.514454],[-0.080761,51.514429],[-0.080752,51.514405],[-0.08074,51.514382],[-0.080724,51.514359],[-0.080704,51.514338],[-0.080682,51.514317],[-0.080656,51.514299],[-0.080627,51.514282],[-0.080596,51.514266],[-0.080563,51.514253],[-0.080527,51.514242],[-0.080491,51.514233],[-0.080453,51.514226],[-0.080414,51.514222],[-0.080374,51.51422],[-0.080335,51.514221],[-0.080295,51.514224],[-0.080257,51.514229],[-0.080219,51.514237],[-0.080183,51.514247],[-0.080149,51.514259],[-0.080116,51.514273],[-0.080086,51.514289],[-0.080059,51.514307],[-0.080035,51.514327],[-0.080013,51.514347],[-0.079996,51.514369],[-0.079981,51.514392],[-0.079971,51.514416],[-0.079964,51.51444],[-0.079961,51.514465],[-0.079962,51.51449],[-0.079967,51.514514],[-0.079975,51.514538],[-0.079988,51.514562],[-0.080003,51.514584],[-0.080023,51.514606],[-0.080046,51.514626],[-0.080071,51.514645],[-0.0801,51.514662],[-0.080131,51.514677],[-0.080164,51.51469],[-0.0802,51.514701],[-0.080237,51.51471],[-0.080275,51.514717],[-0.080314,51.514721],[-0.080353,51.514723],[-0.080393,51.514722],[-0.080432,51.514719],[-0.08047,51.514714],[-0.080508,51.514706],[-0.080516,51.514704],[-0.080544,51.514696],[-0.080579,51.514684],[-0.080611,51.51467],[-0.080641,51.514654],[-0.080668,51.514636],[-0.08067,51.514635]]]},"properties":{"OBJECTID":4,"NAME":"Swiss Re (Gherkin)","whole_in_zone":true,"in_cw":false}},
{"type":"Feature","geometry":{"type":"Polygon","coordinates":[[[-0.076795,51.50719],[-0.076647,51.50716],[-0.076461,51.507121],[-0.076336,51.507096],[-0.076225,51.507073],[-0.076171,51.507052],[-0.075972,51.506981],[-0.075965,51.506978],[-0.075732,51.506894],[-0.075645,51.506876],[-0.075497,51.506848],[-0.075304,51.506812],[-0.075053,51.506764],[-0.074898,51.506734],[-0.074605,51.50692],[-0.074592,51.506938],[-0.074561,51.506986],[-0.07454,51.507017],[-0.074537,51.507021],[-0.074496,51.507082],[-0.074485,51.5071],[-0.074475,51.507151],[-0.074399,51.507531],[-0.07438,51.507613],[-0.074333,51.507828],[-0.074282,51.508076],[-0.074239,51.508287],[-0.074204,51.508454],[-0.074192,51.50851],[-0.074173,51.508598],[-0.074148,51.508718],[-0.074137,51.508771],[-0.074129,51.508807],[-0.074143,51.50902],[-0.07422,51.509041],[-0.074469,51.509107],[-0.074686,51.509164],[-0.07488,51.509215],[-0.075093,51.509273],[-0.075233,51.50931],[-0.075584,51.509404],[-0.075887,51.509374],[-0.075891,51.509386],[-0.076061,51.509369],[-0.076057,51.509353],[-0.076198,51.509341],[-0.076313,51.50933],[-0.07647,51.509315],[-0.076659,51.509296],[-0.076871,51.509275],[-0.077004,51.509262],[-0.077135,51.509253],[-0.077277,51.509244],[-0.077492,51.50923],[-0.077505,51.509229],[-0.077518,51.509227],[-0.077541,51.509223],[-0.077563,51.509217],[-0.077593,51.509207],[-0.077595,51.509206],[-0.077607,51.509199],[-0.077619,51.509192],[-0.077639,51.509178],[-0.077647,51.509173],[-0.077654,51.509167],[-0.077659,51.509162],[-0.077665,51.509157],[-0.077672,51.509149],[-0.077678,51.509142],[-0.077692,51.509121],[-0.077702,51.509102],[-0.077707,51.509094],[-0.077765,51.508996],[-0.077848,51.508868],[-0.077936,51.508729],[-0.078057,51.508535],[-0.078068,51.508519],[-0.078113,51.508448],[-0.078158,51.508377],[-0.078183,51.508336],[-0.078194,51.508318],[-0.078551,51.508406],[-0.0786,51.508317],[-0.078637,51.50825],[-0.078709,51.508012],[-0.078716,51.508],[-0.078774,51.507902],[-0.078885,51.507722],[-0.078821,51.507686],[-0.078792,51.50767],[-0.078768,51.507657],[-0.078753,51.50765],[-0.078728,51.507631],[-0.078663,51.507584],[-0.078487,51.507539],[-0.078206,51.507465],[-0.078092,51.507438],[-0.078066,51.50745],[-0.07807,51.507445],[-0.078025,51.507434],[-0.078031,51.507407],[-0.077863,51.507383],[-0.07782,51.507396],[-0.077779,51.507388],[-0.077663,51.507367],[-0.077342,51.507302],[-0.07709,51.507251],[-0.076917,51.507216],[-0.076795,51.50719]]]},"properties":{"OBJECTID":5,"NAME":"Tower Of London","whole_in_zone":true,"in_cw":false}},
{"type":"Feature","geometry":{"type":"Polygon","coordinates":[[[-0.091913,51.517815],[-0.091966,51.517726],[-0.091759,51.517679],[-0.091723,51.517672],[-0.091673,51.517757],[-0.091653,51.517791],[-0.091594,51.517889],[-0.091505,51.518034],[-0.091742,51.518089],[-0.091753,51.518091],[-0.091837,51.517943],[-0.091886,51.517861],[-0.091913,51.517815]]]},"properties":{"OBJECTID":6,"NAME":"St Alphage House","whole_in_zone":true,"in_cw":false}},
{"type":"Feature","geometry":{"type":"Polygon","coordinates":[[[-0.091737,51.515607],[-0.09174,51.515466],[-0.091737,51.515466],[-0.091739,51.515444],[-0.091681,51.515442],[-0.091681,51.515439],[-0.09148,51.515433],[-0.09145,51.51545],[-0.091449,51.51546],[-0.091445,51.51546],[-0.091441,51.515459],[-0.09144,51.515458],[-0.09144,51.515457],[-0.091439,51.515455],[-0.091439,51.515454],[-0.091438,51.515454],[-0.091438,51.515453],[-0.091437,51.515453],[-0.091437,51.515452],[-0.091436,51.515452],[-0.091435,51.515451],[-0.091434,51.51545],[-0.091432,51.515449],[-0.091432,51.515449],[-0.091431,51.515448],[-0.09143,51.515448],[-0.091429,51.515448],[-0.091429,51.515448],[-0.091428,51.515447],[-0.091427,51.515447],[-0.091425,51.515447],[-0.091424,51.515446],[-0.091422,51.515446],[-0.091421,51.515446],[-0.09142,51.515446],[-0.091418,51.515446],[-0.091415,51.515446],[-0.091414,51.515447],[-0.091414,51.515447],[-0.091413,51.515447],[-0.091412,51.515447],[-0.091411,51.515447],[-0.09141,51.515447],[-0.091409,51.515448],[-0.091409,51.515448],[-0.091408,51.515448],[-0.091405,51.51545],[-0.091404,51.51545],[-0.091404,51.51545],[-0.091402,51.515452],[-0.091401,51.515452],[-0.091401,51.515453],[-0.0914,51.515454],[-0.0914,51.515454],[-0.091399,51.515455],[-0.091399,51.515455],[-0.091399,51.515456],[-0.091398,51.515456],[-0.091398,51.515457],[-0.091398,51.515458],[-0.091394,51.515458],[-0.091389,51.515458],[-0.09139,51.515448],[-0.091363,51.515429],[-0.091162,51.515422],[-0.091158,51.515425],[-0.091146,51.515431],[-0.091145,51.515431],[-0.091145,51.515431],[-0.091143,51.515431],[-0.091142,51.51543],[-0.091141,51.51543],[-0.09114,51.51543],[-0.09114,51.51543],[-0.091137,51.51543],[-0.091134,51.51543],[-0.091134,51.51543],[-0.091132,51.51543],[-0.091132,51.51543],[-0.091131,51.515431],[-0.09113,51.515431],[-0.09113,51.515431],[-0.091128,51.515431],[-0.091128,51.515432],[-0.091126,51.515432],[-0.091125,51.515433],[-0.091123,51.515434],[-0.091123,51.515435],[-0.091122,51.515435],[-0.091122,51.515436],[-0.091122,51.515436],[-0.091121,51.515437],[-0.091121,51.515437],[-0.09112,51.515438],[-0.09112,51.515439],[-0.09112,51.515439],[-0.09112,51.51544],[-0.09112,51.515442],[-0.091121,51.515444],[-0.091121,51.515444],[-0.091121,51.515445],[-0.09111,51.515451],[-0.091105,51.515454],[-0.091093,51.515634],[-0.091118,51.515634],[-0.091116,51.515661],[-0.091091,51.515661],[-0.091091,51.515665],[-0.091091,51.515671],[-0.09109,51.515701],[-0.091081,51.515707],[-0.091081,51.515736],[-0.091091,51.515742],[-0.091091,51.51576],[-0.091092,51.515823],[-0.091108,51.515823],[-0.091108,51.515811],[-0.091137,51.515813],[-0.091137,51.51586],[-0.091132,51.515864],[-0.091131,51.515891],[-0.091135,51.515891],[-0.091135,51.51591],[-0.091166,51.515927],[-0.091204,51.515929],[-0.091233,51.515912],[-0.091232,51.515952],[-0.091214,51.515952],[-0.091214,51.515961],[-0.091231,51.515961],[-0.09123,51.515989],[-0.091214,51.515989],[-0.091213,51.516],[-0.09123,51.516001],[-0.09123,51.516033],[-0.09125,51.516059],[-0.091261,51.516059],[-0.091265,51.516059],[-0.091278,51.516069],[-0.091295,51.516057],[-0.091458,51.516057],[-0.091474,51.51607],[-0.091486,51.516065],[-0.091481,51.516058],[-0.091528,51.516058],[-0.091528,51.516071],[-0.091524,51.516209],[-0.091488,51.516209],[-0.091487,51.516252],[-0.091507,51.516253],[-0.091506,51.516287],[-0.091487,51.516287],[-0.091486,51.516288],[-0.091485,51.516333],[-0.091528,51.516334],[-0.091526,51.516383],[-0.091552,51.516383],[-0.09173,51.516385],[-0.091731,51.516354],[-0.091732,51.516334],[-0.091815,51.516334],[-0.092281,51.516335],[-0.09228,51.516385],[-0.092488,51.516385],[-0.092488,51.516335],[-0.092517,51.516335],[-0.092516,51.516287],[-0.092501,51.516287],[-0.092501,51.516258],[-0.092517,51.516258],[-0.092517,51.516207],[-0.092477,51.516207],[-0.092477,51.516185],[-0.092477,51.516129],[-0.092504,51.516129],[-0.09254,51.516129],[-0.092624,51.516129],[-0.092624,51.516163],[-0.092624,51.516249],[-0.092624,51.516257],[-0.09283,51.516259],[-0.092832,51.516248],[-0.092844,51.516249],[-0.092872,51.516249],[-0.092874,51.516237],[-0.092883,51.516234],[-0.092883,51.516214],[-0.092873,51.51621],[-0.092873,51.516207],[-0.092917,51.516207],[-0.092921,51.516207],[-0.092925,51.516206],[-0.092928,51.516205],[-0.092931,51.516204],[-0.092932,51.516202],[-0.092934,51.516199],[-0.092935,51.516195],[-0.092935,51.516179],[-0.092925,51.516176],[-0.092874,51.516175],[-0.092875,51.516167],[-0.092876,51.516155],[-0.092954,51.516156],[-0.092964,51.516151],[-0.092966,51.51599],[-0.09298,51.51599],[-0.093008,51.51599],[-0.093015,51.515571],[-0.092983,51.51557],[-0.092973,51.51557],[-0.092974,51.515535],[-0.092824,51.515535],[-0.092758,51.515535],[-0.092758,51.515599],[-0.092758,51.515739],[-0.092386,51.515738],[-0.092148,51.515736],[-0.09207,51.515735],[-0.092066,51.515728],[-0.091972,51.515727],[-0.091971,51.515738],[-0.091891,51.515738],[-0.091891,51.515743],[-0.09184,51.515743],[-0.091765,51.515743],[-0.091733,51.515743],[-0.091735,51.51567],[-0.091737,51.515607]]]},"properties":{"OBJECTID":7,"NAME":"Guildhall","whole_in_zone":true,"in_cw":false}},
{"type":"Feature","geometry":{"type":"Polygon","coordinates":[[[-0.085686,51.509981],[-0.085588,51.510106],[-0.085552,51.510147],[-0.085543,51.51016],[-0.085758,51.510205],[-0.085727,51.510263],[-0.085748,51.510267],[-0.085731,51.510298],[-0.0858,51.510314],[-0.085848,51.510325],[-0.085894,51.510335],[-0.085965,51.510292],[-0.086057,51.51031],[-0.086097,51.510292],[-0.086163,51.510271],[-0.086164,51.510272],[-0.086241,51.510141],[-0.086238,51.510138],[-0.086233,51.510131],[-0.086226,51.510122],[-0.086221,51.510113],[-0.086218,51.510102],[-0.086121,51.510059],[-0.086114,51.51006],[-0.086107,51.510061],[-0.0861,51.510061],[-0.086093,51.510059],[-0.086086,51.510057],[-0.085959,51.51002],[-0.085782,51.509968],[-0.085692,51.509981],[-0.085686,51.509981]]]},"properties":{"OBJECTID":10,"NAME":"The Monument Surrounds","whole_in_zone":true,"in_cw":false}},
{"type":"Feature","geometry":{"type":"MultiPolygon","coordinates":[[[[-0.110908,51.510864],[-0.110908,51.510799],[-0.110929,51.510793],[-0.110976,51.510792],[-0.110976,51.510787],[-0.111057,51.510787],[-0.111058,51.510793],[-0.111099,51.510794],[-0.111101,51.510812],[-0.111143,51.51081],[-0.111143,51.510791],[-0.111251,51.510792],[-0.111254,51.510841],[-0.111319,51.510839],[-0.111322,51.510839],[-0.111371,51.510838],[-0.111595,51.510831],[-0.111595,51.510822],[-0.111649,51.510821],[-0.111648,51.510813],[-0.111751,51.510811],[-0.111752,51.510828],[-0.111715,51.510829],[-0.111715,51.510831],[-0.111716,51.510859],[-0.111773,51.510857],[-0.111774,51.510859],[-0.111852,51.510857],[-0.111852,51.510853],[-0.111909,51.510852],[-0.111906,51.510825],[-0.111905,51.510823],[-0.111863,51.510824],[-0.11186,51.510804],[-0.111962,51.510801],[-0.111963,51.510809],[-0.112011,51.510808],[-0.112012,51.510818],[-0.112241,51.510806],[-0.112297,51.510802],[-0.112329,51.510801],[-0.112311,51.510707],[-0.112217,51.510714],[-0.112154,51.510719],[-0.112148,51.510675],[-0.11221,51.510672],[-0.11221,51.510676],[-0.112489,51.510654],[-0.112488,51.51065],[-0.11256,51.510644],[-0.112568,51.510686],[-0.112497,51.510692],[-0.112334,51.510705],[-0.112352,51.5108],[-0.112363,51.510799],[-0.112354,51.510746],[-0.112462,51.510738],[-0.112464,51.510756],[-0.112505,51.510753],[-0.112505,51.510738],[-0.112546,51.510735],[-0.112548,51.510728],[-0.112631,51.510723],[-0.112632,51.510729],[-0.112681,51.510726],[-0.112682,51.510732],[-0.112691,51.510734],[-0.112694,51.510735],[-0.112698,51.510737],[-0.112701,51.510738],[-0.112705,51.510742],[-0.112706,51.510744],[-0.112708,51.510746],[-0.112709,51.510748],[-0.11271,51.510749],[-0.112711,51.510751],[-0.112712,51.510753],[-0.112717,51.51077],[-0.112721,51.51079],[-0.112734,51.510789],[-0.112831,51.510782],[-0.112836,51.510799],[-0.113075,51.510778],[-0.113075,51.510772],[-0.113095,51.510771],[-0.113095,51.510775],[-0.113383,51.510748],[-0.113382,51.510741],[-0.113403,51.510741],[-0.113405,51.510745],[-0.113667,51.510715],[-0.113687,51.510714],[-0.113684,51.510707],[-0.113712,51.510703],[-0.113714,51.510712],[-0.113792,51.510702],[-0.113866,51.510693],[-0.113926,51.510684],[-0.11399,51.510676],[-0.113986,51.51067],[-0.114013,51.510666],[-0.114013,51.510672],[-0.114153,51.510653],[-0.114301,51.510631],[-0.1143,51.510627],[-0.114321,51.510623],[-0.114323,51.510629],[-0.11436,51.510623],[-0.114384,51.510619],[-0.114403,51.510616],[-0.114597,51.510585],[-0.114594,51.510579],[-0.114616,51.510576],[-0.114618,51.510582],[-0.114667,51.510574],[-0.114651,51.510538],[-0.114385,51.510507],[-0.114319,51.510518],[-0.114258,51.510528],[-0.114255,51.510521],[-0.114223,51.510526],[-0.114179,51.510515],[-0.114212,51.510494],[-0.114241,51.510489],[-0.114238,51.510481],[-0.114471,51.510443],[-0.114476,51.510454],[-0.11451,51.510448],[-0.114548,51.510456],[-0.114527,51.510478],[-0.114489,51.510484],[-0.114492,51.51049],[-0.11445,51.510496],[-0.114655,51.510521],[-0.114672,51.51052],[-0.114744,51.510356],[-0.114685,51.510366],[-0.114658,51.510308],[-0.115072,51.510235],[-0.115099,51.510295],[-0.114773,51.510352],[-0.1147,51.510521],[-0.114702,51.510527],[-0.11471,51.510529],[-0.114725,51.510565],[-0.114895,51.510539],[-0.114892,51.510532],[-0.114919,51.510527],[-0.114921,51.510534],[-0.115193,51.510485],[-0.115189,51.510479],[-0.115213,51.510475],[-0.115215,51.510481],[-0.115344,51.510455],[-0.11549,51.510426],[-0.115485,51.51042],[-0.115507,51.510415],[-0.115512,51.510423],[-0.115629,51.5104],[-0.115787,51.510368],[-0.115782,51.510362],[-0.115805,51.510356],[-0.115807,51.510363],[-0.115932,51.510338],[-0.116075,51.510307],[-0.116071,51.5103],[-0.116101,51.510294],[-0.116104,51.510301],[-0.116225,51.510273],[-0.116373,51.510238],[-0.116368,51.510232],[-0.116392,51.510226],[-0.116396,51.510231],[-0.116495,51.510207],[-0.11666,51.510166],[-0.116656,51.510161],[-0.116677,51.510155],[-0.11668,51.510161],[-0.116918,51.510103],[-0.116912,51.510095],[-0.116922,51.510091],[-0.116906,51.510072],[-0.116897,51.510059],[-0.116933,51.510049],[-0.11691,51.510018],[-0.116958,51.510002],[-0.116983,51.510037],[-0.117025,51.510024],[-0.117034,51.510037],[-0.117092,51.51002],[-0.117101,51.510018],[-0.117265,51.509972],[-0.117253,51.509955],[-0.117319,51.509936],[-0.117332,51.509954],[-0.117348,51.509947],[-0.117331,51.509925],[-0.117312,51.509931],[-0.116992,51.510032],[-0.116967,51.509996],[-0.11696,51.509989],[-0.116959,51.509986],[-0.116959,51.50998],[-0.116961,51.509977],[-0.116962,51.509976],[-0.116965,51.509974],[-0.116968,51.509972],[-0.116971,51.509971],[-0.116975,51.50997],[-0.11727,51.509879],[-0.117442,51.509826],[-0.117643,51.509764],[-0.117689,51.50982],[-0.117668,51.509825],[-0.117652,51.50983],[-0.117371,51.509913],[-0.117358,51.509917],[-0.117352,51.509919],[-0.11737,51.509942],[-0.117386,51.509936],[-0.117373,51.509918],[-0.117446,51.509897],[-0.117459,51.509914],[-0.117609,51.509865],[-0.117666,51.509847],[-0.117656,51.509835],[-0.117704,51.509821],[-0.117672,51.509784],[-0.117664,51.509774],[-0.117741,51.509746],[-0.117546,51.509527],[-0.117478,51.509527],[-0.117516,51.509493],[-0.117474,51.509446],[-0.117214,51.509156],[-0.117005,51.508921],[-0.116934,51.508919],[-0.116975,51.508887],[-0.116941,51.508849],[-0.116681,51.508554],[-0.116467,51.508316],[-0.116403,51.508316],[-0.116426,51.508296],[-0.116441,51.508287],[-0.115947,51.507735],[-0.115925,51.50771],[-0.115871,51.507709],[-0.115901,51.507684],[-0.115856,51.507633],[-0.115703,51.50769],[-0.115606,51.50773],[-0.115507,51.507769],[-0.115392,51.507792],[-0.115275,51.507814],[-0.115174,51.507849],[-0.115063,51.507888],[-0.114947,51.507928],[-0.114828,51.507973],[-0.114718,51.508013],[-0.114606,51.508045],[-0.114489,51.508073],[-0.114377,51.508102],[-0.114266,51.508132],[-0.114158,51.508161],[-0.113972,51.508204],[-0.113857,51.508237],[-0.113807,51.508237],[-0.113769,51.508237],[-0.113764,51.508237],[-0.113704,51.508238],[-0.113494,51.508244],[-0.113451,51.508247],[-0.113442,51.508248],[-0.113088,51.508305],[-0.113035,51.508312],[-0.1129,51.508316],[-0.11277,51.508339],[-0.112604,51.508362],[-0.112482,51.508378],[-0.112372,51.508398],[-0.112259,51.508422],[-0.112142,51.508455],[-0.112027,51.508485],[-0.111906,51.508509],[-0.111776,51.508535],[-0.111602,51.508564],[-0.111471,51.508575],[-0.111353,51.508566],[-0.111225,51.508579],[-0.111096,51.508591],[-0.110937,51.50863],[-0.110795,51.508665],[-0.110649,51.508685],[-0.110528,51.508701],[-0.110411,51.508711],[-0.110289,51.50872],[-0.11013,51.5087],[-0.109936,51.508685],[-0.10981,51.508697],[-0.109679,51.508717],[-0.109533,51.50874],[-0.109412,51.508759],[-0.109294,51.508787],[-0.109192,51.508821],[-0.109081,51.508841],[-0.108963,51.508835],[-0.108844,51.508829],[-0.108727,51.508844],[-0.108605,51.508867],[-0.108445,51.508865],[-0.108304,51.508828],[-0.108176,51.508817],[-0.108052,51.508804],[-0.107923,51.508794],[-0.107806,51.508798],[-0.107676,51.508808],[-0.107556,51.508822],[-0.107444,51.508845],[-0.107335,51.508876],[-0.107146,51.508882],[-0.107021,51.508895],[-0.106902,51.5089],[-0.106778,51.508893],[-0.106724,51.508894],[-0.106537,51.50889],[-0.106461,51.508889],[-0.106367,51.50889],[-0.106248,51.508885],[-0.106131,51.508881],[-0.106009,51.508874],[-0.105888,51.508874],[-0.105772,51.508878],[-0.105659,51.508854],[-0.105547,51.50888],[-0.105433,51.508864],[-0.105318,51.508851],[-0.105203,51.508833],[-0.105087,51.508819],[-0.104976,51.508839],[-0.104869,51.508872],[-0.104759,51.508907],[-0.104681,51.508914],[-0.104679,51.508957],[-0.104675,51.50907],[-0.104684,51.509071],[-0.104693,51.509072],[-0.104709,51.509073],[-0.104724,51.509076],[-0.104734,51.509079],[-0.104744,51.509081],[-0.104755,51.509086],[-0.104765,51.50909],[-0.104769,51.509092],[-0.104773,51.509093],[-0.104782,51.509098],[-0.104772,51.509104],[-0.104761,51.509109],[-0.104748,51.509112],[-0.104737,51.509115],[-0.104721,51.509118],[-0.104705,51.50912],[-0.104694,51.509121],[-0.104679,51.509123],[-0.104673,51.509123],[-0.10467,51.509224],[-0.104658,51.50953],[-0.104656,51.509602],[-0.104669,51.509602],[-0.104685,51.509603],[-0.104698,51.509604],[-0.104713,51.509606],[-0.104726,51.509609],[-0.10474,51.509614],[-0.104751,51.509617],[-0.104761,51.509622],[-0.104767,51.509625],[-0.104773,51.509629],[-0.104763,51.509635],[-0.104753,51.50964],[-0.10474,51.509646],[-0.104724,51.509649],[-0.104711,51.509652],[-0.104698,51.509654],[-0.104682,51.509656],[-0.104666,51.509657],[-0.104653,51.509657],[-0.104649,51.509829],[-0.104641,51.510021],[-0.104636,51.510171],[-0.104663,51.510174],[-0.104676,51.510175],[-0.10469,51.510177],[-0.104697,51.510179],[-0.10471,51.510183],[-0.104722,51.510188],[-0.10474,51.510197],[-0.104742,51.510197],[-0.104748,51.510201],[-0.104752,51.510206],[-0.104743,51.51021],[-0.104733,51.510214],[-0.104721,51.510217],[-0.104709,51.510221],[-0.104695,51.510224],[-0.104681,51.510226],[-0.104669,51.510227],[-0.104658,51.510228],[-0.104645,51.510228],[-0.104634,51.510227],[-0.104629,51.510377],[-0.104624,51.510547],[-0.10462,51.510653],[-0.104618,51.510704],[-0.104635,51.510705],[-0.10465,51.510707],[-0.104669,51.51071],[-0.104687,51.510715],[-0.104705,51.510721],[-0.104714,51.510724],[-0.10472,51.510728],[-0.104726,51.510734],[-0.104709,51.510739],[-0.104694,51.510744],[-0.104682,51.510748],[-0.104672,51.510751],[-0.104669,51.510751],[-0.104669,51.510752],[-0.104676,51.510751],[-0.10474,51.510741],[-0.104788,51.510689],[-0.104826,51.510623],[-0.104895,51.510589],[-0.104994,51.510601],[-0.105105,51.510656],[-0.105191,51.510711],[-0.105256,51.510757],[-0.105274,51.510769],[-0.105343,51.510815],[-0.105391,51.510842],[-0.105424,51.510864],[-0.105444,51.510864],[-0.105449,51.510864],[-0.105449,51.510839],[-0.105482,51.510839],[-0.105497,51.510839],[-0.105512,51.510839],[-0.105526,51.510839],[-0.105541,51.51084],[-0.105556,51.51084],[-0.105557,51.510797],[-0.105592,51.510797],[-0.105593,51.510778],[-0.105593,51.510768],[-0.105593,51.510741],[-0.105593,51.510732],[-0.105703,51.510732],[-0.1057,51.510777],[-0.105713,51.510773],[-0.105714,51.510737],[-0.105783,51.51076],[-0.105713,51.51078],[-0.105701,51.510784],[-0.105702,51.510801],[-0.105702,51.510802],[-0.10641,51.510736],[-0.10641,51.510714],[-0.106433,51.510714],[-0.106461,51.510714],[-0.106782,51.510714],[-0.106868,51.510714],[-0.106868,51.510798],[-0.106781,51.510798],[-0.106458,51.510798],[-0.106433,51.510798],[-0.10641,51.510798],[-0.106411,51.510769],[-0.105692,51.510836],[-0.105692,51.510861],[-0.10596,51.510862],[-0.10596,51.510853],[-0.105982,51.510854],[-0.105983,51.510861],[-0.106243,51.510863],[-0.106244,51.510856],[-0.106264,51.510856],[-0.106264,51.510863],[-0.106354,51.510863],[-0.106455,51.510863],[-0.106529,51.510862],[-0.106531,51.510857],[-0.106554,51.510857],[-0.106553,51.510863],[-0.106818,51.510866],[-0.106819,51.510858],[-0.106841,51.510857],[-0.10684,51.510865],[-0.107109,51.510866],[-0.107111,51.51086],[-0.107131,51.51086],[-0.10713,51.510866],[-0.107422,51.510867],[-0.107423,51.510861],[-0.107446,51.51086],[-0.107445,51.510866],[-0.107728,51.510868],[-0.107729,51.510863],[-0.107749,51.510862],[-0.107749,51.510868],[-0.108031,51.510869],[-0.108033,51.510864],[-0.108052,51.510864],[-0.108053,51.51087],[-0.108345,51.510872],[-0.108345,51.510867],[-0.108367,51.510866],[-0.108364,51.510871],[-0.108457,51.510871],[-0.108473,51.510871],[-0.108502,51.510872],[-0.108504,51.510784],[-0.108384,51.510785],[-0.108333,51.510779],[-0.108335,51.510742],[-0.108385,51.510735],[-0.10863,51.510734],[-0.108675,51.51074],[-0.108675,51.510778],[-0.108638,51.510782],[-0.108526,51.510784],[-0.108524,51.510872],[-0.108648,51.510874],[-0.108649,51.510867],[-0.108669,51.510868],[-0.108669,51.510875],[-0.108964,51.510877],[-0.108965,51.510869],[-0.108987,51.510869],[-0.108986,51.510876],[-0.109275,51.510878],[-0.109275,51.510872],[-0.109295,51.510872],[-0.109295,51.510878],[-0.109589,51.510879],[-0.10959,51.510874],[-0.10961,51.510873],[-0.109611,51.510879],[-0.109869,51.510876],[-0.109868,51.5108],[-0.109719,51.510799],[-0.109719,51.510741],[-0.110056,51.510743],[-0.110055,51.510801],[-0.109903,51.5108],[-0.109904,51.510872],[-0.10992,51.510872],[-0.109921,51.510879],[-0.110212,51.510879],[-0.110213,51.510874],[-0.110231,51.510875],[-0.11023,51.510879],[-0.110523,51.510881],[-0.110525,51.510876],[-0.110542,51.510876],[-0.110542,51.510881],[-0.110789,51.510878],[-0.110788,51.510863],[-0.110891,51.510864],[-0.110908,51.510864]],[[-0.108245,51.510759],[-0.108285,51.510746],[-0.108326,51.510747],[-0.108326,51.51078],[-0.108279,51.510779],[-0.108245,51.510759]],[[-0.108756,51.510759],[-0.108722,51.510776],[-0.108684,51.510775],[-0.10868,51.510744],[-0.108724,51.510744],[-0.108756,51.510759]],[[-0.110139,51.510771],[-0.110104,51.510789],[-0.110071,51.510789],[-0.110069,51.510756],[-0.110107,51.510756],[-0.110139,51.510771]],[[-0.109709,51.510757],[-0.10971,51.510789],[-0.109678,51.51079],[-0.109638,51.510772],[-0.109679,51.510756],[-0.109709,51.510757]]],[[[-0.086979,51.508784],[-0.087041,51.50882],[-0.087014,51.508916],[-0.087051,51.508921],[-0.087088,51.508927],[-0.087083,51.508942],[-0.087079,51.508952],[-0.08707,51.508978],[-0.087115,51.508984],[-0.087119,51.508976],[-0.087176,51.508819],[-0.087222,51.508685],[-0.08736,51.508302],[-0.087381,51.508242],[-0.087427,51.508115],[-0.087476,51.50798],[-0.087529,51.507828],[-0.087559,51.507742],[-0.087692,51.507368],[-0.08776,51.507176],[-0.087823,51.506998],[-0.087845,51.506934],[-0.087857,51.506899],[-0.087844,51.506897],[-0.087819,51.50689],[-0.087751,51.506881],[-0.087732,51.506881],[-0.087653,51.506874],[-0.087621,51.506871],[-0.087584,51.506867],[-0.087517,51.506857],[-0.087478,51.506855],[-0.087445,51.506855],[-0.087371,51.506851],[-0.087309,51.506845],[-0.087267,51.50684],[-0.087183,51.50683],[-0.087134,51.506823],[-0.087075,51.50682],[-0.087047,51.506819],[-0.086992,51.50682],[-0.086944,51.506818],[-0.086872,51.506809],[-0.086865,51.506808],[-0.086823,51.506791],[-0.086822,51.50679],[-0.086822,51.50679],[-0.08681,51.506785],[-0.086786,51.506779],[-0.086746,51.506765],[-0.086718,51.506759],[-0.086681,51.506748],[-0.086625,51.506738],[-0.086585,51.506733],[-0.086528,51.506726],[-0.086467,51.506716],[-0.086428,51.50671],[-0.086373,51.506703],[-0.086355,51.506701],[-0.086286,51.506697],[-0.086196,51.506691],[-0.086111,51.506688],[-0.086101,51.506687],[-0.086049,51.506685],[-0.085946,51.506675],[-0.085866,51.506668],[-0.085846,51.506666],[-0.085818,51.506665],[-0.085767,51.506659],[-0.085741,51.506662],[-0.08571,51.506676],[-0.085674,51.506697],[-0.085639,51.5067],[-0.085523,51.506691],[-0.085471,51.506686],[-0.085447,51.506682],[-0.085337,51.506674],[-0.085305,51.50667],[-0.085259,51.506664],[-0.085216,51.506657],[-0.085171,51.506652],[-0.08509,51.506634],[-0.085057,51.50665],[-0.085032,51.506647],[-0.085016,51.506634],[-0.084993,51.506616],[-0.084986,51.506609],[-0.08486,51.506606],[-0.084789,51.506603],[-0.084786,51.506621],[-0.084775,51.506626],[-0.084765,51.506625],[-0.084716,51.506858],[-0.084898,51.506872],[-0.084909,51.506873],[-0.084981,51.506887],[-0.084967,51.506953],[-0.084883,51.506953],[-0.084465,51.506921],[-0.084394,51.506908],[-0.084408,51.506844],[-0.08448,51.506838],[-0.084486,51.506839],[-0.084671,51.506855],[-0.084722,51.506622],[-0.084714,51.506621],[-0.084711,51.50662],[-0.084699,51.506612],[-0.084702,51.506595],[-0.084648,51.50659],[-0.084513,51.506571],[-0.084501,51.506576],[-0.08445,51.506601],[-0.084424,51.506598],[-0.084382,51.506564],[-0.084386,51.506547],[-0.084451,51.506517],[-0.084459,51.506488],[-0.084364,51.50647],[-0.084311,51.506492],[-0.084262,51.506505],[-0.084249,51.506512],[-0.084219,51.506528],[-0.0842,51.506529],[-0.08416,51.506515],[-0.084096,51.506494],[-0.084054,51.506481],[-0.084025,51.506464],[-0.083986,51.506461],[-0.083939,51.506459],[-0.083866,51.506466],[-0.083828,51.506461],[-0.083762,51.506455],[-0.083725,51.506445],[-0.083687,51.506439],[-0.083653,51.50644],[-0.083609,51.506435],[-0.083565,51.50643],[-0.083514,51.506422],[-0.083446,51.506411],[-0.083428,51.506405],[-0.083387,51.506396],[-0.083347,51.50638],[-0.083317,51.506366],[-0.083278,51.506359],[-0.083245,51.506354],[-0.083199,51.506356],[-0.083165,51.506355],[-0.083108,51.506351],[-0.083067,51.506344],[-0.083028,51.506331],[-0.082976,51.50632],[-0.082916,51.506313],[-0.082863,51.506311],[-0.082824,51.506308],[-0.082814,51.506305],[-0.082795,51.506302],[-0.082771,51.506294],[-0.082717,51.506283],[-0.082659,51.506269],[-0.08264,51.506264],[-0.082584,51.506259],[-0.082574,51.506258],[-0.082531,51.506259],[-0.082482,51.50626],[-0.082415,51.506254],[-0.082403,51.506251],[-0.082348,51.506239],[-0.082293,51.506226],[-0.082273,51.506222],[-0.082219,51.506209],[-0.082202,51.506206],[-0.082149,51.506192],[-0.082134,51.50619],[-0.082078,51.506177],[-0.082058,51.506172],[-0.081992,51.50616],[-0.081935,51.506147],[-0.081913,51.50614],[-0.081882,51.506136],[-0.081855,51.506127],[-0.081829,51.506118],[-0.081801,51.50611],[-0.081779,51.506105],[-0.081748,51.506107],[-0.08173,51.506115],[-0.081707,51.506127],[-0.081691,51.50614],[-0.081681,51.506144],[-0.081642,51.506148],[-0.081638,51.506147],[-0.081605,51.506142],[-0.08156,51.506136],[-0.081529,51.506135],[-0.081454,51.506139],[-0.081353,51.50613],[-0.081285,51.506117],[-0.081257,51.506126],[-0.081232,51.506126],[-0.081219,51.506125],[-0.081214,51.506123],[-0.081141,51.506112],[-0.081095,51.506101],[-0.081043,51.50609],[-0.08041,51.506099],[-0.080406,51.506105],[-0.080354,51.506096],[-0.080367,51.506065],[-0.080421,51.506074],[-0.08095,51.506066],[-0.080946,51.506065],[-0.080927,51.506053],[-0.080911,51.506034],[-0.080906,51.506021],[-0.0809,51.50601],[-0.0809,51.505998],[-0.080914,51.505986],[-0.080939,51.50597],[-0.080946,51.505956],[-0.08095,51.505945],[-0.080936,51.505932],[-0.08091,51.505925],[-0.080896,51.505923],[-0.080848,51.505929],[-0.080831,51.50593],[-0.080804,51.505928],[-0.08078,51.505923],[-0.080743,51.505917],[-0.080674,51.505902],[-0.080615,51.505888],[-0.080541,51.505863],[-0.080525,51.505857],[-0.080449,51.505837],[-0.080423,51.50583],[-0.080372,51.505815],[-0.080352,51.50581],[-0.080275,51.505799],[-0.080205,51.505784],[-0.08015,51.505772],[-0.080073,51.505759],[-0.080047,51.505752],[-0.079991,51.505738],[-0.079969,51.505733],[-0.079886,51.505717],[-0.079874,51.505713],[-0.079783,51.505691],[-0.079759,51.505684],[-0.07966,51.505672],[-0.079607,51.505657],[-0.07957,51.505651],[-0.079518,51.505636],[-0.079494,51.505626],[-0.079484,51.505611],[-0.079479,51.505587],[-0.079469,51.505571],[-0.079456,51.505556],[-0.079431,51.505537],[-0.079411,51.505531],[-0.07936,51.505518],[-0.079331,51.50551],[-0.07928,51.505505],[-0.079216,51.505494],[-0.079125,51.50547],[-0.079105,51.505464],[-0.079055,51.505449],[-0.07903,51.505438],[-0.078983,51.505423],[-0.07896,51.505414],[-0.078902,51.505394],[-0.078878,51.505389],[-0.07881,51.505368],[-0.078786,51.50536],[-0.078725,51.505345],[-0.078703,51.505338],[-0.078661,51.505321],[-0.078638,51.505312],[-0.078612,51.505306],[-0.07856,51.505294],[-0.078492,51.50528],[-0.078449,51.505269],[-0.078409,51.505257],[-0.078377,51.505251],[-0.07834,51.505237],[-0.078286,51.505228],[-0.078228,51.505215],[-0.078165,51.505195],[-0.078123,51.505188],[-0.07809,51.505177],[-0.078047,51.505167],[-0.078007,51.505164],[-0.077978,51.505155],[-0.077874,51.505124],[-0.077873,51.505123],[-0.077842,51.505115],[-0.077809,51.505109],[-0.077756,51.505091],[-0.077746,51.505089],[-0.077667,51.505064],[-0.077605,51.505044],[-0.077534,51.505021],[-0.077471,51.504985],[-0.077426,51.504967],[-0.077344,51.504934],[-0.077339,51.504933],[-0.077271,51.504912],[-0.077246,51.504904],[-0.077244,51.504904],[-0.07718,51.50488],[-0.077112,51.50486],[-0.077104,51.504857],[-0.077033,51.504847],[-0.077031,51.504847],[-0.076968,51.504823],[-0.076961,51.50482],[-0.076893,51.504801],[-0.076886,51.504798],[-0.076842,51.504768],[-0.076817,51.504762],[-0.07674,51.504739],[-0.076719,51.504735],[-0.076631,51.504712],[-0.076576,51.504694],[-0.076532,51.504675],[-0.076509,51.504668],[-0.076451,51.504641],[-0.076426,51.504632],[-0.076385,51.504618],[-0.076373,51.504613],[-0.076296,51.504596],[-0.07624,51.504586],[-0.07619,51.504579],[-0.076176,51.504577],[-0.076109,51.504681],[-0.076115,51.504683],[-0.076102,51.504704],[-0.076095,51.504703],[-0.076037,51.504789],[-0.075941,51.504934],[-0.075842,51.505082],[-0.075819,51.505117],[-0.075899,51.505145],[-0.07592,51.505153],[-0.075928,51.505156],[-0.075941,51.505164],[-0.075953,51.505172],[-0.075966,51.505183],[-0.075975,51.505192],[-0.075982,51.505198],[-0.075989,51.505206],[-0.075994,51.505215],[-0.075999,51.505227],[-0.076008,51.505253],[-0.07601,51.505255],[-0.07601,51.505258],[-0.07601,51.505264],[-0.076009,51.505266],[-0.076008,51.505268],[-0.076005,51.50527],[-0.075989,51.505279],[-0.075975,51.505286],[-0.075961,51.505293],[-0.075953,51.505296],[-0.075943,51.505299],[-0.075933,51.505303],[-0.075923,51.505306],[-0.075911,51.505308],[-0.075899,51.505311],[-0.075888,51.505313],[-0.075876,51.505315],[-0.075865,51.505316],[-0.075854,51.505317],[-0.075842,51.505318],[-0.075831,51.505318],[-0.075818,51.505317],[-0.075806,51.505316],[-0.075785,51.505314],[-0.075757,51.50531],[-0.075754,51.50531],[-0.075692,51.505296],[-0.075645,51.505368],[-0.075582,51.505463],[-0.075535,51.505532],[-0.075484,51.50561],[-0.075423,51.5057],[-0.075371,51.505778],[-0.075354,51.505805],[-0.07542,51.505825],[-0.075442,51.505831],[-0.075445,51.505832],[-0.075454,51.505835],[-0.075458,51.505837],[-0.075462,51.505839],[-0.075469,51.505843],[-0.075475,51.505848],[-0.075484,51.505854],[-0.075491,51.50586],[-0.0755,51.505867],[-0.075507,51.505876],[-0.075516,51.505886],[-0.075522,51.505896],[-0.075528,51.505905],[-0.075533,51.505914],[-0.07554,51.505935],[-0.075542,51.505955],[-0.075539,51.505958],[-0.075524,51.505968],[-0.075499,51.50598],[-0.075472,51.50599],[-0.075467,51.505991],[-0.075452,51.505996],[-0.075437,51.506],[-0.075431,51.506001],[-0.075416,51.506003],[-0.075398,51.506004],[-0.075383,51.506004],[-0.075367,51.506003],[-0.07535,51.506002],[-0.075334,51.505999],[-0.075289,51.505989],[-0.075246,51.50598],[-0.075213,51.506031],[-0.075115,51.50617],[-0.075025,51.506301],[-0.074956,51.506401],[-0.074961,51.506403],[-0.074947,51.506423],[-0.074942,51.506421],[-0.074886,51.506502],[-0.07489,51.506511],[-0.074919,51.506532],[-0.074975,51.506561],[-0.075012,51.506577],[-0.075077,51.506589],[-0.075091,51.506591],[-0.075183,51.506601],[-0.075265,51.506609],[-0.075318,51.506615],[-0.075388,51.506624],[-0.075394,51.506625],[-0.075462,51.506629],[-0.075472,51.506633],[-0.075531,51.506641],[-0.075547,51.506646],[-0.075612,51.506657],[-0.075642,51.506667],[-0.075689,51.506685],[-0.0757,51.506689],[-0.075768,51.506706],[-0.07578,51.506709],[-0.07584,51.506725],[-0.075855,51.506729],[-0.075926,51.506749],[-0.075986,51.506767],[-0.075997,51.50677],[-0.076065,51.506793],[-0.076068,51.506793],[-0.07614,51.506809],[-0.076145,51.506811],[-0.076237,51.506827],[-0.076319,51.506846],[-0.076402,51.506873],[-0.076499,51.506893],[-0.07658,51.506906],[-0.076683,51.506931],[-0.076795,51.506961],[-0.076866,51.506975],[-0.076965,51.506995],[-0.077053,51.507017],[-0.077138,51.507036],[-0.077243,51.507065],[-0.077337,51.507083],[-0.077396,51.5071],[-0.077449,51.507119],[-0.077516,51.507143],[-0.07761,51.507168],[-0.077679,51.507191],[-0.077733,51.507202],[-0.077767,51.507206],[-0.077786,51.50721],[-0.077853,51.507221],[-0.077895,51.50724],[-0.077929,51.507268],[-0.077939,51.507273],[-0.077975,51.507293],[-0.077987,51.507302],[-0.078032,51.507314],[-0.078046,51.507317],[-0.078102,51.507318],[-0.078143,51.50733],[-0.078191,51.507339],[-0.078275,51.507356],[-0.078322,51.507363],[-0.07836,51.507368],[-0.078431,51.507383],[-0.078472,51.507389],[-0.078531,51.5074],[-0.078595,51.507412],[-0.078631,51.507422],[-0.078674,51.507436],[-0.078721,51.507447],[-0.07878,51.507441],[-0.078796,51.507442],[-0.078815,51.507442],[-0.078872,51.507463],[-0.078905,51.507475],[-0.078864,51.507393],[-0.078867,51.507393],[-0.078873,51.507391],[-0.07886,51.507366],[-0.078854,51.507367],[-0.078854,51.507364],[-0.078149,51.5072],[-0.078162,51.507178],[-0.078139,51.507173],[-0.078176,51.507111],[-0.07823,51.507121],[-0.079411,51.507396],[-0.079808,51.507488],[-0.079857,51.507503],[-0.079834,51.507544],[-0.079832,51.507547],[-0.079831,51.50755],[-0.079822,51.507565],[-0.079799,51.507559],[-0.079785,51.507581],[-0.07936,51.507482],[-0.079062,51.507413],[-0.079068,51.507424],[-0.079068,51.507424],[-0.079075,51.507423],[-0.079148,51.50757],[-0.079184,51.50758],[-0.079238,51.507604],[-0.079272,51.507619],[-0.07929,51.507625],[-0.07931,51.507631],[-0.079338,51.507639],[-0.079365,51.507647],[-0.079391,51.507657],[-0.079471,51.507697],[-0.079536,51.50773],[-0.079551,51.507739],[-0.079564,51.507751],[-0.079649,51.507778],[-0.079708,51.507799],[-0.079824,51.507838],[-0.079909,51.507856],[-0.079974,51.507873],[-0.080041,51.507886],[-0.080112,51.507897],[-0.080153,51.507905],[-0.080208,51.507913],[-0.080297,51.507939],[-0.080399,51.507945],[-0.080485,51.507945],[-0.080553,51.507937],[-0.080597,51.507939],[-0.080607,51.507926],[-0.080623,51.50793],[-0.080956,51.507996],[-0.081039,51.508009],[-0.081154,51.508028],[-0.081251,51.508042],[-0.0813,51.508047],[-0.081342,51.508052],[-0.081458,51.508061],[-0.081532,51.508076],[-0.081575,51.50808],[-0.081638,51.508092],[-0.081721,51.508112],[-0.081802,51.508123],[-0.081856,51.508134],[-0.081883,51.508141],[-0.081907,51.508145],[-0.081984,51.508171],[-0.082015,51.50819],[-0.082054,51.508206],[-0.082161,51.508226],[-0.082236,51.508233],[-0.082318,51.508251],[-0.082353,51.508269],[-0.082381,51.508275],[-0.082402,51.508278],[-0.082462,51.508278],[-0.082537,51.508264],[-0.082584,51.508266],[-0.082607,51.508267],[-0.082686,51.508269],[-0.082742,51.508267],[-0.082788,51.508266],[-0.082825,51.508275],[-0.082862,51.508282],[-0.082897,51.508296],[-0.082942,51.508312],[-0.082968,51.508314],[-0.083024,51.508321],[-0.083055,51.508325],[-0.083112,51.508337],[-0.083124,51.50834],[-0.0832,51.508353],[-0.083204,51.508353],[-0.083287,51.508364],[-0.08329,51.508363],[-0.083291,51.508364],[-0.083407,51.508382],[-0.083414,51.508383],[-0.083436,51.508388],[-0.083504,51.508404],[-0.083518,51.508405],[-0.083596,51.508417],[-0.083602,51.508417],[-0.083665,51.508424],[-0.083695,51.508425],[-0.083711,51.508426],[-0.083713,51.508421],[-0.083716,51.508417],[-0.083719,51.508414],[-0.083724,51.50841],[-0.083728,51.508409],[-0.083734,51.508406],[-0.083738,51.508406],[-0.083742,51.508405],[-0.083746,51.508404],[-0.08376,51.508403],[-0.083768,51.508402],[-0.084936,51.508538],[-0.085301,51.508582],[-0.08535,51.508588],[-0.085489,51.508605],[-0.085574,51.508613],[-0.085925,51.508657],[-0.085952,51.50866],[-0.08637,51.508709],[-0.086492,51.508724],[-0.086977,51.508783],[-0.086979,51.508784]],[[-0.082023,51.506536],[-0.081998,51.50659],[-0.081907,51.506573],[-0.081932,51.506519],[-0.082023,51.506536]],[[-0.080974,51.506394],[-0.081,51.506338],[-0.081087,51.506354],[-0.081059,51.50641],[-0.080974,51.506394]],[[-0.082588,51.50817],[-0.0826,51.508127],[-0.08264,51.508147],[-0.082635,51.508164],[-0.082588,51.50817]],[[-0.082254,51.508082],[-0.082248,51.508103],[-0.082241,51.508122],[-0.082204,51.508108],[-0.082209,51.508088],[-0.082254,51.508082]],[[-0.078122,51.507188],[-0.078122,51.507187],[-0.078122,51.507186],[-0.078122,51.507186],[-0.078123,51.507185],[-0.078123,51.507184],[-0.078124,51.507183],[-0.078125,51.507183],[-0.078126,51.507182],[-0.078127,51.507182],[-0.078128,51.507181],[-0.078129,51.507181],[-0.07813,51.507181],[-0.078131,51.50718],[-0.078132,51.50718],[-0.078134,51.50718],[-0.078135,51.50718],[-0.078136,51.50718],[-0.078137,51.50718],[-0.078139,51.50718],[-0.07814,51.507181],[-0.078141,51.507181],[-0.078142,51.507182],[-0.078143,51.507182],[-0.078144,51.507183],[-0.078145,51.507183],[-0.078146,51.507184],[-0.078146,51.507185],[-0.078147,51.507185],[-0.078147,51.507186],[-0.078147,51.507187],[-0.078148,51.507188],[-0.078148,51.507188],[-0.078147,51.507189],[-0.078147,51.50719],[-0.078147,51.507191],[-0.078146,51.507191],[-0.078146,51.507192],[-0.078145,51.507193],[-0.078144,51.507194],[-0.078144,51.507194],[-0.078143,51.507195],[-0.078142,51.507195],[-0.07814,51.507195],[-0.078139,51.507196],[-0.078138,51.507196],[-0.078137,51.507196],[-0.078135,51.507196],[-0.078134,51.507196],[-0.078133,51.507196],[-0.078132,51.507196],[-0.07813,51.507196],[-0.078129,51.507196],[-0.078128,51.507195],[-0.078127,51.507195],[-0.078126,51.507194],[-0.078125,51.507194],[-0.078124,51.507193],[-0.078124,51.507193],[-0.078123,51.507192],[-0.078122,51.507191],[-0.078122,51.50719],[-0.078122,51.50719],[-0.078122,51.507189],[-0.078122,51.507188]],[[-0.079797,51.507575],[-0.079797,51.507574],[-0.079797,51.507573],[-0.079797,51.507573],[-0.079798,51.507572],[-0.079798,51.507572],[-0.079799,51.507571],[-0.0798,51.50757],[-0.0798,51.50757],[-0.079801,51.507569],[-0.079802,51.507569],[-0.079803,51.507569],[-0.079804,51.507568],[-0.079805,51.507568],[-0.079806,51.507568],[-0.079807,51.507568],[-0.079808,51.507568],[-0.079809,51.507568],[-0.079811,51.507568],[-0.079812,51.507568],[-0.079813,51.507569],[-0.079814,51.507569],[-0.079815,51.507569],[-0.079815,51.50757],[-0.079816,51.50757],[-0.079817,51.507571],[-0.079818,51.507571],[-0.079818,51.507572],[-0.079818,51.507572],[-0.079819,51.507573],[-0.079819,51.507574],[-0.079819,51.507574],[-0.079819,51.507575],[-0.079819,51.507576],[-0.079819,51.507577],[-0.079819,51.507577],[-0.079818,51.507578],[-0.079818,51.507578],[-0.079817,51.507579],[-0.079817,51.50758],[-0.079816,51.50758],[-0.079815,51.50758],[-0.079814,51.507581],[-0.079813,51.507581],[-0.079812,51.507581],[-0.079811,51.507582],[-0.07981,51.507582],[-0.079809,51.507582],[-0.079808,51.507582],[-0.079807,51.507582],[-0.079806,51.507582],[-0.079805,51.507582],[-0.079804,51.507581],[-0.079803,51.507581],[-0.079802,51.507581],[-0.079801,51.50758],[-0.0798,51.50758],[-0.079799,51.507579],[-0.079799,51.507579],[-0.079798,51.507578],[-0.079798,51.507577],[-0.079797,51.507577],[-0.079797,51.507576],[-0.079797,51.507575],[-0.079797,51.507575]],[[-0.0844,51.506867],[-0.084396,51.506885],[-0.084382,51.506875],[-0.0844,51.506867]],[[-0.084979,51.506915],[-0.08499,51.506925],[-0.084977,51.50693],[-0.084979,51.506915]]],[[[-0.102901,51.510735],[-0.102859,51.510731],[-0.102852,51.510728],[-0.102845,51.510723],[-0.102844,51.510721],[-0.102841,51.510716],[-0.102839,51.510709],[-0.102839,51.510702],[-0.102841,51.510695],[-0.102845,51.510689],[-0.102848,51.510683],[-0.10286,51.510674],[-0.102865,51.510671],[-0.102871,51.510669],[-0.102877,51.510668],[-0.102882,51.510667],[-0.102887,51.510667],[-0.102927,51.510664],[-0.102965,51.510546],[-0.103029,51.510334],[-0.103065,51.510212],[-0.103057,51.510212],[-0.103049,51.510212],[-0.10304,51.510211],[-0.103031,51.51021],[-0.103022,51.510207],[-0.103015,51.510203],[-0.103012,51.510201],[-0.103006,51.510197],[-0.103002,51.510192],[-0.103,51.510189],[-0.102999,51.510184],[-0.102998,51.510179],[-0.102999,51.510176],[-0.103002,51.51017],[-0.103008,51.510165],[-0.103011,51.510162],[-0.10302,51.510157],[-0.103032,51.510153],[-0.103041,51.510151],[-0.103049,51.51015],[-0.103067,51.510148],[-0.10308,51.510149],[-0.103086,51.509918],[-0.103093,51.509644],[-0.103078,51.509644],[-0.10307,51.509643],[-0.103062,51.509642],[-0.103052,51.509639],[-0.103045,51.509635],[-0.103039,51.509631],[-0.103035,51.509625],[-0.103032,51.509618],[-0.10303,51.509612],[-0.103029,51.509606],[-0.103029,51.509601],[-0.10303,51.509596],[-0.103034,51.509591],[-0.103039,51.509587],[-0.10304,51.509586],[-0.10305,51.509582],[-0.103063,51.509578],[-0.103074,51.509576],[-0.103086,51.509575],[-0.103095,51.509575],[-0.103101,51.509382],[-0.103113,51.509107],[-0.103102,51.509108],[-0.103092,51.509108],[-0.103085,51.509107],[-0.103075,51.509104],[-0.103066,51.509101],[-0.103059,51.509096],[-0.103056,51.509094],[-0.10305,51.509088],[-0.103046,51.509081],[-0.103045,51.50908],[-0.103043,51.509075],[-0.103042,51.509069],[-0.103042,51.509067],[-0.103045,51.509061],[-0.103051,51.509055],[-0.103057,51.50905],[-0.103065,51.509046],[-0.103074,51.509042],[-0.103079,51.509041],[-0.10309,51.509038],[-0.103101,51.509037],[-0.10311,51.509037],[-0.103116,51.509038],[-0.10312,51.508913],[-0.103061,51.508912],[-0.102948,51.508894],[-0.102828,51.508884],[-0.102708,51.508873],[-0.102557,51.508875],[-0.102427,51.508875],[-0.102317,51.508898],[-0.102215,51.508938],[-0.102095,51.508956],[-0.101972,51.508953],[-0.101859,51.508939],[-0.101742,51.508938],[-0.101625,51.508942],[-0.10151,51.508927],[-0.101393,51.508914],[-0.10128,51.5089],[-0.101153,51.508884],[-0.101036,51.508872],[-0.100919,51.508862],[-0.100799,51.508855],[-0.100681,51.508846],[-0.10056,51.50883],[-0.100444,51.508808],[-0.100329,51.508801],[-0.100197,51.508802],[-0.100076,51.508798],[-0.099949,51.508801],[-0.09983,51.50882],[-0.099726,51.508851],[-0.099608,51.50884],[-0.099493,51.508825],[-0.099356,51.508819],[-0.099335,51.508818],[-0.099227,51.508816],[-0.099111,51.508812],[-0.098991,51.508797],[-0.098877,51.508786],[-0.098759,51.508783],[-0.098646,51.508761],[-0.098634,51.508754],[-0.098523,51.510479],[-0.098522,51.510495],[-0.098545,51.510498],[-0.098658,51.510515],[-0.098771,51.510539],[-0.098887,51.51055],[-0.099017,51.510549],[-0.099075,51.510545],[-0.099261,51.510578],[-0.099304,51.510586],[-0.099337,51.510612],[-0.099438,51.510649],[-0.099627,51.510674],[-0.099751,51.510699],[-0.099885,51.510723],[-0.100006,51.51073],[-0.100128,51.510731],[-0.100254,51.510741],[-0.100481,51.510759],[-0.100601,51.510751],[-0.100719,51.510753],[-0.100837,51.510756],[-0.100955,51.510768],[-0.101071,51.510775],[-0.101191,51.510772],[-0.10131,51.510767],[-0.101427,51.510767],[-0.101544,51.510765],[-0.101666,51.510766],[-0.101785,51.510761],[-0.101908,51.510763],[-0.102019,51.510744],[-0.102137,51.510736],[-0.102254,51.510747],[-0.102367,51.510769],[-0.102481,51.510787],[-0.102595,51.510806],[-0.102714,51.510808],[-0.102837,51.510806],[-0.1029,51.510796],[-0.1029,51.510766],[-0.102901,51.510735]]],[[[-0.097172,51.508721],[-0.097163,51.508791],[-0.097161,51.5088],[-0.096445,51.508759],[-0.096447,51.508751],[-0.096458,51.508681],[-0.096459,51.508669],[-0.096512,51.508672],[-0.096888,51.508694],[-0.096891,51.508673],[-0.096783,51.508649],[-0.096781,51.508648],[-0.096438,51.50857],[-0.096373,51.508556],[-0.09626,51.50855],[-0.096145,51.508566],[-0.096024,51.508554],[-0.095884,51.508541],[-0.095765,51.508537],[-0.095649,51.50853],[-0.095545,51.508496],[-0.095437,51.508471],[-0.095336,51.508434],[-0.095222,51.50841],[-0.095125,51.508372],[-0.095015,51.508344],[-0.094908,51.508312],[-0.094809,51.508271],[-0.094693,51.508246],[-0.094612,51.50822],[-0.094544,51.508338],[-0.094557,51.508341],[-0.094577,51.508346],[-0.094584,51.508349],[-0.094591,51.508352],[-0.094596,51.508355],[-0.094601,51.508358],[-0.094605,51.508361],[-0.094608,51.508364],[-0.094608,51.508367],[-0.094607,51.508371],[-0.094605,51.508374],[-0.0946,51.508377],[-0.094593,51.508379],[-0.094582,51.50838],[-0.094569,51.50838],[-0.094563,51.50838],[-0.094556,51.508379],[-0.094546,51.508378],[-0.094536,51.508376],[-0.094523,51.508374],[-0.094324,51.508713],[-0.09434,51.508717],[-0.094351,51.508719],[-0.094363,51.508723],[-0.09437,51.508726],[-0.094377,51.50873],[-0.094381,51.508733],[-0.094384,51.508737],[-0.094386,51.50874],[-0.094386,51.508743],[-0.094386,51.508745],[-0.094385,51.508747],[-0.094381,51.508751],[-0.094374,51.508753],[-0.094367,51.508755],[-0.09436,51.508755],[-0.094351,51.508756],[-0.094343,51.508755],[-0.094335,51.508754],[-0.094326,51.508752],[-0.09432,51.50875],[-0.094304,51.508746],[-0.094091,51.509113],[-0.094106,51.509117],[-0.094113,51.509118],[-0.094121,51.50912],[-0.094128,51.509122],[-0.09414,51.509127],[-0.094146,51.50913],[-0.094148,51.509131],[-0.094151,51.509135],[-0.094154,51.509138],[-0.094154,51.50914],[-0.094154,51.509144],[-0.094153,51.509147],[-0.094152,51.509148],[-0.094147,51.509152],[-0.094142,51.509155],[-0.094134,51.509157],[-0.094125,51.509157],[-0.094115,51.509157],[-0.094106,51.509157],[-0.094095,51.509155],[-0.094085,51.509154],[-0.094083,51.509153],[-0.094069,51.50915],[-0.09387,51.50949],[-0.093887,51.509494],[-0.093894,51.509496],[-0.093902,51.509498],[-0.093909,51.509501],[-0.093915,51.509504],[-0.093922,51.509508],[-0.093928,51.509512],[-0.093929,51.509513],[-0.093932,51.509516],[-0.093934,51.50952],[-0.093935,51.509523],[-0.093935,51.509526],[-0.093934,51.509527],[-0.093931,51.50953],[-0.093926,51.509533],[-0.093917,51.509535],[-0.093909,51.509536],[-0.093899,51.509536],[-0.093891,51.509535],[-0.093884,51.509535],[-0.093876,51.509534],[-0.093863,51.509532],[-0.093846,51.50953],[-0.093769,51.509664],[-0.093766,51.509668],[-0.093814,51.509682],[-0.093895,51.509735],[-0.094062,51.509769],[-0.0942,51.509802],[-0.094315,51.509825],[-0.094427,51.509851],[-0.094543,51.509852],[-0.094661,51.509855],[-0.094774,51.509871],[-0.094877,51.50991],[-0.094993,51.509926],[-0.095112,51.509942],[-0.095233,51.509927],[-0.095344,51.509953],[-0.095385,51.510023],[-0.095473,51.51008],[-0.095574,51.510115],[-0.095695,51.510127],[-0.095811,51.510119],[-0.095923,51.510101],[-0.096046,51.510096],[-0.096161,51.510076],[-0.096282,51.510088],[-0.096395,51.510104],[-0.096508,51.510126],[-0.096631,51.510141],[-0.096741,51.510166],[-0.096869,51.5102],[-0.096983,51.510224],[-0.097095,51.510245],[-0.097206,51.510271],[-0.097322,51.510304],[-0.097433,51.510327],[-0.097566,51.510351],[-0.097706,51.510368],[-0.097826,51.510376],[-0.097949,51.510402],[-0.09806,51.51043],[-0.098176,51.510452],[-0.098299,51.51047],[-0.098424,51.510484],[-0.098451,51.510487],[-0.098452,51.510465],[-0.098573,51.508728],[-0.098574,51.508722],[-0.098574,51.508719],[-0.098557,51.508709],[-0.098442,51.508687],[-0.098319,51.508678],[-0.09819,51.508659],[-0.098072,51.508654],[-0.097931,51.508631],[-0.097751,51.508613],[-0.097625,51.508611],[-0.097504,51.508607],[-0.097383,51.508604],[-0.097234,51.508593],[-0.097118,51.508588],[-0.097001,51.508575],[-0.096885,51.508558],[-0.096764,51.508554],[-0.096645,51.508543],[-0.096529,51.508555],[-0.096508,51.508555],[-0.096947,51.508652],[-0.096997,51.508656],[-0.097037,51.508658],[-0.097036,51.508664],[-0.097031,51.508703],[-0.097173,51.508711],[-0.097172,51.508721]]],[[[-0.08928,51.508794],[-0.089276,51.508797],[-0.089272,51.508798],[-0.089266,51.508801],[-0.089262,51.508801],[-0.0893,51.508815],[-0.089384,51.508831],[-0.089406,51.508829],[-0.089449,51.50883],[-0.089461,51.50883],[-0.089554,51.508835],[-0.089626,51.508836],[-0.089673,51.508831],[-0.08971,51.50883],[-0.089753,51.508831],[-0.089815,51.508839],[-0.089873,51.50885],[-0.089908,51.508854],[-0.089959,51.50886],[-0.090027,51.508857],[-0.090052,51.508859],[-0.090086,51.508876],[-0.090113,51.508896],[-0.090134,51.508905],[-0.090153,51.508907],[-0.090197,51.508913],[-0.090247,51.508918],[-0.090284,51.508919],[-0.090311,51.508916],[-0.090378,51.508968],[-0.09042,51.508977],[-0.090464,51.508985],[-0.090577,51.508966],[-0.090624,51.508977],[-0.090675,51.508984],[-0.090703,51.508988],[-0.090753,51.508994],[-0.090837,51.509003],[-0.0909,51.509002],[-0.09094,51.509011],[-0.090946,51.509014],[-0.091046,51.509024],[-0.091078,51.509052],[-0.09118,51.508982],[-0.091244,51.508938],[-0.091281,51.508912],[-0.091284,51.508901],[-0.091297,51.508879],[-0.091308,51.508863],[-0.09132,51.508865],[-0.091381,51.508747],[-0.091447,51.508623],[-0.091491,51.508536],[-0.091483,51.508535],[-0.091509,51.508479],[-0.091522,51.50848],[-0.091587,51.508354],[-0.09169,51.508153],[-0.09168,51.50815],[-0.091712,51.508092],[-0.091722,51.508094],[-0.091776,51.507986],[-0.09182,51.507901],[-0.091821,51.507898],[-0.091856,51.507832],[-0.091893,51.507765],[-0.091887,51.507763],[-0.091917,51.507704],[-0.091922,51.507705],[-0.091947,51.507659],[-0.091981,51.507593],[-0.092012,51.507534],[-0.091942,51.507512],[-0.091819,51.507482],[-0.091698,51.507482],[-0.091568,51.507467],[-0.09145,51.507451],[-0.091327,51.507424],[-0.091192,51.507393],[-0.091026,51.507384],[-0.090932,51.507375],[-0.0909,51.507372],[-0.090851,51.507354],[-0.090816,51.507334],[-0.090769,51.507312],[-0.090745,51.507304],[-0.090665,51.507292],[-0.090582,51.507296],[-0.090487,51.507294],[-0.090354,51.507284],[-0.090312,51.507281],[-0.090246,51.507276],[-0.090229,51.50727],[-0.090169,51.507258],[-0.090137,51.507248],[-0.09008,51.507221],[-0.090076,51.507219],[-0.090072,51.507218],[-0.090003,51.507198],[-0.089947,51.507188],[-0.089931,51.507185],[-0.089851,51.507176],[-0.089836,51.507173],[-0.089732,51.507152],[-0.089715,51.507149],[-0.089696,51.507146],[-0.08964,51.507129],[-0.089566,51.507129],[-0.089508,51.507137],[-0.089484,51.507145],[-0.089469,51.507146],[-0.089405,51.507131],[-0.089394,51.507131],[-0.089272,51.507114],[-0.089267,51.507114],[-0.089263,51.507113],[-0.089183,51.5071],[-0.089127,51.507091],[-0.089125,51.507091],[-0.089101,51.507089],[-0.089031,51.50708],[-0.088951,51.50707],[-0.088897,51.507069],[-0.088851,51.507073],[-0.088841,51.50707],[-0.088749,51.507056],[-0.088719,51.507051],[-0.088717,51.507051],[-0.088671,51.507044],[-0.08863,51.507032],[-0.08859,51.507025],[-0.088558,51.507018],[-0.088528,51.507008],[-0.088467,51.506998],[-0.088418,51.506987],[-0.088345,51.506977],[-0.088309,51.506964],[-0.088309,51.506964],[-0.088307,51.506968],[-0.088221,51.507217],[-0.088153,51.507412],[-0.088088,51.5076],[-0.088006,51.507836],[-0.087769,51.508507],[-0.087693,51.508727],[-0.087648,51.508855],[-0.0876,51.508985],[-0.087616,51.508987],[-0.087787,51.509007],[-0.087797,51.509008],[-0.088042,51.508911],[-0.088083,51.508871],[-0.088135,51.508851],[-0.088199,51.508839],[-0.088267,51.508841],[-0.088316,51.508847],[-0.088338,51.508849],[-0.088396,51.50885],[-0.088447,51.508836],[-0.088477,51.508811],[-0.088529,51.508807],[-0.088611,51.508794],[-0.088712,51.508802],[-0.088763,51.508813],[-0.088875,51.508809],[-0.088912,51.508804],[-0.088965,51.508776],[-0.088954,51.508773],[-0.088949,51.50877],[-0.088946,51.508767],[-0.088944,51.508763],[-0.088943,51.50876],[-0.088944,51.508757],[-0.088946,51.508754],[-0.088947,51.508752],[-0.08895,51.508748],[-0.088953,51.508746],[-0.088954,51.508746],[-0.088959,51.508744],[-0.088965,51.508743],[-0.088969,51.508743],[-0.088983,51.508743],[-0.088998,51.508744],[-0.089158,51.508758],[-0.089252,51.508768],[-0.089259,51.508768],[-0.089265,51.50877],[-0.08927,51.508771],[-0.089275,51.508773],[-0.089276,51.508774],[-0.08928,51.508777],[-0.089282,51.508779],[-0.089283,51.508782],[-0.089287,51.508776],[-0.089318,51.508794],[-0.08928,51.508803],[-0.08928,51.508794]],[[-0.088903,51.508755],[-0.088941,51.508745],[-0.088934,51.50877],[-0.088903,51.508755]]],[[[-0.092521,51.507683],[-0.092512,51.507701],[-0.092453,51.507817],[-0.092458,51.507818],[-0.092424,51.507882],[-0.092419,51.507881],[-0.092404,51.507908],[-0.092216,51.508268],[-0.092185,51.508326],[-0.092147,51.508393],[-0.092137,51.508407],[-0.092086,51.508508],[-0.092031,51.508615],[-0.091926,51.508815],[-0.091886,51.508895],[-0.09185,51.508966],[-0.091856,51.508969],[-0.091837,51.509025],[-0.09183,51.509025],[-0.091798,51.509133],[-0.091794,51.509147],[-0.091792,51.509153],[-0.09188,51.509175],[-0.092008,51.509199],[-0.092112,51.509225],[-0.092217,51.509251],[-0.092247,51.509258],[-0.092348,51.509295],[-0.09246,51.509318],[-0.092585,51.509342],[-0.092697,51.509368],[-0.09282,51.509381],[-0.092929,51.50941],[-0.093023,51.509458],[-0.093135,51.509483],[-0.093233,51.509521],[-0.093385,51.509566],[-0.093502,51.509585],[-0.093541,51.509598],[-0.093542,51.509595],[-0.093614,51.509477],[-0.093603,51.509474],[-0.093599,51.509473],[-0.093593,51.509471],[-0.093584,51.509467],[-0.093575,51.509464],[-0.093567,51.50946],[-0.093567,51.509459],[-0.093562,51.509455],[-0.093559,51.509452],[-0.093557,51.509448],[-0.093557,51.509445],[-0.093557,51.509442],[-0.093558,51.509439],[-0.093563,51.509435],[-0.093569,51.509434],[-0.093574,51.509432],[-0.09358,51.509431],[-0.09359,51.509431],[-0.093598,51.509431],[-0.09361,51.509432],[-0.09362,51.509434],[-0.093628,51.509435],[-0.093637,51.509436],[-0.093835,51.5091],[-0.093823,51.509097],[-0.093814,51.509094],[-0.093808,51.509092],[-0.093793,51.509086],[-0.093787,51.509082],[-0.093786,51.509081],[-0.093781,51.509075],[-0.093779,51.509071],[-0.093778,51.509067],[-0.093779,51.509064],[-0.093782,51.509061],[-0.093787,51.509058],[-0.093793,51.509057],[-0.0938,51.509056],[-0.093808,51.509055],[-0.093825,51.509055],[-0.093835,51.509056],[-0.093846,51.509057],[-0.093851,51.509058],[-0.093858,51.50906],[-0.094073,51.508696],[-0.094063,51.508693],[-0.094052,51.50869],[-0.09404,51.508685],[-0.094028,51.50868],[-0.094022,51.508677],[-0.094017,51.508674],[-0.094013,51.508671],[-0.094012,51.508667],[-0.094012,51.508661],[-0.094014,51.508659],[-0.094018,51.508656],[-0.094023,51.508654],[-0.094025,51.508653],[-0.094033,51.508652],[-0.094043,51.508653],[-0.094054,51.508653],[-0.094065,51.508654],[-0.094074,51.508656],[-0.094083,51.508656],[-0.094094,51.508658],[-0.094293,51.508322],[-0.094282,51.508319],[-0.094272,51.508315],[-0.09426,51.508311],[-0.094247,51.508305],[-0.094241,51.508303],[-0.094237,51.5083],[-0.094236,51.508299],[-0.094234,51.508296],[-0.094232,51.508292],[-0.094232,51.50829],[-0.094234,51.508286],[-0.094237,51.508283],[-0.094242,51.508281],[-0.094247,51.50828],[-0.094256,51.508278],[-0.094265,51.508278],[-0.094274,51.50828],[-0.094284,51.508281],[-0.094292,51.508283],[-0.0943,51.508284],[-0.094313,51.508286],[-0.094368,51.508194],[-0.094384,51.508167],[-0.094365,51.508165],[-0.094249,51.508147],[-0.094146,51.508115],[-0.094023,51.508103],[-0.093925,51.508064],[-0.093832,51.508021],[-0.09372,51.507997],[-0.093703,51.507991],[-0.093535,51.507926],[-0.093492,51.50791],[-0.093413,51.507878],[-0.093309,51.507846],[-0.093196,51.507825],[-0.093093,51.507788],[-0.092942,51.507753],[-0.092788,51.507723],[-0.092679,51.507699],[-0.092563,51.507691],[-0.092521,51.507683]]],[[[-0.104157,51.510695],[-0.104174,51.510223],[-0.104153,51.510222],[-0.10414,51.510221],[-0.104124,51.510219],[-0.104107,51.510217],[-0.104094,51.510213],[-0.104081,51.510209],[-0.10407,51.510205],[-0.10406,51.510202],[-0.104053,51.510197],[-0.104048,51.510194],[-0.104053,51.51019],[-0.10406,51.510187],[-0.104071,51.510182],[-0.104083,51.510177],[-0.104097,51.510173],[-0.10411,51.510169],[-0.104124,51.510167],[-0.104139,51.510165],[-0.104152,51.510164],[-0.104176,51.510164],[-0.104185,51.509898],[-0.104191,51.509749],[-0.104195,51.50965],[-0.10414,51.509648],[-0.104097,51.509637],[-0.104071,51.509621],[-0.104101,51.509606],[-0.104126,51.509598],[-0.104161,51.50959],[-0.104197,51.509591],[-0.104204,51.509404],[-0.104211,51.509115],[-0.104187,51.509115],[-0.10416,51.50911],[-0.104119,51.509096],[-0.10411,51.509091],[-0.104107,51.509083],[-0.104119,51.509073],[-0.10415,51.509064],[-0.104193,51.509059],[-0.104212,51.509059],[-0.104215,51.508927],[-0.104216,51.508919],[-0.104176,51.508921],[-0.104054,51.508917],[-0.103937,51.508906],[-0.103817,51.50891],[-0.103703,51.508933],[-0.103585,51.508949],[-0.103478,51.508954],[-0.103471,51.509164],[-0.103463,51.509379],[-0.103456,51.509701],[-0.103448,51.509888],[-0.103445,51.509994],[-0.103444,51.510039],[-0.103459,51.510039],[-0.103456,51.510119],[-0.103479,51.51012],[-0.103477,51.510167],[-0.103482,51.510167],[-0.103484,51.510167],[-0.103487,51.510167],[-0.103489,51.510168],[-0.103491,51.510169],[-0.103493,51.510169],[-0.103495,51.51017],[-0.103497,51.510171],[-0.103499,51.510172],[-0.103501,51.510174],[-0.103503,51.510175],[-0.103504,51.510176],[-0.103505,51.510178],[-0.103506,51.510179],[-0.103507,51.510181],[-0.103507,51.510182],[-0.103508,51.510184],[-0.103507,51.510187],[-0.103507,51.510189],[-0.103507,51.51019],[-0.103506,51.510192],[-0.103504,51.510193],[-0.103504,51.510194],[-0.103502,51.510196],[-0.1035,51.510197],[-0.103498,51.510198],[-0.103496,51.510199],[-0.103495,51.510201],[-0.103492,51.510201],[-0.10349,51.510202],[-0.103487,51.510202],[-0.103485,51.510203],[-0.103482,51.510203],[-0.10348,51.510203],[-0.103475,51.510203],[-0.103474,51.510231],[-0.103458,51.510694],[-0.103463,51.510694],[-0.103466,51.510694],[-0.103468,51.510695],[-0.103471,51.510695],[-0.103473,51.510696],[-0.103475,51.510697],[-0.103478,51.510698],[-0.10348,51.510699],[-0.103482,51.5107],[-0.103485,51.510703],[-0.103487,51.510704],[-0.103487,51.510705],[-0.103489,51.510707],[-0.103489,51.510709],[-0.103489,51.51071],[-0.10349,51.510712],[-0.10349,51.510715],[-0.103489,51.510717],[-0.103489,51.510718],[-0.103488,51.51072],[-0.103485,51.510723],[-0.103484,51.510724],[-0.103482,51.510726],[-0.103481,51.510727],[-0.103478,51.510728],[-0.103472,51.510731],[-0.10347,51.510731],[-0.103467,51.510732],[-0.103462,51.510732],[-0.10346,51.510774],[-0.103474,51.510775],[-0.10362,51.510755],[-0.103834,51.51074],[-0.103945,51.510749],[-0.104107,51.510747],[-0.104098,51.510745],[-0.104081,51.510741],[-0.104068,51.510737],[-0.104054,51.510732],[-0.104047,51.510729],[-0.104041,51.510726],[-0.104036,51.510724],[-0.104033,51.510722],[-0.104038,51.510718],[-0.104045,51.510714],[-0.10407,51.510707],[-0.104081,51.510703],[-0.104094,51.510699],[-0.104109,51.510697],[-0.104125,51.510696],[-0.104136,51.510695],[-0.104157,51.510695]],[[-0.103562,51.510702],[-0.103564,51.510701],[-0.103566,51.5107],[-0.103571,51.510698],[-0.103573,51.510698],[-0.103576,51.510697],[-0.103581,51.510697],[-0.103589,51.510697],[-0.103592,51.510697],[-0.103594,51.510698],[-0.103597,51.510698],[-0.103599,51.510699],[-0.103606,51.510702],[-0.10361,51.510704],[-0.103611,51.510706],[-0.103614,51.510709],[-0.103615,51.510711],[-0.103616,51.510712],[-0.103616,51.510714],[-0.103617,51.510716],[-0.103616,51.51072],[-0.103616,51.510722],[-0.103615,51.510724],[-0.103613,51.510725],[-0.103613,51.510727],[-0.103611,51.510728],[-0.10361,51.51073],[-0.103604,51.510733],[-0.103601,51.510734],[-0.103599,51.510735],[-0.103596,51.510735],[-0.103593,51.510736],[-0.103591,51.510737],[-0.103588,51.510737],[-0.103578,51.510737],[-0.103575,51.510736],[-0.103573,51.510736],[-0.10357,51.510735],[-0.103561,51.510731],[-0.103559,51.51073],[-0.103555,51.510726],[-0.103554,51.510724],[-0.103553,51.510723],[-0.103552,51.510719],[-0.103552,51.510714],[-0.103553,51.510712],[-0.103553,51.510711],[-0.103554,51.510709],[-0.103555,51.510708],[-0.103557,51.510706],[-0.103559,51.510703],[-0.103562,51.510702]],[[-0.103678,51.510702],[-0.103682,51.5107],[-0.103685,51.510699],[-0.103687,51.510699],[-0.10369,51.510698],[-0.103692,51.510697],[-0.103695,51.510697],[-0.103698,51.510697],[-0.103703,51.510697],[-0.103706,51.510698],[-0.103709,51.510698],[-0.103711,51.510699],[-0.103714,51.510699],[-0.103718,51.510701],[-0.103722,51.510703],[-0.103724,51.510704],[-0.103727,51.510707],[-0.103729,51.510709],[-0.10373,51.51071],[-0.103731,51.510712],[-0.103731,51.510713],[-0.103732,51.510715],[-0.103732,51.51072],[-0.10373,51.510724],[-0.103729,51.510725],[-0.103729,51.510727],[-0.103726,51.510729],[-0.103723,51.510731],[-0.103722,51.510732],[-0.10372,51.510733],[-0.103717,51.510734],[-0.103715,51.510735],[-0.103712,51.510736],[-0.10371,51.510736],[-0.103707,51.510737],[-0.103705,51.510737],[-0.103702,51.510738],[-0.103694,51.510737],[-0.103692,51.510737],[-0.103686,51.510736],[-0.103682,51.510734],[-0.103679,51.510733],[-0.103677,51.510732],[-0.103676,51.510731],[-0.103674,51.51073],[-0.103672,51.510729],[-0.103671,51.510727],[-0.10367,51.510725],[-0.103669,51.510724],[-0.103667,51.510719],[-0.103667,51.510714],[-0.103668,51.510712],[-0.103669,51.510711],[-0.10367,51.510709],[-0.103671,51.510707],[-0.103674,51.510705],[-0.103676,51.510703],[-0.103678,51.510702]],[[-0.103632,51.509594],[-0.103635,51.509594],[-0.103637,51.509595],[-0.10364,51.509595],[-0.103642,51.509596],[-0.103645,51.509597],[-0.103649,51.509599],[-0.103651,51.5096],[-0.103653,51.509601],[-0.103657,51.509606],[-0.103658,51.509607],[-0.103658,51.509609],[-0.10366,51.509612],[-0.103659,51.509616],[-0.103659,51.509617],[-0.103659,51.509619],[-0.103658,51.50962],[-0.103656,51.509622],[-0.103655,51.509624],[-0.103654,51.509625],[-0.103652,51.509627],[-0.10365,51.509628],[-0.103648,51.509629],[-0.103647,51.50963],[-0.103644,51.509631],[-0.103641,51.509632],[-0.103639,51.509632],[-0.103636,51.509633],[-0.103634,51.509634],[-0.103631,51.509634],[-0.103626,51.509634],[-0.103623,51.509634],[-0.10362,51.509633],[-0.103618,51.509633],[-0.103615,51.509632],[-0.103613,51.509632],[-0.103611,51.509631],[-0.103604,51.509628],[-0.103602,51.509627],[-0.103598,51.509623],[-0.103597,51.509621],[-0.103596,51.509619],[-0.103595,51.509616],[-0.103595,51.509611],[-0.103596,51.509609],[-0.103596,51.509608],[-0.103597,51.509606],[-0.103598,51.509605],[-0.103599,51.509603],[-0.103602,51.5096],[-0.103605,51.509599],[-0.103607,51.509598],[-0.103609,51.509597],[-0.103611,51.509596],[-0.103613,51.509595],[-0.103616,51.509595],[-0.103619,51.509594],[-0.103624,51.509593],[-0.103632,51.509594]],[[-0.103739,51.509598],[-0.103745,51.509598],[-0.103747,51.509599],[-0.10375,51.509599],[-0.103752,51.509599],[-0.103755,51.5096],[-0.103757,51.509601],[-0.103759,51.509601],[-0.103762,51.509603],[-0.103764,51.509604],[-0.103769,51.509609],[-0.10377,51.509611],[-0.103771,51.509612],[-0.103771,51.509614],[-0.103772,51.509616],[-0.103772,51.509621],[-0.103771,51.509622],[-0.10377,51.509624],[-0.103769,51.509625],[-0.103768,51.509626],[-0.103765,51.509629],[-0.103763,51.50963],[-0.103761,51.509632],[-0.103754,51.509634],[-0.103752,51.509635],[-0.103749,51.509635],[-0.103747,51.509635],[-0.103742,51.509636],[-0.103737,51.509636],[-0.103734,51.509635],[-0.103732,51.509635],[-0.103729,51.509634],[-0.103727,51.509633],[-0.103725,51.509633],[-0.103723,51.509632],[-0.103721,51.50963],[-0.103719,51.50963],[-0.103713,51.509624],[-0.103712,51.509622],[-0.103712,51.509621],[-0.103711,51.509619],[-0.103711,51.509615],[-0.103713,51.509611],[-0.103714,51.509608],[-0.103716,51.509607],[-0.103717,51.509605],[-0.103725,51.509601],[-0.103727,51.5096],[-0.10373,51.5096],[-0.103732,51.509599],[-0.103734,51.509598],[-0.103737,51.509598],[-0.103739,51.509598]],[[-0.103773,51.509063],[-0.103775,51.509064],[-0.103778,51.509064],[-0.10378,51.509065],[-0.103783,51.509066],[-0.103787,51.509068],[-0.103792,51.509071],[-0.103795,51.509074],[-0.103796,51.509076],[-0.103797,51.509077],[-0.103798,51.509079],[-0.103798,51.50908],[-0.103798,51.509085],[-0.103797,51.509087],[-0.103797,51.509088],[-0.103796,51.50909],[-0.103795,51.509091],[-0.103792,51.509094],[-0.103786,51.509097],[-0.103782,51.509099],[-0.10378,51.5091],[-0.103777,51.5091],[-0.103774,51.509101],[-0.103772,51.509101],[-0.103767,51.509101],[-0.103764,51.509101],[-0.103762,51.509101],[-0.103759,51.509101],[-0.103757,51.5091],[-0.103754,51.509099],[-0.103752,51.509098],[-0.10375,51.509098],[-0.103744,51.509094],[-0.10374,51.50909],[-0.10374,51.509089],[-0.103739,51.509087],[-0.103738,51.509085],[-0.103738,51.509084],[-0.103738,51.50908],[-0.103739,51.509079],[-0.103739,51.509077],[-0.103739,51.509075],[-0.103741,51.509074],[-0.103742,51.509073],[-0.103745,51.50907],[-0.103751,51.509067],[-0.103755,51.509065],[-0.103757,51.509065],[-0.10376,51.509064],[-0.103762,51.509064],[-0.103765,51.509063],[-0.103773,51.509063]],[[-0.103654,51.509062],[-0.103656,51.509062],[-0.103659,51.509063],[-0.103661,51.509063],[-0.103668,51.509066],[-0.103671,51.509069],[-0.103675,51.509073],[-0.103677,51.509075],[-0.103677,51.509077],[-0.103678,51.509079],[-0.103678,51.509083],[-0.103677,51.509085],[-0.103676,51.509088],[-0.103674,51.50909],[-0.103671,51.509092],[-0.103666,51.509095],[-0.103664,51.509096],[-0.103661,51.509097],[-0.103656,51.509098],[-0.103654,51.509098],[-0.103651,51.509099],[-0.103646,51.509099],[-0.103643,51.509099],[-0.103638,51.509098],[-0.103636,51.509097],[-0.103627,51.509093],[-0.103622,51.509088],[-0.103621,51.509087],[-0.10362,51.509085],[-0.10362,51.509083],[-0.103619,51.509082],[-0.103619,51.509077],[-0.10362,51.509075],[-0.103621,51.509074],[-0.103621,51.509072],[-0.103626,51.509068],[-0.10363,51.509066],[-0.103636,51.509063],[-0.103638,51.509063],[-0.103641,51.509063],[-0.103643,51.509062],[-0.103646,51.509062],[-0.103654,51.509062]],[[-0.103527,51.509059],[-0.10353,51.509059],[-0.103532,51.50906],[-0.103535,51.50906],[-0.103537,51.509061],[-0.103539,51.509061],[-0.103541,51.509062],[-0.103547,51.509066],[-0.103548,51.509067],[-0.103549,51.509069],[-0.10355,51.50907],[-0.103551,51.509072],[-0.103552,51.509073],[-0.103552,51.509075],[-0.103552,51.50908],[-0.103551,51.509081],[-0.10355,51.509083],[-0.10355,51.509085],[-0.103548,51.509086],[-0.103547,51.509087],[-0.103546,51.509089],[-0.103542,51.509091],[-0.103533,51.509094],[-0.103531,51.509095],[-0.103528,51.509095],[-0.103526,51.509095],[-0.10352,51.509095],[-0.103517,51.509095],[-0.103515,51.509095],[-0.103512,51.509094],[-0.10351,51.509094],[-0.103508,51.509093],[-0.103506,51.509092],[-0.103504,51.509091],[-0.103502,51.50909],[-0.103498,51.509088],[-0.103497,51.509086],[-0.103496,51.509085],[-0.103495,51.509084],[-0.103494,51.509082],[-0.103494,51.509081],[-0.103493,51.509079],[-0.103493,51.509074],[-0.103494,51.509072],[-0.103495,51.509071],[-0.103495,51.509069],[-0.103497,51.509068],[-0.103498,51.509067],[-0.103499,51.509065],[-0.103505,51.509062],[-0.103507,51.509061],[-0.10351,51.509061],[-0.103512,51.50906],[-0.103515,51.509059],[-0.103517,51.509059],[-0.10352,51.509058],[-0.103527,51.509059]],[[-0.103503,51.509593],[-0.103508,51.509593],[-0.10351,51.509594],[-0.103513,51.509594],[-0.103515,51.509594],[-0.103518,51.509595],[-0.10352,51.509596],[-0.103524,51.509598],[-0.103527,51.5096],[-0.103532,51.509604],[-0.103532,51.509606],[-0.103534,51.509607],[-0.103534,51.509609],[-0.103534,51.50961],[-0.103534,51.509614],[-0.103533,51.509615],[-0.103533,51.509617],[-0.103532,51.509618],[-0.103531,51.50962],[-0.10353,51.509621],[-0.103527,51.509624],[-0.103524,51.509626],[-0.103517,51.509629],[-0.103514,51.509629],[-0.103512,51.50963],[-0.103509,51.50963],[-0.103507,51.50963],[-0.103505,51.50963],[-0.103501,51.50963],[-0.103499,51.50963],[-0.103496,51.50963],[-0.103494,51.509629],[-0.103492,51.509628],[-0.10349,51.509628],[-0.103487,51.509627],[-0.103485,51.509625],[-0.103483,51.509624],[-0.103482,51.509623],[-0.10348,51.509622],[-0.103479,51.509621],[-0.103478,51.509619],[-0.103476,51.509618],[-0.103476,51.509616],[-0.103476,51.509614],[-0.103475,51.509613],[-0.103475,51.50961],[-0.103476,51.509608],[-0.103476,51.509606],[-0.103477,51.509605],[-0.103478,51.509604],[-0.103479,51.509602],[-0.103482,51.5096],[-0.103484,51.509598],[-0.103487,51.509597],[-0.103488,51.509596],[-0.10349,51.509596],[-0.103493,51.509595],[-0.103495,51.509594],[-0.103497,51.509594],[-0.1035,51.509594],[-0.103503,51.509593]],[[-0.10361,51.51017],[-0.103613,51.510171],[-0.103615,51.510171],[-0.103618,51.510172],[-0.103624,51.510175],[-0.103629,51.510178],[-0.10363,51.510179],[-0.103631,51.510181],[-0.103632,51.510183],[-0.103634,51.510185],[-0.103633,51.510192],[-0.103633,51.510193],[-0.103632,51.510195],[-0.10363,51.510196],[-0.10363,51.510197],[-0.103627,51.5102],[-0.103624,51.510201],[-0.103621,51.510203],[-0.103618,51.510203],[-0.103616,51.510204],[-0.103614,51.510205],[-0.103611,51.510205],[-0.103609,51.510206],[-0.103602,51.510205],[-0.1036,51.510205],[-0.103597,51.510205],[-0.103595,51.510204],[-0.103593,51.510203],[-0.10359,51.510203],[-0.103588,51.510202],[-0.103581,51.510197],[-0.10358,51.510196],[-0.103579,51.510194],[-0.103578,51.510192],[-0.103577,51.51019],[-0.103577,51.510185],[-0.103578,51.510184],[-0.103579,51.510182],[-0.103581,51.510179],[-0.103585,51.510175],[-0.103587,51.510175],[-0.103589,51.510174],[-0.103593,51.510172],[-0.103596,51.510172],[-0.103598,51.510171],[-0.1036,51.510171],[-0.103603,51.51017],[-0.10361,51.51017]],[[-0.103725,51.510173],[-0.103729,51.510174],[-0.103732,51.510174],[-0.103738,51.510177],[-0.103743,51.51018],[-0.103745,51.510182],[-0.103745,51.510183],[-0.103747,51.510184],[-0.103747,51.510186],[-0.103747,51.510188],[-0.103748,51.510189],[-0.103748,51.510192],[-0.103747,51.510194],[-0.103747,51.510195],[-0.103746,51.510197],[-0.103745,51.510198],[-0.103744,51.5102],[-0.103742,51.510201],[-0.103737,51.510204],[-0.103731,51.510207],[-0.103728,51.510207],[-0.103723,51.510208],[-0.103719,51.510208],[-0.103717,51.510208],[-0.103714,51.510207],[-0.103712,51.510207],[-0.103709,51.510207],[-0.103707,51.510206],[-0.103705,51.510205],[-0.103703,51.510204],[-0.103698,51.510201],[-0.103694,51.510197],[-0.103693,51.510195],[-0.103692,51.510192],[-0.103692,51.510188],[-0.103693,51.510185],[-0.103694,51.510183],[-0.103695,51.510182],[-0.103698,51.510179],[-0.103703,51.510176],[-0.103708,51.510174],[-0.10371,51.510174],[-0.103713,51.510173],[-0.103717,51.510173],[-0.103725,51.510173]]]]},"properties":{"OBJECTID":11,"NAME":"River Thames","whole_in_zone":false,"in_cw":false}},
{"type":"Feature","geometry":{"type":"Polygon","coordinates":[[[-0.081997,51.519159],[-0.082306,51.51859],[-0.082396,51.518427],[-0.082411,51.518399],[-0.082428,51.518368],[-0.082456,51.51832],[-0.082478,51.518278],[-0.082501,51.518238],[-0.082529,51.518187],[-0.082548,51.518152],[-0.082567,51.518116],[-0.082586,51.518082],[-0.082614,51.51803],[-0.082628,51.518007],[-0.082695,51.517886],[-0.082335,51.51781],[-0.082026,51.517744],[-0.082021,51.517752],[-0.08182,51.517708],[-0.081565,51.517653],[-0.081468,51.517632],[-0.081441,51.517624],[-0.081406,51.517614],[-0.081387,51.517609],[-0.081377,51.517625],[-0.081242,51.517851],[-0.081233,51.517863],[-0.080339,51.519493],[-0.08059,51.519546],[-0.080935,51.51962],[-0.081659,51.519775],[-0.08168,51.519737],[-0.081684,51.51973],[-0.081927,51.519289],[-0.081963,51.519223],[-0.081997,51.519159]]]},"properties":{"OBJECTID":12,"NAME":"Liverpool Street Station","whole_in_zone":true,"in_cw":false}},
{"type":"Feature","geometry":{"type":"Polygon","coordinates":[[[-0.086007,51.510188],[-0.086052,51.510123],[-0.085947,51.510092],[-0.085919,51.510098],[-0.08589,51.510138],[-0.085902,51.510157],[-0.086007,51.510188]]]},"properties":{"OBJECTID":14,"NAME":"The Monument","whole_in_zone":true,"in_cw":false}},
{"type":"Feature","geometry":{"type":"Polygon","coordinates":[[[-0.082135,51.513422],[-0.082361,51.513414],[-0.082363,51.513417],[-0.082364,51.513418],[-0.082365,51.513419],[-0.082366,51.51342],[-0.082367,51.513421],[-0.082369,51.513421],[-0.082372,51.513423],[-0.082376,51.513425],[-0.082377,51.513425],[-0.082379,51.513426],[-0.082383,51.513427],[-0.082384,51.513427],[-0.082387,51.513427],[-0.082389,51.513428],[-0.082392,51.513427],[-0.082395,51.513428],[-0.082398,51.513427],[-0.0824,51.513427],[-0.082402,51.513426],[-0.082404,51.513426],[-0.082409,51.513424],[-0.08241,51.513424],[-0.082413,51.513422],[-0.082414,51.513422],[-0.082415,51.513421],[-0.082418,51.513419],[-0.082422,51.513414],[-0.082521,51.513409],[-0.082674,51.513404],[-0.082754,51.513401],[-0.082849,51.513398],[-0.082939,51.513393],[-0.082937,51.513363],[-0.082936,51.513343],[-0.082933,51.51329],[-0.082933,51.513275],[-0.082931,51.513206],[-0.082931,51.513186],[-0.082931,51.51318],[-0.082932,51.513178],[-0.082932,51.513176],[-0.082933,51.513172],[-0.082933,51.513162],[-0.082935,51.513146],[-0.082943,51.513113],[-0.082951,51.51309],[-0.082955,51.513076],[-0.082966,51.513043],[-0.082975,51.513016],[-0.08298,51.513004],[-0.082986,51.51299],[-0.082994,51.512972],[-0.083019,51.512912],[-0.083043,51.512857],[-0.083057,51.512826],[-0.083061,51.512816],[-0.083066,51.512803],[-0.083084,51.51276],[-0.083095,51.512734],[-0.083107,51.51271],[-0.08286,51.512648],[-0.082852,51.512647],[-0.082842,51.512645],[-0.082833,51.512644],[-0.082831,51.512644],[-0.082829,51.512644],[-0.082659,51.512586],[-0.082651,51.512581],[-0.082506,51.512534],[-0.082503,51.512532],[-0.082502,51.512531],[-0.082501,51.512531],[-0.082499,51.51253],[-0.082497,51.512529],[-0.082491,51.512528],[-0.082489,51.512527],[-0.082487,51.512527],[-0.08248,51.512526],[-0.082476,51.512527],[-0.082473,51.512527],[-0.08247,51.512528],[-0.082467,51.512528],[-0.082462,51.512529],[-0.082461,51.512529],[-0.082459,51.51253],[-0.082457,51.512531],[-0.082456,51.512531],[-0.082455,51.512532],[-0.082454,51.512533],[-0.08242,51.51253],[-0.082354,51.512594],[-0.082295,51.512652],[-0.082181,51.512783],[-0.082175,51.512798],[-0.08215,51.512829],[-0.0821,51.512889],[-0.082074,51.512928],[-0.081997,51.513026],[-0.081982,51.513048],[-0.081941,51.513109],[-0.081889,51.513183],[-0.081851,51.51324],[-0.081825,51.513279],[-0.0818,51.51333],[-0.081782,51.513395],[-0.081829,51.513421],[-0.08183,51.513422],[-0.081831,51.513423],[-0.081833,51.513425],[-0.081835,51.513426],[-0.081836,51.513426],[-0.081838,51.513426],[-0.08185,51.513436],[-0.081899,51.513431],[-0.082109,51.513424],[-0.082135,51.513422]]]},"properties":{"OBJECTID":16,"NAME":"Lloyd's Building","whole_in_zone":true,"in_cw":false}},
{"type":"Feature","geometry":{"type":"Polygon","coordinates":[[[-0.089489,51.513274],[-0.089492,51.513269],[-0.089503,51.513247],[-0.089589,51.513267],[-0.089621,51.513274],[-0.089642,51.513238],[-0.089741,51.513072],[-0.08976,51.513038],[-0.089733,51.513032],[-0.089799,51.512915],[-0.089785,51.512912],[-0.089793,51.512899],[-0.089811,51.512867],[-0.089883,51.512739],[-0.089509,51.512658],[-0.089474,51.51266],[-0.089399,51.512793],[-0.089409,51.512796],[-0.089391,51.512829],[-0.089379,51.512826],[-0.089279,51.513005],[-0.089259,51.51304],[-0.089254,51.513048],[-0.08918,51.51318],[-0.089269,51.513199],[-0.089258,51.513218],[-0.089256,51.513223],[-0.089489,51.513274]]]},"properties":{"OBJECTID":323,"NAME":"Mansion House","whole_in_zone":true,"in_cw":false}},
{"type":"Feature","geometry":{"type":"Polygon","coordinates":[[[-0.09321,51.520276],[-0.093217,51.520298],[-0.093227,51.520322],[-0.09324,51.520346],[-0.093256,51.520369],[-0.093274,51.520391],[-0.093294,51.520413],[-0.093316,51.520433],[-0.093344,51.520455],[-0.093371,51.520472],[-0.093399,51.520489],[-0.093428,51.520505],[-0.093457,51.520519],[-0.093493,51.520534],[-0.09353,51.520547],[-0.093569,51.520559],[-0.093577,51.520562],[-0.093613,51.520569],[-0.09365,51.520576],[-0.093688,51.520582],[-0.093731,51.520587],[-0.093773,51.520589],[-0.093815,51.52059],[-0.093858,51.520588],[-0.093897,51.520586],[-0.093938,51.520581],[-0.09398,51.520575],[-0.094021,51.520567],[-0.094036,51.520563],[-0.094072,51.520553],[-0.094107,51.520542],[-0.09414,51.520529],[-0.094172,51.520515],[-0.094203,51.520499],[-0.09422,51.52049],[-0.094249,51.520472],[-0.094275,51.520453],[-0.0943,51.520433],[-0.094322,51.520412],[-0.094351,51.520381],[-0.094369,51.520357],[-0.094384,51.520333],[-0.094396,51.520311],[-0.09443,51.520257],[-0.094458,51.520212],[-0.094647,51.519906],[-0.094527,51.519877],[-0.094484,51.519866],[-0.094381,51.519844],[-0.094341,51.519834],[-0.094239,51.519809],[-0.094197,51.519801],[-0.094094,51.519777],[-0.094052,51.519766],[-0.093948,51.519744],[-0.093908,51.519734],[-0.093802,51.519711],[-0.093762,51.519702],[-0.09366,51.519677],[-0.093619,51.519668],[-0.093518,51.519646],[-0.093476,51.519635],[-0.09351,51.519579],[-0.093409,51.519556],[-0.09337,51.519547],[-0.093266,51.519523],[-0.093228,51.519514],[-0.093123,51.51949],[-0.09308,51.519481],[-0.093021,51.519467],[-0.092909,51.519441],[-0.092891,51.519474],[-0.092881,51.519489],[-0.092857,51.51953],[-0.092584,51.520005],[-0.092685,51.520035],[-0.09271,51.52008],[-0.093222,51.520198],[-0.093211,51.520238],[-0.09321,51.520276]]]},"properties":{"OBJECTID":325,"NAME":"Barbican Centre","whole_in_zone":true,"in_cw":false}},
{"type":"Feature","geometry":{"type":"Polygon","coordinates":[[[-0.087571,51.514141],[-0.08762,51.514211],[-0.087716,51.514351],[-0.087816,51.514494],[-0.087876,51.514579],[-0.087881,51.514585],[-0.087888,51.51459],[-0.087892,51.514595],[-0.087897,51.514598],[-0.087898,51.514598],[-0.087904,51.5146],[-0.087911,51.514601],[-0.087918,51.514603],[-0.087926,51.514604],[-0.08794,51.514604],[-0.087963,51.514604],[-0.087964,51.514598],[-0.088155,51.514605],[-0.088156,51.514591],[-0.088157,51.514576],[-0.088159,51.514506],[-0.088103,51.514504],[-0.088068,51.514471],[-0.088014,51.514469],[-0.087975,51.514463],[-0.087948,51.514426],[-0.087996,51.514415],[-0.087765,51.514087],[-0.087571,51.514141]]]},"properties":{"OBJECTID":327,"NAME":"Bank of England Museum","whole_in_zone":true,"in_cw":false}},
{"type":"Feature","geometry":{"type":"Polygon","coordinates":[[[-0.093353,51.512846],[-0.09345,51.512865],[-0.093461,51.512845],[-0.093491,51.512792],[-0.09351,51.512758],[-0.093515,51.512749],[-0.093524,51.51275],[-0.093531,51.512739],[-0.093521,51.512737],[-0.093533,51.512713],[-0.09354,51.5127],[-0.093543,51.512703],[-0.093544,51.512705],[-0.093546,51.512707],[-0.093553,51.512708],[-0.093558,51.512709],[-0.093561,51.512709],[-0.093564,51.512709],[-0.093573,51.512704],[-0.093575,51.5127],[-0.093575,51.512695],[-0.093574,51.512694],[-0.093574,51.512692],[-0.093572,51.51269],[-0.09357,51.512689],[-0.093573,51.512684],[-0.093584,51.512664],[-0.093585,51.512661],[-0.093586,51.51266],[-0.093594,51.512659],[-0.093597,51.512659],[-0.093603,51.512658],[-0.093604,51.512657],[-0.093605,51.512655],[-0.093606,51.512654],[-0.093606,51.512649],[-0.093604,51.512648],[-0.093603,51.512647],[-0.093601,51.512647],[-0.093599,51.512645],[-0.093594,51.512644],[-0.093579,51.512645],[-0.093573,51.512648],[-0.093561,51.512646],[-0.09353,51.512637],[-0.093519,51.512631],[-0.093517,51.512629],[-0.093505,51.512628],[-0.093502,51.512629],[-0.093499,51.51263],[-0.093497,51.512631],[-0.093495,51.512634],[-0.093493,51.512637],[-0.093495,51.512639],[-0.093499,51.512642],[-0.0935,51.512644],[-0.093501,51.512645],[-0.093484,51.512669],[-0.093482,51.512673],[-0.093473,51.512672],[-0.093477,51.512665],[-0.093405,51.51265],[-0.093401,51.512656],[-0.093367,51.512649],[-0.09337,51.512643],[-0.09335,51.512639],[-0.093346,51.512645],[-0.093299,51.512634],[-0.093301,51.512628],[-0.093282,51.512625],[-0.09328,51.512629],[-0.093243,51.512622],[-0.093245,51.512617],[-0.093229,51.512614],[-0.093225,51.512619],[-0.093183,51.51261],[-0.093185,51.512605],[-0.09317,51.512602],[-0.093166,51.512609],[-0.093156,51.512607],[-0.09315,51.512613],[-0.093138,51.512611],[-0.093134,51.512619],[-0.093149,51.512622],[-0.093127,51.512661],[-0.093103,51.512656],[-0.0931,51.512654],[-0.093099,51.512653],[-0.093095,51.512651],[-0.093091,51.51265],[-0.093086,51.51265],[-0.093083,51.51265],[-0.09308,51.512652],[-0.09308,51.512653],[-0.09308,51.512655],[-0.093081,51.512657],[-0.093084,51.512661],[-0.093086,51.512663],[-0.093037,51.512713],[-0.093023,51.512715],[-0.093018,51.512723],[-0.093,51.512724],[-0.092982,51.512747],[-0.09299,51.512769],[-0.093022,51.512776],[-0.09313,51.512799],[-0.093313,51.512838],[-0.093353,51.512846]]]},"properties":{"OBJECTID":328,"NAME":"St Mary Aldermary","whole_in_zone":true,"in_cw":false}},
{"type":"Feature","geometry":{"type":"Polygon","coordinates":[[[-0.090781,51.520136],[-0.090789,51.520111],[-0.090781,51.520108],[-0.090811,51.520057],[-0.090837,51.520013],[-0.09086,51.519976],[-0.09089,51.519934],[-0.090983,51.519773],[-0.090693,51.519708],[-0.090684,51.519706],[-0.090681,51.519706],[-0.090676,51.519704],[-0.090671,51.519704],[-0.090667,51.519703],[-0.090629,51.519692],[-0.090584,51.519683],[-0.090272,51.51961],[-0.090226,51.519687],[-0.090146,51.519817],[-0.090128,51.519848],[-0.090072,51.519939],[-0.090317,51.519998],[-0.090303,51.520021],[-0.0907,51.520116],[-0.090762,51.520133],[-0.090764,51.520133],[-0.090773,51.520135],[-0.090781,51.520136]]]},"properties":{"OBJECTID":641,"NAME":"Milton Court","whole_in_zone":true,"in_cw":false}},
{"type":"Feature","geometry":{"type":"Polygon","coordinates":[[[-0.093446,51.521216],[-0.093307,51.520926],[-0.093159,51.520954],[-0.092862,51.52101],[-0.092612,51.521058],[-0.092619,51.521074],[-0.092642,51.521121],[-0.092656,51.521152],[-0.092708,51.521263],[-0.092743,51.521342],[-0.092745,51.521344],[-0.093446,51.521216]]]},"properties":{"OBJECTID":642,"NAME":"Barbican Cinemas","whole_in_zone":true,"in_cw":false}},
{"type":"Feature","geometry":{"type":"Polygon","coordinates":[[[-0.076213,51.507918],[-0.075894,51.507898],[-0.07587,51.507898],[-0.07586,51.507898],[-0.075851,51.507899],[-0.075841,51.507901],[-0.075836,51.507902],[-0.075825,51.507907],[-0.075817,51.507914],[-0.075813,51.507917],[-0.075806,51.507925],[-0.0758,51.507933],[-0.075799,51.507937],[-0.075795,51.507947],[-0.075795,51.507958],[-0.075796,51.507967],[-0.075798,51.507974],[-0.075803,51.507984],[-0.075809,51.507993],[-0.075812,51.507997],[-0.075818,51.508002],[-0.075825,51.508008],[-0.075827,51.50801],[-0.075835,51.508014],[-0.075843,51.508018],[-0.075852,51.50802],[-0.075862,51.508022],[-0.075832,51.508178],[-0.075825,51.50818],[-0.075819,51.508182],[-0.075812,51.508187],[-0.075807,51.508192],[-0.075807,51.508193],[-0.075803,51.5082],[-0.075801,51.508206],[-0.075802,51.508213],[-0.075802,51.508216],[-0.075804,51.508222],[-0.075807,51.508227],[-0.075812,51.508231],[-0.075816,51.508235],[-0.075824,51.508239],[-0.075833,51.508241],[-0.075836,51.508242],[-0.075846,51.508243],[-0.075856,51.508243],[-0.075859,51.508243],[-0.075867,51.508241],[-0.075876,51.508239],[-0.075878,51.508238],[-0.075886,51.508234],[-0.075892,51.50823],[-0.075904,51.508219],[-0.075926,51.50822],[-0.075958,51.508222],[-0.075968,51.508224],[-0.076031,51.508228],[-0.07603,51.508231],[-0.07627,51.508245],[-0.076272,51.508237],[-0.076281,51.508172],[-0.076308,51.507998],[-0.076313,51.507965],[-0.07632,51.507924],[-0.076258,51.50792],[-0.076213,51.507918]]]},"properties":{"OBJECTID":961,"NAME":"The White Tower","whole_in_zone":true,"in_cw":false}}
]}
