{"type":"FeatureCollection","meta":{
 "source": "planning.data.gov.uk: Historic parks and gardens (park-and-garden)",
 "dataset": "park-and-garden",
 "page": "https://www.planning.data.gov.uk/dataset/park-and-garden",
 "typology": "geography",
 "phase": "beta",
 "api": "https://www.planning.data.gov.uk/entity.geojson?dataset=park-and-garden&geometry=<zone polygon WKT>&geometry_relation=intersects&limit=500&offset=<n>",
 "fetched": "2026-10-04",
 "licence": "Open Government Licence v3.0",
 "licence_url": "https://www.nationalarchives.gov.uk/doc/open-government-licence/version/3/",
 "attribution": "© Historic England 2026. Contains Ordnance Survey data © Crown copyright and database right 2026. The Historic England GIS Data contained in this material was obtained on [date]. The most publicly available up to date Historic England GIS Data can be obtained from [HistoricEngland.org.uk](https://historicengland.org.uk).",
 "why": "registered parks and gardens",
 "zone": "the 3D model box, BNG E 532400-539900, N 176700-182300 (WGS84 -0.095, 51.474 to 0.015, 51.522)",
 "method": "walk-portals.mjs pdg harvest park-and-garden: the platform's spatial query (geometry intersects the zone box) in pages of 500; whole geometries kept (not cut), rounded to 6 decimals; in_zone, whole_in_zone, in_cw (Canary Wharf registry box -0.03, 51.498, -0.005, 51.51); fields kept as published except empty ones and fields matching /e-?mail|phone|tel(ephone)?$|^tel|contact|^fax|mobile|^owner_?name|person|officer|case_?officer|agent_?name|applicant/i",
 "counts": {
  "features": 6,
  "zone_count_at_walk": 6,
  "whole_in_zone": 3,
  "in_cw": 0,
  "pages": 1
 }
},
"features":[
{"type":"Feature","geometry":{"type":"MultiPolygon","coordinates":[[[[0.002237,51.481588],[0.001887,51.481924],[0.001889,51.481925],[0.001826,51.481983],[0.001752,51.48204],[0.001692,51.482083],[0.001653,51.482107],[0.00141,51.482271],[0.001084,51.482221],[0.000824,51.482169],[0.000648,51.48213],[-0.000455,51.481848],[-0.00062,51.481798],[-0.000712,51.481773],[-0.000962,51.481698],[-0.001068,51.481668],[-0.001111,51.481653],[-0.00118,51.481647],[-0.001266,51.481633],[-0.001269,51.481641],[-0.001295,51.481636],[-0.001398,51.481625],[-0.001399,51.481627],[-0.001934,51.481571],[-0.00203,51.481559],[-0.002119,51.48155],[-0.002193,51.481536],[-0.002234,51.48153],[-0.002225,51.481491],[-0.002221,51.481461],[-0.002221,51.481401],[-0.00223,51.481367],[-0.00224,51.481344],[-0.002253,51.481321],[-0.002263,51.481309],[-0.002266,51.481303],[-0.002297,51.48127],[-0.002338,51.481237],[-0.00238,51.481213],[-0.002436,51.481185],[-0.002486,51.481164],[-0.002879,51.481029],[-0.003432,51.480842],[-0.003468,51.480831],[-0.003775,51.480724],[-0.004369,51.480523],[-0.005286,51.480208],[-0.005877,51.480008],[-0.005879,51.479916],[-0.005942,51.479897],[-0.005951,51.479891],[-0.006703,51.479642],[-0.006705,51.479644],[-0.006787,51.479618],[-0.00688,51.479587],[-0.006958,51.479559],[-0.006985,51.479551],[-0.007007,51.479546],[-0.007034,51.479547],[-0.007045,51.479548],[-0.007097,51.47956],[-0.007134,51.47959],[-0.007281,51.479515],[-0.007335,51.479494],[-0.007347,51.479487],[-0.007373,51.479464],[-0.007442,51.479397],[-0.007469,51.479337],[-0.007485,51.479308],[-0.007495,51.479285],[-0.007518,51.47919],[-0.007527,51.479139],[-0.007523,51.479006],[-0.00752,51.478976],[-0.007521,51.47896],[-0.007518,51.478919],[-0.007514,51.478899],[-0.007494,51.478852],[-0.007446,51.478788],[-0.00742,51.478756],[-0.007245,51.478565],[-0.007046,51.478424],[-0.006676,51.47822],[-0.006386,51.478039],[-0.00626,51.477978],[-0.006187,51.477914],[-0.00617,51.477901],[-0.006136,51.47787],[-0.006029,51.477757],[-0.006005,51.477729],[-0.005977,51.477677],[-0.005908,51.477534],[-0.00588,51.477485],[-0.005815,51.477322],[-0.00575,51.477014],[-0.005731,51.47699],[-0.005608,51.476883],[-0.00554,51.476821],[-0.005437,51.476731],[-0.005022,51.476427],[-0.005005,51.476417],[-0.004671,51.47627],[-0.004571,51.476225],[-0.004526,51.476202],[-0.004507,51.476194],[-0.004372,51.47609],[-0.00433,51.476065],[-0.004319,51.476056],[-0.004295,51.476041],[-0.004214,51.475984],[-0.004104,51.475898],[-0.003959,51.47579],[-0.003858,51.475701],[-0.00383,51.475674],[-0.003773,51.475625],[-0.003563,51.475422],[-0.003357,51.475232],[-0.003027,51.474917],[-0.003015,51.474917],[-0.002994,51.474912],[-0.00298,51.474904],[-0.002969,51.474894],[-0.002929,51.474894],[-0.002916,51.474891],[-0.002888,51.474874],[-0.002671,51.474666],[-0.00246,51.474469],[-0.002455,51.474461],[-0.002456,51.474454],[-0.002462,51.47444],[-0.002476,51.474425],[-0.002488,51.47442],[-0.002388,51.474327],[-0.002237,51.474182],[-0.001768,51.47374],[-0.001654,51.473634],[-0.001638,51.473621],[-0.001428,51.473424],[-0.001416,51.473429],[-0.001409,51.473423],[-0.001388,51.473422],[-0.00137,51.473417],[-0.001357,51.473408],[-0.001353,51.473404],[-0.001351,51.473396],[-0.001355,51.473385],[-0.001361,51.473379],[-0.001353,51.473372],[-0.001367,51.473366],[-0.000678,51.472717],[-0.000446,51.472495],[-0.000298,51.472357],[-0.000266,51.47237],[-0.000178,51.472284],[0.00005,51.472207],[0.000024,51.472178],[0.000105,51.472151],[0.000137,51.472109],[0.000979,51.472359],[0.001897,51.472628],[0.002122,51.472696],[0.002732,51.472873],[0.0031,51.472983],[0.003658,51.473143],[0.003966,51.473237],[0.004415,51.47337],[0.004832,51.473496],[0.005997,51.473855],[0.006141,51.4739],[0.006301,51.473953],[0.007006,51.47418],[0.007253,51.474257],[0.007575,51.47436],[0.007624,51.474379],[0.008225,51.474576],[0.008563,51.474685],[0.008834,51.474778],[0.00937,51.474949],[0.009674,51.475043],[0.009726,51.47507],[0.00977,51.475115],[0.0098,51.475177],[0.009805,51.475238],[0.009792,51.475282],[0.00688,51.477937],[0.006836,51.477963],[0.006623,51.478158],[0.006612,51.47818],[0.005282,51.479411],[0.005183,51.479505],[0.005048,51.479612],[0.004938,51.479702],[0.004899,51.479728],[0.004821,51.479772],[0.004773,51.479797],[0.00445,51.479956],[0.004348,51.480009],[0.004302,51.480035],[0.004296,51.480037],[0.003691,51.480391],[0.003571,51.480459],[0.003445,51.480592],[0.003289,51.48075],[0.003272,51.480748],[0.003245,51.48075],[0.003214,51.480759],[0.003182,51.480774],[0.00317,51.480785],[0.002722,51.481139],[0.002566,51.481266],[0.002568,51.481267],[0.002237,51.481588]]]]},"properties":{"entry-date":"2026-06-11","start-date":"1987-10-01","entity":11100067,"name":"GREENWICH PARK","dataset":"park-and-garden","typology":"geography","reference":"1000174","prefix":"park-and-garden","organisation-entity":16,"quality":"authoritative","documentation-url":"https://historicengland.org.uk/listing/the-list/list-entry/1000174","park-and-garden-grade":"I","in_zone":true,"whole_in_zone":false,"in_cw":false}},
{"type":"Feature","geometry":{"type":"MultiPolygon","coordinates":[[[[-0.008858,51.486519],[-0.008636,51.48656],[-0.008326,51.486626],[-0.008258,51.486642],[-0.00802,51.486704],[-0.007863,51.486746],[-0.007224,51.486924],[-0.007064,51.486965],[-0.006728,51.487063],[-0.006692,51.487075],[-0.006509,51.487144],[-0.006571,51.487203],[-0.006653,51.487287],[-0.006804,51.487433],[-0.006995,51.487623],[-0.007177,51.487559],[-0.007303,51.487517],[-0.007445,51.487472],[-0.007648,51.48741],[-0.008063,51.487292],[-0.00815,51.487266],[-0.008654,51.487139],[-0.008946,51.487075],[-0.009474,51.486976],[-0.009532,51.486962],[-0.009543,51.48695],[-0.009543,51.48694],[-0.00954,51.486932],[-0.009537,51.486928],[-0.009509,51.486857],[-0.009463,51.486753],[-0.009446,51.486733],[-0.009414,51.486706],[-0.009375,51.486686],[-0.009327,51.486678],[-0.009314,51.48665],[-0.009383,51.486635],[-0.009381,51.486626],[-0.009396,51.486616],[-0.009409,51.4866],[-0.009414,51.486587],[-0.009414,51.486575],[-0.009412,51.486565],[-0.00941,51.486564],[-0.00941,51.486561],[-0.009399,51.486546],[-0.009388,51.486537],[-0.009348,51.486519],[-0.009311,51.486515],[-0.009273,51.486521],[-0.009248,51.486451],[-0.009147,51.486466],[-0.008858,51.486519]]]]},"properties":{"entry-date":"2026-06-11","start-date":"1987-10-01","entity":11100708,"name":"ISLAND GARDENS","dataset":"park-and-garden","typology":"geography","reference":"1000815","prefix":"park-and-garden","organisation-entity":16,"quality":"authoritative","documentation-url":"https://historicengland.org.uk/listing/the-list/list-entry/1000815","park-and-garden-grade":"II","in_zone":true,"whole_in_zone":true,"in_cw":false}},
{"type":"Feature","geometry":{"type":"MultiPolygon","coordinates":[[[[-0.055609,51.497581],[-0.055512,51.49759],[-0.055397,51.497644],[-0.055345,51.497674],[-0.055263,51.497759],[-0.055272,51.497788],[-0.055526,51.497845],[-0.055655,51.498294],[-0.055717,51.498516],[-0.055609,51.498547],[-0.055945,51.498701],[-0.056328,51.498852],[-0.056429,51.49888],[-0.056507,51.49889],[-0.056665,51.498882],[-0.056999,51.498838],[-0.057827,51.498775],[-0.058671,51.498698],[-0.05859,51.498384],[-0.05856,51.498375],[-0.058572,51.498286],[-0.058604,51.497912],[-0.058599,51.497779],[-0.058521,51.497511],[-0.059221,51.497494],[-0.05899,51.497326],[-0.058932,51.497329],[-0.058763,51.49659],[-0.058642,51.496107],[-0.058536,51.49584],[-0.058432,51.495539],[-0.05847,51.495532],[-0.05832,51.495085],[-0.058508,51.495026],[-0.058495,51.495005],[-0.058565,51.494996],[-0.058678,51.494988],[-0.058843,51.494865],[-0.05859,51.494711],[-0.058507,51.494667],[-0.058317,51.494577],[-0.058184,51.494521],[-0.057778,51.494362],[-0.057596,51.494469],[-0.057013,51.494002],[-0.055679,51.492895],[-0.055017,51.492351],[-0.054959,51.492306],[-0.05467,51.492059],[-0.054458,51.492026],[-0.054082,51.491726],[-0.053924,51.491731],[-0.05384,51.491718],[-0.053637,51.491644],[-0.053125,51.491644],[-0.052485,51.49165],[-0.051665,51.491653],[-0.051661,51.491633],[-0.051143,51.491638],[-0.051127,51.491566],[-0.051041,51.491636],[-0.050777,51.491842],[-0.050037,51.492412],[-0.049095,51.493141],[-0.048651,51.493482],[-0.04855,51.493617],[-0.048865,51.493775],[-0.048733,51.493887],[-0.049024,51.494026],[-0.049346,51.494165],[-0.05017,51.494544],[-0.05051,51.494798],[-0.050688,51.49471],[-0.050837,51.494634],[-0.050971,51.494746],[-0.050912,51.494784],[-0.05094,51.494811],[-0.051381,51.494611],[-0.051494,51.494691],[-0.051774,51.494918],[-0.051907,51.494873],[-0.052131,51.494807],[-0.052594,51.494654],[-0.05295,51.494534],[-0.053309,51.494428],[-0.053662,51.494716],[-0.053909,51.494925],[-0.05404,51.495066],[-0.054346,51.49532],[-0.05324,51.495722],[-0.052875,51.495845],[-0.052865,51.495855],[-0.05313,51.496086],[-0.053456,51.495942],[-0.054181,51.495629],[-0.054527,51.495477],[-0.054796,51.495701],[-0.055083,51.495947],[-0.055114,51.495979],[-0.055272,51.496108],[-0.05557,51.496373],[-0.056088,51.496812],[-0.056142,51.496865],[-0.056022,51.496941],[-0.05554,51.497223],[-0.055609,51.497581]]]]},"properties":{"entry-date":"2026-06-11","start-date":"1987-10-01","entity":11100731,"name":"SOUTHWARK PARK","dataset":"park-and-garden","typology":"geography","reference":"1000838","prefix":"park-and-garden","organisation-entity":16,"quality":"authoritative","documentation-url":"https://historicengland.org.uk/listing/the-list/list-entry/1000838","park-and-garden-grade":"II","in_zone":true,"whole_in_zone":true,"in_cw":false}},
{"type":"Feature","geometry":{"type":"MultiPolygon","coordinates":[[[[-0.086381,51.517472],[-0.086287,51.517473],[-0.086254,51.517475],[-0.086167,51.517484],[-0.086115,51.517491],[-0.086016,51.517508],[-0.085979,51.517517],[-0.085916,51.517538],[-0.085861,51.517561],[-0.085823,51.517581],[-0.085777,51.517612],[-0.085756,51.517628],[-0.085738,51.517645],[-0.085712,51.517673],[-0.085698,51.517692],[-0.085679,51.51773],[-0.085669,51.517761],[-0.085664,51.517792],[-0.085663,51.517814],[-0.085665,51.517841],[-0.08567,51.51786],[-0.085677,51.517878],[-0.085697,51.517914],[-0.085724,51.517951],[-0.085775,51.518],[-0.085812,51.51803],[-0.085831,51.518044],[-0.085866,51.518065],[-0.085931,51.518099],[-0.085969,51.518116],[-0.086006,51.51813],[-0.086118,51.518167],[-0.086149,51.518176],[-0.086279,51.518206],[-0.086342,51.518217],[-0.086415,51.518226],[-0.086511,51.518234],[-0.086607,51.518237],[-0.086657,51.518236],[-0.086692,51.518234],[-0.086766,51.518226],[-0.086839,51.518216],[-0.086908,51.518203],[-0.086962,51.518191],[-0.087027,51.518172],[-0.08708,51.518146],[-0.087106,51.51813],[-0.087154,51.518096],[-0.087194,51.518059],[-0.087224,51.518025],[-0.087244,51.517997],[-0.087261,51.517963],[-0.087273,51.517924],[-0.087275,51.51791],[-0.087276,51.517896],[-0.087271,51.517866],[-0.087259,51.517832],[-0.087239,51.517796],[-0.087227,51.517779],[-0.087199,51.517745],[-0.08717,51.517716],[-0.087146,51.517696],[-0.087081,51.51765],[-0.087046,51.517629],[-0.086991,51.517602],[-0.086952,51.517585],[-0.086864,51.517552],[-0.086736,51.517512],[-0.086656,51.517494],[-0.086578,51.517481],[-0.086486,51.517474],[-0.086435,51.517472],[-0.086381,51.517472]]]]},"properties":{"entry-date":"2026-06-11","start-date":"1987-10-01","entity":11101152,"name":"FINSBURY CIRCUS","dataset":"park-and-garden","typology":"geography","reference":"1001259","prefix":"park-and-garden","organisation-entity":16,"quality":"authoritative","documentation-url":"https://historicengland.org.uk/listing/the-list/list-entry/1001259","park-and-garden-grade":"II","in_zone":true,"whole_in_zone":true,"in_cw":false}},
{"type":"Feature","geometry":{"type":"MultiPolygon","coordinates":[[[[-0.093467,51.521299],[-0.093501,51.521373],[-0.093568,51.521534],[-0.093591,51.521579],[-0.094159,51.521476],[-0.094058,51.521254],[-0.093952,51.521029],[-0.094187,51.520984],[-0.094262,51.521127],[-0.094387,51.521105],[-0.094787,51.52103],[-0.095304,51.520937],[-0.095113,51.520541],[-0.095712,51.520429],[-0.095782,51.520556],[-0.095851,51.520654],[-0.095944,51.520858],[-0.095955,51.520887],[-0.095995,51.520879],[-0.096024,51.520933],[-0.096065,51.521021],[-0.096007,51.521032],[-0.096038,51.521105],[-0.096052,51.521132],[-0.096072,51.521179],[-0.096314,51.521135],[-0.096692,51.521071],[-0.096767,51.52123],[-0.0969,51.521525],[-0.097018,51.521513],[-0.097131,51.521507],[-0.097159,51.521499],[-0.097178,51.521488],[-0.097185,51.521475],[-0.097193,51.521421],[-0.097226,51.521317],[-0.097202,51.521314],[-0.097245,51.521187],[-0.09725,51.521156],[-0.09726,51.521146],[-0.097275,51.521102],[-0.097291,51.52099],[-0.097293,51.520918],[-0.097291,51.520898],[-0.097286,51.520623],[-0.097283,51.520566],[-0.097278,51.520514],[-0.097271,51.520461],[-0.097246,51.520343],[-0.097229,51.520278],[-0.097214,51.520243],[-0.096954,51.520291],[-0.09693,51.520247],[-0.096871,51.520124],[-0.097034,51.520091],[-0.097051,51.520087],[-0.097084,51.520076],[-0.097125,51.520053],[-0.097136,51.520044],[-0.097144,51.520035],[-0.097152,51.520024],[-0.097158,51.520011],[-0.097163,51.519994],[-0.097164,51.519981],[-0.097163,51.519968],[-0.097141,51.519846],[-0.09712,51.519759],[-0.097081,51.519615],[-0.097016,51.519268],[-0.096997,51.519208],[-0.09697,51.519077],[-0.096951,51.518975],[-0.096904,51.518756],[-0.096885,51.518633],[-0.096845,51.518479],[-0.096834,51.518495],[-0.096818,51.518503],[-0.096799,51.518507],[-0.096766,51.518508],[-0.096694,51.518493],[-0.096495,51.518445],[-0.096493,51.518447],[-0.096422,51.518431],[-0.096431,51.518416],[-0.09641,51.518411],[-0.096397,51.518437],[-0.096321,51.518419],[-0.096276,51.518501],[-0.096161,51.518475],[-0.096156,51.518413],[-0.095886,51.518426],[-0.095887,51.51836],[-0.095156,51.518192],[-0.0955,51.517618],[-0.095269,51.517617],[-0.095161,51.517794],[-0.095001,51.518018],[-0.094902,51.517996],[-0.094745,51.518256],[-0.094722,51.518249],[-0.09467,51.518339],[-0.09462,51.51842],[-0.094003,51.518277],[-0.09394,51.518264],[-0.093414,51.518143],[-0.093401,51.518155],[-0.09324,51.518427],[-0.093159,51.518561],[-0.09314,51.518587],[-0.092998,51.518592],[-0.092756,51.518533],[-0.092618,51.518494],[-0.092387,51.518442],[-0.092259,51.518416],[-0.092258,51.51841],[-0.091959,51.518343],[-0.091463,51.518228],[-0.091243,51.518173],[-0.091166,51.518261],[-0.091139,51.518311],[-0.091109,51.518338],[-0.091077,51.518373],[-0.091015,51.518435],[-0.090901,51.518545],[-0.090864,51.518595],[-0.090811,51.518662],[-0.090773,51.518718],[-0.090692,51.518886],[-0.090604,51.519035],[-0.09054,51.519128],[-0.090519,51.519168],[-0.090509,51.519171],[-0.09032,51.519483],[-0.090421,51.519504],[-0.091321,51.519716],[-0.091617,51.519787],[-0.09173,51.519816],[-0.092345,51.519958],[-0.092551,51.520014],[-0.092656,51.520094],[-0.092714,51.520187],[-0.092707,51.520286],[-0.092675,51.520353],[-0.092587,51.520632],[-0.092537,51.520724],[-0.092545,51.520804],[-0.09258,51.520852],[-0.092632,51.520874],[-0.093092,51.520788],[-0.093135,51.520878],[-0.093173,51.520953],[-0.093133,51.520963],[-0.092586,51.521067],[-0.092614,51.521123],[-0.092681,51.521265],[-0.092716,51.521344],[-0.092731,51.521343],[-0.093403,51.52122],[-0.093428,51.521217],[-0.093467,51.521299]]]]},"properties":{"entry-date":"2026-06-11","start-date":"2003-02-20","entity":11101559,"name":"THE BARBICAN","dataset":"park-and-garden","typology":"geography","reference":"1001668","prefix":"park-and-garden","organisation-entity":16,"quality":"authoritative","documentation-url":"https://historicengland.org.uk/listing/the-list/list-entry/1001668","park-and-garden-grade":"II*","in_zone":true,"whole_in_zone":false,"in_cw":false}},
{"type":"Feature","geometry":{"type":"MultiPolygon","coordinates":[[[[-0.096727,51.52326],[-0.096749,51.523254],[-0.096736,51.523232],[-0.09673,51.523225],[-0.096723,51.523211],[-0.09672,51.523194],[-0.096722,51.523184],[-0.09673,51.523171],[-0.096745,51.523158],[-0.096758,51.52315],[-0.096881,51.523118],[-0.097442,51.522997],[-0.097462,51.522984],[-0.097441,51.522947],[-0.097491,51.522936],[-0.097501,51.522953],[-0.097594,51.522932],[-0.097587,51.52292],[-0.097743,51.522886],[-0.097723,51.522849],[-0.097777,51.522827],[-0.097743,51.522797],[-0.097735,51.522787],[-0.097703,51.522757],[-0.097685,51.522736],[-0.097643,51.522692],[-0.097565,51.522595],[-0.097525,51.522542],[-0.0975,51.522505],[-0.097442,51.522408],[-0.097425,51.522374],[-0.097399,51.522331],[-0.097385,51.522303],[-0.097348,51.52222],[-0.097339,51.522204],[-0.097315,51.522144],[-0.097299,51.522101],[-0.097291,51.522074],[-0.097289,51.522061],[-0.097276,51.52202],[-0.097255,51.521934],[-0.09725,51.521903],[-0.097237,51.521803],[-0.097238,51.52179],[-0.097234,51.521765],[-0.097233,51.521728],[-0.097192,51.521727],[-0.097184,51.521724],[-0.09718,51.52172],[-0.097153,51.521671],[-0.097141,51.521654],[-0.097136,51.521641],[-0.096209,51.521695],[-0.096154,51.521702],[-0.096125,51.521694],[-0.096026,51.521681],[-0.095986,51.521691],[-0.095502,51.521794],[-0.09539,51.521822],[-0.095333,51.521833],[-0.095301,51.521841],[-0.094804,51.522025],[-0.09484,51.522088],[-0.094806,51.522095],[-0.094808,51.522098],[-0.094762,51.522107],[-0.094761,51.522104],[-0.094688,51.52212],[-0.094731,51.522198],[-0.094739,51.522197],[-0.095188,51.523012],[-0.095301,51.522988],[-0.095297,51.522981],[-0.095328,51.522974],[-0.09637,51.52275],[-0.09639,51.522787],[-0.096417,51.522831],[-0.096538,51.52305],[-0.096553,51.523047],[-0.096581,51.523094],[-0.096553,51.5231],[-0.096576,51.52314],[-0.096622,51.523129],[-0.096644,51.523168],[-0.096673,51.523162],[-0.096727,51.52326]]]]},"properties":{"entry-date":"2026-06-11","start-date":"2020-08-18","entity":11101690,"name":"Golden Lane Estate Designed Landscape","dataset":"park-and-garden","typology":"geography","reference":"1468840","prefix":"park-and-garden","organisation-entity":16,"quality":"authoritative","documentation-url":"https://historicengland.org.uk/listing/the-list/list-entry/1468840","park-and-garden-grade":"II","in_zone":true,"whole_in_zone":false,"in_cw":false}}
]}
