{"type":"FeatureCollection","meta":{
 "source": "planning.data.gov.uk: World heritage site (world-heritage-site)",
 "dataset": "world-heritage-site",
 "page": "https://www.planning.data.gov.uk/dataset/world-heritage-site",
 "typology": "geography",
 "phase": "beta",
 "api": "https://www.planning.data.gov.uk/entity.geojson?dataset=world-heritage-site&geometry=<zone polygon WKT>&geometry_relation=intersects&limit=500&offset=<n>",
 "fetched": "2026-10-04",
 "licence": "Open Government Licence v3.0",
 "licence_url": "https://www.nationalarchives.gov.uk/doc/open-government-licence/version/3/",
 "attribution": "© Historic England 2026. Contains Ordnance Survey data © Crown copyright and database right 2026. The Historic England GIS Data contained in this material was obtained on [date]. The most publicly available up to date Historic England GIS Data can be obtained from [HistoricEngland.org.uk](https://historicengland.org.uk).",
 "why": "World Heritage Sites (Maritime Greenwich, Tower of London)",
 "zone": "the 3D model box, BNG E 532400-539900, N 176700-182300 (WGS84 -0.095, 51.474 to 0.015, 51.522)",
 "method": "walk-portals.mjs pdg harvest world-heritage-site: the platform's spatial query (geometry intersects the zone box) in pages of 500; whole geometries kept (not cut), rounded to 6 decimals; in_zone, whole_in_zone, in_cw (Canary Wharf registry box -0.03, 51.498, -0.005, 51.51); fields kept as published except empty ones and fields matching /e-?mail|phone|tel(ephone)?$|^tel|contact|^fax|mobile|^owner_?name|person|officer|case_?officer|agent_?name|applicant/i",
 "counts": {
  "features": 2,
  "zone_count_at_walk": 2,
  "whole_in_zone": 1,
  "in_cw": 0,
  "pages": 1
 }
},
"features":[
{"type":"Feature","geometry":{"type":"MultiPolygon","coordinates":[[[[-0.074372,51.507533],[-0.074307,51.50783],[-0.074213,51.508289],[-0.074122,51.508719],[-0.07403,51.509145],[-0.074021,51.509177],[-0.074021,51.509183],[-0.074024,51.509196],[-0.074038,51.509225],[-0.074046,51.509238],[-0.074067,51.509256],[-0.07407,51.509257],[-0.074375,51.509496],[-0.074406,51.509516],[-0.074445,51.509527],[-0.074493,51.509537],[-0.074554,51.509541],[-0.074615,51.509539],[-0.074754,51.509531],[-0.076015,51.509441],[-0.07623,51.509428],[-0.076429,51.509419],[-0.077025,51.509386],[-0.077491,51.509362],[-0.077577,51.50935],[-0.077643,51.509334],[-0.077705,51.509312],[-0.07776,51.509283],[-0.077809,51.509251],[-0.077848,51.509213],[-0.077879,51.509173],[-0.077898,51.50913],[-0.077946,51.509032],[-0.078308,51.508376],[-0.078955,51.508243],[-0.079113,51.507876],[-0.079103,51.507872],[-0.079104,51.507856],[-0.079099,51.507852],[-0.079078,51.507843],[-0.079061,51.507832],[-0.078978,51.507787],[-0.07892,51.507754],[-0.078856,51.507714],[-0.078792,51.507679],[-0.078701,51.507632],[-0.078636,51.507585],[-0.078461,51.50754],[-0.078068,51.507432],[-0.078044,51.507446],[-0.078001,51.507435],[-0.078004,51.507414],[-0.077865,51.507385],[-0.077809,51.507404],[-0.077633,51.507371],[-0.077316,51.507303],[-0.076884,51.507216],[-0.076835,51.507203],[-0.076707,51.507175],[-0.076191,51.507066],[-0.075944,51.506973],[-0.07587,51.506948],[-0.075863,51.506943],[-0.075715,51.50689],[-0.074761,51.50671],[-0.074704,51.506792],[-0.074672,51.506784],[-0.074668,51.506789],[-0.074458,51.507101],[-0.074449,51.507153],[-0.074372,51.507533]]]]},"properties":{"entry-date":"2008-01-01","start-date":"1988-01-01","entity":16100003,"name":"Tower of London","dataset":"world-heritage-site","typology":"geography","reference":"1000092","prefix":"world-heritage-site","organisation-entity":16,"quality":"authoritative","notes":"Core Area","documentation-url":"https://historicengland.org.uk/listing/the-list/list-entry/1000092","in_zone":true,"whole_in_zone":true,"in_cw":false}},
{"type":"Feature","geometry":{"type":"MultiPolygon","coordinates":[[[[-0.004156,51.484677],[-0.004158,51.484679],[-0.004254,51.484646],[-0.004277,51.484648],[-0.004283,51.484653],[-0.004333,51.484634],[-0.004329,51.484629],[-0.004337,51.484616],[-0.004423,51.484584],[-0.004453,51.48457],[-0.00447,51.484565],[-0.00467,51.48466],[-0.0047,51.48468],[-0.004973,51.484585],[-0.004984,51.484559],[-0.00502,51.484546],[-0.005008,51.484531],[-0.00623,51.484117],[-0.00625,51.484141],[-0.006373,51.484099],[-0.006353,51.484075],[-0.007256,51.483775],[-0.007347,51.483812],[-0.008289,51.483586],[-0.008308,51.483586],[-0.008323,51.483598],[-0.008361,51.483652],[-0.008486,51.483839],[-0.008501,51.483853],[-0.008519,51.483863],[-0.008534,51.483866],[-0.008585,51.483861],[-0.008659,51.48385],[-0.009003,51.483789],[-0.009121,51.483765],[-0.00923,51.48374],[-0.009361,51.483716],[-0.00944,51.483699],[-0.00974,51.48364],[-0.010048,51.483593],[-0.010011,51.483427],[-0.010388,51.483396],[-0.010438,51.483399],[-0.010962,51.48333],[-0.011043,51.483317],[-0.010934,51.483065],[-0.010934,51.483062],[-0.010835,51.483002],[-0.010732,51.48296],[-0.010656,51.48294],[-0.010449,51.482881],[-0.010444,51.48278],[-0.010359,51.48278],[-0.010117,51.482442],[-0.010169,51.4823],[-0.010171,51.48229],[-0.010131,51.482197],[-0.010154,51.482065],[-0.010157,51.481996],[-0.010369,51.482003],[-0.01037,51.481981],[-0.010389,51.481933],[-0.010407,51.481828],[-0.010417,51.481829],[-0.01042,51.481815],[-0.010438,51.481817],[-0.010447,51.481789],[-0.010483,51.481792],[-0.010499,51.481737],[-0.010472,51.481734],[-0.010479,51.481708],[-0.010474,51.481707],[-0.010481,51.481682],[-0.010478,51.481672],[-0.010484,51.481618],[-0.010439,51.481614],[-0.010439,51.481603],[-0.010427,51.481603],[-0.010431,51.481575],[-0.010426,51.481501],[-0.010322,51.481502],[-0.01031,51.48136],[-0.010306,51.48134],[-0.010278,51.481338],[-0.010291,51.481313],[-0.010276,51.481308],[-0.010282,51.481298],[-0.010236,51.481275],[-0.010211,51.48122],[-0.010205,51.481199],[-0.010216,51.481196],[-0.010194,51.481164],[-0.010209,51.481153],[-0.010183,51.481123],[-0.010202,51.481119],[-0.010184,51.481097],[-0.010235,51.481082],[-0.010206,51.481044],[-0.010324,51.481012],[-0.010301,51.480978],[-0.010258,51.480905],[-0.010316,51.480888],[-0.010289,51.480851],[-0.01039,51.480818],[-0.01042,51.48081],[-0.010425,51.480817],[-0.010753,51.480742],[-0.010754,51.480739],[-0.010715,51.480603],[-0.010687,51.480554],[-0.010669,51.480512],[-0.010911,51.480207],[-0.010906,51.480068],[-0.010714,51.480079],[-0.010225,51.480087],[-0.009866,51.480076],[-0.009688,51.479989],[-0.009336,51.479968],[-0.009327,51.47997],[-0.009294,51.47996],[-0.009247,51.479942],[-0.008945,51.479778],[-0.008862,51.479749],[-0.008851,51.47975],[-0.008839,51.479747],[-0.00872,51.479682],[-0.00852,51.479562],[-0.008476,51.47954],[-0.008383,51.479497],[-0.008161,51.479372],[-0.008104,51.479333],[-0.00807,51.479306],[-0.008293,51.479192],[-0.008282,51.479183],[-0.008268,51.479177],[-0.008253,51.479165],[-0.008355,51.479115],[-0.008325,51.479091],[-0.008611,51.478946],[-0.008538,51.478898],[-0.0086,51.478866],[-0.008454,51.478772],[-0.008701,51.478616],[-0.008394,51.478418],[-0.008162,51.47855],[-0.007685,51.478223],[-0.007461,51.478066],[-0.007429,51.478057],[-0.007451,51.478041],[-0.007298,51.477955],[-0.00718,51.477896],[-0.007148,51.477859],[-0.007003,51.477958],[-0.006924,51.477911],[-0.006877,51.477879],[-0.006859,51.477876],[-0.006822,51.477848],[-0.006815,51.477836],[-0.00685,51.477816],[-0.006595,51.477621],[-0.006406,51.477712],[-0.006255,51.477598],[-0.006341,51.477556],[-0.006298,51.477502],[-0.006272,51.477483],[-0.006294,51.477469],[-0.006452,51.477393],[-0.006708,51.477266],[-0.006722,51.477275],[-0.006788,51.477243],[-0.006519,51.477063],[-0.006742,51.476938],[-0.006617,51.476858],[-0.006586,51.476876],[-0.006349,51.476711],[-0.006329,51.476719],[-0.006251,51.476664],[-0.00621,51.476648],[-0.006215,51.476639],[-0.006215,51.476637],[-0.006211,51.476633],[-0.006202,51.476628],[-0.006194,51.476626],[-0.006179,51.476627],[-0.006075,51.476549],[-0.006053,51.476458],[-0.006561,51.476183],[-0.006375,51.476078],[-0.006373,51.476069],[-0.006408,51.476043],[-0.006327,51.475968],[-0.006307,51.475953],[-0.006157,51.475863],[-0.006113,51.475861],[-0.006028,51.475814],[-0.006003,51.475831],[-0.005732,51.475681],[-0.005698,51.475705],[-0.005675,51.475693],[-0.005657,51.475707],[-0.005589,51.47567],[-0.00557,51.475673],[-0.005502,51.475635],[-0.005471,51.475569],[-0.005496,51.475362],[-0.005138,51.475483],[-0.005009,51.475514],[-0.004791,51.47551],[-0.004636,51.47546],[-0.004493,51.475458],[-0.00435,51.47547],[-0.004004,51.47514],[-0.003853,51.474814],[-0.003631,51.474376],[-0.002198,51.471924],[-0.001444,51.47183],[-0.001343,51.47182],[-0.001067,51.471806],[-0.000876,51.471804],[-0.000649,51.471815],[-0.000396,51.47183],[-0.000031,51.471841],[0.000183,51.471861],[0.000246,51.472048],[0.003412,51.472988],[0.005026,51.473477],[0.006656,51.473993],[0.008456,51.474582],[0.009567,51.474929],[0.009873,51.475046],[0.009907,51.475129],[0.009882,51.475261],[0.009812,51.475356],[0.009018,51.476096],[0.008612,51.47645],[0.005459,51.479353],[0.005248,51.479565],[0.005092,51.479678],[0.004947,51.479805],[0.004912,51.479866],[0.004906,51.480041],[0.00491,51.48011],[0.004957,51.480122],[0.004914,51.480201],[0.004922,51.480209],[0.004985,51.480225],[0.005095,51.480231],[0.005092,51.480267],[0.005077,51.48033],[0.005056,51.480449],[0.005042,51.480515],[0.005043,51.480553],[0.005187,51.480563],[0.005159,51.480714],[0.005,51.480702],[0.004918,51.48069],[0.004574,51.480656],[0.004562,51.480651],[0.004354,51.480473],[0.004358,51.480471],[0.004109,51.480316],[0.004032,51.480274],[0.003754,51.480436],[0.003608,51.480533],[0.002795,51.481361],[0.002472,51.481686],[0.001918,51.482202],[0.001784,51.482325],[0.001721,51.48238],[0.001707,51.482398],[0.001674,51.482527],[0.00166,51.482596],[0.001642,51.482641],[0.001622,51.482706],[0.001449,51.482696],[0.000495,51.482621],[0.000494,51.482619],[0.000497,51.482607],[0.000516,51.482579],[0.000548,51.482526],[0.000102,51.482409],[-0.000051,51.482367],[-0.00006,51.482361],[-0.00012,51.482458],[-0.000123,51.482458],[-0.000555,51.482361],[-0.000866,51.482289],[-0.000864,51.482277],[-0.000828,51.482216],[-0.001033,51.482169],[-0.001056,51.482206],[-0.001121,51.48219],[-0.001124,51.482187],[-0.0011,51.482146],[-0.001236,51.482112],[-0.001225,51.482086],[-0.001585,51.482003],[-0.001729,51.482006],[-0.001969,51.481947],[-0.002058,51.482138],[-0.002075,51.482171],[-0.002119,51.482245],[-0.00212,51.482249],[-0.002103,51.482254],[-0.002108,51.482257],[-0.002208,51.482406],[-0.00265,51.482371],[-0.00273,51.482352],[-0.003103,51.48286],[-0.00334,51.483147],[-0.003636,51.483526],[-0.003534,51.483556],[-0.003349,51.483602],[-0.00325,51.483629],[-0.003149,51.483653],[-0.002962,51.483718],[-0.002867,51.483753],[-0.002853,51.48376],[-0.002845,51.483767],[-0.002841,51.483777],[-0.002842,51.483794],[-0.002861,51.483833],[-0.002872,51.48385],[-0.002953,51.484014],[-0.002989,51.484076],[-0.003032,51.484125],[-0.00313,51.484219],[-0.003165,51.484255],[-0.003192,51.484293],[-0.003413,51.484559],[-0.003465,51.484542],[-0.003445,51.484511],[-0.003593,51.484452],[-0.003761,51.484647],[-0.004034,51.484544],[-0.004054,51.484562],[-0.004156,51.484677]]]]},"properties":{"entry-date":"2008-01-01","start-date":"1997-01-01","entity":16100007,"name":"Maritime Greenwich","dataset":"world-heritage-site","typology":"geography","reference":"1000096","prefix":"world-heritage-site","organisation-entity":16,"quality":"authoritative","notes":"Core Area","documentation-url":"https://historicengland.org.uk/listing/the-list/list-entry/1000096","in_zone":true,"whole_in_zone":false,"in_cw":false}}
]}
