{"type":"FeatureCollection","meta":{
 "source": "London Datastore: London Plan Opportunity Areas (Greater London Authority)",
 "dataset": "2jxjl",
 "page": "https://data.london.gov.uk/dataset/london-plan-opportunity-areas-2jxjl",
 "resources": [
  {
   "resource": "ee968643-f5c4-49ff-84d4-ddb68fd46fa5",
   "file": "Opportunity_Areas.gpkg",
   "url": "https://data.london.gov.uk/download/2jxjl/ee968643-f5c4-49ff-84d4-ddb68fd46fa5/Opportunity_Areas.gpkg",
   "size": 315392,
   "resource_date": "2019-09-19",
   "fetched": "2026-10-04"
  }
 ],
 "licence": "Open Government Licence v2",
 "licence_url": "https://www.nationalarchives.gov.uk/doc/open-government-licence/version/2/",
 "attribution": "Contains public sector information licensed under the Open Government Licence v2 (Greater London Authority). The GLA cannot warrant the quality or accuracy of the data (London Datastore terms).",
 "dataset_modified": "2022-07-12",
 "update_frequency": null,
 "geo": "Custom Polygons",
 "theme": "buildings-places",
 "layers": [
  {
   "table": "Opportunity_Areas",
   "srs": 27700
  }
 ],
 "crs_source": "EPSG:27700",
 "crs_output": "EPSG:4326 (WGS84), 6 decimal places; BNG to WGS84 through the OS OSTN15 grid (lib.mjs bngProjector)",
 "method": "lds-harvest-auto.mjs run 2jxjl: resources chosen by the written rules (harvest-log.json meta.rules: formats, dedupe, caps); every feature read (GeoPackage, GeoJSON, shapefile, or table rows with coordinate columns as points, the CRS judged per row by value); a feature is kept when it meets the zone (the 3D model box, BNG E 532400-539900, N 176700-182300): a vertex inside, an edge crossing or the box inside a polygon; whole geometries kept, whole_in_zone and in_cw added; WGS84 6 decimals through OSTN15; contact fields dropped.",
 "counts": {
  "source_features": 28,
  "no_geometry": 0,
  "in_zone": 6,
  "in_cw": 0,
  "with_uprn": 0,
  "uprn_suspect": 0
 },
 "attributes_in_source": "yes",
 "fields_dropped": [],
 "harvest_rules": "tools/lds-harvest-auto.mjs AUTO_RULES (feeds/london-datastore/harvest-log.json meta.rules)",
 "selection_notes": [
  "Opportunity_Areas.gpkg: 1 polygons with over 1000 vertices cut to the zone box plus 500 m (clipped_to_zone)"
 ]
},
"features":[
{"type":"Feature","properties":{"fid":1,"address":null,"borough":"Southwark","boroughdesignation":null,"classification":null,"designation":"Opportunity Area","easting":532405,"extrainfo1":"https://geo.southwark.gov.uk/connect/analyst/mobile/#/main?mapcfg=Southwark%20Adopted%20Planning%20Policies%20Map","extrainfo2":"https://www.london.gov.uk/what-we-do/planning/implementing-london-plan/opportunity-areas/opportunity-areas/london-bridge","extrainfo3":"Adopted date:2015","firstaddeddate":null,"hectares":156,"lastupdateddate":null,"layerreference":"OPA00000001","northing":180060,"notes":"Please note the GLA does not define boundaries. This OA has been adopted and its boundary finalised by the OAPF team. For further information please contact the Planning Data Team or the relevant Plan","objectid":1,"planning_authority":null,"removeddate":null,"sitename":"Bankside, Borough and London Bridge","sitereference":"21","source":"Neighbourhood Plan","status":"Adopted","uprn":null,"runtime":"09/18/2019","in_cw":false,"whole_in_zone":false},"geometry":{"type":"MultiPolygon","coordinates":[[[[-0.109154,51.509826],[-0.108897,51.508417],[-0.108775,51.507706],[-0.108481,51.507759],[-0.108381,51.507425],[-0.108266,51.507116],[-0.108151,51.50691],[-0.107339,51.507065],[-0.107339,51.507065],[-0.107141,51.506607],[-0.106934,51.506131],[-0.106568,51.505291],[-0.10641,51.50483],[-0.106442,51.504496],[-0.106542,51.504255],[-0.106494,51.503641],[-0.106371,51.503372],[-0.107385,51.503029],[-0.106727,51.502223],[-0.106112,51.502523],[-0.106026,51.502274],[-0.106091,51.502134],[-0.105962,51.502011],[-0.106503,51.501585],[-0.106679,51.501666],[-0.106801,51.501579],[-0.107141,51.501319],[-0.107418,51.501107],[-0.107822,51.500799],[-0.108164,51.500535],[-0.108504,51.500064],[-0.1088,51.499586],[-0.109096,51.499107],[-0.109446,51.498498],[-0.109722,51.497925],[-0.110271,51.496876],[-0.109809,51.496902],[-0.109095,51.497093],[-0.107948,51.497401],[-0.107094,51.49763],[-0.105745,51.49811],[-0.10679,51.498758],[-0.106919,51.498871],[-0.106703,51.498953],[-0.10655,51.498856],[-0.105991,51.499108],[-0.105253,51.499519],[-0.104975,51.499741],[-0.104962,51.499329],[-0.104647,51.49939],[-0.10449,51.499426],[-0.103728,51.499616],[-0.103615,51.499492],[-0.103579,51.499453],[-0.10313,51.499644],[-0.102679,51.499306],[-0.103062,51.499162],[-0.102884,51.498994],[-0.102757,51.498915],[-0.101609,51.498996],[-0.099942,51.499114],[-0.09801,51.499251],[-0.097168,51.49931],[-0.09655,51.499391],[-0.096255,51.499374],[-0.095917,51.499367],[-0.095779,51.499435],[-0.095435,51.499604],[-0.094636,51.500135],[-0.094272,51.500319],[-0.093588,51.500701],[-0.093054,51.501033],[-0.092227,51.501122],[-0.091791,51.501213],[-0.091047,51.501152],[-0.090342,51.501091],[-0.08968,51.500958],[-0.08937,51.50083],[-0.088903,51.500725],[-0.088517,51.500571],[-0.088207,51.500443],[-0.08782,51.500314],[-0.087436,51.500087],[-0.086977,51.499786],[-0.086245,51.49943],[-0.08586,51.499252],[-0.084857,51.498794],[-0.084006,51.498461],[-0.083269,51.498229],[-0.082763,51.498122],[-0.082332,51.498091],[-0.081979,51.49806],[-0.081393,51.497977],[-0.080653,51.497818],[-0.079755,51.49768],[-0.079494,51.498289],[-0.07902,51.499263],[-0.078118,51.501088],[-0.077065,51.503199],[-0.075532,51.505546],[-0.076313,51.505774],[-0.077219,51.506039],[-0.078481,51.506392],[-0.079796,51.506751],[-0.08027,51.506898],[-0.080751,51.507],[-0.081035,51.507051],[-0.081896,51.507194],[-0.082644,51.507304],[-0.083441,51.507426],[-0.084182,51.507531],[-0.084866,51.507647],[-0.085162,51.507691],[-0.086076,51.507755],[-0.086742,51.507815],[-0.087634,51.507877],[-0.088598,51.507987],[-0.089478,51.508085],[-0.089909,51.508124],[-0.090485,51.508185],[-0.09151,51.508313],[-0.092336,51.508447],[-0.093146,51.508657],[-0.093989,51.508896],[-0.094924,51.509108],[-0.095705,51.509286],[-0.095991,51.509333],[-0.096825,51.509448],[-0.097708,51.509535],[-0.09852,51.509606],[-0.099291,51.509674],[-0.100186,51.509727],[-0.101563,51.509808],[-0.102634,51.509814],[-0.103589,51.509853],[-0.104155,51.509854],[-0.104615,51.509875],[-0.105154,51.509876],[-0.105563,51.509888],[-0.106487,51.509908],[-0.107335,51.509905],[-0.10847,51.509887],[-0.109154,51.509826]]]]}},
{"type":"Feature","properties":{"fid":2,"address":null,"borough":"Southwark","boroughdesignation":null,"classification":null,"designation":"Opportunity Area","easting":532078,"extrainfo1":"https://www.southwark.gov.uk/planning-and-building-control/planning-policy-and-transport-policy/supplementary-planning-documents-spd/spd-by-area","extrainfo2":"https://www.london.gov.uk/what-we-do/planning/implementing-london-plan/opportunity-areas/opportunity-areas/elephant-castle","extrainfo3":"Adopted date:2015","firstaddeddate":null,"hectares":88,"lastupdateddate":null,"layerreference":"OPA00000002","northing":178870,"notes":"Please note the GLA does not define boundaries. This OA has been adopted and its boundary finalised by the OAPF team. For further information please contact the Planning Data Team or the relevant Plan","objectid":2,"planning_authority":null,"removeddate":null,"sitename":"Elephant and Castle","sitereference":"11","source":"SPD / OAPF","status":"Adopted","uprn":null,"runtime":"09/18/2019","in_cw":false,"whole_in_zone":false},"geometry":{"type":"MultiPolygon","coordinates":[[[[-0.09553,51.482563],[-0.095517,51.48223],[-0.094455,51.482174],[-0.09446,51.482384],[-0.094488,51.482888],[-0.094462,51.483005],[-0.094189,51.483018],[-0.093845,51.483038],[-0.09347,51.483793],[-0.093258,51.484213],[-0.093105,51.484494],[-0.093259,51.484938],[-0.093361,51.485249],[-0.093197,51.485322],[-0.095017,51.487846],[-0.093998,51.48811],[-0.093075,51.488457],[-0.091644,51.488957],[-0.090951,51.489112],[-0.090143,51.489289],[-0.089529,51.489398],[-0.088948,51.489534],[-0.087661,51.489513],[-0.086859,51.489487],[-0.088129,51.49097],[-0.089448,51.491324],[-0.090167,51.491455],[-0.09064,51.491541],[-0.091459,51.492475],[-0.091701,51.492999],[-0.091741,51.493312],[-0.091818,51.493909],[-0.091846,51.494147],[-0.092913,51.494164],[-0.092803,51.494972],[-0.092743,51.495494],[-0.092728,51.495851],[-0.092988,51.496021],[-0.093649,51.496603],[-0.093906,51.496845],[-0.094346,51.497257],[-0.094569,51.497403],[-0.094793,51.497526],[-0.095638,51.498277],[-0.096082,51.498594],[-0.096305,51.49874],[-0.096566,51.498887],[-0.096865,51.499011],[-0.097168,51.49931],[-0.09801,51.499251],[-0.099162,51.499169],[-0.099942,51.499114],[-0.10055,51.499071],[-0.102034,51.498966],[-0.102757,51.498915],[-0.102884,51.498994],[-0.103062,51.499162],[-0.102679,51.499306],[-0.10313,51.499644],[-0.103615,51.499492],[-0.103728,51.499616],[-0.10449,51.499426],[-0.104647,51.49939],[-0.104962,51.499329],[-0.104975,51.499741],[-0.105576,51.499339],[-0.105991,51.499108],[-0.10655,51.498856],[-0.106703,51.498953],[-0.106919,51.498871],[-0.106315,51.498464],[-0.105745,51.49811],[-0.107094,51.49763],[-0.108535,51.497243],[-0.109428,51.497004],[-0.109809,51.496902],[-0.110271,51.496876],[-0.11027,51.496778],[-0.111418,51.496448],[-0.110948,51.495577],[-0.110061,51.495214],[-0.108478,51.494639],[-0.107134,51.494163],[-0.105717,51.493696],[-0.105313,51.493614],[-0.104872,51.493528],[-0.104674,51.493071],[-0.10408,51.492249],[-0.103918,51.491952],[-0.103687,51.491998],[-0.103381,51.491781],[-0.103503,51.491693],[-0.103132,51.491474],[-0.103371,51.491321],[-0.103135,51.49118],[-0.103779,51.490461],[-0.102806,51.489994],[-0.101764,51.489383],[-0.100905,51.488964],[-0.099528,51.488221],[-0.099393,51.488249],[-0.099179,51.488294],[-0.098899,51.48839],[-0.098683,51.488203],[-0.098486,51.488047],[-0.098502,51.488008],[-0.098152,51.487657],[-0.097097,51.487967],[-0.09686,51.487624],[-0.096304,51.487795],[-0.096035,51.487242],[-0.095765,51.486849],[-0.095467,51.48642],[-0.095237,51.486063],[-0.094694,51.485499],[-0.094434,51.484844],[-0.094273,51.484347],[-0.094342,51.4842],[-0.09444,51.484053],[-0.094608,51.483711],[-0.094541,51.483622],[-0.094737,51.483635],[-0.095232,51.483673],[-0.095617,51.483679],[-0.095609,51.483526],[-0.095593,51.483233],[-0.09553,51.482563]]]]}},
{"type":"Feature","properties":{"fid":11,"address":null,"borough":"Southwark","boroughdesignation":null,"classification":null,"designation":"Opportunity Area","easting":535617,"extrainfo1":"https://www.southwark.gov.uk/planning-and-building-control/planning-policy-and-transport-policy/development-plan/area-action-plans?chapter=3","extrainfo2":"https://www.london.gov.uk/what-we-do/planning/implementing-london-plan/opportunity-areas/opportunity-areas/canada-water","extrainfo3":"Adopted date:2015","firstaddeddate":null,"hectares":46,"lastupdateddate":null,"layerreference":"OPA00000010","northing":179326,"notes":"Please note the GLA does not define boundaries. This OA has been adopted and its boundary finalised by the OAPF team. For further information please contact the Planning Data Team or the relevant Plan","objectid":11,"planning_authority":null,"removeddate":null,"sitename":"Canada Water","sitereference":"3","source":"AAP","status":"Adopted","uprn":null,"runtime":"09/18/2019","in_cw":false,"whole_in_zone":true},"geometry":{"type":"MultiPolygon","coordinates":[[[[-0.050821,51.501342],[-0.05473,51.499106],[-0.054918,51.498871],[-0.055052,51.498714],[-0.055085,51.49854],[-0.054872,51.498171],[-0.054011,51.497491],[-0.053196,51.496922],[-0.052804,51.496566],[-0.052833,51.496503],[-0.053376,51.496274],[-0.052984,51.495934],[-0.052671,51.495516],[-0.051718,51.495802],[-0.051494,51.495687],[-0.050831,51.495136],[-0.050316,51.494699],[-0.049568,51.494354],[-0.048644,51.493957],[-0.048227,51.493601],[-0.048437,51.493462],[-0.049594,51.492561],[-0.050647,51.491705],[-0.051277,51.491255],[-0.05128,51.491176],[-0.051079,51.491109],[-0.05065,51.491054],[-0.050039,51.49106],[-0.048531,51.491241],[-0.046687,51.49156],[-0.045538,51.491684],[-0.045385,51.491697],[-0.04526,51.491647],[-0.04509,51.491556],[-0.044781,51.491544],[-0.044274,51.491174],[-0.043975,51.491372],[-0.04427,51.491599],[-0.043857,51.491751],[-0.044115,51.492263],[-0.044628,51.492145],[-0.044779,51.492179],[-0.045026,51.492357],[-0.04545,51.492555],[-0.046615,51.493241],[-0.046562,51.493288],[-0.046357,51.493332],[-0.046177,51.493392],[-0.046021,51.493453],[-0.045814,51.493545],[-0.045475,51.493746],[-0.045212,51.493948],[-0.045024,51.494183],[-0.044918,51.494276],[-0.044811,51.494417],[-0.044703,51.494558],[-0.044437,51.494824],[-0.044251,51.495011],[-0.043808,51.495258],[-0.043649,51.495429],[-0.043259,51.495629],[-0.04279,51.495891],[-0.042456,51.495965],[-0.042123,51.496023],[-0.041813,51.496129],[-0.041453,51.496218],[-0.041095,51.496276],[-0.040916,51.496304],[-0.040609,51.496347],[-0.040238,51.496439],[-0.04029,51.497849],[-0.040131,51.498005],[-0.040184,51.498546],[-0.040233,51.498594],[-0.040653,51.498713],[-0.040605,51.498807],[-0.041408,51.499138],[-0.040979,51.499551],[-0.041772,51.499883],[-0.042761,51.498922],[-0.043264,51.499058],[-0.044613,51.49962],[-0.044878,51.499386],[-0.045195,51.49909],[-0.045357,51.49887],[-0.045444,51.498618],[-0.045657,51.498399],[-0.045996,51.498198],[-0.046193,51.49836],[-0.046442,51.498476],[-0.046741,51.498624],[-0.047144,51.498725],[-0.047596,51.498844],[-0.0479,51.498881],[-0.048356,51.49892],[-0.048442,51.499287],[-0.048362,51.499381],[-0.048176,51.499568],[-0.047699,51.499945],[-0.048257,51.500216],[-0.048952,51.500113],[-0.049105,51.500109],[-0.049244,51.500157],[-0.049518,51.500289],[-0.050821,51.501342]]]]}},
{"type":"Feature","properties":{"fid":13,"address":null,"borough":"Greenwich","boroughdesignation":null,"classification":null,"designation":"Opportunity Area","easting":539458,"extrainfo1":"https://www.royalgreenwich.gov.uk/downloads/file/3702/core_strategy_borough_policies_map","extrainfo2":"https://www.london.gov.uk/what-we-do/planning/implementing-london-plan/opportunity-areas/opportunity-areas/greenwich-peninsula","extrainfo3":"Adopted date:20140701","firstaddeddate":null,"hectares":261,"lastupdateddate":null,"layerreference":"OPA00000014","northing":179328,"notes":"Please note the GLA does not define boundaries. This OA has been adopted and its boundary finalised by the OAPF team. For further information please contact the Planning Data Team or the relevant Plan","objectid":13,"planning_authority":null,"removeddate":null,"sitename":"Greenwich Peninsula","sitereference":"13","source":"SPD","status":"Adopted","uprn":null,"runtime":"09/18/2019","in_cw":false,"whole_in_zone":false},"geometry":{"type":"MultiPolygon","coordinates":[[[[0.004903,51.504483],[0.0041,51.504784],[0.003693,51.504823],[0.002982,51.504898],[0.00247,51.504859],[0.001982,51.504788],[0.001951,51.504677],[0.001795,51.504616],[0.001356,51.504496],[0.000606,51.50427],[0.000404,51.504305],[0.000093,51.504199],[-0.000745,51.50372],[-0.001568,51.502985],[-0.002011,51.502181],[-0.001707,51.502143],[-0.001551,51.502205],[-0.001375,51.502154],[-0.001513,51.501901],[-0.001819,51.501907],[-0.001852,51.501732],[-0.001702,51.501666],[-0.001694,51.501179],[-0.00218,51.501244],[-0.002111,51.499902],[-0.001848,51.498929],[-0.001493,51.498875],[-0.001331,51.49849],[-0.001316,51.498317],[-0.001585,51.498298],[-0.001504,51.498196],[-0.00128,51.497916],[-0.000968,51.497528],[-0.001479,51.497408],[-0.000819,51.496094],[-0.000236,51.495253],[0.000017,51.495263],[0.000943,51.495462],[0.001052,51.495331],[0.001205,51.495157],[0.00128,51.494769],[0.000974,51.494602],[0.000946,51.494488],[0.001391,51.494165],[0.001527,51.494134],[0.001659,51.494003],[0.001521,51.493977],[0.001693,51.493716],[0.001554,51.49369],[0.002049,51.492937],[0.002371,51.492974],[0.002376,51.492819],[0.002381,51.492659],[0.002545,51.492212],[0.002761,51.491922],[0.002661,51.491737],[0.002423,51.491541],[0.002437,51.490548],[0.002634,51.490434],[0.002566,51.490041],[0.002489,51.490011],[0.002448,51.489649],[0.002471,51.489585],[0.002395,51.489587],[0.002323,51.489099],[0.002146,51.489087],[0.001946,51.488554],[0.001969,51.488506],[0.001617,51.488544],[0.001294,51.488092],[0.001467,51.488011],[0.001338,51.487934],[0.001156,51.487827],[0.000706,51.487346],[0.000226,51.486919],[0.002145,51.486754],[0.003065,51.487589],[0.004358,51.487479],[0.004428,51.488376],[0.004569,51.488813],[0.004594,51.489061],[0.004147,51.4891],[0.004283,51.48946],[0.004461,51.489473],[0.004456,51.489378],[0.00475,51.489363],[0.004761,51.489484],[0.005218,51.489475],[0.006956,51.489383],[0.006952,51.489288],[0.008591,51.489229],[0.008599,51.490001],[0.00866,51.491371],[0.008801,51.492177],[0.009015,51.492012],[0.009585,51.491613],[0.011089,51.490478],[0.01159,51.490124],[0.012266,51.489559],[0.013095,51.489107],[0.013603,51.488891],[0.013964,51.488724],[0.014363,51.488555],[0.014945,51.488361],[0.015815,51.488],[0.016178,51.487856],[0.016467,51.487713],[0.016899,51.487475],[0.017439,51.487166],[0.01757,51.487625],[0.017532,51.488009],[0.017601,51.488908],[0.017887,51.490061],[0.018017,51.490334],[0.018662,51.490268],[0.019123,51.492042],[0.019501,51.493947],[0.01883,51.494069],[0.019041,51.494624],[0.019202,51.494757],[0.017989,51.495149],[0.01791,51.495087],[0.017257,51.495321],[0.015227,51.496152],[0.014428,51.496548],[0.014336,51.496773],[0.013834,51.496956],[0.013699,51.497357],[0.013276,51.497603],[0.01295,51.497736],[0.012436,51.498239],[0.011942,51.498597],[0.011246,51.499023],[0.010632,51.499575],[0.009596,51.500374],[0.007905,51.501947],[0.007938,51.502122],[0.00761,51.502207],[0.006112,51.503539],[0.004903,51.504483]]]]}},
{"type":"Feature","properties":{"fid":14,"address":null,"borough":null,"boroughdesignation":null,"classification":null,"designation":"Opportunity Area","easting":534020,"extrainfo1":null,"extrainfo2":"https://www.london.gov.uk/what-we-do/planning/implementing-london-plan/opportunity-areas/opportunity-areas/city-fringe","extrainfo3":"Adopted date:20151201","firstaddeddate":null,"hectares":901,"lastupdateddate":null,"layerreference":"OPA00000015","northing":182843,"notes":"Please note the GLA does not define boundaries. This OA has been adopted and its boundary finalised by the OAPF team. For further information please contact the Planning Data Team or the relevant Plan","objectid":14,"planning_authority":null,"removeddate":null,"sitename":"City Fringe/ Tech City","sitereference":"5","source":"OAPF","status":"Adopted","uprn":null,"runtime":"09/18/2019","clipped_to_zone":true,"in_cw":false,"whole_in_zone":false},"geometry":{"type":"Polygon","coordinates":[[[-0.092903,51.528601],[-0.091715,51.528294],[-0.089024,51.527548],[-0.088755,51.527444],[-0.088527,51.527317],[-0.088261,51.527021],[-0.088967,51.526899],[-0.088928,51.526806],[-0.088755,51.526085],[-0.089604,51.526035],[-0.089485,51.525653],[-0.088804,51.525727],[-0.088645,51.525343],[-0.088272,51.52388],[-0.08763,51.523879],[-0.087377,51.523422],[-0.087282,51.522794],[-0.08788,51.522733],[-0.0876,51.522137],[-0.087749,51.52102],[-0.089955,51.521234],[-0.090888,51.521329],[-0.090859,51.521543],[-0.090855,51.521605],[-0.090825,51.521979],[-0.090803,51.522154],[-0.090912,51.522222],[-0.09099,51.52239],[-0.091138,51.522365],[-0.091493,51.522293],[-0.09147,51.522216],[-0.09147,51.522192],[-0.091444,51.522187],[-0.09143,51.522179],[-0.091354,51.521868],[-0.091499,51.521852],[-0.091473,51.521739],[-0.092487,51.521646],[-0.092439,51.521471],[-0.092345,51.52115],[-0.092388,51.521153],[-0.092349,51.521029],[-0.092302,51.520996],[-0.091235,51.520887],[-0.090546,51.520818],[-0.089669,51.520688],[-0.089927,51.519963],[-0.088104,51.519412],[-0.08677,51.518902],[-0.086162,51.518737],[-0.086148,51.518801],[-0.085729,51.519445],[-0.085299,51.520127],[-0.085192,51.520335],[-0.0833,51.519815],[-0.082708,51.520069],[-0.0823,51.520315],[-0.081992,51.520557],[-0.081769,51.520734],[-0.081737,51.520758],[-0.081524,51.521023],[-0.081259,51.521433],[-0.081025,51.521954],[-0.080733,51.52189],[-0.079744,51.521672],[-0.078446,51.521511],[-0.078705,51.52104],[-0.078785,51.52074],[-0.078818,51.520657],[-0.078815,51.520653],[-0.078964,51.520115],[-0.079148,51.519452],[-0.079404,51.518846],[-0.078309,51.518946],[-0.078057,51.518969],[-0.078023,51.518486],[-0.078121,51.51847],[-0.07794,51.518251],[-0.077778,51.518109],[-0.077709,51.518038],[-0.077661,51.517975],[-0.077618,51.517866],[-0.077377,51.517447],[-0.077345,51.517397],[-0.076893,51.516708],[-0.076832,51.516637],[-0.076794,51.516593],[-0.076408,51.516258],[-0.07512,51.515355],[-0.074788,51.5151],[-0.074416,51.514791],[-0.074281,51.514688],[-0.073944,51.514454],[-0.073639,51.514132],[-0.073462,51.513677],[-0.073366,51.513377],[-0.073364,51.513372],[-0.073242,51.512945],[-0.073117,51.512341],[-0.073038,51.511809],[-0.073018,51.511683],[-0.072958,51.511443],[-0.072891,51.511254],[-0.072802,51.511085],[-0.072746,51.510873],[-0.072738,51.510805],[-0.072724,51.510641],[-0.072704,51.510402],[-0.072714,51.510299],[-0.07271,51.510292],[-0.072706,51.510284],[-0.072702,51.510276],[-0.072699,51.510268],[-0.072697,51.51026],[-0.072696,51.510252],[-0.072694,51.510244],[-0.072693,51.510236],[-0.072694,51.510227],[-0.072694,51.510219],[-0.072696,51.510211],[-0.072698,51.510203],[-0.072699,51.510195],[-0.072702,51.510189],[-0.072706,51.510181],[-0.07271,51.510174],[-0.072715,51.510167],[-0.072721,51.51016],[-0.072727,51.510153],[-0.072733,51.510146],[-0.072741,51.51014],[-0.07275,51.510133],[-0.072758,51.510127],[-0.072767,51.510122],[-0.072776,51.510116],[-0.072786,51.510111],[-0.072797,51.510105],[-0.072807,51.5101],[-0.072817,51.510095],[-0.072828,51.51009],[-0.072839,51.510085],[-0.07285,51.51008],[-0.072861,51.510076],[-0.072873,51.510072],[-0.072883,51.510067],[-0.072898,51.510062],[-0.072917,51.510055],[-0.072935,51.510048],[-0.072955,51.510043],[-0.072974,51.510037],[-0.072994,51.510033],[-0.073015,51.510028],[-0.073035,51.510024],[-0.073052,51.510021],[-0.073772,51.509325],[-0.074099,51.507498],[-0.074708,51.506432],[-0.072243,51.505721],[-0.07224,51.505724],[-0.068777,51.504479],[-0.068389,51.504374],[-0.0683,51.504478],[-0.067909,51.504946],[-0.067917,51.504957],[-0.067781,51.505057],[-0.068069,51.505172],[-0.068074,51.505179],[-0.067895,51.505733],[-0.067533,51.506012],[-0.067382,51.506155],[-0.067208,51.506364],[-0.066882,51.506504],[-0.066664,51.506616],[-0.066555,51.506886],[-0.066565,51.507487],[-0.058486,51.507675],[-0.058576,51.508833],[-0.05871,51.50952],[-0.058792,51.509671],[-0.05764,51.50977],[-0.056883,51.509781],[-0.056617,51.5098],[-0.055109,51.509681],[-0.053607,51.509719],[-0.05358,51.510938],[-0.053563,51.511324],[-0.053563,51.511631],[-0.05352,51.511748],[-0.053546,51.512024],[-0.053508,51.512314],[-0.053247,51.514018],[-0.053192,51.514138],[-0.05286,51.517067],[-0.052906,51.517222],[-0.052851,51.518217],[-0.052857,51.518585],[-0.052857,51.518784],[-0.052839,51.51939],[-0.05277,51.519391],[-0.052718,51.519458],[-0.052727,51.519571],[-0.052718,51.519652],[-0.052706,51.519774],[-0.052523,51.519764],[-0.052548,51.519809],[-0.052837,51.520328],[-0.052055,51.520494],[-0.052187,51.520883],[-0.052371,51.521407],[-0.052544,51.521583],[-0.052956,51.521859],[-0.054099,51.522611],[-0.054149,51.522645],[-0.054164,51.522697],[-0.053875,51.522709],[-0.053887,51.522864],[-0.053924,51.523192],[-0.053927,51.523384],[-0.05394,51.523732],[-0.053942,51.524195],[-0.053925,51.524396],[-0.054101,51.524368],[-0.054128,51.524418],[-0.054754,51.524313],[-0.055015,51.524263],[-0.054977,51.524271],[-0.054969,51.52448],[-0.054955,51.524586],[-0.054958,51.524735],[-0.055011,51.524961],[-0.055021,51.525008],[-0.055072,51.525164],[-0.055167,51.52541],[-0.055221,51.525534],[-0.055317,51.525888],[-0.055332,51.525955],[-0.055359,51.526064],[-0.055471,51.526455],[-0.055584,51.526854],[-0.055594,51.526915],[-0.055612,51.527088],[-0.055654,51.527336],[-0.055607,51.527631],[-0.055594,51.527769],[-0.055591,51.527988],[-0.092903,51.528601]]]}},
{"type":"Feature","properties":{"fid":16,"address":null,"borough":null,"boroughdesignation":null,"classification":null,"designation":"Supplementary Planning Guidance","easting":537516,"extrainfo1":"https://www.towerhamlets.gov.uk/Documents/Planning-and-building-control/Strategic-Planning/Local-Plan/OLSPG-July-2012-Low-Resolution-Part-1.pdf","extrainfo2":"https://www.london.gov.uk/what-we-do/planning/implementing-london-plan/supplementary-planning-guidance/olympic-legacy","extrainfo3":"Adopted date:20120601","firstaddeddate":null,"hectares":1282,"lastupdateddate":null,"layerreference":"OPA00000013","northing":185235,"notes":"Please note the GLA does not define boundaries. This OA has been adopted and its boundary finalised by the OAPF team. For further information please contact the Planning Data Team or the relevant Plan","objectid":16,"planning_authority":null,"removeddate":null,"sitename":"OLSPG boundary","sitereference":"0","source":"SPG","status":"Adopted","uprn":null,"runtime":"09/18/2019","in_cw":false,"whole_in_zone":false},"geometry":{"type":"MultiPolygon","coordinates":[[[[0.010796,51.540547],[0.011164,51.540602],[0.013316,51.541136],[0.013599,51.541164],[0.013865,51.541203],[0.014484,51.541292],[0.016266,51.541403],[0.017343,51.541495],[0.01561,51.544465],[0.016892,51.544816],[0.020043,51.545639],[0.019784,51.546159],[0.019403,51.546703],[0.023446,51.547401],[0.02307,51.54845],[0.024823,51.548694],[0.02486,51.549516],[0.01991,51.548614],[0.019603,51.549223],[0.019355,51.549596],[0.018702,51.550741],[0.017825,51.550542],[0.017729,51.550605],[0.017187,51.55144],[0.016897,51.551971],[0.0168,51.552201],[0.017585,51.552556],[0.01675,51.553342],[0.016317,51.553159],[0.016296,51.553218],[0.016288,51.553226],[0.016281,51.553223],[0.01622,51.553296],[0.014612,51.554937],[0.012961,51.554381],[0.012039,51.55407],[0.011242,51.554797],[0.010967,51.555295],[0.009893,51.554875],[0.009601,51.555045],[0.008093,51.556354],[0.008346,51.556503],[0.008739,51.556675],[0.007875,51.5574],[0.008146,51.55756],[0.00908,51.557994],[0.008605,51.558408],[0.008079,51.558845],[0.007562,51.559045],[0.007179,51.559189],[0.008001,51.560438],[0.007924,51.560538],[0.008742,51.561667],[0.009392,51.562983],[0.008378,51.563552],[0.007802,51.563832],[0.007398,51.564029],[0.005973,51.56459],[0.003827,51.565548],[0.003781,51.565615],[0.003542,51.565724],[0.00226,51.566196],[0.002637,51.566376],[0.002343,51.566491],[0.001827,51.566774],[0.000265,51.567261],[0.00031,51.567491],[-0.001008,51.567941],[-0.001717,51.568644],[-0.003368,51.569517],[-0.005281,51.568858],[-0.008334,51.569898],[-0.008323,51.569733],[-0.009495,51.5695],[-0.010387,51.569241],[-0.011196,51.568849],[-0.011806,51.568991],[-0.012712,51.568403],[-0.013123,51.568651],[-0.015127,51.567928],[-0.017048,51.570287],[-0.017585,51.570098],[-0.019948,51.569195],[-0.022785,51.568223],[-0.022807,51.568248],[-0.022847,51.568303],[-0.02304,51.568494],[-0.02304,51.568494],[-0.023041,51.568495],[-0.02336,51.568797],[-0.023495,51.568928],[-0.023495,51.568928],[-0.023568,51.568999],[-0.023664,51.569108],[-0.023775,51.569218],[-0.023788,51.569236],[-0.023829,51.569291],[-0.023883,51.569373],[-0.024099,51.569727],[-0.024208,51.569873],[-0.024292,51.569965],[-0.024478,51.570171],[-0.024478,51.570171],[-0.024509,51.570206],[-0.024515,51.570203],[-0.024839,51.570481],[-0.025328,51.570332],[-0.025432,51.570287],[-0.027851,51.569392],[-0.027888,51.569379],[-0.030259,51.568501],[-0.030441,51.568428],[-0.031135,51.568194],[-0.031896,51.567899],[-0.032824,51.56756],[-0.032975,51.567495],[-0.034979,51.569464],[-0.035143,51.569942],[-0.036009,51.570948],[-0.036012,51.570952],[-0.036016,51.570956],[-0.03602,51.57096],[-0.03604,51.570976],[-0.03606,51.570991],[-0.036093,51.571021],[-0.03616,51.571073],[-0.036238,51.571133],[-0.036305,51.571185],[-0.036346,51.571215],[-0.03644,51.571288],[-0.036459,51.571304],[-0.036558,51.571383],[-0.036633,51.571442],[-0.036652,51.571457],[-0.036671,51.571472],[-0.036689,51.571487],[-0.036707,51.571503],[-0.036734,51.571528],[-0.036759,51.571555],[-0.036783,51.571579],[-0.036804,51.571604],[-0.036816,51.57162],[-0.035048,51.572062],[-0.035806,51.57314],[-0.034666,51.573777],[-0.034851,51.573861],[-0.035009,51.574049],[-0.034972,51.574066],[-0.035057,51.574153],[-0.035111,51.57421],[-0.034322,51.574844],[-0.034167,51.574958],[-0.034181,51.574964],[-0.033574,51.575489],[-0.033688,51.575661],[-0.033792,51.575839],[-0.033884,51.575922],[-0.034208,51.576135],[-0.034498,51.576303],[-0.034456,51.576353],[-0.034138,51.576593],[-0.034054,51.576664],[-0.03443,51.576956],[-0.034639,51.577142],[-0.034722,51.577194],[-0.034846,51.577127],[-0.035189,51.576903],[-0.035441,51.576712],[-0.035597,51.576611],[-0.037237,51.575507],[-0.037299,51.575514],[-0.037328,51.575532],[-0.037415,51.575584],[-0.03742,51.575588],[-0.037427,51.575591],[-0.037432,51.575595],[-0.037439,51.575597],[-0.037447,51.5756],[-0.037456,51.575603],[-0.037462,51.575605],[-0.03747,51.575607],[-0.03748,51.575609],[-0.037489,51.57561],[-0.037562,51.575613],[-0.037587,51.575613],[-0.037729,51.575617],[-0.037899,51.575623],[-0.037909,51.575623],[-0.037941,51.575624],[-0.037967,51.575623],[-0.03798,51.575621],[-0.037994,51.575619],[-0.038008,51.575616],[-0.038022,51.575614],[-0.038035,51.575611],[-0.038047,51.575608],[-0.03807,51.575602],[-0.038079,51.575599],[-0.038087,51.575597],[-0.038096,51.575594],[-0.038106,51.575592],[-0.038127,51.575587],[-0.038149,51.575583],[-0.038176,51.57558],[-0.038186,51.575578],[-0.038198,51.575577],[-0.038217,51.575575],[-0.03823,51.575575],[-0.038243,51.575576],[-0.038252,51.575576],[-0.038261,51.575577],[-0.03827,51.575579],[-0.038278,51.575581],[-0.038296,51.575588],[-0.038325,51.5756],[-0.038333,51.575603],[-0.038342,51.575607],[-0.038344,51.575608],[-0.038394,51.575631],[-0.038457,51.575663],[-0.038528,51.575697],[-0.038547,51.575708],[-0.038676,51.575775],[-0.038756,51.575818],[-0.038786,51.575837],[-0.038822,51.575857],[-0.03888,51.575887],[-0.038942,51.57592],[-0.039006,51.575953],[-0.039066,51.575984],[-0.039102,51.576004],[-0.039136,51.576021],[-0.039182,51.576044],[-0.039203,51.576055],[-0.039226,51.576065],[-0.039242,51.576074],[-0.03926,51.576081],[-0.039271,51.576086],[-0.039282,51.576091],[-0.039319,51.576107],[-0.039364,51.576127],[-0.039418,51.576149],[-0.039478,51.576177],[-0.039535,51.576199],[-0.039588,51.576222],[-0.039626,51.576238],[-0.039661,51.576252],[-0.039684,51.576261],[-0.039714,51.576274],[-0.039765,51.576294],[-0.039803,51.576309],[-0.039849,51.576327],[-0.039879,51.576342],[-0.039898,51.576353],[-0.03992,51.576365],[-0.039983,51.57643],[-0.039998,51.576451],[-0.040017,51.576481],[-0.040046,51.576526],[-0.040059,51.576549],[-0.040077,51.576577],[-0.040093,51.5766],[-0.040112,51.576623],[-0.040144,51.576662],[-0.04019,51.57672],[-0.040203,51.576734],[-0.040234,51.57677],[-0.040231,51.576824],[-0.040257,51.576828],[-0.040271,51.576808],[-0.040317,51.576857],[-0.040329,51.576865],[-0.040389,51.576905],[-0.040413,51.57692],[-0.040457,51.576952],[-0.040539,51.577013],[-0.040582,51.577044],[-0.040632,51.577054],[-0.040635,51.577053],[-0.040647,51.577046],[-0.040766,51.576984],[-0.040766,51.576984],[-0.040767,51.576987],[-0.040769,51.576986],[-0.04079,51.576975],[-0.040846,51.576946],[-0.040856,51.576941],[-0.040921,51.576907],[-0.040941,51.576897],[-0.040949,51.576893],[-0.041008,51.576894],[-0.04103,51.576935],[-0.04107,51.576913],[-0.041194,51.576847],[-0.041383,51.576748],[-0.041627,51.576617],[-0.041972,51.576431],[-0.04221,51.576304],[-0.042723,51.57603],[-0.043017,51.575874],[-0.043548,51.575588],[-0.043728,51.575491],[-0.043892,51.575394],[-0.044062,51.575296],[-0.044504,51.575038],[-0.044705,51.574922],[-0.044772,51.574884],[-0.0448,51.574865],[-0.044953,51.574763],[-0.04512,51.574649],[-0.045227,51.574577],[-0.045261,51.574551],[-0.045298,51.574528],[-0.045338,51.5745],[-0.045378,51.574474],[-0.045413,51.57445],[-0.045431,51.574439],[-0.045472,51.574413],[-0.045511,51.574389],[-0.045524,51.574381],[-0.045532,51.574377],[-0.045543,51.574372],[-0.045568,51.574361],[-0.045598,51.574347],[-0.045626,51.574333],[-0.045652,51.574322],[-0.045671,51.574313],[-0.045706,51.574297],[-0.045765,51.574271],[-0.045827,51.574242],[-0.045951,51.574186],[-0.046076,51.574132],[-0.046088,51.574128],[-0.046123,51.574113],[-0.046158,51.574098],[-0.046186,51.574087],[-0.046214,51.574076],[-0.046245,51.574064],[-0.046276,51.574053],[-0.046313,51.57404],[-0.046351,51.574027],[-0.046393,51.574012],[-0.046434,51.573997],[-0.046484,51.573979],[-0.046534,51.573962],[-0.046553,51.573955],[-0.046572,51.57395],[-0.046606,51.573939],[-0.04664,51.573929],[-0.046723,51.573903],[-0.046805,51.573879],[-0.046915,51.573847],[-0.047025,51.573817],[-0.047068,51.573805],[-0.047112,51.573793],[-0.047124,51.573791],[-0.047136,51.573788],[-0.047151,51.573784],[-0.047166,51.573781],[-0.047229,51.573766],[-0.047292,51.573751],[-0.047308,51.573748],[-0.047322,51.573745],[-0.047335,51.573742],[-0.047348,51.57374],[-0.047395,51.57373],[-0.047441,51.573721],[-0.047511,51.573708],[-0.04758,51.573696],[-0.047613,51.573689],[-0.047647,51.573684],[-0.047689,51.573677],[-0.047731,51.573671],[-0.047785,51.573662],[-0.047839,51.573653],[-0.047849,51.573652],[-0.047857,51.573651],[-0.047863,51.57365],[-0.04787,51.573649],[-0.047887,51.573646],[-0.047905,51.573643],[-0.047928,51.573639],[-0.04795,51.573636],[-0.047974,51.573633],[-0.047997,51.57363],[-0.048024,51.573627],[-0.04805,51.573623],[-0.048067,51.573621],[-0.048085,51.573619],[-0.048112,51.573615],[-0.048139,51.573612],[-0.048161,51.573608],[-0.048183,51.573606],[-0.04819,51.573605],[-0.048198,51.573605],[-0.048205,51.573604],[-0.048213,51.573603],[-0.048234,51.573602],[-0.048256,51.5736],[-0.048309,51.573595],[-0.048361,51.573589],[-0.048421,51.573585],[-0.04848,51.57358],[-0.0485,51.573578],[-0.04852,51.573576],[-0.048543,51.573574],[-0.048566,51.573573],[-0.048645,51.573568],[-0.048665,51.573567],[-0.048748,51.573563],[-0.048857,51.573558],[-0.048968,51.573554],[-0.049055,51.573551],[-0.049143,51.573548],[-0.049155,51.573548],[-0.049267,51.57358],[-0.049389,51.573625],[-0.049532,51.573684],[-0.049648,51.573727],[-0.049789,51.573758],[-0.049865,51.573768],[-0.049917,51.573821],[-0.05021,51.57415],[-0.050336,51.574288],[-0.050505,51.574479],[-0.050603,51.574589],[-0.050673,51.574667],[-0.051064,51.575101],[-0.051129,51.575174],[-0.051307,51.575373],[-0.051438,51.575521],[-0.051728,51.575714],[-0.051804,51.575765],[-0.051965,51.575875],[-0.05208,51.575953],[-0.052096,51.57597],[-0.052093,51.576102],[-0.052101,51.576116],[-0.05211,51.576134],[-0.052213,51.576295],[-0.0523,51.576323],[-0.052307,51.57631],[-0.052321,51.576287],[-0.052338,51.576265],[-0.052356,51.576241],[-0.052375,51.57622],[-0.052482,51.576106],[-0.052621,51.575961],[-0.05277,51.575804],[-0.052922,51.575772],[-0.053062,51.575625],[-0.053162,51.575519],[-0.053236,51.575442],[-0.053255,51.575419],[-0.053355,51.575316],[-0.053495,51.575168],[-0.053573,51.575149],[-0.053602,51.575127],[-0.05364,51.575043],[-0.053645,51.575028],[-0.05365,51.575021],[-0.053662,51.575005],[-0.053686,51.57498],[-0.053697,51.574971],[-0.053736,51.574947],[-0.054475,51.574527],[-0.05538,51.57397],[-0.055389,51.573977],[-0.055395,51.57398],[-0.055512,51.573853],[-0.055548,51.573819],[-0.055614,51.573763],[-0.055727,51.5737],[-0.056029,51.573533],[-0.05621,51.573449],[-0.056365,51.573412],[-0.056397,51.573404],[-0.056512,51.573377],[-0.056926,51.573322],[-0.05729,51.573243],[-0.058056,51.573196],[-0.058203,51.573188],[-0.058238,51.573185],[-0.0583,51.573181],[-0.058301,51.573181],[-0.058316,51.57318],[-0.058331,51.573179],[-0.058346,51.573179],[-0.058361,51.573178],[-0.058375,51.573177],[-0.05839,51.573177],[-0.058405,51.573176],[-0.05842,51.573175],[-0.058434,51.573174],[-0.05845,51.573174],[-0.05856,51.573169],[-0.05856,51.573168],[-0.058508,51.57294],[-0.058471,51.572715],[-0.058449,51.572649],[-0.058425,51.57258],[-0.05842,51.572566],[-0.058406,51.572526],[-0.058201,51.572326],[-0.057964,51.572167],[-0.057565,51.571899],[-0.057081,51.571612],[-0.056746,51.571356],[-0.056596,51.570994],[-0.056374,51.570795],[-0.056147,51.570672],[-0.055985,51.570609],[-0.055844,51.570559],[-0.055755,51.570549],[-0.055551,51.570539],[-0.055265,51.570539],[-0.054955,51.5705],[-0.054766,51.570458],[-0.054654,51.570421],[-0.054531,51.570364],[-0.054414,51.5703],[-0.054267,51.570197],[-0.054151,51.570074],[-0.053509,51.569007],[-0.053359,51.568744],[-0.053269,51.568664],[-0.053134,51.568574],[-0.0528,51.568394],[-0.051909,51.567993],[-0.05115,51.567722],[-0.050827,51.567577],[-0.050762,51.567539],[-0.050663,51.567468],[-0.050421,51.567215],[-0.049826,51.566854],[-0.049125,51.566393],[-0.049028,51.566318],[-0.048934,51.566229],[-0.048542,51.565914],[-0.048408,51.565807],[-0.048281,51.565714],[-0.048213,51.565667],[-0.047641,51.565324],[-0.047522,51.565239],[-0.047458,51.565184],[-0.046811,51.564518],[-0.046775,51.564457],[-0.046744,51.56442],[-0.046701,51.56438],[-0.046676,51.564311],[-0.046661,51.564284],[-0.046647,51.564258],[-0.046637,51.564232],[-0.046627,51.564205],[-0.046618,51.564178],[-0.046613,51.56416],[-0.046605,51.564133],[-0.046599,51.564106],[-0.046595,51.564079],[-0.046591,51.564051],[-0.04659,51.564024],[-0.046589,51.563997],[-0.046592,51.563969],[-0.046594,51.563964],[-0.046597,51.563944],[-0.046603,51.563925],[-0.046609,51.563906],[-0.046617,51.563887],[-0.046625,51.563868],[-0.046635,51.563849],[-0.046644,51.563831],[-0.046655,51.563812],[-0.046667,51.563794],[-0.04668,51.563776],[-0.046692,51.563758],[-0.0467,51.563748],[-0.046717,51.563725],[-0.046736,51.563703],[-0.046756,51.563681],[-0.046777,51.563659],[-0.046798,51.563638],[-0.046822,51.563617],[-0.046828,51.563613],[-0.047002,51.563418],[-0.047174,51.563245],[-0.047191,51.563227],[-0.047206,51.563211],[-0.04722,51.563193],[-0.047234,51.563174],[-0.047246,51.563156],[-0.047257,51.563138],[-0.047268,51.563119],[-0.047274,51.563107],[-0.047277,51.5631],[-0.047285,51.563081],[-0.04729,51.563067],[-0.047297,51.563048],[-0.047303,51.563029],[-0.047307,51.563009],[-0.047312,51.562988],[-0.047314,51.56297],[-0.047315,51.562949],[-0.047316,51.562929],[-0.047316,51.562909],[-0.047314,51.56289],[-0.047311,51.562871],[-0.047307,51.562851],[-0.047305,51.562844],[-0.047299,51.562827],[-0.047292,51.562809],[-0.047286,51.562792],[-0.047277,51.562775],[-0.047269,51.562758],[-0.047258,51.562741],[-0.047247,51.562725],[-0.047235,51.562708],[-0.047222,51.562692],[-0.047209,51.562677],[-0.047193,51.562661],[-0.047178,51.562646],[-0.047162,51.562632],[-0.04716,51.56263],[-0.047142,51.562616],[-0.047125,51.562602],[-0.047107,51.56259],[-0.047087,51.562578],[-0.047066,51.562566],[-0.047047,51.562555],[-0.047025,51.562544],[-0.047003,51.562533],[-0.04698,51.562522],[-0.046957,51.562512],[-0.046935,51.562503],[-0.046912,51.562493],[-0.046888,51.562484],[-0.046878,51.56248],[-0.046845,51.562467],[-0.04681,51.562455],[-0.046776,51.562444],[-0.04674,51.562433],[-0.046703,51.562423],[-0.046667,51.562413],[-0.04663,51.562404],[-0.046592,51.562396],[-0.046554,51.56239],[-0.046543,51.562387],[-0.046038,51.562313],[-0.045681,51.562234],[-0.04568,51.562233],[-0.045569,51.562138],[-0.045699,51.562096],[-0.046026,51.56196],[-0.047118,51.561501],[-0.047812,51.561201],[-0.048664,51.560859],[-0.049031,51.560677],[-0.04992,51.560297],[-0.0509,51.559859],[-0.051719,51.559515],[-0.053175,51.558912],[-0.054372,51.558639],[-0.0551,51.558335],[-0.055514,51.558059],[-0.055724,51.557858],[-0.055768,51.55752],[-0.055762,51.557216],[-0.055535,51.556571],[-0.05524,51.556178],[-0.054728,51.555581],[-0.05421,51.554672],[-0.053285,51.553575],[-0.052586,51.55248],[-0.052151,51.552061],[-0.05161,51.551464],[-0.050189,51.551823],[-0.05018,51.551793],[-0.049934,51.551819],[-0.049474,51.551982],[-0.049297,51.552122],[-0.048933,51.551004],[-0.048735,51.550693],[-0.047992,51.549126],[-0.047507,51.549207],[-0.047504,51.549159],[-0.047011,51.548017],[-0.046438,51.54796],[-0.046405,51.547618],[-0.046262,51.547434],[-0.046073,51.547219],[-0.046067,51.547142],[-0.043504,51.547064],[-0.042025,51.54701],[-0.041979,51.546449],[-0.041663,51.545204],[-0.0423,51.545138],[-0.042222,51.544478],[-0.041686,51.543438],[-0.041508,51.542667],[-0.040037,51.541688],[-0.03962,51.541572],[-0.038166,51.541427],[-0.037311,51.541259],[-0.038139,51.540488],[-0.040693,51.538112],[-0.039544,51.538116],[-0.039285,51.538037],[-0.038853,51.537894],[-0.038371,51.537942],[-0.037844,51.537991],[-0.037062,51.537978],[-0.036687,51.537793],[-0.036243,51.537469],[-0.03558,51.536894],[-0.035101,51.536733],[-0.034829,51.536568],[-0.034704,51.536393],[-0.034233,51.535923],[-0.033636,51.535066],[-0.034046,51.534947],[-0.032617,51.532966],[-0.033611,51.532721],[-0.033471,51.532472],[-0.033201,51.532534],[-0.033006,51.532317],[-0.036577,51.531627],[-0.035078,51.530198],[-0.035433,51.530063],[-0.037031,51.529485],[-0.038292,51.528946],[-0.037168,51.527868],[-0.033963,51.528709],[-0.033653,51.528239],[-0.033032,51.527387],[-0.030814,51.527915],[-0.030033,51.526566],[-0.02976,51.526195],[-0.029115,51.526305],[-0.02876,51.526003],[-0.027838,51.524341],[-0.026058,51.524736],[-0.025959,51.524654],[-0.025773,51.524735],[-0.025558,51.524745],[-0.025295,51.524731],[-0.025213,51.52469],[-0.025116,51.524601],[-0.025076,51.524382],[-0.025165,51.524134],[-0.025484,51.524061],[-0.025709,51.524055],[-0.025926,51.524167],[-0.026534,51.524011],[-0.027121,51.52355],[-0.027279,51.523614],[-0.028286,51.523423],[-0.028093,51.522908],[-0.028291,51.522816],[-0.028432,51.522776],[-0.028353,51.522594],[-0.027997,51.522394],[-0.027832,51.52211],[-0.027772,51.521918],[-0.027569,51.521725],[-0.027333,51.521404],[-0.027301,51.521329],[-0.027445,51.521187],[-0.027641,51.52104],[-0.027673,51.520835],[-0.027472,51.520782],[-0.027421,51.520811],[-0.025432,51.522053],[-0.024841,51.521952],[-0.024504,51.521861],[-0.024035,51.52174],[-0.023179,51.521516],[-0.023147,51.521546],[-0.022494,51.521516],[-0.021092,51.521712],[-0.020423,51.521797],[-0.020202,51.521402],[-0.020066,51.521185],[-0.018988,51.521314],[-0.01894,51.521526],[-0.018658,51.521876],[-0.01808,51.522355],[-0.017438,51.522691],[-0.01663,51.522926],[-0.015218,51.523019],[-0.015044,51.523039],[-0.012591,51.523329],[-0.010841,51.523565],[-0.010834,51.523543],[-0.009813,51.523733],[-0.008748,51.523949],[-0.00823,51.523964],[-0.008225,51.523977],[-0.008065,51.523981],[-0.00805,51.523981],[-0.008064,51.523984],[-0.007908,51.524858],[-0.007823,51.525093],[-0.007578,51.525409],[-0.007419,51.525695],[-0.00736,51.525842],[-0.006303,51.525953],[-0.005076,51.526177],[-0.004515,51.526309],[-0.002789,51.526683],[-0.002706,51.526497],[-0.002394,51.526321],[-0.001554,51.525724],[-0.00103,51.525846],[0.002408,51.525623],[0.00493,51.525408],[0.004912,51.527645],[0.004956,51.528657],[0.005142,51.528704],[0.007308,51.529116],[0.009903,51.529691],[0.011563,51.530072],[0.01133,51.53012],[0.010976,51.530309],[0.010698,51.530297],[0.010004,51.530269],[0.009878,51.530687],[0.008881,51.530632],[0.00889,51.531333],[0.008999,51.532116],[0.008673,51.533013],[0.008451,51.533379],[0.008676,51.533427],[0.008807,51.533445],[0.011187,51.533932],[0.011391,51.534181],[0.011026,51.534286],[0.011173,51.535227],[0.011735,51.535206],[0.011801,51.535561],[0.011593,51.53556],[0.011747,51.535875],[0.011871,51.536279],[0.012038,51.53689],[0.012033,51.537165],[0.01133,51.537177],[0.011237,51.537177],[0.010169,51.537186],[0.01023,51.537428],[0.010441,51.537809],[0.010928,51.538395],[0.011113,51.538599],[0.011241,51.538726],[0.011365,51.538842],[0.011631,51.539126],[0.011454,51.539175],[0.01132,51.539243],[0.011293,51.539536],[0.01089,51.539565],[0.01058,51.540514],[0.010796,51.540547]]]]}}
]}
