{"type":"FeatureCollection","meta":{
 "source": "London Datastore: London Plan Business Improvement Districts (Greater London Authority)",
 "dataset": "vqmx7",
 "page": "https://data.london.gov.uk/dataset/london-plan-business-improvement-districts-vqmx7",
 "resources": [
  {
   "resource": "42dacf04-f4d1-408a-85af-ba17818d2505",
   "file": "business_improvement_districts.zip",
   "url": "https://data.london.gov.uk/download/vqmx7/42dacf04-f4d1-408a-85af-ba17818d2505/business_improvement_districts.zip",
   "size": 127325,
   "resource_date": "2025-05-12",
   "fetched": "2026-10-04"
  }
 ],
 "licence": "Creative Commons Attribution",
 "licence_url": "https://creativecommons.org/licenses/by/4.0/",
 "attribution": "Greater London Authority, Creative Commons Attribution. The GLA cannot warrant the quality or accuracy of the data (London Datastore terms).",
 "dataset_modified": "2025-05-12",
 "update_frequency": null,
 "geo": "Custom Polygons",
 "theme": "occupants-organisations",
 "layers": [
  {
   "table": "business_improvement_districts",
   "srs": 4326,
   "from": "EPSG:3857"
  }
 ],
 "crs_source": "EPSG:4326",
 "crs_output": "EPSG:4326 (WGS84), 6 decimal places; BNG to WGS84 through the OS OSTN15 grid (lib.mjs bngProjector)",
 "method": "walk-london-datastore.mjs harvest business-improvement-districts: download the newest matching resource (shpzip); read every feature; keep a feature whose geometry meets the zone (the 3D model box, BNG E 532400-539900, N 176700-182300; WGS84 -0.095, 51.474, 0.015, 51.522): a vertex inside, an edge crossing the box or the box inside a polygon. Whole geometries are kept (not cut at the box): whole_in_zone says whether all of it lies inside. in_cw: the geometry meets the Canary Wharf registry box -0.03, 51.498, -0.005, 51.51. Source attributes kept as published except fields matching e-?mail|phone|tel(ephone)?$|^tel|contact|^fax|mobile|website_contact|^owner_?name|person. uprn_suspect: a UPRN field that a spreadsheet rounded (an exponent, or 9+ digits ending in 5+ zeros); not a key (fault F22).",
 "counts": {
  "source_features": 76,
  "no_geometry": 0,
  "in_zone": 7,
  "in_cw": 0
 },
 "attributes_in_source": "yes",
 "fields_dropped": []
},
"features":[
{"type":"Feature","properties":{"OBJECTID":3,"borough":"Southwark","bid_name":"Better Bankside","property_b":null,"industrial":null,"town_centr":"Y","weblink":"http://www.betterbankside.co.uk/","updated":"20241007","in_cw":false,"whole_in_zone":false},"geometry":{"type":"Polygon","coordinates":[[[-0.088252,51.506936],[-0.088422,51.506429],[-0.088605,51.505977],[-0.08871,51.505771],[-0.089592,51.504952],[-0.09054,51.504105],[-0.090772,51.503909],[-0.091611,51.502706],[-0.092067,51.502001],[-0.093072,51.500887],[-0.093801,51.50052],[-0.094458,51.500883],[-0.09395,51.501294],[-0.093484,51.501991],[-0.092864,51.502799],[-0.092697,51.503112],[-0.093635,51.50336],[-0.094658,51.503603],[-0.095349,51.503661],[-0.096247,51.503589],[-0.097547,51.503583],[-0.098159,51.503474],[-0.099139,51.503483],[-0.100375,51.503476],[-0.10128,51.503491],[-0.101857,51.50346],[-0.102046,51.504042],[-0.102247,51.504591],[-0.102367,51.505045],[-0.102827,51.50577],[-0.1031,51.506127],[-0.103283,51.506835],[-0.10337,51.507561],[-0.103252,51.508092],[-0.103143,51.508409],[-0.10311,51.508688],[-0.101779,51.508679],[-0.100597,51.508647],[-0.099947,51.508637],[-0.098843,51.508552],[-0.097715,51.508494],[-0.096694,51.508451],[-0.095716,51.508402],[-0.094379,51.507988],[-0.092555,51.507539],[-0.091327,51.507326],[-0.088252,51.506936]]]}},
{"type":"Feature","properties":{"OBJECTID":15,"borough":"Southwark","bid_name":"Team London Bridge","property_b":null,"industrial":null,"town_centr":"Y","weblink":"http://www.teamlondonbridge.co.uk/default.aspx?m=1&mi=41&ms=0","updated":"20241007","in_cw":false,"whole_in_zone":true},"geometry":{"type":"Polygon","coordinates":[[[-0.078183,51.501437],[-0.078353,51.501036],[-0.079541,51.501711],[-0.080111,51.502028],[-0.080471,51.501918],[-0.080671,51.502007],[-0.080943,51.502064],[-0.081025,51.50207],[-0.081114,51.501928],[-0.081486,51.502022],[-0.081488,51.501962],[-0.081584,51.501964],[-0.08162,51.502028],[-0.081731,51.502109],[-0.082111,51.502159],[-0.08213,51.502264],[-0.082362,51.502247],[-0.082425,51.502415],[-0.082556,51.502417],[-0.082482,51.502261],[-0.083021,51.502174],[-0.083109,51.502296],[-0.08324,51.502223],[-0.083375,51.502096],[-0.083832,51.502046],[-0.084223,51.502052],[-0.084397,51.50208],[-0.084659,51.50212],[-0.084894,51.502156],[-0.085457,51.502244],[-0.085535,51.502044],[-0.085655,51.50207],[-0.08559,51.502264],[-0.085695,51.502281],[-0.085763,51.502072],[-0.086218,51.502147],[-0.086409,51.50217],[-0.086422,51.502003],[-0.087136,51.501983],[-0.087311,51.502057],[-0.087464,51.50206],[-0.087913,51.501984],[-0.0882,51.501984],[-0.088362,51.502114],[-0.089078,51.502372],[-0.089473,51.502506],[-0.089882,51.502654],[-0.090365,51.502745],[-0.090539,51.502778],[-0.090765,51.502881],[-0.091092,51.502529],[-0.091551,51.502665],[-0.091287,51.503038],[-0.091362,51.503062],[-0.091091,51.503452],[-0.090621,51.503266],[-0.090362,51.50352],[-0.090549,51.503593],[-0.090609,51.503556],[-0.090918,51.503699],[-0.090772,51.503909],[-0.09066,51.503871],[-0.090467,51.503915],[-0.09027,51.504059],[-0.090173,51.504081],[-0.089896,51.503967],[-0.089472,51.503834],[-0.089351,51.503831],[-0.089238,51.503957],[-0.089072,51.504215],[-0.08956,51.504387],[-0.089521,51.504443],[-0.088965,51.504277],[-0.088885,51.504359],[-0.089033,51.504477],[-0.089239,51.504596],[-0.089565,51.50472],[-0.089402,51.504885],[-0.089206,51.505062],[-0.089078,51.505148],[-0.088989,51.505245],[-0.088885,51.505206],[-0.088826,51.505175],[-0.088746,51.505253],[-0.088878,51.505303],[-0.088772,51.505389],[-0.08864,51.50551],[-0.088528,51.505561],[-0.088549,51.505901],[-0.088308,51.505949],[-0.087863,51.505934],[-0.088255,51.506137],[-0.088214,51.506208],[-0.088142,51.506306],[-0.088098,51.5064],[-0.088422,51.506429],[-0.088252,51.506936],[-0.087871,51.506902],[-0.087799,51.507172],[-0.087576,51.507879],[-0.086351,51.507736],[-0.085269,51.507635],[-0.084072,51.507544],[-0.082858,51.507381],[-0.081703,51.507208],[-0.080776,51.507038],[-0.080266,51.50691],[-0.07808,51.506304],[-0.075392,51.505632],[-0.07621,51.504435],[-0.075905,51.504353],[-0.075954,51.504242],[-0.07564,51.504138],[-0.075701,51.504051],[-0.076088,51.503636],[-0.076625,51.503132],[-0.076851,51.502766],[-0.077077,51.502838],[-0.077582,51.502042],[-0.077818,51.501593],[-0.077839,51.501529],[-0.07764,51.501489],[-0.077742,51.501336],[-0.077859,51.501262],[-0.078183,51.501437]]]}},
{"type":"Feature","properties":{"OBJECTID":33,"borough":"Southwark","bid_name":"Blue Bermondsey BID","property_b":null,"industrial":null,"town_centr":"Y","weblink":"http://www.bluebermondsey.co.uk/","updated":"20241007","in_cw":false,"whole_in_zone":true},"geometry":{"type":"Polygon","coordinates":[[[-0.057624,51.488741],[-0.058073,51.488944],[-0.058288,51.488945],[-0.058324,51.488946],[-0.058414,51.488946],[-0.058436,51.488946],[-0.058768,51.48895],[-0.059125,51.488952],[-0.059267,51.488954],[-0.05943,51.488955],[-0.059439,51.488955],[-0.059479,51.488957],[-0.059525,51.488958],[-0.059585,51.48896],[-0.059646,51.488962],[-0.059706,51.488966],[-0.059776,51.488968],[-0.060049,51.488979],[-0.060051,51.488979],[-0.060411,51.488995],[-0.060503,51.489],[-0.060723,51.489185],[-0.060742,51.489201],[-0.060772,51.489227],[-0.06092,51.489352],[-0.060976,51.489399],[-0.061069,51.489478],[-0.061094,51.489468],[-0.061206,51.489424],[-0.061258,51.489403],[-0.061389,51.489354],[-0.061422,51.489341],[-0.06147,51.489323],[-0.061483,51.489318],[-0.061499,51.489312],[-0.061699,51.489237],[-0.06171,51.489233],[-0.061849,51.48918],[-0.061866,51.489183],[-0.062036,51.489208],[-0.062181,51.489229],[-0.0623,51.48923],[-0.062338,51.48923],[-0.062437,51.48923],[-0.062517,51.48923],[-0.062529,51.48923],[-0.062529,51.48923],[-0.062564,51.48923],[-0.062593,51.48923],[-0.062613,51.48923],[-0.062665,51.48923],[-0.062738,51.48923],[-0.062817,51.48923],[-0.062839,51.489231],[-0.062891,51.489231],[-0.062959,51.489232],[-0.063038,51.489232],[-0.063038,51.489234],[-0.063127,51.489228],[-0.063136,51.489143],[-0.06308,51.48906],[-0.063075,51.489053],[-0.06305,51.489017],[-0.063025,51.488977],[-0.063003,51.488938],[-0.062982,51.488898],[-0.062974,51.48888],[-0.062959,51.488847],[-0.063697,51.488888],[-0.063958,51.488902],[-0.064113,51.488911],[-0.064184,51.488916],[-0.064256,51.488918],[-0.064274,51.488918],[-0.064333,51.488924],[-0.064404,51.488931],[-0.06448,51.488939],[-0.064785,51.488971],[-0.064866,51.488907],[-0.06509,51.488917],[-0.065494,51.48897],[-0.065415,51.489472],[-0.065413,51.489517],[-0.065378,51.489993],[-0.065326,51.490541],[-0.065289,51.491089],[-0.066198,51.49116],[-0.066591,51.491201],[-0.067484,51.491287],[-0.06736,51.491842],[-0.067336,51.491932],[-0.067309,51.49203],[-0.067212,51.492384],[-0.066811,51.492912],[-0.065474,51.492827],[-0.065288,51.492797],[-0.065116,51.492785],[-0.065083,51.492893],[-0.064989,51.493395],[-0.064924,51.493722],[-0.064922,51.493739],[-0.064915,51.49378],[-0.064913,51.493843],[-0.064922,51.49396],[-0.064935,51.493989],[-0.065013,51.494149],[-0.065015,51.494151],[-0.065186,51.494475],[-0.065295,51.494677],[-0.065419,51.494823],[-0.065389,51.494832],[-0.065273,51.494865],[-0.064648,51.494999],[-0.064343,51.495048],[-0.064155,51.495072],[-0.06385,51.495121],[-0.062822,51.495256],[-0.062576,51.495279],[-0.062199,51.495318],[-0.061447,51.495387],[-0.061241,51.494826],[-0.060776,51.493892],[-0.060724,51.493756],[-0.060711,51.493729],[-0.060317,51.492938],[-0.06,51.492981],[-0.058869,51.49318],[-0.058754,51.492976],[-0.058081,51.493105],[-0.057939,51.492856],[-0.058043,51.492785],[-0.058204,51.492725],[-0.058342,51.492674],[-0.058525,51.492631],[-0.058583,51.492614],[-0.059513,51.492432],[-0.05902,51.492202],[-0.058712,51.49207],[-0.058415,51.491943],[-0.058292,51.491889],[-0.058085,51.491797],[-0.058042,51.491778],[-0.057279,51.491442],[-0.056812,51.491245],[-0.056045,51.490919],[-0.055779,51.490805],[-0.054817,51.490394],[-0.054949,51.490342],[-0.055062,51.490289],[-0.055101,51.490269],[-0.055156,51.49024],[-0.05522,51.490196],[-0.055281,51.490145],[-0.055382,51.490061],[-0.05539,51.490057],[-0.055437,51.49003],[-0.055497,51.489991],[-0.055982,51.489738],[-0.055997,51.48973],[-0.056125,51.489664],[-0.056616,51.489407],[-0.056767,51.489317],[-0.056897,51.489232],[-0.057579,51.488776],[-0.057624,51.488741]]]}},
{"type":"Feature","properties":{"OBJECTID":36,"borough":"City of London","bid_name":"Cheapside","property_b":null,"industrial":null,"town_centr":"Y","weblink":"http://incheapside.com/","updated":"20241007","in_cw":false,"whole_in_zone":false},"geometry":{"type":"Polygon","coordinates":[[[-0.100559,51.515892],[-0.099889,51.515692],[-0.099398,51.515548],[-0.098786,51.515386],[-0.098714,51.51537],[-0.098662,51.515748],[-0.098652,51.51599],[-0.098639,51.516299],[-0.098587,51.516662],[-0.097957,51.516659],[-0.097642,51.516654],[-0.0974,51.51665],[-0.097358,51.516778],[-0.097357,51.516801],[-0.096993,51.51681],[-0.097002,51.516591],[-0.097059,51.516372],[-0.09705,51.516304],[-0.096747,51.516307],[-0.096613,51.51632],[-0.096137,51.516115],[-0.095428,51.515945],[-0.094468,51.51571],[-0.093917,51.51555],[-0.093401,51.515435],[-0.093138,51.51534],[-0.092864,51.515222],[-0.092238,51.515114],[-0.091044,51.514966],[-0.09009,51.514859],[-0.089392,51.51475],[-0.088027,51.514621],[-0.087688,51.514616],[-0.086906,51.514762],[-0.086418,51.514837],[-0.085666,51.514848],[-0.085583,51.514801],[-0.085578,51.514619],[-0.08609,51.514265],[-0.086033,51.514188],[-0.086023,51.51412],[-0.085842,51.514102],[-0.085687,51.514054],[-0.085691,51.513955],[-0.085972,51.513612],[-0.086028,51.513439],[-0.086095,51.513289],[-0.086883,51.513287],[-0.086879,51.513082],[-0.086874,51.512908],[-0.08698,51.512706],[-0.087117,51.51261],[-0.087559,51.512768],[-0.088001,51.512919],[-0.088146,51.512944],[-0.088232,51.512915],[-0.088307,51.512863],[-0.088487,51.512617],[-0.088602,51.512467],[-0.088884,51.512109],[-0.089168,51.511705],[-0.089374,51.511406],[-0.089579,51.511447],[-0.090468,51.511628],[-0.090829,51.511702],[-0.091632,51.511911],[-0.091934,51.511954],[-0.092174,51.512003],[-0.092355,51.512022],[-0.093748,51.512332],[-0.095552,51.512686],[-0.096431,51.512844],[-0.096816,51.512904],[-0.097093,51.512946],[-0.097548,51.513082],[-0.097825,51.513139],[-0.098135,51.513258],[-0.098546,51.51328],[-0.099237,51.513298],[-0.099586,51.513342],[-0.100136,51.513525],[-0.100445,51.513689],[-0.100695,51.513806],[-0.100708,51.514056],[-0.100745,51.514344],[-0.100775,51.514503],[-0.100752,51.51476],[-0.100744,51.515244],[-0.10074,51.515622],[-0.100559,51.515892]]]}},
{"type":"Feature","properties":{"OBJECTID":54,"borough":"Tower Hamlets & City","bid_name":"Algate BID","property_b":null,"industrial":null,"town_centr":"Y","weblink":"https://www.thealdgatepartnership.co.uk","updated":"20241007","in_cw":false,"whole_in_zone":true},"geometry":{"type":"Polygon","coordinates":[[[-0.073239,51.516969],[-0.07242,51.517018],[-0.071511,51.517126],[-0.070613,51.517282],[-0.069735,51.516085],[-0.06957,51.51616],[-0.069274,51.515861],[-0.068753,51.515003],[-0.068013,51.514921],[-0.067899,51.513806],[-0.068394,51.513814],[-0.069425,51.513461],[-0.068743,51.512599],[-0.068541,51.512109],[-0.068738,51.512128],[-0.068658,51.51198],[-0.069156,51.511911],[-0.068656,51.511138],[-0.070917,51.510959],[-0.071526,51.510914],[-0.072914,51.510876],[-0.074575,51.510849],[-0.075144,51.510866],[-0.075045,51.510555],[-0.075556,51.510486],[-0.07573,51.511069],[-0.077069,51.511029],[-0.077145,51.511563],[-0.077455,51.511561],[-0.077695,51.511441],[-0.077873,51.511343],[-0.078085,51.511308],[-0.078534,51.511231],[-0.078546,51.511223],[-0.079403,51.51235],[-0.079225,51.512455],[-0.079613,51.512948],[-0.079509,51.513356],[-0.079275,51.513329],[-0.079144,51.51379],[-0.079985,51.514121],[-0.079083,51.514948],[-0.079325,51.515084],[-0.07884,51.515423],[-0.079057,51.515566],[-0.078466,51.516082],[-0.077931,51.515833],[-0.076996,51.516583],[-0.077853,51.517972],[-0.07825,51.518566],[-0.077592,51.518602],[-0.077026,51.518222],[-0.076378,51.518296],[-0.076383,51.518196],[-0.074394,51.518356],[-0.073275,51.516993],[-0.073239,51.516969]]]}},
{"type":"Feature","properties":{"OBJECTID":60,"borough":"City of London","bid_name":"Eastern City Partnership","property_b":null,"industrial":null,"town_centr":"Y","weblink":"https://ecpartnership.co.uk/","updated":"20241007","in_cw":false,"whole_in_zone":true},"geometry":{"type":"Polygon","coordinates":[[[-0.079203,51.516382],[-0.078466,51.516082],[-0.079057,51.515566],[-0.07884,51.515423],[-0.079325,51.515084],[-0.079083,51.514948],[-0.079985,51.514121],[-0.079144,51.51379],[-0.079275,51.513329],[-0.079509,51.513356],[-0.079613,51.512948],[-0.079225,51.512455],[-0.079403,51.51235],[-0.078546,51.511223],[-0.077873,51.511343],[-0.077455,51.511561],[-0.077145,51.511563],[-0.077069,51.511029],[-0.076791,51.510472],[-0.076892,51.51012],[-0.077002,51.510118],[-0.077313,51.510131],[-0.0776,51.510136],[-0.07787,51.510022],[-0.078087,51.509934],[-0.078206,51.509743],[-0.078396,51.509577],[-0.07867,51.509565],[-0.078979,51.509615],[-0.079266,51.509643],[-0.079724,51.509592],[-0.080061,51.509534],[-0.083091,51.51064],[-0.085199,51.510686],[-0.085733,51.510808],[-0.08694,51.5078],[-0.088931,51.508046],[-0.088302,51.509695],[-0.088368,51.509823],[-0.088362,51.509965],[-0.088283,51.510106],[-0.088086,51.510222],[-0.087855,51.510293],[-0.08797,51.510342],[-0.08792,51.51045],[-0.087685,51.510801],[-0.087458,51.511101],[-0.087932,51.511214],[-0.088635,51.511302],[-0.089374,51.511406],[-0.089139,51.511746],[-0.088884,51.512109],[-0.088519,51.512575],[-0.088407,51.512726],[-0.088351,51.512803],[-0.088307,51.512863],[-0.088232,51.512915],[-0.088146,51.512944],[-0.088001,51.512919],[-0.087559,51.512768],[-0.087117,51.51261],[-0.08698,51.512706],[-0.086874,51.512908],[-0.086877,51.512989],[-0.086883,51.513287],[-0.086095,51.513289],[-0.086028,51.513439],[-0.085972,51.513612],[-0.085691,51.513955],[-0.085687,51.514054],[-0.085842,51.514102],[-0.086023,51.51412],[-0.086033,51.514188],[-0.08609,51.514265],[-0.085578,51.514619],[-0.085364,51.514863],[-0.085099,51.514888],[-0.084674,51.515015],[-0.084524,51.515147],[-0.084136,51.515499],[-0.083641,51.516081],[-0.083385,51.516435],[-0.0833,51.516711],[-0.083177,51.51703],[-0.083081,51.51729],[-0.082974,51.517535],[-0.082023,51.517346],[-0.081579,51.517106],[-0.080832,51.516913],[-0.080743,51.517023],[-0.079418,51.516648],[-0.079086,51.516574],[-0.079203,51.516382]]]}},
{"type":"Feature","properties":{"OBJECTID":63,"borough":"City of London","bid_name":"Culture Mile BID","property_b":null,"industrial":null,"town_centr":"Y","weblink":"https://culturemilebid.co.uk/","updated":"20241007","in_cw":false,"whole_in_zone":false},"geometry":{"type":"Polygon","coordinates":[[[-0.097552,51.52234],[-0.0964,51.522676],[-0.096131,51.52227],[-0.09474,51.522471],[-0.094136,51.520944],[-0.093228,51.521018],[-0.093214,51.52078],[-0.092182,51.520942],[-0.092011,51.520463],[-0.089544,51.52017],[-0.089839,51.519402],[-0.084106,51.518],[-0.085551,51.516491],[-0.088789,51.517139],[-0.089648,51.51479],[-0.092913,51.515243],[-0.094499,51.515717],[-0.095902,51.516059],[-0.096547,51.516291],[-0.097051,51.516312],[-0.096995,51.516767],[-0.097359,51.516775],[-0.097414,51.51665],[-0.098587,51.516662],[-0.098712,51.515382],[-0.100559,51.515892],[-0.100617,51.5158],[-0.101543,51.516078],[-0.102692,51.516472],[-0.105416,51.517288],[-0.106102,51.517488],[-0.106849,51.517576],[-0.106818,51.517773],[-0.107013,51.518085],[-0.105307,51.518537],[-0.10128,51.519832],[-0.098982,51.520443],[-0.097464,51.520692],[-0.09732,51.521591],[-0.097552,51.52234]]]}}
]}
