{"type":"FeatureCollection","meta":{
 "source": "London Datastore: Central Activities Zone Boundary (London Plan Consultation 2009) (Greater London Authority)",
 "dataset": "2goy0",
 "page": "https://data.london.gov.uk/dataset/central-activities-zone-boundary-london-plan-consultation-2009-2goy0",
 "resources": [
  {
   "resource": "7bb0d660-f763-481d-b9e5-acabc661ec50",
   "file": "lp-consultation-oct-2009-central-activities-zone-shp.zip",
   "url": "https://data.london.gov.uk/download/2goy0/7bb0d660-f763-481d-b9e5-acabc661ec50/lp-consultation-oct-2009-central-activities-zone-shp.zip",
   "size": 13025,
   "resource_date": "2018-11-15",
   "fetched": "2026-10-04",
   "entries": 7
  }
 ],
 "licence": "Open Government Licence v2",
 "licence_url": "https://www.nationalarchives.gov.uk/doc/open-government-licence/version/2/",
 "attribution": "Contains public sector information licensed under the Open Government Licence v2 (Greater London Authority). The GLA cannot warrant the quality or accuracy of the data (London Datastore terms).",
 "dataset_modified": "2014-07-04",
 "update_frequency": null,
 "geo": "Custom Polygons",
 "theme": "buildings-places",
 "layers": [
  {
   "table": "lp-consultation-oct-2009-central-activities-zone",
   "srs": 27700
  }
 ],
 "crs_source": "EPSG:27700",
 "crs_output": "EPSG:4326 (WGS84), 6 decimal places; BNG to WGS84 through the OS OSTN15 grid (lib.mjs bngProjector)",
 "method": "lds-harvest-auto.mjs run 2goy0: resources chosen by the written rules (harvest-log.json meta.rules: formats, dedupe, caps); every feature read (GeoPackage, GeoJSON, shapefile, or table rows with coordinate columns as points, the CRS judged per row by value); a feature is kept when it meets the zone (the 3D model box, BNG E 532400-539900, N 176700-182300): a vertex inside, an edge crossing or the box inside a polygon; whole geometries kept, whole_in_zone and in_cw added; WGS84 6 decimals through OSTN15; contact fields dropped.",
 "counts": {
  "source_features": 1,
  "no_geometry": 0,
  "in_zone": 1,
  "in_cw": 0
 },
 "attributes_in_source": "yes",
 "fields_dropped": [],
 "harvest_rules": "tools/lds-harvest-auto.mjs AUTO_RULES (feeds/london-datastore/harvest-log.json meta.rules)",
 "selection_notes": [
  "1 format variants of a picked stem not read"
 ]
},
"features":[
{"type":"Feature","properties":{"Boundary":"Central Activities Zone","Area_Ha":3352.2,"Updated":"FALP - Sept 06","Source":"London Plan Consultation Draft","Comments":"Illustrative use only","Shape_Leng":47523.2583534,"Shape_Area":33522306.5643,"in_cw":false,"whole_in_zone":false},"geometry":{"type":"Polygon","coordinates":[[[-0.08001,51.497515],[-0.080016,51.49751],[-0.08021,51.497423],[-0.08036,51.49735],[-0.080457,51.497306],[-0.080855,51.497126],[-0.081793,51.496694],[-0.082006,51.496607],[-0.082214,51.496501],[-0.082406,51.496387],[-0.08258,51.496274],[-0.082757,51.496125],[-0.082932,51.495961],[-0.083074,51.495844],[-0.083448,51.495546],[-0.083657,51.495408],[-0.083844,51.495285],[-0.084234,51.495036],[-0.084824,51.494686],[-0.085016,51.49437],[-0.08508,51.494237],[-0.085142,51.494137],[-0.085238,51.494014],[-0.085168,51.493942],[-0.084893,51.493805],[-0.085289,51.493582],[-0.086607,51.492778],[-0.08726,51.492391],[-0.088231,51.492033],[-0.088606,51.491858],[-0.089035,51.491756],[-0.088919,51.491513],[-0.089153,51.491469],[-0.089238,51.491278],[-0.089976,51.49141],[-0.090027,51.491339],[-0.090103,51.491159],[-0.090152,51.491142],[-0.090336,51.491109],[-0.090619,51.49127],[-0.090737,51.491218],[-0.092486,51.490722],[-0.093433,51.490478],[-0.096467,51.489508],[-0.097212,51.489231],[-0.097763,51.488993],[-0.098315,51.488725],[-0.09862,51.489055],[-0.098841,51.489312],[-0.099126,51.489636],[-0.099496,51.49004],[-0.100083,51.48985],[-0.10069,51.489661],[-0.101325,51.489479],[-0.101525,51.489307],[-0.102177,51.489661],[-0.102603,51.489867],[-0.103245,51.490197],[-0.103778,51.490462],[-0.10324,51.491023],[-0.103179,51.491185],[-0.103371,51.491321],[-0.103047,51.491523],[-0.103349,51.491713],[-0.103349,51.491713],[-0.103349,51.491713],[-0.103313,51.491749],[-0.103582,51.491876],[-0.103687,51.491998],[-0.103855,51.491966],[-0.10408,51.492249],[-0.104164,51.49239],[-0.104375,51.492731],[-0.104375,51.492732],[-0.104559,51.492894],[-0.104674,51.493072],[-0.104755,51.493327],[-0.104809,51.493505],[-0.104842,51.493507],[-0.104973,51.493523],[-0.105104,51.493544],[-0.105164,51.493555],[-0.105263,51.493581],[-0.105297,51.493588],[-0.105593,51.493665],[-0.105717,51.493697],[-0.106315,51.493894],[-0.106603,51.493982],[-0.10687,51.494077],[-0.107134,51.494164],[-0.107647,51.494346],[-0.107936,51.494444],[-0.108726,51.494722],[-0.10982,51.495113],[-0.110639,51.495408],[-0.110639,51.495408],[-0.110639,51.495408],[-0.110681,51.495406],[-0.110685,51.495413],[-0.110788,51.495424],[-0.110932,51.4955],[-0.110948,51.495578],[-0.111417,51.496449],[-0.111174,51.496519],[-0.111215,51.496611],[-0.114927,51.495652],[-0.114927,51.495649],[-0.114927,51.495649],[-0.114927,51.495649],[-0.115054,51.495619],[-0.115054,51.495619],[-0.115054,51.495619],[-0.115572,51.495524],[-0.116057,51.494835],[-0.116156,51.494705],[-0.116184,51.494659],[-0.116824,51.493803],[-0.117504,51.493174],[-0.117943,51.492731],[-0.118266,51.492484],[-0.118707,51.492218],[-0.11919,51.491831],[-0.119103,51.491743],[-0.118109,51.491406],[-0.118428,51.49074],[-0.118798,51.489894],[-0.119089,51.489898],[-0.119546,51.488592],[-0.119123,51.48853],[-0.119226,51.48821],[-0.119344,51.488058],[-0.119229,51.487581],[-0.119127,51.486797],[-0.118477,51.486814],[-0.118239,51.486629],[-0.118199,51.486503],[-0.117752,51.485391],[-0.117888,51.485352],[-0.118271,51.485288],[-0.118255,51.485148],[-0.118503,51.485096],[-0.118383,51.484745],[-0.119397,51.485138],[-0.120146,51.48543],[-0.120561,51.485129],[-0.121301,51.485099],[-0.121397,51.484947],[-0.12263,51.484897],[-0.122702,51.484758],[-0.122928,51.484161],[-0.123069,51.483464],[-0.123354,51.48305],[-0.123658,51.482733],[-0.124004,51.482501],[-0.124306,51.482227],[-0.124466,51.481586],[-0.126754,51.481469],[-0.127651,51.481414],[-0.127812,51.480773],[-0.128108,51.480093],[-0.128352,51.479608],[-0.128412,51.479624],[-0.128409,51.479629],[-0.128669,51.479693],[-0.129193,51.479831],[-0.129977,51.480024],[-0.130529,51.48017],[-0.130637,51.4802],[-0.130645,51.480187],[-0.130655,51.48019],[-0.130694,51.480253],[-0.130795,51.480112],[-0.131361,51.479441],[-0.131387,51.479419],[-0.131522,51.479237],[-0.131711,51.478929],[-0.131766,51.478809],[-0.131993,51.478445],[-0.132022,51.478452],[-0.132097,51.478471],[-0.132555,51.477885],[-0.132659,51.477736],[-0.133011,51.477227],[-0.133455,51.476616],[-0.133747,51.476213],[-0.134585,51.475405],[-0.134855,51.475097],[-0.135647,51.475403],[-0.13593,51.475521],[-0.136432,51.47551],[-0.13692,51.475812],[-0.139556,51.477816],[-0.139848,51.478095],[-0.140055,51.478241],[-0.139294,51.478665],[-0.139212,51.478824],[-0.140645,51.479766],[-0.141488,51.479571],[-0.142532,51.479284],[-0.14386,51.478727],[-0.144997,51.478006],[-0.147839,51.477909],[-0.147863,51.478089],[-0.14816,51.478227],[-0.148492,51.47827],[-0.148519,51.478365],[-0.149202,51.48211],[-0.149514,51.483648],[-0.150008,51.485628],[-0.150062,51.485897],[-0.150095,51.485978],[-0.150171,51.486093],[-0.150342,51.486234],[-0.151389,51.486876],[-0.1517,51.487057],[-0.151812,51.487129],[-0.150332,51.489129],[-0.149848,51.49104],[-0.149085,51.491676],[-0.150452,51.492311],[-0.14952,51.493081],[-0.150191,51.493364],[-0.148555,51.494625],[-0.149045,51.494985],[-0.148044,51.495757],[-0.147536,51.496306],[-0.148535,51.497049],[-0.149043,51.497445],[-0.148582,51.497801],[-0.148186,51.497989],[-0.148186,51.497989],[-0.148186,51.497989],[-0.147932,51.498009],[-0.148152,51.498339],[-0.148717,51.498785],[-0.148674,51.498893],[-0.149457,51.499681],[-0.150025,51.500029],[-0.149385,51.500398],[-0.149385,51.500398],[-0.149385,51.500398],[-0.149369,51.500407],[-0.151188,51.501538],[-0.151203,51.501527],[-0.152465,51.500674],[-0.151102,51.499804],[-0.151302,51.499662],[-0.150886,51.499389],[-0.151027,51.49927],[-0.150936,51.499111],[-0.150651,51.498961],[-0.152644,51.497683],[-0.152644,51.497683],[-0.152644,51.497683],[-0.153042,51.497932],[-0.153242,51.49779],[-0.153368,51.497537],[-0.153369,51.497537],[-0.153369,51.497537],[-0.153892,51.497545],[-0.154054,51.497875],[-0.154207,51.497938],[-0.154586,51.497677],[-0.154586,51.497677],[-0.154586,51.497677],[-0.156362,51.498893],[-0.156362,51.498893],[-0.156362,51.498893],[-0.156148,51.498914],[-0.15525,51.499033],[-0.15512,51.49937],[-0.155838,51.499854],[-0.154214,51.500641],[-0.154268,51.50075],[-0.153943,51.501109],[-0.154382,51.501298],[-0.154824,51.501414],[-0.154941,51.501864],[-0.156326,51.501692],[-0.156361,51.501801],[-0.157066,51.501667],[-0.157236,51.502227],[-0.157236,51.502227],[-0.158367,51.502136],[-0.158372,51.502133],[-0.158569,51.50146],[-0.158569,51.50146],[-0.158569,51.50146],[-0.159078,51.501372],[-0.158554,51.499412],[-0.158554,51.499412],[-0.158554,51.499412],[-0.159546,51.499391],[-0.159564,51.499325],[-0.159591,51.499222],[-0.159591,51.499222],[-0.159591,51.499222],[-0.160322,51.49912],[-0.160372,51.499113],[-0.160906,51.499099],[-0.161208,51.49909],[-0.161666,51.499279],[-0.162205,51.498452],[-0.162205,51.498452],[-0.162205,51.498451],[-0.162612,51.498458],[-0.163152,51.498539],[-0.164427,51.499189],[-0.165495,51.498709],[-0.167403,51.497612],[-0.167403,51.497612],[-0.167403,51.497612],[-0.167424,51.497623],[-0.167424,51.497623],[-0.167764,51.497811],[-0.167984,51.49813],[-0.16822,51.498546],[-0.168369,51.498681],[-0.168432,51.49907],[-0.170271,51.498851],[-0.170218,51.498778],[-0.169986,51.498459],[-0.169236,51.49742],[-0.168812,51.496834],[-0.169699,51.496508],[-0.171347,51.496074],[-0.173631,51.49577],[-0.179039,51.495347],[-0.179081,51.495521],[-0.179547,51.497779],[-0.179725,51.498687],[-0.179836,51.499213],[-0.179921,51.499685],[-0.180157,51.500782],[-0.180274,51.501327],[-0.180283,51.501327],[-0.180312,51.501462],[-0.180907,51.501423],[-0.181351,51.501431],[-0.181633,51.501422],[-0.182037,51.501449],[-0.182385,51.501479],[-0.182591,51.501499],[-0.183057,51.501568],[-0.184235,51.501795],[-0.184406,51.501842],[-0.184563,51.501856],[-0.184741,51.501894],[-0.185661,51.502069],[-0.185815,51.502116],[-0.185912,51.502138],[-0.186096,51.502168],[-0.186269,51.502181],[-0.187601,51.502334],[-0.187744,51.502363],[-0.187999,51.502393],[-0.18811,51.502397],[-0.188243,51.502395],[-0.188403,51.502385],[-0.188613,51.502404],[-0.188821,51.502396],[-0.188958,51.502383],[-0.189093,51.502362],[-0.189215,51.502338],[-0.189531,51.50226],[-0.189692,51.502231],[-0.189776,51.502215],[-0.190176,51.503031],[-0.190576,51.503704],[-0.191938,51.505609],[-0.193526,51.508166],[-0.193832,51.508759],[-0.194038,51.509488],[-0.192184,51.509843],[-0.19212,51.509869],[-0.191699,51.509941],[-0.190913,51.51002],[-0.189696,51.510078],[-0.188538,51.510159],[-0.187909,51.51018],[-0.185083,51.510413],[-0.184845,51.510438],[-0.184416,51.510424],[-0.184243,51.510428],[-0.184084,51.51044],[-0.183783,51.510482],[-0.183422,51.510489],[-0.183078,51.510512],[-0.182776,51.510552],[-0.18232,51.510594],[-0.182207,51.510611],[-0.181748,51.510677],[-0.181028,51.510792],[-0.179148,51.511116],[-0.160831,51.513274],[-0.162702,51.51455],[-0.163278,51.514944],[-0.163279,51.514944],[-0.163605,51.514844],[-0.163728,51.514924],[-0.163785,51.514921],[-0.168109,51.517752],[-0.1698,51.518873],[-0.1698,51.518873],[-0.1698,51.518873],[-0.171226,51.518065],[-0.171226,51.518065],[-0.17123,51.518062],[-0.177205,51.514733],[-0.180837,51.516933],[-0.180837,51.516933],[-0.180837,51.516933],[-0.180786,51.516961],[-0.182057,51.517714],[-0.182785,51.518198],[-0.183177,51.518144],[-0.184217,51.517839],[-0.184641,51.51796],[-0.185265,51.518115],[-0.186029,51.518212],[-0.186339,51.518229],[-0.187153,51.518029],[-0.187732,51.517869],[-0.188477,51.517692],[-0.188806,51.517994],[-0.188924,51.51819],[-0.188922,51.518481],[-0.18885,51.518819],[-0.188699,51.519702],[-0.187622,51.519679],[-0.185826,51.519633],[-0.184972,51.51965],[-0.184466,51.51966],[-0.183774,51.519734],[-0.182458,51.520078],[-0.180497,51.521029],[-0.179484,51.520383],[-0.178579,51.520076],[-0.177175,51.520117],[-0.17552,51.52006],[-0.173555,51.520109],[-0.173069,51.520247],[-0.172636,51.520398],[-0.172009,51.520515],[-0.171539,51.520629],[-0.171496,51.520651],[-0.171009,51.520579],[-0.170652,51.520527],[-0.170543,51.52051],[-0.169222,51.520993],[-0.168247,51.521335],[-0.165325,51.522265],[-0.156023,51.523143],[-0.155965,51.523148],[-0.156847,51.523429],[-0.158164,51.524007],[-0.159754,51.524565],[-0.161038,51.52547],[-0.162428,51.52617],[-0.164289,51.527242],[-0.165339,51.527943],[-0.167638,51.529736],[-0.168097,51.5299],[-0.167874,51.530139],[-0.167576,51.530777],[-0.167013,51.531738],[-0.166286,51.532902],[-0.165531,51.533799],[-0.164645,51.534585],[-0.163452,51.535257],[-0.161208,51.535973],[-0.159473,51.536411],[-0.15942,51.536364],[-0.159413,51.536363],[-0.158606,51.536521],[-0.157554,51.536754],[-0.155824,51.537106],[-0.155457,51.537207],[-0.155196,51.537267],[-0.154969,51.537312],[-0.154721,51.537351],[-0.154398,51.537393],[-0.154156,51.537421],[-0.153903,51.537443],[-0.153391,51.537473],[-0.152707,51.537521],[-0.152463,51.537536],[-0.151983,51.537549],[-0.151832,51.537549],[-0.151559,51.53754],[-0.151257,51.537516],[-0.150626,51.537433],[-0.150278,51.537394],[-0.150099,51.537363],[-0.149962,51.537333],[-0.149732,51.537272],[-0.14944,51.537186],[-0.149187,51.537105],[-0.148874,51.537027],[-0.148627,51.536937],[-0.148139,51.536744],[-0.147881,51.536634],[-0.147347,51.536386],[-0.147187,51.536316],[-0.146797,51.536146],[-0.146744,51.536204],[-0.14655,51.536118],[-0.146941,51.535591],[-0.144724,51.530866],[-0.144244,51.529756],[-0.144144,51.528409],[-0.144157,51.527597],[-0.144146,51.525756],[-0.144026,51.52575],[-0.142037,51.525719],[-0.141569,51.525802],[-0.14083,51.526125],[-0.14083,51.527203],[-0.138681,51.527196],[-0.138585,51.528481],[-0.138695,51.530059],[-0.138972,51.531449],[-0.138794,51.531537],[-0.137851,51.531169],[-0.13667,51.530914],[-0.136397,51.530847],[-0.135389,51.531003],[-0.135078,51.531134],[-0.134297,51.530651],[-0.131295,51.527965],[-0.1302,51.528411],[-0.128176,51.529223],[-0.128008,51.529258],[-0.128979,51.530238],[-0.129001,51.530259],[-0.12899,51.530263],[-0.127152,51.530908],[-0.127732,51.532531],[-0.127762,51.532538],[-0.127751,51.532542],[-0.127864,51.532883],[-0.128073,51.533468],[-0.128525,51.534275],[-0.129113,51.535121],[-0.129435,51.53624],[-0.12954,51.537018],[-0.129516,51.537599],[-0.129461,51.538459],[-0.12978,51.539227],[-0.13075,51.541157],[-0.130695,51.541157],[-0.130684,51.541127],[-0.128869,51.54111],[-0.127046,51.541046],[-0.126808,51.54105],[-0.126352,51.541058],[-0.12587,51.541081],[-0.12506,51.541118],[-0.125067,51.541194],[-0.125077,51.541207],[-0.125015,51.541211],[-0.123745,51.541361],[-0.122588,51.541621],[-0.122826,51.540558],[-0.122939,51.539227],[-0.12286,51.538311],[-0.122648,51.538041],[-0.12248,51.537632],[-0.122254,51.53698],[-0.122248,51.535968],[-0.122177,51.535567],[-0.120464,51.535406],[-0.120449,51.533631],[-0.121586,51.533619],[-0.121684,51.53242],[-0.121666,51.531687],[-0.120841,51.53168],[-0.120996,51.53144],[-0.121031,51.531059],[-0.121038,51.530883],[-0.120562,51.530918],[-0.119323,51.531007],[-0.119521,51.532107],[-0.118362,51.532167],[-0.118242,51.531093],[-0.116975,51.531169],[-0.117125,51.532256],[-0.11448,51.532535],[-0.114189,51.531373],[-0.113027,51.531512],[-0.113161,51.532017],[-0.112157,51.532098],[-0.112294,51.532542],[-0.111397,51.532631],[-0.111456,51.533311],[-0.111535,51.533991],[-0.109922,51.534231],[-0.109327,51.534288],[-0.10885,51.534317],[-0.107186,51.534617],[-0.107127,51.535798],[-0.107017,51.536099],[-0.105432,51.536146],[-0.105329,51.53675],[-0.104892,51.536756],[-0.10428,51.536733],[-0.103402,51.536574],[-0.10224,51.536258],[-0.103468,51.535708],[-0.104134,51.535095],[-0.103707,51.534864],[-0.103086,51.534606],[-0.1025,51.534445],[-0.103388,51.533423],[-0.104904,51.533877],[-0.105166,51.533652],[-0.103576,51.533111],[-0.104312,51.532226],[-0.104752,51.531675],[-0.10381,51.531448],[-0.103405,51.532054],[-0.101229,51.531134],[-0.101396,51.530852],[-0.10034,51.530562],[-0.097957,51.529929],[-0.097671,51.530494],[-0.095031,51.529967],[-0.09499,51.529987],[-0.092448,51.530268],[-0.092382,51.529916],[-0.091471,51.530066],[-0.091127,51.52926],[-0.090805,51.529298],[-0.090471,51.529342],[-0.08998,51.529306],[-0.089581,51.529257],[-0.089238,51.529251],[-0.088834,51.529316],[-0.088294,51.529305],[-0.087336,51.529352],[-0.087402,51.528364],[-0.086874,51.528356],[-0.085164,51.528344],[-0.08513,51.527354],[-0.083617,51.527439],[-0.083704,51.526498],[-0.082142,51.526678],[-0.081263,51.526791],[-0.080705,51.526891],[-0.079962,51.527243],[-0.079962,51.527243],[-0.079962,51.527243],[-0.078108,51.527218],[-0.077582,51.527271],[-0.076712,51.527595],[-0.075698,51.528379],[-0.075698,51.528379],[-0.075698,51.528379],[-0.075371,51.528288],[-0.075283,51.528081],[-0.074909,51.527057],[-0.074963,51.526918],[-0.076301,51.527152],[-0.076652,51.526258],[-0.076597,51.525768],[-0.076518,51.52468],[-0.075199,51.524783],[-0.074937,51.523634],[-0.074949,51.523567],[-0.07293,51.52354],[-0.071534,51.523475],[-0.071579,51.523252],[-0.071562,51.523256],[-0.071679,51.522658],[-0.071694,51.522667],[-0.071797,51.522079],[-0.071841,51.521953],[-0.073089,51.522064],[-0.075361,51.522108],[-0.076147,51.522102],[-0.076397,51.522016],[-0.076413,51.52201],[-0.074874,51.520742],[-0.074763,51.520607],[-0.074449,51.520226],[-0.074394,51.51922],[-0.074397,51.519076],[-0.074412,51.518317],[-0.073953,51.517934],[-0.072737,51.517987],[-0.072716,51.517562],[-0.072209,51.517608],[-0.072058,51.517036],[-0.070514,51.517265],[-0.068917,51.517584],[-0.067314,51.518073],[-0.067314,51.518073],[-0.067314,51.518073],[-0.066694,51.517342],[-0.066752,51.517112],[-0.066533,51.516563],[-0.06594,51.515408],[-0.065132,51.515486],[-0.064957,51.51478],[-0.064957,51.51478],[-0.064957,51.51478],[-0.06554,51.51479],[-0.065495,51.514256],[-0.065495,51.514256],[-0.065495,51.514256],[-0.066532,51.514279],[-0.066551,51.514074],[-0.066677,51.513833],[-0.066834,51.513575],[-0.067009,51.513342],[-0.067106,51.513119],[-0.067022,51.512815],[-0.06684,51.511376],[-0.066801,51.510909],[-0.066801,51.510909],[-0.066801,51.510909],[-0.067798,51.510819],[-0.066982,51.509179],[-0.066982,51.509165],[-0.06644,51.509284],[-0.065933,51.509316],[-0.065688,51.509265],[-0.064618,51.509259],[-0.064607,51.508684],[-0.065494,51.508666],[-0.065812,51.508552],[-0.065649,51.50829],[-0.065678,51.507596],[-0.066524,51.507548],[-0.066565,51.507548],[-0.066555,51.506887],[-0.066663,51.506616],[-0.066881,51.506505],[-0.067207,51.506365],[-0.067382,51.506155],[-0.067533,51.506013],[-0.067895,51.505734],[-0.068073,51.505179],[-0.068068,51.505172],[-0.06778,51.505058],[-0.067916,51.504957],[-0.067908,51.504946],[-0.068299,51.504478],[-0.070402,51.502038],[-0.070399,51.502035],[-0.070656,51.501744],[-0.071551,51.501013],[-0.071722,51.500865],[-0.072457,51.500477],[-0.07277,51.500185],[-0.072766,51.500182],[-0.072765,51.500182],[-0.072766,51.500182],[-0.07304,51.500226],[-0.073449,51.500291],[-0.073449,51.500291],[-0.07473,51.500521],[-0.076052,51.500163],[-0.076052,51.500163],[-0.076052,51.500163],[-0.07607,51.500158],[-0.078124,51.501231],[-0.078331,51.500816],[-0.078569,51.500217],[-0.078939,51.499464],[-0.079289,51.49871],[-0.079766,51.497705],[-0.079851,51.497639],[-0.079865,51.497623],[-0.079951,51.497541],[-0.08001,51.497515]]]}}
]}
