{"type":"FeatureCollection","meta":{
 "source": "London Datastore: Sub-regions (London Plan Consultation 2009) (Greater London Authority)",
 "dataset": "2ry4d",
 "page": "https://data.london.gov.uk/dataset/sub-regions-london-plan-consultation-2009-2ry4d",
 "resources": [
  {
   "resource": "ab02f0a3-ba7b-4384-b850-bddc28af29a9",
   "file": "lp-consultation-oct-2009-subregions-shp.zip",
   "url": "https://data.london.gov.uk/download/2ry4d/ab02f0a3-ba7b-4384-b850-bddc28af29a9/lp-consultation-oct-2009-subregions-shp.zip",
   "size": 216393,
   "resource_date": "2018-11-15",
   "fetched": "2026-10-04",
   "entries": 7
  }
 ],
 "licence": "Open Government Licence v2",
 "licence_url": "https://www.nationalarchives.gov.uk/doc/open-government-licence/version/2/",
 "attribution": "Contains public sector information licensed under the Open Government Licence v2 (Greater London Authority). The GLA cannot warrant the quality or accuracy of the data (London Datastore terms).",
 "dataset_modified": "2014-07-04",
 "update_frequency": null,
 "geo": "Custom Polygons",
 "theme": "buildings-places",
 "layers": [
  {
   "table": "lp-consultation-oct-2009-subregions",
   "srs": 27700
  }
 ],
 "crs_source": "EPSG:27700",
 "crs_output": "EPSG:4326 (WGS84), 6 decimal places; BNG to WGS84 through the OS OSTN15 grid (lib.mjs bngProjector)",
 "method": "lds-harvest-auto.mjs run 2ry4d: resources chosen by the written rules (harvest-log.json meta.rules: formats, dedupe, caps); every feature read (GeoPackage, GeoJSON, shapefile, or table rows with coordinate columns as points, the CRS judged per row by value); a feature is kept when it meets the zone (the 3D model box, BNG E 532400-539900, N 176700-182300): a vertex inside, an edge crossing or the box inside a polygon; whole geometries kept, whole_in_zone and in_cw added; WGS84 6 decimals through OSTN15; contact fields dropped.",
 "counts": {
  "source_features": 5,
  "no_geometry": 0,
  "in_zone": 2,
  "in_cw": 2
 },
 "attributes_in_source": "yes",
 "fields_dropped": [],
 "harvest_rules": "tools/lds-harvest-auto.mjs AUTO_RULES (feeds/london-datastore/harvest-log.json meta.rules)",
 "selection_notes": [
  "1 format variants of a picked stem not read",
  "lp-consultation-oct-2009-subregions-shp.zip: 2 polygons with over 1000 vertices cut to the zone box plus 500 m (clipped_to_zone)"
 ]
},
"features":[
{"type":"Feature","properties":{"Name":"Central","Source":"London Plan Consultation Draft","Hectares":13136.0203149,"Shape_Leng":75359.3131393,"Shape_Area":131360203.074,"clipped_to_zone":true,"in_cw":true,"whole_in_zone":false},"geometry":{"type":"Polygon","coordinates":[[[-0.102388,51.469403],[-0.099922,51.528715],[-0.093074,51.528604],[-0.089575,51.527706],[-0.089024,51.527549],[-0.088754,51.527445],[-0.088637,51.527392],[-0.088572,51.527355],[-0.088526,51.527318],[-0.088459,51.527241],[-0.088284,51.527071],[-0.088106,51.526819],[-0.087812,51.526234],[-0.087778,51.526109],[-0.087414,51.52596],[-0.087006,51.525851],[-0.086769,51.525791],[-0.08643,51.525866],[-0.084995,51.526205],[-0.084725,51.525417],[-0.085005,51.525207],[-0.085245,51.52485],[-0.085384,51.524595],[-0.085417,51.524513],[-0.085085,51.524429],[-0.085113,51.523927],[-0.084502,51.523899],[-0.084197,51.523903],[-0.084289,51.523603],[-0.084312,51.523403],[-0.084415,51.522492],[-0.084498,51.522073],[-0.084677,51.521608],[-0.08488,51.520995],[-0.085041,51.520631],[-0.085192,51.520336],[-0.083299,51.519816],[-0.082708,51.52007],[-0.0823,51.520316],[-0.081991,51.520557],[-0.081769,51.520734],[-0.081736,51.520759],[-0.081523,51.521023],[-0.081258,51.521434],[-0.081024,51.521955],[-0.080733,51.521891],[-0.079743,51.521672],[-0.078445,51.521512],[-0.078704,51.521041],[-0.078785,51.52074],[-0.078817,51.520658],[-0.078814,51.520654],[-0.078964,51.520115],[-0.079147,51.519453],[-0.079404,51.518847],[-0.078308,51.518947],[-0.078056,51.518969],[-0.078022,51.518487],[-0.078121,51.51847],[-0.07794,51.518252],[-0.077777,51.51811],[-0.077708,51.518038],[-0.07766,51.517975],[-0.077617,51.517867],[-0.077377,51.517447],[-0.077344,51.517397],[-0.076892,51.516708],[-0.076831,51.516638],[-0.076793,51.516593],[-0.076408,51.516259],[-0.07512,51.515356],[-0.074788,51.515101],[-0.074416,51.514792],[-0.07428,51.514689],[-0.073943,51.514455],[-0.073638,51.514133],[-0.073461,51.513677],[-0.073366,51.513378],[-0.073363,51.513373],[-0.073241,51.512946],[-0.073117,51.512342],[-0.073037,51.51181],[-0.073018,51.511683],[-0.072957,51.511443],[-0.07289,51.511255],[-0.072801,51.511085],[-0.072745,51.510874],[-0.072738,51.510806],[-0.072723,51.510642],[-0.072734,51.510361],[-0.072755,51.5103],[-0.072809,51.510241],[-0.072888,51.510149],[-0.072965,51.510106],[-0.073115,51.510109],[-0.073495,51.51011],[-0.073807,51.510095],[-0.074023,51.510052],[-0.074171,51.51001],[-0.074395,51.509947],[-0.074592,51.509967],[-0.074808,51.509995],[-0.075386,51.509802],[-0.07554,51.509756],[-0.075558,51.509751],[-0.075595,51.509789],[-0.075615,51.509806],[-0.075668,51.509855],[-0.075673,51.509858],[-0.075732,51.509887],[-0.07575,51.510083],[-0.075755,51.51013],[-0.076056,51.510108],[-0.076125,51.510458],[-0.076146,51.510458],[-0.07625,51.510455],[-0.07626,51.510545],[-0.076533,51.510527],[-0.076869,51.510506],[-0.076868,51.510472],[-0.07686,51.510341],[-0.076857,51.510261],[-0.076893,51.510215],[-0.077052,51.510205],[-0.077552,51.510173],[-0.077763,51.510116],[-0.077937,51.510027],[-0.078141,51.509883],[-0.078372,51.509657],[-0.078476,51.509513],[-0.078489,51.509445],[-0.078518,51.509442],[-0.078857,51.509413],[-0.078937,51.509123],[-0.079023,51.509117],[-0.079073,51.509059],[-0.079063,51.509056],[-0.078722,51.50894],[-0.078765,51.508852],[-0.078711,51.508834],[-0.078695,51.508829],[-0.07871,51.508811],[-0.078845,51.508653],[-0.079021,51.508414],[-0.079029,51.508333],[-0.079077,51.508222],[-0.079217,51.507895],[-0.079319,51.507908],[-0.079354,51.507844],[-0.079379,51.507794],[-0.079524,51.507727],[-0.079731,51.5076],[-0.079755,51.507585],[-0.080164,51.506871],[-0.080107,51.506853],[-0.080176,51.50685],[-0.079903,51.506781],[-0.079231,51.50658],[-0.078812,51.50646],[-0.078225,51.506316],[-0.078225,51.506316],[-0.078193,51.506308],[-0.07741,51.506079],[-0.076312,51.505775],[-0.075215,51.505454],[-0.07403,51.505188],[-0.073733,51.505114],[-0.073175,51.504953],[-0.072692,51.504785],[-0.071821,51.504407],[-0.071251,51.504148],[-0.070895,51.503977],[-0.070454,51.503797],[-0.070192,51.503702],[-0.070074,51.503659],[-0.069839,51.503586],[-0.069112,51.503367],[-0.068181,51.503116],[-0.067882,51.503032],[-0.067692,51.503009],[-0.067691,51.503009],[-0.066929,51.502796],[-0.066501,51.502697],[-0.066155,51.502595],[-0.065892,51.502525],[-0.064636,51.502259],[-0.064206,51.502172],[-0.063584,51.502076],[-0.063081,51.502005],[-0.062366,51.501915],[-0.060877,51.501714],[-0.06042,51.501695],[-0.060179,51.501671],[-0.060039,51.501665],[-0.059866,51.501666],[-0.059501,51.501716],[-0.058795,51.501814],[-0.058273,51.501895],[-0.057678,51.501992],[-0.057199,51.502083],[-0.056941,51.502153],[-0.056354,51.502303],[-0.056352,51.502304],[-0.055954,51.502392],[-0.055553,51.502518],[-0.05514,51.502676],[-0.054848,51.502796],[-0.054847,51.502796],[-0.053626,51.503441],[-0.052763,51.503953],[-0.052389,51.504167],[-0.052226,51.504249],[-0.051802,51.504465],[-0.051408,51.504674],[-0.049426,51.505836],[-0.04862,51.506298],[-0.04812,51.506584],[-0.046928,51.507225],[-0.046541,51.507411],[-0.046369,51.507498],[-0.045954,51.507709],[-0.045469,51.507935],[-0.045125,51.508054],[-0.0443,51.508274],[-0.043905,51.508372],[-0.043585,51.508437],[-0.043322,51.508481],[-0.042689,51.508543],[-0.042077,51.50859],[-0.041312,51.508626],[-0.040903,51.508636],[-0.040556,51.508637],[-0.040208,51.508629],[-0.03886,51.508577],[-0.038468,51.508561],[-0.038171,51.508538],[-0.037798,51.508487],[-0.037466,51.508418],[-0.037213,51.508358],[-0.036707,51.508222],[-0.035608,51.507957],[-0.035572,51.507947],[-0.035559,51.507942],[-0.03494,51.507724],[-0.034312,51.507524],[-0.033516,51.507272],[-0.033022,51.507161],[-0.032177,51.506882],[-0.031782,51.506665],[-0.031628,51.506547],[-0.031324,51.506312],[-0.031262,51.506275],[-0.031124,51.50622],[-0.031006,51.506191],[-0.030951,51.506168],[-0.030839,51.506114],[-0.030692,51.506033],[-0.030587,51.505968],[-0.030586,51.505968],[-0.030566,51.505944],[-0.030475,51.505837],[-0.030291,51.505671],[-0.030055,51.505404],[-0.029972,51.505224],[-0.029882,51.505098],[-0.029811,51.504912],[-0.029688,51.50464],[-0.029575,51.5044],[-0.029574,51.504398],[-0.029566,51.504356],[-0.029567,51.504356],[-0.02961,51.504253],[-0.029635,51.504061],[-0.02958,51.503818],[-0.029524,51.503496],[-0.029428,51.50303],[-0.029357,51.502735],[-0.029357,51.502734],[-0.029361,51.502632],[-0.029362,51.502629],[-0.029395,51.502487],[-0.029405,51.50235],[-0.029429,51.502095],[-0.029536,51.501119],[-0.029826,51.499545],[-0.029892,51.499253],[-0.029955,51.498865],[-0.029996,51.498409],[-0.030004,51.498055],[-0.030083,51.497149],[-0.030084,51.497146],[-0.030097,51.497063],[-0.030178,51.496068],[-0.030192,51.495741],[-0.030188,51.495488],[-0.030181,51.495334],[-0.030151,51.494686],[-0.030065,51.494202],[-0.029921,51.493564],[-0.03174,51.493194],[-0.03179,51.493163],[-0.032375,51.493026],[-0.032624,51.492968],[-0.032611,51.492932],[-0.03321,51.492825],[-0.03331,51.493014],[-0.035212,51.492634],[-0.037289,51.49222],[-0.037351,51.492224],[-0.03745,51.492231],[-0.037474,51.492232],[-0.037504,51.492235],[-0.037534,51.492237],[-0.037565,51.492239],[-0.037595,51.492242],[-0.037625,51.492247],[-0.037628,51.492248],[-0.037668,51.492254],[-0.037706,51.492262],[-0.037745,51.492272],[-0.037783,51.492282],[-0.03782,51.492293],[-0.037857,51.492305],[-0.037891,51.492317],[-0.037928,51.492329],[-0.037964,51.492343],[-0.037997,51.492357],[-0.038031,51.492372],[-0.038065,51.492387],[-0.038098,51.492403],[-0.038209,51.492469],[-0.038361,51.492557],[-0.038384,51.492578],[-0.038418,51.492602],[-0.038453,51.492627],[-0.038488,51.492652],[-0.038525,51.492676],[-0.038563,51.492698],[-0.038601,51.492722],[-0.038641,51.492743],[-0.038682,51.492763],[-0.038691,51.492768],[-0.038725,51.492785],[-0.038762,51.492802],[-0.038797,51.492817],[-0.038834,51.492833],[-0.038872,51.492848],[-0.038909,51.492863],[-0.038948,51.492876],[-0.038987,51.492889],[-0.039026,51.492901],[-0.039067,51.492913],[-0.039107,51.492923],[-0.039148,51.492933],[-0.039165,51.492936],[-0.039197,51.492943],[-0.03923,51.49295],[-0.039261,51.492956],[-0.039294,51.492962],[-0.039327,51.492967],[-0.03936,51.492972],[-0.039394,51.492976],[-0.039427,51.492979],[-0.03946,51.492982],[-0.039493,51.492985],[-0.039528,51.492986],[-0.039561,51.492988],[-0.039594,51.492988],[-0.039629,51.492987],[-0.039662,51.492986],[-0.039678,51.492985],[-0.039711,51.492983],[-0.039746,51.492979],[-0.039777,51.492975],[-0.039811,51.492971],[-0.039844,51.492965],[-0.039876,51.49296],[-0.039908,51.492953],[-0.03994,51.492946],[-0.040344,51.492831],[-0.040527,51.4928],[-0.040537,51.492795],[-0.040044,51.492164],[-0.041029,51.491829],[-0.040318,51.491063],[-0.042482,51.490241],[-0.0422,51.490036],[-0.042331,51.490029],[-0.042715,51.490022],[-0.044473,51.490107],[-0.044527,51.490127],[-0.04455,51.490143],[-0.044711,51.490363],[-0.044732,51.490443],[-0.045109,51.490378],[-0.04509,51.490333],[-0.045496,51.490236],[-0.045806,51.490163],[-0.045901,51.49022],[-0.046138,51.490367],[-0.046541,51.490342],[-0.04654,51.490473],[-0.046541,51.490745],[-0.04757,51.490447],[-0.047524,51.49037],[-0.049194,51.489986],[-0.049235,51.490043],[-0.049332,51.490022],[-0.049687,51.489946],[-0.049631,51.489865],[-0.050319,51.489748],[-0.050791,51.489618],[-0.051126,51.489551],[-0.05144,51.489439],[-0.051933,51.489136],[-0.050144,51.488362],[-0.049961,51.488283],[-0.050227,51.488072],[-0.050367,51.48796],[-0.050328,51.487923],[-0.050571,51.487832],[-0.050716,51.487912],[-0.050782,51.487948],[-0.05106,51.487862],[-0.051259,51.487853],[-0.051687,51.487879],[-0.052046,51.487835],[-0.052355,51.487771],[-0.052451,51.48766],[-0.052548,51.487549],[-0.052684,51.487589],[-0.05399,51.48797],[-0.053629,51.487357],[-0.053607,51.487336],[-0.053241,51.486972],[-0.053077,51.486968],[-0.052867,51.486678],[-0.052818,51.486373],[-0.052848,51.486359],[-0.052798,51.486206],[-0.052911,51.486193],[-0.052928,51.486031],[-0.053064,51.486011],[-0.053009,51.485858],[-0.053514,51.485777],[-0.053492,51.485579],[-0.053375,51.485299],[-0.053224,51.485214],[-0.053172,51.485102],[-0.053036,51.484825],[-0.053012,51.484608],[-0.052988,51.484389],[-0.053078,51.48437],[-0.052959,51.483581],[-0.052867,51.483576],[-0.052826,51.483466],[-0.05298,51.483461],[-0.05293,51.482784],[-0.052832,51.482769],[-0.052831,51.482676],[-0.05296,51.482671],[-0.053072,51.481871],[-0.053259,51.481059],[-0.053136,51.481049],[-0.053182,51.480924],[-0.05326,51.480917],[-0.053458,51.480532],[-0.053476,51.480414],[-0.053344,51.480397],[-0.053397,51.480301],[-0.053523,51.48031],[-0.053572,51.480235],[-0.053483,51.480061],[-0.053642,51.479778],[-0.053766,51.479806],[-0.054069,51.479291],[-0.05391,51.479237],[-0.054303,51.478606],[-0.052674,51.478009],[-0.052722,51.476302],[-0.052737,51.47384],[-0.052731,51.472934],[-0.052077,51.470855],[-0.05169,51.469761],[-0.051694,51.469704],[-0.051705,51.469674],[-0.051757,51.469614],[-0.052134,51.469357],[-0.052256,51.469214],[-0.051812,51.468696],[-0.0517,51.468571],[-0.102388,51.469403]]]}},
{"type":"Feature","properties":{"Name":"East","Source":"London Plan Consultation Draft","Hectares":47673.7673837,"Shape_Leng":141310.683554,"Shape_Area":476737673.868,"clipped_to_zone":true,"in_cw":true,"whole_in_zone":false},"geometry":{"type":"Polygon","coordinates":[[[0.022534,51.526667],[0.019909,51.467359],[-0.051658,51.46857],[-0.051659,51.468571],[-0.052015,51.468955],[-0.052256,51.469214],[-0.052126,51.469338],[-0.051757,51.469614],[-0.051661,51.469702],[-0.051661,51.469758],[-0.051776,51.470081],[-0.051955,51.47061],[-0.052148,51.471211],[-0.052731,51.472934],[-0.052737,51.47384],[-0.052722,51.476302],[-0.052674,51.478009],[-0.054303,51.478606],[-0.053922,51.479206],[-0.053927,51.479208],[-0.053928,51.479208],[-0.05391,51.479237],[-0.053974,51.479259],[-0.053682,51.479787],[-0.053682,51.479787],[-0.053642,51.479778],[-0.053629,51.479801],[-0.053628,51.479801],[-0.053596,51.479792],[-0.053496,51.479966],[-0.053452,51.480078],[-0.053445,51.480162],[-0.053495,51.480238],[-0.053548,51.480246],[-0.053548,51.480273],[-0.053523,51.48031],[-0.053397,51.480301],[-0.053388,51.480318],[-0.053333,51.480309],[-0.053331,51.480357],[-0.053363,51.480362],[-0.053363,51.480362],[-0.053344,51.480397],[-0.053476,51.480414],[-0.053464,51.48049],[-0.053464,51.48049],[-0.053402,51.480516],[-0.05328,51.480771],[-0.053243,51.480839],[-0.053193,51.480923],[-0.053182,51.480924],[-0.053161,51.48098],[-0.053131,51.481032],[-0.053142,51.481031],[-0.053143,51.481031],[-0.053136,51.481049],[-0.053225,51.481057],[-0.053093,51.481448],[-0.053027,51.481748],[-0.052992,51.481966],[-0.052949,51.482402],[-0.052917,51.482641],[-0.052786,51.482645],[-0.052793,51.482745],[-0.052832,51.482747],[-0.052832,51.482769],[-0.05293,51.482784],[-0.052931,51.482798],[-0.05293,51.482803],[-0.052924,51.48292],[-0.052953,51.483385],[-0.052896,51.483409],[-0.052897,51.483458],[-0.052775,51.483467],[-0.052807,51.483567],[-0.052864,51.483568],[-0.052867,51.483576],[-0.052959,51.483581],[-0.053078,51.48437],[-0.052988,51.484389],[-0.052939,51.484397],[-0.052974,51.48461],[-0.052975,51.484615],[-0.053015,51.484832],[-0.053072,51.485164],[-0.053143,51.48517],[-0.05317,51.485219],[-0.053224,51.485214],[-0.053375,51.485299],[-0.053492,51.485579],[-0.053514,51.485777],[-0.053009,51.485858],[-0.053054,51.485984],[-0.053054,51.485984],[-0.052923,51.486005],[-0.052921,51.486101],[-0.052911,51.486193],[-0.052798,51.486206],[-0.052848,51.486359],[-0.052818,51.486373],[-0.052831,51.48645],[-0.052818,51.486471],[-0.052855,51.486602],[-0.052856,51.486606],[-0.052867,51.486678],[-0.052905,51.486731],[-0.052908,51.486735],[-0.052968,51.486841],[-0.053004,51.486868],[-0.053077,51.486968],[-0.053162,51.48697],[-0.053229,51.486985],[-0.053296,51.487027],[-0.05349,51.48722],[-0.053539,51.487283],[-0.053703,51.487518],[-0.053952,51.487936],[-0.052864,51.487635],[-0.052605,51.487553],[-0.052596,51.487563],[-0.052548,51.487549],[-0.052451,51.48766],[-0.052355,51.487771],[-0.052136,51.487816],[-0.052094,51.487823],[-0.051724,51.487808],[-0.051283,51.487799],[-0.05109,51.487826],[-0.050744,51.487928],[-0.050716,51.487912],[-0.050571,51.487832],[-0.050328,51.487923],[-0.050367,51.48796],[-0.050227,51.488072],[-0.049961,51.488283],[-0.050083,51.488336],[-0.050144,51.488362],[-0.051933,51.489136],[-0.05144,51.489439],[-0.051126,51.489551],[-0.050791,51.489618],[-0.050319,51.489748],[-0.049631,51.489865],[-0.049687,51.489946],[-0.049332,51.490022],[-0.049235,51.490043],[-0.049194,51.489986],[-0.047524,51.49037],[-0.04757,51.490447],[-0.046541,51.490745],[-0.04654,51.490473],[-0.046541,51.490342],[-0.046138,51.490367],[-0.045901,51.49022],[-0.045806,51.490163],[-0.045496,51.490236],[-0.04509,51.490333],[-0.045109,51.490378],[-0.044732,51.490443],[-0.044711,51.490363],[-0.04455,51.490143],[-0.044527,51.490127],[-0.044473,51.490107],[-0.042715,51.490022],[-0.042331,51.490029],[-0.0422,51.490036],[-0.042482,51.490241],[-0.040318,51.491063],[-0.041029,51.491829],[-0.040044,51.492164],[-0.040537,51.492795],[-0.040527,51.4928],[-0.040344,51.492831],[-0.03994,51.492946],[-0.039908,51.492953],[-0.039876,51.49296],[-0.039844,51.492965],[-0.039811,51.492971],[-0.039777,51.492975],[-0.039746,51.492979],[-0.039711,51.492983],[-0.039678,51.492985],[-0.039662,51.492986],[-0.039629,51.492987],[-0.039594,51.492988],[-0.039561,51.492988],[-0.039528,51.492986],[-0.039493,51.492985],[-0.03946,51.492982],[-0.039427,51.492979],[-0.039394,51.492976],[-0.03936,51.492972],[-0.039327,51.492967],[-0.039294,51.492962],[-0.039261,51.492956],[-0.03923,51.49295],[-0.039197,51.492943],[-0.039165,51.492936],[-0.039148,51.492933],[-0.039107,51.492923],[-0.039067,51.492913],[-0.039026,51.492901],[-0.038987,51.492889],[-0.038948,51.492876],[-0.038909,51.492863],[-0.038872,51.492848],[-0.038834,51.492833],[-0.038797,51.492817],[-0.038762,51.492802],[-0.038725,51.492785],[-0.038691,51.492768],[-0.038682,51.492763],[-0.038641,51.492743],[-0.038601,51.492722],[-0.038563,51.492698],[-0.038525,51.492676],[-0.038488,51.492652],[-0.038453,51.492627],[-0.038418,51.492602],[-0.038384,51.492578],[-0.038361,51.492557],[-0.038209,51.492469],[-0.038098,51.492403],[-0.038065,51.492387],[-0.038031,51.492372],[-0.037997,51.492357],[-0.037964,51.492343],[-0.037928,51.492329],[-0.037891,51.492317],[-0.037857,51.492305],[-0.03782,51.492293],[-0.037783,51.492282],[-0.037745,51.492272],[-0.037706,51.492262],[-0.037668,51.492254],[-0.037628,51.492248],[-0.037625,51.492247],[-0.037595,51.492242],[-0.037565,51.492239],[-0.037534,51.492237],[-0.037504,51.492235],[-0.037474,51.492232],[-0.03745,51.492231],[-0.037351,51.492224],[-0.037289,51.49222],[-0.035212,51.492634],[-0.033301,51.492997],[-0.03321,51.492825],[-0.032611,51.492932],[-0.032624,51.492968],[-0.032375,51.493026],[-0.03179,51.493163],[-0.03174,51.493194],[-0.031028,51.493339],[-0.030409,51.493452],[-0.029921,51.493564],[-0.02999,51.493985],[-0.030116,51.494672],[-0.030181,51.495334],[-0.030188,51.495488],[-0.030192,51.495741],[-0.030178,51.496068],[-0.030084,51.497148],[-0.030016,51.497549],[-0.030004,51.498055],[-0.029996,51.498409],[-0.029912,51.498946],[-0.029864,51.49927],[-0.029826,51.499545],[-0.029669,51.500145],[-0.029536,51.501119],[-0.029371,51.502371],[-0.029361,51.502632],[-0.029346,51.502691],[-0.029357,51.502734],[-0.029353,51.502817],[-0.029483,51.503524],[-0.029502,51.503983],[-0.029566,51.504356],[-0.02956,51.504371],[-0.029574,51.504398],[-0.029602,51.504564],[-0.029684,51.504781],[-0.029762,51.504964],[-0.029906,51.505246],[-0.030307,51.505738],[-0.030437,51.505862],[-0.030541,51.50594],[-0.030587,51.505968],[-0.030632,51.506021],[-0.030732,51.506104],[-0.030813,51.506151],[-0.031025,51.506245],[-0.031258,51.506308],[-0.031398,51.506389],[-0.031525,51.506468],[-0.031628,51.506547],[-0.031715,51.506628],[-0.031781,51.506664],[-0.031782,51.506665],[-0.031893,51.506749],[-0.032177,51.506882],[-0.032404,51.507001],[-0.032743,51.507081],[-0.033022,51.507161],[-0.034556,51.507641],[-0.035572,51.507947],[-0.035934,51.508074],[-0.03668,51.508225],[-0.03722,51.50837],[-0.037458,51.508432],[-0.037845,51.508499],[-0.038167,51.508558],[-0.038824,51.508601],[-0.039591,51.508626],[-0.040208,51.508629],[-0.040556,51.508637],[-0.040903,51.508636],[-0.041312,51.508626],[-0.042077,51.50859],[-0.042689,51.508543],[-0.043322,51.508481],[-0.043585,51.508437],[-0.043905,51.508372],[-0.0443,51.508274],[-0.045125,51.508054],[-0.045469,51.507935],[-0.045954,51.507709],[-0.046369,51.507498],[-0.046541,51.507411],[-0.046928,51.507225],[-0.04812,51.506584],[-0.04862,51.506298],[-0.049426,51.505836],[-0.051408,51.504674],[-0.051802,51.504465],[-0.052226,51.504249],[-0.052389,51.504167],[-0.052763,51.503953],[-0.053626,51.503441],[-0.054847,51.502796],[-0.054848,51.502796],[-0.05514,51.502676],[-0.055553,51.502518],[-0.055954,51.502392],[-0.056352,51.502304],[-0.056354,51.502303],[-0.056941,51.502153],[-0.057199,51.502083],[-0.057678,51.501992],[-0.058273,51.501895],[-0.058795,51.501814],[-0.059501,51.501716],[-0.059866,51.501666],[-0.060039,51.501665],[-0.060179,51.501671],[-0.06042,51.501695],[-0.060877,51.501714],[-0.062366,51.501915],[-0.063081,51.502005],[-0.063584,51.502076],[-0.064206,51.502172],[-0.064636,51.502259],[-0.065892,51.502525],[-0.066155,51.502595],[-0.066501,51.502697],[-0.066929,51.502796],[-0.067691,51.503009],[-0.067692,51.503009],[-0.067882,51.503032],[-0.068181,51.503116],[-0.069112,51.503367],[-0.069839,51.503586],[-0.070074,51.503659],[-0.070192,51.503702],[-0.070454,51.503797],[-0.070895,51.503977],[-0.071251,51.504148],[-0.071821,51.504407],[-0.072692,51.504785],[-0.073175,51.504953],[-0.073733,51.505114],[-0.07403,51.505188],[-0.075215,51.505454],[-0.076312,51.505775],[-0.077219,51.506039],[-0.078079,51.506275],[-0.078193,51.506308],[-0.078225,51.506316],[-0.078481,51.506393],[-0.078924,51.506511],[-0.079231,51.50658],[-0.079796,51.506752],[-0.079959,51.506806],[-0.080164,51.506871],[-0.079755,51.507585],[-0.079731,51.5076],[-0.079524,51.507727],[-0.079379,51.507794],[-0.079354,51.507844],[-0.079319,51.507908],[-0.079217,51.507895],[-0.079077,51.508222],[-0.079029,51.508333],[-0.079021,51.508414],[-0.078845,51.508653],[-0.07871,51.508811],[-0.078695,51.508829],[-0.078711,51.508834],[-0.078765,51.508852],[-0.078722,51.50894],[-0.079063,51.509056],[-0.079073,51.509059],[-0.079023,51.509117],[-0.078937,51.509123],[-0.078857,51.509413],[-0.078518,51.509442],[-0.078489,51.509445],[-0.078476,51.509513],[-0.078372,51.509657],[-0.078141,51.509883],[-0.077937,51.510027],[-0.077763,51.510116],[-0.077552,51.510173],[-0.077052,51.510205],[-0.076893,51.510215],[-0.076857,51.510261],[-0.07686,51.510341],[-0.076868,51.510472],[-0.076869,51.510506],[-0.076533,51.510527],[-0.07626,51.510545],[-0.07625,51.510455],[-0.076146,51.510458],[-0.076125,51.510458],[-0.076056,51.510108],[-0.075755,51.51013],[-0.07575,51.510083],[-0.075732,51.509887],[-0.075673,51.509858],[-0.075668,51.509855],[-0.075615,51.509806],[-0.075595,51.509789],[-0.075558,51.509751],[-0.07554,51.509756],[-0.075386,51.509802],[-0.074808,51.509995],[-0.074592,51.509967],[-0.074395,51.509947],[-0.074171,51.51001],[-0.074023,51.510052],[-0.073807,51.510095],[-0.073495,51.51011],[-0.073115,51.510109],[-0.072965,51.510106],[-0.072888,51.510149],[-0.072809,51.510241],[-0.072755,51.5103],[-0.072734,51.510361],[-0.072723,51.510642],[-0.072738,51.510806],[-0.072745,51.510874],[-0.072801,51.511085],[-0.07289,51.511255],[-0.072957,51.511443],[-0.073018,51.511683],[-0.073037,51.51181],[-0.073117,51.512342],[-0.073241,51.512946],[-0.073363,51.513373],[-0.073366,51.513378],[-0.073461,51.513677],[-0.073638,51.514133],[-0.073943,51.514455],[-0.07428,51.514689],[-0.074416,51.514792],[-0.074788,51.515101],[-0.07512,51.515356],[-0.076408,51.516259],[-0.076793,51.516593],[-0.076831,51.516638],[-0.076892,51.516708],[-0.077344,51.517397],[-0.077377,51.517447],[-0.077617,51.517867],[-0.07766,51.517975],[-0.077708,51.518038],[-0.077777,51.51811],[-0.07794,51.518252],[-0.078121,51.51847],[-0.078022,51.518487],[-0.078056,51.518969],[-0.078308,51.518947],[-0.079404,51.518847],[-0.079147,51.519453],[-0.078964,51.520115],[-0.078814,51.520654],[-0.078817,51.520658],[-0.078785,51.52074],[-0.078704,51.521041],[-0.078445,51.521512],[-0.079743,51.521672],[-0.080733,51.521891],[-0.081024,51.521955],[-0.081258,51.521434],[-0.081523,51.521023],[-0.081736,51.520759],[-0.081769,51.520734],[-0.081991,51.520557],[-0.0823,51.520316],[-0.082708,51.52007],[-0.083299,51.519816],[-0.085192,51.520336],[-0.085041,51.520631],[-0.08488,51.520995],[-0.084677,51.521608],[-0.084498,51.522073],[-0.084415,51.522492],[-0.084289,51.523603],[-0.084197,51.523903],[-0.084502,51.523899],[-0.085113,51.523927],[-0.085085,51.524429],[-0.085417,51.524513],[-0.085384,51.524595],[-0.085245,51.52485],[-0.085005,51.525207],[-0.084725,51.525417],[-0.084995,51.526205],[-0.08643,51.525866],[-0.086769,51.525791],[-0.087006,51.525851],[-0.087414,51.52596],[-0.087778,51.526109],[-0.087812,51.526234],[-0.088106,51.526819],[-0.088284,51.527071],[-0.088459,51.527241],[-0.088526,51.527318],[-0.088572,51.527355],[-0.088637,51.527392],[-0.088754,51.527445],[-0.089024,51.527549],[-0.089575,51.527706],[-0.093074,51.528604],[0.022534,51.526667]]]}}
]}
