{"type":"FeatureCollection","meta":{
 "source": "ONS Open Geography Portal: Lower layer Super Output Areas (December 2021) EW Population Weighted Centroids",
 "item": "32729e42d05e4e23bc7e43a36aa4ae8b",
 "page": "https://geoportal.statistics.gov.uk/datasets/32729e42d05e4e23bc7e43a36aa4ae8b",
 "api": "https://services1.arcgis.com/ESMARspQHYMw9BZ9/arcgis/rest/services/LSOA_PopCentroids_EW_2021_V4/FeatureServer/0/query",
 "item_modified": "2026-03-02",
 "fetched": "2026-10-04",
 "licence": "Open Government Licence v3.0 (ONS geography licences: https://www.ons.gov.uk/methodology/geography/licences)",
 "licence_url": "https://www.ons.gov.uk/methodology/geography/licences",
 "attribution": "Source: Office for National Statistics licensed under the Open Government Licence v3.0. Contains OS data © Crown copyright and database right 2026",
 "why": "LSOA population-weighted centroids",
 "zone": "the 3D model box, BNG E 532400-539900, N 176700-182300 (WGS84 -0.095, 51.474 to 0.015, 51.522)",
 "method": "walk-portals.mjs onsgeo harvest lsoa21-centroids: features that meet the zone box (ArcGIS envelope query), whole geometries, WGS84 rounded to 6 decimals; whole_in_zone, in_cw",
 "counts": {
  "features": 259,
  "in_cw": 14
 }
},
"features":[
{"type":"Feature","geometry":{"type":"Point","coordinates":[-0.02591,51.506757]},"properties":{"LSOA21CD":"E01004277","GlobalID_2":"2ea53fe6-e7ee-4d72-8681-ddecf113f531","whole_in_zone":true,"in_cw":true}},
{"type":"Feature","geometry":{"type":"Point","coordinates":[-0.067274,51.476061]},"properties":{"LSOA21CD":"E01004008","GlobalID_2":"4e604806-46e6-42bc-a101-f6d52692af35","whole_in_zone":true,"in_cw":false}},
{"type":"Feature","geometry":{"type":"Point","coordinates":[-0.020712,51.483242]},"properties":{"LSOA21CD":"E01033728","GlobalID_2":"65d86d84-50a0-41d6-afc1-75e87a4cb17e","whole_in_zone":true,"in_cw":false}},
{"type":"Feature","geometry":{"type":"Point","coordinates":[-0.038554,51.491458]},"properties":{"LSOA21CD":"E01034387","GlobalID_2":"cdc762d6-d587-4caf-92d3-5394b64c4d80","whole_in_zone":true,"in_cw":false}},
{"type":"Feature","geometry":{"type":"Point","coordinates":[-0.026431,51.49991]},"properties":{"LSOA21CD":"E01032781","GlobalID_2":"8e46fdc1-c9a2-4040-a0eb-95b0db14c93d","whole_in_zone":true,"in_cw":true}},
{"type":"Feature","geometry":{"type":"Point","coordinates":[-0.094925,51.477836]},"properties":{"LSOA21CD":"E01003920","GlobalID_2":"5b1b9db1-5678-4327-98ae-ebfcbd67047b","whole_in_zone":true,"in_cw":false}},
{"type":"Feature","geometry":{"type":"Point","coordinates":[-0.039415,51.521487]},"properties":{"LSOA21CD":"E01004264","GlobalID_2":"9baba6d7-eb36-4c4e-82c3-0678c7a8dd99","whole_in_zone":true,"in_cw":false}},
{"type":"Feature","geometry":{"type":"Point","coordinates":[-0.011308,51.519755]},"properties":{"LSOA21CD":"E01004248","GlobalID_2":"8257d5a2-6385-420f-afbe-34d00f772c6c","whole_in_zone":true,"in_cw":false}},
{"type":"Feature","geometry":{"type":"Point","coordinates":[-0.01677,51.486892]},"properties":{"LSOA21CD":"E01004276","GlobalID_2":"237e0151-73a2-441f-8908-ce24a97ef68b","whole_in_zone":true,"in_cw":false}},
{"type":"Feature","geometry":{"type":"Point","coordinates":[-0.075199,51.485572]},"properties":{"LSOA21CD":"E01033880","GlobalID_2":"fda37b08-7f2a-48a5-8a12-6bae66938cef","whole_in_zone":true,"in_cw":false}},
{"type":"Feature","geometry":{"type":"Point","coordinates":[-0.00547,51.490483]},"properties":{"LSOA21CD":"E01004218","GlobalID_2":"9045601c-c263-443f-ab90-e08876d408ce","whole_in_zone":true,"in_cw":false}},
{"type":"Feature","geometry":{"type":"Point","coordinates":[-0.008788,51.488885]},"properties":{"LSOA21CD":"E01004217","GlobalID_2":"9be7834d-6721-4423-b231-ef3051fd9dea","whole_in_zone":true,"in_cw":false}},
{"type":"Feature","geometry":{"type":"Point","coordinates":[-0.060184,51.494859]},"properties":{"LSOA21CD":"E01004024","GlobalID_2":"d0e33922-2bc4-47dd-af79-e8f797b0a591","whole_in_zone":true,"in_cw":false}},
{"type":"Feature","geometry":{"type":"Point","coordinates":[-0.050766,51.496821]},"properties":{"LSOA21CD":"E01004031","GlobalID_2":"aff1f84e-5b87-4b26-a594-b92f6d334f1b","whole_in_zone":true,"in_cw":false}},
{"type":"Feature","geometry":{"type":"Point","coordinates":[-0.069496,51.501289]},"properties":{"LSOA21CD":"E01032638","GlobalID_2":"79a703f4-a097-46b5-b15d-44eff2e8b4e8","whole_in_zone":true,"in_cw":false}},
{"type":"Feature","geometry":{"type":"Point","coordinates":[-0.034687,51.494709]},"properties":{"LSOA21CD":"E01004058","GlobalID_2":"31c01100-fcd8-48b3-8787-4289eba9a207","whole_in_zone":true,"in_cw":false}},
{"type":"Feature","geometry":{"type":"Point","coordinates":[-0.064885,51.4878]},"properties":{"LSOA21CD":"E01004038","GlobalID_2":"a2580a55-2356-47d3-b4f9-de53b7f56062","whole_in_zone":true,"in_cw":false}},
{"type":"Feature","geometry":{"type":"Point","coordinates":[-0.032962,51.476869]},"properties":{"LSOA21CD":"E01003303","GlobalID_2":"16088cfd-e10b-43da-b7ea-78bf5c6847c2","whole_in_zone":true,"in_cw":false}},
{"type":"Feature","geometry":{"type":"Point","coordinates":[-0.032181,51.490583]},"properties":{"LSOA21CD":"E01003249","GlobalID_2":"cbce390a-d54c-4199-82b2-d02c364c94ef","whole_in_zone":true,"in_cw":false}},
{"type":"Feature","geometry":{"type":"Point","coordinates":[-0.086506,51.49773]},"properties":{"LSOA21CD":"E01003940","GlobalID_2":"0f01fd42-5bb3-475d-9ccb-0972883edec8","whole_in_zone":true,"in_cw":false}},
{"type":"Feature","geometry":{"type":"Point","coordinates":[-0.038567,51.510524]},"properties":{"LSOA21CD":"E01032768","GlobalID_2":"34937c14-8dc1-4d3c-bbbe-513239c71c94","whole_in_zone":true,"in_cw":false}},
{"type":"Feature","geometry":{"type":"Point","coordinates":[0.009463,51.48804]},"properties":{"LSOA21CD":"E01034190","GlobalID_2":"ec32c11f-77be-4ab5-965a-67ad17cb4a31","whole_in_zone":true,"in_cw":false}},
{"type":"Feature","geometry":{"type":"Point","coordinates":[-0.082157,51.494606]},"properties":{"LSOA21CD":"E01003979","GlobalID_2":"0c85ff5f-a353-41d4-816c-666bf22588c5","whole_in_zone":true,"in_cw":false}},
{"type":"Feature","geometry":{"type":"Point","coordinates":[-0.053873,51.506726]},"properties":{"LSOA21CD":"E01004297","GlobalID_2":"1848eec7-1241-46be-8d39-ac406a1c3058","whole_in_zone":true,"in_cw":false}},
{"type":"Feature","geometry":{"type":"Point","coordinates":[-0.00463,51.513421]},"properties":{"LSOA21CD":"E01004243","GlobalID_2":"fa6ae20b-c7bd-412a-8454-e668723ffbaa","whole_in_zone":true,"in_cw":false}},
{"type":"Feature","geometry":{"type":"Point","coordinates":[-0.08034,51.489063]},"properties":{"LSOA21CD":"E01003966","GlobalID_2":"19c2f1ef-559f-4d92-9cc9-80260ec4fb42","whole_in_zone":true,"in_cw":false}},
{"type":"Feature","geometry":{"type":"Point","coordinates":[-0.083761,51.496663]},"properties":{"LSOA21CD":"E01003941","GlobalID_2":"8a1b24f9-c3b2-45e8-b976-d97a8eda7ffa","whole_in_zone":true,"in_cw":false}},
{"type":"Feature","geometry":{"type":"Point","coordinates":[-0.026521,51.513007]},"properties":{"LSOA21CD":"E01035694","GlobalID_2":"85867d4b-7e66-418b-b638-ae20a524ec83","whole_in_zone":true,"in_cw":false}},
{"type":"Feature","geometry":{"type":"Point","coordinates":[-0.046759,51.520569]},"properties":{"LSOA21CD":"E01004290","GlobalID_2":"4dd8ba83-5661-4257-a1d4-1da58c2e36f4","whole_in_zone":true,"in_cw":false}},
{"type":"Feature","geometry":{"type":"Point","coordinates":[-0.084476,51.488179]},"properties":{"LSOA21CD":"E01003971","GlobalID_2":"30c96c2d-4300-4e0b-b7d7-e9b8729e94c8","whole_in_zone":true,"in_cw":false}},
{"type":"Feature","geometry":{"type":"Point","coordinates":[-0.020605,51.509561]},"properties":{"LSOA21CD":"E01004256","GlobalID_2":"a39b6a73-0922-413c-bf9c-b96336316c17","whole_in_zone":true,"in_cw":true}},
{"type":"Feature","geometry":{"type":"Point","coordinates":[-0.042071,51.492089]},"properties":{"LSOA21CD":"E01004060","GlobalID_2":"8b8595fa-0ae8-47d1-8317-35cac1198d7b","whole_in_zone":true,"in_cw":false}},
{"type":"Feature","geometry":{"type":"Point","coordinates":[-0.090377,51.511865]},"properties":{"LSOA21CD":"E01032739","GlobalID_2":"b65ba394-bb73-47be-bfea-10088b9dd3e5","whole_in_zone":true,"in_cw":false}},
{"type":"Feature","geometry":{"type":"Point","coordinates":[-0.016054,51.48256]},"properties":{"LSOA21CD":"E01034178","GlobalID_2":"ff3e7c0f-4c93-4e67-8694-b20018fd4930","whole_in_zone":true,"in_cw":false}},
{"type":"Feature","geometry":{"type":"Point","coordinates":[-0.009191,51.516213]},"properties":{"LSOA21CD":"E01004249","GlobalID_2":"957ec19b-6250-46f7-90e3-2d95c3f1501f","whole_in_zone":true,"in_cw":false}},
{"type":"Feature","geometry":{"type":"Point","coordinates":[-0.015544,51.497719]},"properties":{"LSOA21CD":"E01035703","GlobalID_2":"e085ab48-b90c-4905-9202-f83773a1644c","whole_in_zone":true,"in_cw":false}},
{"type":"Feature","geometry":{"type":"Point","coordinates":[-0.072251,51.501694]},"properties":{"LSOA21CD":"E01032834","GlobalID_2":"4f5307e4-02f0-40be-bac5-8002cd9cc8f6","whole_in_zone":true,"in_cw":false}},
{"type":"Feature","geometry":{"type":"Point","coordinates":[-0.03152,51.514404]},"properties":{"LSOA21CD":"E01004251","GlobalID_2":"82a585db-9898-425b-ad05-8345f37fd79c","whole_in_zone":true,"in_cw":false}},
{"type":"Feature","geometry":{"type":"Point","coordinates":[-0.067619,51.513756]},"properties":{"LSOA21CD":"E01035689","GlobalID_2":"af741cd1-71ed-477b-a9d4-6f6ba5e88d91","whole_in_zone":true,"in_cw":false}},
{"type":"Feature","geometry":{"type":"Point","coordinates":[-0.062041,51.521779]},"properties":{"LSOA21CD":"E01004205","GlobalID_2":"65602b90-66bf-4ade-9863-ed8eec11b4a4","whole_in_zone":true,"in_cw":false}},
{"type":"Feature","geometry":{"type":"Point","coordinates":[0.012565,51.494109]},"properties":{"LSOA21CD":"E01033732","GlobalID_2":"d5e344da-685d-41aa-8559-7d90eb52d771","whole_in_zone":true,"in_cw":false}},
{"type":"Feature","geometry":{"type":"Point","coordinates":[-0.089333,51.477048]},"properties":{"LSOA21CD":"E01003918","GlobalID_2":"de86ef79-34ba-4a40-be31-07c20713e99d","whole_in_zone":true,"in_cw":false}},
{"type":"Feature","geometry":{"type":"Point","coordinates":[-0.080799,51.480529]},"properties":{"LSOA21CD":"E01004012","GlobalID_2":"d1b445af-35df-43a6-86fd-97ab4a6a4904","whole_in_zone":true,"in_cw":false}},
{"type":"Feature","geometry":{"type":"Point","coordinates":[0.006317,51.501997]},"properties":{"LSOA21CD":"E01034188","GlobalID_2":"51860911-9c8e-4abf-8cd7-729a15d75b4e","whole_in_zone":true,"in_cw":false}},
{"type":"Feature","geometry":{"type":"Point","coordinates":[-0.034474,51.489095]},"properties":{"LSOA21CD":"E01003244","GlobalID_2":"3379f78f-4246-4446-a13d-3243e409f733","whole_in_zone":true,"in_cw":false}},
{"type":"Feature","geometry":{"type":"Point","coordinates":[-0.011129,51.496354]},"properties":{"LSOA21CD":"E01035705","GlobalID_2":"a192bf6b-dea0-41e0-b797-fa9c33f8d221","whole_in_zone":true,"in_cw":false}},
{"type":"Feature","geometry":{"type":"Point","coordinates":[-0.058756,51.504257]},"properties":{"LSOA21CD":"E01004291","GlobalID_2":"c784eed5-3da4-4daf-a5c7-c7e5938774a3","whole_in_zone":true,"in_cw":false}},
{"type":"Feature","geometry":{"type":"Point","coordinates":[0.007587,51.484929]},"properties":{"LSOA21CD":"E01034185","GlobalID_2":"9ea111dc-d018-4d8f-ae6c-d21ddb54c0be","whole_in_zone":true,"in_cw":false}},
{"type":"Feature","geometry":{"type":"Point","coordinates":[-0.074724,51.503265]},"properties":{"LSOA21CD":"E01032640","GlobalID_2":"36420524-e215-44a9-9da9-95153d05dbf5","whole_in_zone":true,"in_cw":false}},
{"type":"Feature","geometry":{"type":"Point","coordinates":[-0.07776,51.498416]},"properties":{"LSOA21CD":"E01003976","GlobalID_2":"6c2bee11-6d17-42d1-bc91-86dfb53a2e2c","whole_in_zone":true,"in_cw":false}},
{"type":"Feature","geometry":{"type":"Point","coordinates":[-0.016658,51.488564]},"properties":{"LSOA21CD":"E01004275","GlobalID_2":"d76ff8b6-f1e0-40a6-aa1c-d2c6d919e7d9","whole_in_zone":true,"in_cw":false}},
{"type":"Feature","geometry":{"type":"Point","coordinates":[-0.033375,51.511208]},"properties":{"LSOA21CD":"E01035691","GlobalID_2":"18db9399-3a8d-4fd3-9c43-728ae9827558","whole_in_zone":true,"in_cw":false}},
{"type":"Feature","geometry":{"type":"Point","coordinates":[-0.040085,51.504595]},"properties":{"LSOA21CD":"E01004055","GlobalID_2":"c5b9883c-a733-400a-8b91-02438e454682","whole_in_zone":true,"in_cw":false}},
{"type":"Feature","geometry":{"type":"Point","coordinates":[-0.064151,51.516503]},"properties":{"LSOA21CD":"E01035686","GlobalID_2":"89eae5d5-a5dd-422d-a53f-355a6831e978","whole_in_zone":true,"in_cw":false}},
{"type":"Feature","geometry":{"type":"Point","coordinates":[-0.021321,51.481564]},"properties":{"LSOA21CD":"E01033727","GlobalID_2":"799a5690-927d-43c5-8ed9-a0711acebc81","whole_in_zone":true,"in_cw":false}},
{"type":"Feature","geometry":{"type":"Point","coordinates":[-0.059284,51.48951]},"properties":{"LSOA21CD":"E01004037","GlobalID_2":"293b427f-520c-43b5-9e23-91d55a8a55e1","whole_in_zone":true,"in_cw":false}},
{"type":"Feature","geometry":{"type":"Point","coordinates":[-0.063503,51.51055]},"properties":{"LSOA21CD":"E01004295","GlobalID_2":"9c31cb53-0d53-48ca-af73-2457c84351e8","whole_in_zone":true,"in_cw":false}},
{"type":"Feature","geometry":{"type":"Point","coordinates":[-0.009144,51.499794]},"properties":{"LSOA21CD":"E01004221","GlobalID_2":"dae6e2af-2a90-470b-a165-0b33553b933b","whole_in_zone":true,"in_cw":true}},
{"type":"Feature","geometry":{"type":"Point","coordinates":[-0.070715,51.475474]},"properties":{"LSOA21CD":"E01004010","GlobalID_2":"1162e737-591d-4dc0-b8a6-bf3207a80235","whole_in_zone":true,"in_cw":false}},
{"type":"Feature","geometry":{"type":"Point","coordinates":[-0.091661,51.487713]},"properties":{"LSOA21CD":"E01003973","GlobalID_2":"8055b48c-d910-4aa7-962d-70b8925185ba","whole_in_zone":true,"in_cw":false}},
{"type":"Feature","geometry":{"type":"Point","coordinates":[-0.019273,51.492034]},"properties":{"LSOA21CD":"E01004281","GlobalID_2":"5683e168-0056-4d65-82fd-c3bbf84055fa","whole_in_zone":true,"in_cw":false}},
{"type":"Feature","geometry":{"type":"Point","coordinates":[-0.089502,51.484927]},"properties":{"LSOA21CD":"E01033881","GlobalID_2":"b0abe655-d1e7-4011-a52c-9ff13208207b","whole_in_zone":true,"in_cw":false}},
{"type":"Feature","geometry":{"type":"Point","coordinates":[-0.057774,51.486119]},"properties":{"LSOA21CD":"E01003987","GlobalID_2":"c883ac65-f602-41ad-a0d9-c40431223cba","whole_in_zone":true,"in_cw":false}},
{"type":"Feature","geometry":{"type":"Point","coordinates":[-0.043227,51.487904]},"properties":{"LSOA21CD":"E01003247","GlobalID_2":"831319e9-9e7d-45df-a26a-2f96320b7c54","whole_in_zone":true,"in_cw":false}},
{"type":"Feature","geometry":{"type":"Point","coordinates":[-0.068154,51.505818]},"properties":{"LSOA21CD":"E01004293","GlobalID_2":"64cbd16a-0cb6-431f-8b22-a484364dfcb8","whole_in_zone":true,"in_cw":false}},
{"type":"Feature","geometry":{"type":"Point","coordinates":[-0.088137,51.488167]},"properties":{"LSOA21CD":"E01003972","GlobalID_2":"f7daa47b-270c-407d-88e6-d4546a8b7815","whole_in_zone":true,"in_cw":false}},
{"type":"Feature","geometry":{"type":"Point","coordinates":[-0.010422,51.504031]},"properties":{"LSOA21CD":"E01032780","GlobalID_2":"ec764d8c-6a0e-449f-84a0-4a7164b9acc6","whole_in_zone":true,"in_cw":true}},
{"type":"Feature","geometry":{"type":"Point","coordinates":[-0.039431,51.517312]},"properties":{"LSOA21CD":"E01035682","GlobalID_2":"da9ee52c-845c-43ff-bd1d-4a9a335005a7","whole_in_zone":true,"in_cw":false}},
{"type":"Feature","geometry":{"type":"Point","coordinates":[-0.091962,51.489438]},"properties":{"LSOA21CD":"E01003963","GlobalID_2":"787882c7-28bd-40ca-afc0-34fe78c55f25","whole_in_zone":true,"in_cw":false}},
{"type":"Feature","geometry":{"type":"Point","coordinates":[-0.018274,51.515515]},"properties":{"LSOA21CD":"E01035685","GlobalID_2":"9aba5ac9-98e4-4782-8944-9b06fd79bdb3","whole_in_zone":true,"in_cw":false}},
{"type":"Feature","geometry":{"type":"Point","coordinates":[-0.017961,51.512537]},"properties":{"LSOA21CD":"E01004244","GlobalID_2":"28fd5d14-c82b-481a-9646-9082fdaf6f91","whole_in_zone":true,"in_cw":false}},
{"type":"Feature","geometry":{"type":"Point","coordinates":[-0.048014,51.500606]},"properties":{"LSOA21CD":"E01004029","GlobalID_2":"6ffe211e-8656-4ad5-b547-1e71d3f13090","whole_in_zone":true,"in_cw":false}},
{"type":"Feature","geometry":{"type":"Point","coordinates":[-0.021205,51.513023]},"properties":{"LSOA21CD":"E01035693","GlobalID_2":"e2058d40-8ff1-43c5-9276-33803cfbc16d","whole_in_zone":true,"in_cw":false}},
{"type":"Feature","geometry":{"type":"Point","coordinates":[-0.093397,51.483677]},"properties":{"LSOA21CD":"E01003969","GlobalID_2":"0931c56b-3d44-4333-8015-f54d92440e38","whole_in_zone":true,"in_cw":false}},
{"type":"Feature","geometry":{"type":"Point","coordinates":[-0.033209,51.474706]},"properties":{"LSOA21CD":"E01003215","GlobalID_2":"98674128-b58b-4bc9-b69d-3ee85e0ba632","whole_in_zone":true,"in_cw":false}},
{"type":"Feature","geometry":{"type":"Point","coordinates":[-0.073963,51.513072]},"properties":{"LSOA21CD":"E01000005","GlobalID_2":"75536fcf-7a46-4521-852f-c0f26f700ceb","whole_in_zone":true,"in_cw":false}},
{"type":"Feature","geometry":{"type":"Point","coordinates":[-0.037611,51.498765]},"properties":{"LSOA21CD":"E01004057","GlobalID_2":"9c55bcb5-3e71-405b-a18f-27aed6730d8c","whole_in_zone":true,"in_cw":false}},
{"type":"Feature","geometry":{"type":"Point","coordinates":[-0.033736,51.501276]},"properties":{"LSOA21CD":"E01004056","GlobalID_2":"d2a8c413-5a1e-4304-8e0b-e5166ae7ebd1","whole_in_zone":true,"in_cw":false}},
{"type":"Feature","geometry":{"type":"Point","coordinates":[-0.012107,51.482121]},"properties":{"LSOA21CD":"E01034179","GlobalID_2":"3664d47f-ec1d-4f36-9c1b-f9e3628919ad","whole_in_zone":true,"in_cw":false}},
{"type":"Feature","geometry":{"type":"Point","coordinates":[-0.051966,51.518057]},"properties":{"LSOA21CD":"E01004324","GlobalID_2":"de69154f-9a00-4218-b9d8-360b9d3765a7","whole_in_zone":true,"in_cw":false}},
{"type":"Feature","geometry":{"type":"Point","coordinates":[-0.025558,51.517665]},"properties":{"LSOA21CD":"E01004272","GlobalID_2":"b60c111a-8452-4b81-b514-f51f30d8e00e","whole_in_zone":true,"in_cw":false}},
{"type":"Feature","geometry":{"type":"Point","coordinates":[-0.014877,51.480436]},"properties":{"LSOA21CD":"E01034180","GlobalID_2":"a03cb1ee-df60-4ddf-a111-f919800767e4","whole_in_zone":true,"in_cw":false}},
{"type":"Feature","geometry":{"type":"Point","coordinates":[-0.026943,51.480801]},"properties":{"LSOA21CD":"E01003253","GlobalID_2":"47946fac-ba68-4a77-b5eb-424835e2dfa7","whole_in_zone":true,"in_cw":false}},
{"type":"Feature","geometry":{"type":"Point","coordinates":[-0.069002,51.513599]},"properties":{"LSOA21CD":"E01035688","GlobalID_2":"26b7961d-bb9c-4abc-8e29-dc6a0908238e","whole_in_zone":true,"in_cw":false}},
{"type":"Feature","geometry":{"type":"Point","coordinates":[-0.067216,51.498781]},"properties":{"LSOA21CD":"E01033869","GlobalID_2":"06a54092-b14a-45ef-8ffd-87f4ff735765","whole_in_zone":true,"in_cw":false}},
{"type":"Feature","geometry":{"type":"Point","coordinates":[-0.056731,51.515257]},"properties":{"LSOA21CD":"E01004326","GlobalID_2":"eb5a0336-ce79-4ed2-ac39-d1e2335ad119","whole_in_zone":true,"in_cw":false}},
{"type":"Feature","geometry":{"type":"Point","coordinates":[-0.035441,51.482483]},"properties":{"LSOA21CD":"E01003246","GlobalID_2":"fef0cf4f-1b56-4f23-afce-702e8330caa9","whole_in_zone":true,"in_cw":false}},
{"type":"Feature","geometry":{"type":"Point","coordinates":[-0.069338,51.515103]},"properties":{"LSOA21CD":"E01035687","GlobalID_2":"1c2f0dc9-eeda-4a07-8caf-059947a3da81","whole_in_zone":true,"in_cw":false}},
{"type":"Feature","geometry":{"type":"Point","coordinates":[-0.01933,51.476229]},"properties":{"LSOA21CD":"E01034182","GlobalID_2":"83ef6c54-069e-4423-b46f-1a3028abf67b","whole_in_zone":true,"in_cw":false}},
{"type":"Feature","geometry":{"type":"Point","coordinates":[-0.028741,51.519777]},"properties":{"LSOA21CD":"E01004271","GlobalID_2":"01fb1ced-5b7a-4c93-a938-4b4fcb277cc0","whole_in_zone":true,"in_cw":false}},
{"type":"Feature","geometry":{"type":"Point","coordinates":[-0.075884,51.519737]},"properties":{"LSOA21CD":"E01004307","GlobalID_2":"6f5f2f3d-5d23-4bec-85c6-f8af8e292008","whole_in_zone":true,"in_cw":false}},
{"type":"Feature","geometry":{"type":"Point","coordinates":[-0.075356,51.500819]},"properties":{"LSOA21CD":"E01033885","GlobalID_2":"4e91e089-1abd-4e8a-855f-07200eec382d","whole_in_zone":true,"in_cw":false}},
{"type":"Feature","geometry":{"type":"Point","coordinates":[-0.06931,51.512205]},"properties":{"LSOA21CD":"E01032767","GlobalID_2":"ad72bcf2-5c71-4a61-b18e-a2265f0ffd47","whole_in_zone":true,"in_cw":false}},
{"type":"Feature","geometry":{"type":"Point","coordinates":[-0.048221,51.482598]},"properties":{"LSOA21CD":"E01003297","GlobalID_2":"494a35d0-d469-4f0a-aa5d-f26551f9a1b5","whole_in_zone":true,"in_cw":false}},
{"type":"Feature","geometry":{"type":"Point","coordinates":[-0.094368,51.495067]},"properties":{"LSOA21CD":"E01033873","GlobalID_2":"1c4336dd-0908-44be-95aa-8d81bc8f7ab1","whole_in_zone":true,"in_cw":false}},
{"type":"Feature","geometry":{"type":"Point","coordinates":[-0.034034,51.486038]},"properties":{"LSOA21CD":"E01003248","GlobalID_2":"09c1caa8-9a79-4e33-99c1-4272663b042e","whole_in_zone":true,"in_cw":false}},
{"type":"Feature","geometry":{"type":"Point","coordinates":[-0.02518,51.49654]},"properties":{"LSOA21CD":"E01004280","GlobalID_2":"9d798891-0564-4324-883d-9161c02709c8","whole_in_zone":true,"in_cw":false}},
{"type":"Feature","geometry":{"type":"Point","coordinates":[-0.042773,51.478697]},"properties":{"LSOA21CD":"E01003301","GlobalID_2":"6148a56f-03a5-4218-9a69-34597d3cb2bf","whole_in_zone":true,"in_cw":false}},
{"type":"Feature","geometry":{"type":"Point","coordinates":[-0.049655,51.510471]},"properties":{"LSOA21CD":"E01004300","GlobalID_2":"f631aeeb-0308-4e7b-aed7-0dd7e8906598","whole_in_zone":true,"in_cw":false}},
{"type":"Feature","geometry":{"type":"Point","coordinates":[0.005828,51.512922]},"properties":{"LSOA21CD":"E01035700","GlobalID_2":"5a61c0a3-0f5b-46c3-b8af-1f662abdd4e2","whole_in_zone":true,"in_cw":false}},
{"type":"Feature","geometry":{"type":"Point","coordinates":[-0.023974,51.491955]},"properties":{"LSOA21CD":"E01032783","GlobalID_2":"04300e8e-0bfc-4526-a6fd-16440510b45e","whole_in_zone":true,"in_cw":false}},
{"type":"Feature","geometry":{"type":"Point","coordinates":[-0.021496,51.490101]},"properties":{"LSOA21CD":"E01004274","GlobalID_2":"eea369b5-6638-435a-88e8-0c8ee917e51b","whole_in_zone":true,"in_cw":false}},
{"type":"Feature","geometry":{"type":"Point","coordinates":[-0.093595,51.474915]},"properties":{"LSOA21CD":"E01003921","GlobalID_2":"93f4ecfb-61ba-4425-83b4-e028361e13ab","whole_in_zone":true,"in_cw":false}},
{"type":"Feature","geometry":{"type":"Point","coordinates":[-0.037802,51.519241]},"properties":{"LSOA21CD":"E01035680","GlobalID_2":"6dbbbfe0-7ed5-438b-b105-3f76f07484f1","whole_in_zone":true,"in_cw":false}},
{"type":"Feature","geometry":{"type":"Point","coordinates":[-0.014999,51.516918]},"properties":{"LSOA21CD":"E01035678","GlobalID_2":"02c6bb84-c2bc-473d-959a-163cc2881067","whole_in_zone":true,"in_cw":false}},
{"type":"Feature","geometry":{"type":"Point","coordinates":[-0.051547,51.480107]},"properties":{"LSOA21CD":"E01003302","GlobalID_2":"35545c52-59f1-41e3-8403-473ff20bd350","whole_in_zone":true,"in_cw":false}},
{"type":"Feature","geometry":{"type":"Point","coordinates":[-0.034429,51.512907]},"properties":{"LSOA21CD":"E01035690","GlobalID_2":"7c65b765-fe23-456a-b0d7-ca4764dcb425","whole_in_zone":true,"in_cw":false}},
{"type":"Feature","geometry":{"type":"Point","coordinates":[-0.021242,51.498302]},"properties":{"LSOA21CD":"E01032770","GlobalID_2":"d5032699-51a7-4391-94d6-76503b7852bc","whole_in_zone":true,"in_cw":true}},
{"type":"Feature","geometry":{"type":"Point","coordinates":[0.003206,51.488677]},"properties":{"LSOA21CD":"E01034191","GlobalID_2":"7cd4f2d8-cd45-4c39-8d3e-37aa92ce8eb0","whole_in_zone":true,"in_cw":false}},
{"type":"Feature","geometry":{"type":"Point","coordinates":[0.003028,51.483757]},"properties":{"LSOA21CD":"E01001664","GlobalID_2":"3b66e28a-0e0d-45ff-bd36-bbe5a9bf2009","whole_in_zone":true,"in_cw":false}},
{"type":"Feature","geometry":{"type":"Point","coordinates":[-0.073539,51.497258]},"properties":{"LSOA21CD":"E01003975","GlobalID_2":"85fca2d2-fe30-4a7e-881a-981aa5f46d97","whole_in_zone":true,"in_cw":false}},
{"type":"Feature","geometry":{"type":"Point","coordinates":[-0.054987,51.516802]},"properties":{"LSOA21CD":"E01004323","GlobalID_2":"ff66c20f-b66f-4691-a517-c97775839c08","whole_in_zone":true,"in_cw":false}},
{"type":"Feature","geometry":{"type":"Point","coordinates":[-0.064883,51.508969]},"properties":{"LSOA21CD":"E01035696","GlobalID_2":"a0d09db8-4ba7-4cc8-9f9b-babf9feb91de","whole_in_zone":true,"in_cw":false}},
{"type":"Feature","geometry":{"type":"Point","coordinates":[-0.043169,51.514779]},"properties":{"LSOA21CD":"E01004288","GlobalID_2":"6e12d725-20a9-4525-bb4f-7d051fcb109c","whole_in_zone":true,"in_cw":false}},
{"type":"Feature","geometry":{"type":"Point","coordinates":[-0.036003,51.517078]},"properties":{"LSOA21CD":"E01035683","GlobalID_2":"3ddc242b-b150-4d2d-bc76-5f911ec115e2","whole_in_zone":true,"in_cw":false}},
{"type":"Feature","geometry":{"type":"Point","coordinates":[-0.054698,51.512962]},"properties":{"LSOA21CD":"E01004298","GlobalID_2":"333ae012-539a-4602-946b-6d2fdfb3c6ab","whole_in_zone":true,"in_cw":false}},
{"type":"Feature","geometry":{"type":"Point","coordinates":[-0.069405,51.494303]},"properties":{"LSOA21CD":"E01003977","GlobalID_2":"278eeb93-4e4e-46a4-8092-f52b66ba40ad","whole_in_zone":true,"in_cw":false}},
{"type":"Feature","geometry":{"type":"Point","coordinates":[-0.014527,51.496385]},"properties":{"LSOA21CD":"E01035706","GlobalID_2":"ebcbd87a-872c-404c-b558-d8320951fc5f","whole_in_zone":true,"in_cw":false}},
{"type":"Feature","geometry":{"type":"Point","coordinates":[-0.08627,51.501402]},"properties":{"LSOA21CD":"E01003981","GlobalID_2":"dcce74a0-9886-4f5e-883b-5b8264c52dbb","whole_in_zone":true,"in_cw":false}},
{"type":"Feature","geometry":{"type":"Point","coordinates":[-0.080713,51.475511]},"properties":{"LSOA21CD":"E01003912","GlobalID_2":"479fccfe-7708-4ff1-8335-7b191abafeac","whole_in_zone":true,"in_cw":false}},
{"type":"Feature","geometry":{"type":"Point","coordinates":[-0.05498,51.519127]},"properties":{"LSOA21CD":"E01004322","GlobalID_2":"92a1ed4a-0786-4c10-955f-c9228fb5ec2d","whole_in_zone":true,"in_cw":false}},
{"type":"Feature","geometry":{"type":"Point","coordinates":[-0.02789,51.477607]},"properties":{"LSOA21CD":"E01003304","GlobalID_2":"d53cbff4-154d-44ed-8bca-cd162cb91309","whole_in_zone":true,"in_cw":false}},
{"type":"Feature","geometry":{"type":"Point","coordinates":[-0.018792,51.497327]},"properties":{"LSOA21CD":"E01032774","GlobalID_2":"8977cb16-6432-40ba-944a-4361562240f6","whole_in_zone":true,"in_cw":false}},
{"type":"Feature","geometry":{"type":"Point","coordinates":[-0.076556,51.496206]},"properties":{"LSOA21CD":"E01033870","GlobalID_2":"bb0a6a09-1530-470c-9543-012402a4be7f","whole_in_zone":true,"in_cw":false}},
{"type":"Feature","geometry":{"type":"Point","coordinates":[-0.013564,51.475725]},"properties":{"LSOA21CD":"E01033746","GlobalID_2":"7c6a6ae3-cd33-4908-900f-825051642d48","whole_in_zone":true,"in_cw":false}},
{"type":"Feature","geometry":{"type":"Point","coordinates":[-0.011748,51.512562]},"properties":{"LSOA21CD":"E01004247","GlobalID_2":"66e4c57e-e9be-4dc0-9f79-a6d3c31a3fe4","whole_in_zone":true,"in_cw":false}},
{"type":"Feature","geometry":{"type":"Point","coordinates":[-0.079229,51.503268]},"properties":{"LSOA21CD":"E01033884","GlobalID_2":"303af558-62fd-4fde-84d3-d4cc175b4638","whole_in_zone":true,"in_cw":false}},
{"type":"Feature","geometry":{"type":"Point","coordinates":[-0.066675,51.520203]},"properties":{"LSOA21CD":"E01004308","GlobalID_2":"d29fd925-3584-4f1b-9353-7953791b8bdc","whole_in_zone":true,"in_cw":false}},
{"type":"Feature","geometry":{"type":"Point","coordinates":[0.013799,51.496422]},"properties":{"LSOA21CD":"E01034194","GlobalID_2":"a7d26236-edcf-44b7-b6b4-b12e3bc0d21e","whole_in_zone":true,"in_cw":false}},
{"type":"Feature","geometry":{"type":"Point","coordinates":[-0.047978,51.512348]},"properties":{"LSOA21CD":"E01004305","GlobalID_2":"4a6f7d8e-3c3a-47ed-a3d2-b6a6525851f5","whole_in_zone":true,"in_cw":false}},
{"type":"Feature","geometry":{"type":"Point","coordinates":[-0.016737,51.520335]},"properties":{"LSOA21CD":"E01035671","GlobalID_2":"a269dd42-71d9-4eb5-94cb-c74722230e67","whole_in_zone":true,"in_cw":false}},
{"type":"Feature","geometry":{"type":"Point","coordinates":[-0.062219,51.515379]},"properties":{"LSOA21CD":"E01004321","GlobalID_2":"83eee8fa-ee8d-43f0-ad7e-b513d0112032","whole_in_zone":true,"in_cw":false}},
{"type":"Feature","geometry":{"type":"Point","coordinates":[-0.048301,51.518648]},"properties":{"LSOA21CD":"E01004283","GlobalID_2":"78fad3da-2866-4cfa-9ec9-b7aca768c9f3","whole_in_zone":true,"in_cw":false}},
{"type":"Feature","geometry":{"type":"Point","coordinates":[-0.009734,51.508783]},"properties":{"LSOA21CD":"E01004219","GlobalID_2":"af7ef447-a498-4870-961f-927f0d9aa14c","whole_in_zone":true,"in_cw":true}},
{"type":"Feature","geometry":{"type":"Point","coordinates":[-0.055303,51.491772]},"properties":{"LSOA21CD":"E01004035","GlobalID_2":"9119acfb-6d0f-430c-9a2c-b1b71620162f","whole_in_zone":true,"in_cw":false}},
{"type":"Feature","geometry":{"type":"Point","coordinates":[-0.057928,51.506925]},"properties":{"LSOA21CD":"E01004296","GlobalID_2":"95fc906e-290b-477f-a543-4927a84ebe38","whole_in_zone":true,"in_cw":false}},
{"type":"Feature","geometry":{"type":"Point","coordinates":[-0.084075,51.499392]},"properties":{"LSOA21CD":"E01032803","GlobalID_2":"4a87a786-5270-4624-a436-17524885cde4","whole_in_zone":true,"in_cw":false}},
{"type":"Feature","geometry":{"type":"Point","coordinates":[-0.018139,51.49833]},"properties":{"LSOA21CD":"E01035698","GlobalID_2":"22b82319-8528-48e6-bb54-9cf38675b3e5","whole_in_zone":true,"in_cw":true}},
{"type":"Feature","geometry":{"type":"Point","coordinates":[-0.070687,51.519342]},"properties":{"LSOA21CD":"E01004306","GlobalID_2":"23e43336-fa29-4e05-aaa5-8159e1cdfe3a","whole_in_zone":true,"in_cw":false}},
{"type":"Feature","geometry":{"type":"Point","coordinates":[-0.04739,51.491378]},"properties":{"LSOA21CD":"E01004036","GlobalID_2":"41d8f438-4e8c-4b32-9e28-b883e5a3d2d2","whole_in_zone":true,"in_cw":false}},
{"type":"Feature","geometry":{"type":"Point","coordinates":[-0.059264,51.512615]},"properties":{"LSOA21CD":"E01004304","GlobalID_2":"763e8466-b4c5-4ae1-b76b-9c8169281673","whole_in_zone":true,"in_cw":false}},
{"type":"Feature","geometry":{"type":"Point","coordinates":[-0.06404,51.512406]},"properties":{"LSOA21CD":"E01004319","GlobalID_2":"301035f6-152f-45e0-913a-c2e3f6ffc697","whole_in_zone":true,"in_cw":false}},
{"type":"Feature","geometry":{"type":"Point","coordinates":[-0.073992,51.501658]},"properties":{"LSOA21CD":"E01032637","GlobalID_2":"4940a6ce-39c8-4422-9577-3c224410a31a","whole_in_zone":true,"in_cw":false}},
{"type":"Feature","geometry":{"type":"Point","coordinates":[-0.075213,51.475546]},"properties":{"LSOA21CD":"E01004013","GlobalID_2":"5fa9e122-5d02-42c1-bbb2-10f3a5c4df53","whole_in_zone":true,"in_cw":false}},
{"type":"Feature","geometry":{"type":"Point","coordinates":[-0.070366,51.498925]},"properties":{"LSOA21CD":"E01004028","GlobalID_2":"f168215b-142f-4bdd-94cd-8495a2f7f585","whole_in_zone":true,"in_cw":false}},
{"type":"Feature","geometry":{"type":"Point","coordinates":[-0.02352,51.511382]},"properties":{"LSOA21CD":"E01035695","GlobalID_2":"dde2200d-961d-482f-b910-0acb54a00350","whole_in_zone":true,"in_cw":false}},
{"type":"Feature","geometry":{"type":"Point","coordinates":[-0.067869,51.491305]},"properties":{"LSOA21CD":"E01004043","GlobalID_2":"aaf28fd4-331c-44d0-814e-d93c881bc5dc","whole_in_zone":true,"in_cw":false}},
{"type":"Feature","geometry":{"type":"Point","coordinates":[-0.040169,51.481087]},"properties":{"LSOA21CD":"E01003298","GlobalID_2":"218d5b53-e9eb-4b53-9356-b6c11f177de9","whole_in_zone":true,"in_cw":false}},
{"type":"Feature","geometry":{"type":"Point","coordinates":[-0.081461,51.487587]},"properties":{"LSOA21CD":"E01033878","GlobalID_2":"79841153-fb35-435c-94cb-cd1e55b678b4","whole_in_zone":true,"in_cw":false}},
{"type":"Feature","geometry":{"type":"Point","coordinates":[-0.048528,51.489183]},"properties":{"LSOA21CD":"E01003245","GlobalID_2":"5698f2eb-919f-412c-aa37-cdb84dd7304f","whole_in_zone":true,"in_cw":false}},
{"type":"Feature","geometry":{"type":"Point","coordinates":[-0.036713,51.506177]},"properties":{"LSOA21CD":"E01004054","GlobalID_2":"38e365bd-0352-4cc5-8293-3f0d780a5325","whole_in_zone":true,"in_cw":false}},
{"type":"Feature","geometry":{"type":"Point","coordinates":[-0.087896,51.49294]},"properties":{"LSOA21CD":"E01003960","GlobalID_2":"252a0764-20ef-4adf-8e7e-f3559f0401ff","whole_in_zone":true,"in_cw":false}},
{"type":"Feature","geometry":{"type":"Point","coordinates":[-0.026209,51.515499]},"properties":{"LSOA21CD":"E01035677","GlobalID_2":"2c1dd5a0-d88a-4c37-a33f-0ca054ace806","whole_in_zone":true,"in_cw":false}},
{"type":"Feature","geometry":{"type":"Point","coordinates":[-0.023892,51.514614]},"properties":{"LSOA21CD":"E01035692","GlobalID_2":"85776c24-13ec-4006-88c7-e87f28d903e6","whole_in_zone":true,"in_cw":false}},
{"type":"Feature","geometry":{"type":"Point","coordinates":[-0.052445,51.489934]},"properties":{"LSOA21CD":"E01003986","GlobalID_2":"4bd9b24f-6145-4e80-8892-9a8345fcc24d","whole_in_zone":true,"in_cw":false}},
{"type":"Feature","geometry":{"type":"Point","coordinates":[-0.070321,51.480492]},"properties":{"LSOA21CD":"E01003990","GlobalID_2":"0263488d-2cd6-4f83-b9b7-d8a28f9eb4b2","whole_in_zone":true,"in_cw":false}},
{"type":"Feature","geometry":{"type":"Point","coordinates":[0.009418,51.485452]},"properties":{"LSOA21CD":"E01034184","GlobalID_2":"4abb6b47-5f6f-4791-97e1-3e34cc8ea9b8","whole_in_zone":true,"in_cw":false}},
{"type":"Feature","geometry":{"type":"Point","coordinates":[-0.071995,51.487156]},"properties":{"LSOA21CD":"E01004040","GlobalID_2":"682605e1-2e42-4e28-9e94-768f0cbe8df6","whole_in_zone":true,"in_cw":false}},
{"type":"Feature","geometry":{"type":"Point","coordinates":[0.007107,51.481034]},"properties":{"LSOA21CD":"E01001587","GlobalID_2":"cf4353b7-5cc5-4f05-a5de-9c17ccdbf7d4","whole_in_zone":true,"in_cw":false}},
{"type":"Feature","geometry":{"type":"Point","coordinates":[-0.050391,51.475632]},"properties":{"LSOA21CD":"E01003338","GlobalID_2":"8a9c8fbb-7c52-43a1-b7d7-fa0a816c899a","whole_in_zone":true,"in_cw":false}},
{"type":"Feature","geometry":{"type":"Point","coordinates":[-0.090249,51.479185]},"properties":{"LSOA21CD":"E01003925","GlobalID_2":"a229db79-9d15-4ce8-b7ca-205594ef2938","whole_in_zone":true,"in_cw":false}},
{"type":"Feature","geometry":{"type":"Point","coordinates":[-0.037101,51.514843]},"properties":{"LSOA21CD":"E01004286","GlobalID_2":"6b827ac3-ff38-44ee-bfd3-e68fcaaa1568","whole_in_zone":true,"in_cw":false}},
{"type":"Feature","geometry":{"type":"Point","coordinates":[-0.094139,51.490222]},"properties":{"LSOA21CD":"E01033877","GlobalID_2":"d6b199b9-b15a-444e-83f9-7a7e7dc48a81","whole_in_zone":true,"in_cw":false}},
{"type":"Feature","geometry":{"type":"Point","coordinates":[-0.019282,51.516867]},"properties":{"LSOA21CD":"E01035684","GlobalID_2":"52f35174-bb75-494f-8b09-af7ae5f53c2c","whole_in_zone":true,"in_cw":false}},
{"type":"Feature","geometry":{"type":"Point","coordinates":[-0.021888,51.47752]},"properties":{"LSOA21CD":"E01032579","GlobalID_2":"a5c9bb6e-f687-4b6a-8d26-27f247b832e6","whole_in_zone":true,"in_cw":false}},
{"type":"Feature","geometry":{"type":"Point","coordinates":[-0.067599,51.518566]},"properties":{"LSOA21CD":"E01004309","GlobalID_2":"a89ebeab-d826-40ff-bfaa-c5dd4096250a","whole_in_zone":true,"in_cw":false}},
{"type":"Feature","geometry":{"type":"Point","coordinates":[-0.006215,51.493142]},"properties":{"LSOA21CD":"E01004216","GlobalID_2":"4146c5b7-cc7a-4acc-bfb4-6d47fb6e11b9","whole_in_zone":true,"in_cw":false}},
{"type":"Feature","geometry":{"type":"Point","coordinates":[-0.037612,51.479478]},"properties":{"LSOA21CD":"E01003300","GlobalID_2":"d70e5631-ec96-4cf3-a93f-f8d767b6ff4b","whole_in_zone":true,"in_cw":false}},
{"type":"Feature","geometry":{"type":"Point","coordinates":[-0.066244,51.479471]},"properties":{"LSOA21CD":"E01003983","GlobalID_2":"048de78f-de0c-4a7e-951c-dade60ac273a","whole_in_zone":true,"in_cw":false}},
{"type":"Feature","geometry":{"type":"Point","coordinates":[-0.014876,51.496966]},"properties":{"LSOA21CD":"E01035704","GlobalID_2":"0ffcd00b-086e-4ae3-b5a1-7479214ec320","whole_in_zone":true,"in_cw":false}},
{"type":"Feature","geometry":{"type":"Point","coordinates":[-0.055319,51.511557]},"properties":{"LSOA21CD":"E01004302","GlobalID_2":"f5b32d3e-c38b-49c9-bfe3-5d6a9ad2762b","whole_in_zone":true,"in_cw":false}},
{"type":"Feature","geometry":{"type":"Point","coordinates":[-0.008502,51.475365]},"properties":{"LSOA21CD":"E01001642","GlobalID_2":"718ebc2c-84d4-48e8-a886-4d762a8c2eb2","whole_in_zone":true,"in_cw":false}},
{"type":"Feature","geometry":{"type":"Point","coordinates":[-0.091655,51.498179]},"properties":{"LSOA21CD":"E01003936","GlobalID_2":"fd32a2ac-ff64-4e52-aec3-f8890158f81f","whole_in_zone":true,"in_cw":false}},
{"type":"Feature","geometry":{"type":"Point","coordinates":[-0.047245,51.510822]},"properties":{"LSOA21CD":"E01004303","GlobalID_2":"7078e289-fc96-47cf-a3cd-405f5827235c","whole_in_zone":true,"in_cw":false}},
{"type":"Feature","geometry":{"type":"Point","coordinates":[-0.053127,51.50122]},"properties":{"LSOA21CD":"E01004030","GlobalID_2":"b74f23cd-61b2-467a-a821-20fa457fbcee","whole_in_zone":true,"in_cw":false}},
{"type":"Feature","geometry":{"type":"Point","coordinates":[-0.014743,51.514829]},"properties":{"LSOA21CD":"E01035679","GlobalID_2":"fc01eff3-78cd-4ff2-a952-72d04495fc4d","whole_in_zone":true,"in_cw":false}},
{"type":"Feature","geometry":{"type":"Point","coordinates":[-0.072801,51.494891]},"properties":{"LSOA21CD":"E01033872","GlobalID_2":"6dd81e34-b8bd-4b5a-a71c-b0ab94778820","whole_in_zone":true,"in_cw":false}},
{"type":"Feature","geometry":{"type":"Point","coordinates":[0.001552,51.509494]},"properties":{"LSOA21CD":"E01035702","GlobalID_2":"0524e2ca-65d3-4009-9cbe-373644c9c4f5","whole_in_zone":true,"in_cw":false}},
{"type":"Feature","geometry":{"type":"Point","coordinates":[-0.029163,51.48308]},"properties":{"LSOA21CD":"E01003251","GlobalID_2":"90a23710-61fd-48ee-a516-5c27376b6118","whole_in_zone":true,"in_cw":false}},
{"type":"Feature","geometry":{"type":"Point","coordinates":[-0.047538,51.514911]},"properties":{"LSOA21CD":"E01004289","GlobalID_2":"df2241f4-b8a6-4841-942b-f85a9bdca001","whole_in_zone":true,"in_cw":false}},
{"type":"Feature","geometry":{"type":"Point","coordinates":[-0.063417,51.506296]},"properties":{"LSOA21CD":"E01004292","GlobalID_2":"9a1c24c6-99a2-41c2-a986-b9eec61c8466","whole_in_zone":true,"in_cw":false}},
{"type":"Feature","geometry":{"type":"Point","coordinates":[-0.048712,51.478418]},"properties":{"LSOA21CD":"E01003305","GlobalID_2":"d6695140-69b4-4192-98ab-968ea4af6fbe","whole_in_zone":true,"in_cw":false}},
{"type":"Feature","geometry":{"type":"Point","coordinates":[0.014816,51.493916]},"properties":{"LSOA21CD":"E01034196","GlobalID_2":"f4cef785-051e-4f40-84ff-c4e17dfa1a82","whole_in_zone":true,"in_cw":false}},
{"type":"Feature","geometry":{"type":"Point","coordinates":[-0.075337,51.480539]},"properties":{"LSOA21CD":"E01004014","GlobalID_2":"12c9ebaa-8742-4e5a-a57b-fde2595281b1","whole_in_zone":true,"in_cw":false}},
{"type":"Feature","geometry":{"type":"Point","coordinates":[-0.073043,51.491438]},"properties":{"LSOA21CD":"E01004044","GlobalID_2":"89ec6f16-2fc0-4aeb-8553-f93bf792bf86","whole_in_zone":true,"in_cw":false}},
{"type":"Feature","geometry":{"type":"Point","coordinates":[-0.032831,51.482684]},"properties":{"LSOA21CD":"E01003252","GlobalID_2":"70542a62-13d1-455b-b098-18f285bea0ff","whole_in_zone":true,"in_cw":false}},
{"type":"Feature","geometry":{"type":"Point","coordinates":[0.008409,51.520445]},"properties":{"LSOA21CD":"E01003497","GlobalID_2":"58bb7909-c70f-48fd-bee3-a24928dc5a7e","whole_in_zone":true,"in_cw":false}},
{"type":"Feature","geometry":{"type":"Point","coordinates":[-0.092419,51.492371]},"properties":{"LSOA21CD":"E01033875","GlobalID_2":"c5369cad-7ebe-4866-9ef0-9bebff8ac20a","whole_in_zone":true,"in_cw":false}},
{"type":"Feature","geometry":{"type":"Point","coordinates":[0.014371,51.482545]},"properties":{"LSOA21CD":"E01001585","GlobalID_2":"e02fc59d-979c-43c4-89d7-20bc0b4427b3","whole_in_zone":true,"in_cw":false}},
{"type":"Feature","geometry":{"type":"Point","coordinates":[-0.080901,51.500358]},"properties":{"LSOA21CD":"E01032646","GlobalID_2":"98ad1dec-5f95-434d-8ac5-6d7952a179e6","whole_in_zone":true,"in_cw":false}},
{"type":"Feature","geometry":{"type":"Point","coordinates":[-0.063754,51.492217]},"properties":{"LSOA21CD":"E01004042","GlobalID_2":"c452a9c1-b0ad-4c76-baec-1d68e52ba7bd","whole_in_zone":true,"in_cw":false}},
{"type":"Feature","geometry":{"type":"Point","coordinates":[-0.073779,51.478608]},"properties":{"LSOA21CD":"E01004007","GlobalID_2":"b7925022-4f0a-4441-9e8c-fe7207deb6f0","whole_in_zone":true,"in_cw":false}},
{"type":"Feature","geometry":{"type":"Point","coordinates":[-0.016511,51.479488]},"properties":{"LSOA21CD":"E01034181","GlobalID_2":"8e50a9a3-ff25-4c0d-b081-823ae8cf7cca","whole_in_zone":true,"in_cw":false}},
{"type":"Feature","geometry":{"type":"Point","coordinates":[-0.028701,51.51024]},"properties":{"LSOA21CD":"E01004255","GlobalID_2":"8152c5fa-2d74-40c6-9806-366e08300881","whole_in_zone":true,"in_cw":false}},
{"type":"Feature","geometry":{"type":"Point","coordinates":[0.01381,51.479484]},"properties":{"LSOA21CD":"E01001586","GlobalID_2":"08e8e5cf-acca-4aa0-9b6e-ffe124cf3102","whole_in_zone":true,"in_cw":false}},
{"type":"Feature","geometry":{"type":"Point","coordinates":[-0.050309,51.49908]},"properties":{"LSOA21CD":"E01004033","GlobalID_2":"e1e6f0b4-ff67-48de-9b44-a3f05927c716","whole_in_zone":true,"in_cw":false}},
{"type":"Feature","geometry":{"type":"Point","coordinates":[-0.055181,51.476636]},"properties":{"LSOA21CD":"E01004003","GlobalID_2":"8c47294a-ea76-415b-b196-59f7ec91b0f5","whole_in_zone":true,"in_cw":false}},
{"type":"Feature","geometry":{"type":"Point","coordinates":[-0.039338,51.489952]},"properties":{"LSOA21CD":"E01034389","GlobalID_2":"78163edc-8652-4445-9068-785f8c7a9533","whole_in_zone":true,"in_cw":false}},
{"type":"Feature","geometry":{"type":"Point","coordinates":[-0.026037,51.492273]},"properties":{"LSOA21CD":"E01032775","GlobalID_2":"63b3117b-c1ca-4e29-b5ee-47e198adf14a","whole_in_zone":true,"in_cw":false}},
{"type":"Feature","geometry":{"type":"Point","coordinates":[-0.021727,51.517488]},"properties":{"LSOA21CD":"E01035673","GlobalID_2":"3407b0a0-4335-4b25-8833-8554c32c1971","whole_in_zone":true,"in_cw":false}},
{"type":"Feature","geometry":{"type":"Point","coordinates":[-0.001161,51.513877]},"properties":{"LSOA21CD":"E01004245","GlobalID_2":"aa8c8a5c-20e9-4611-9504-3ca546230d79","whole_in_zone":true,"in_cw":false}},
{"type":"Feature","geometry":{"type":"Point","coordinates":[-0.085575,51.491248]},"properties":{"LSOA21CD":"E01003961","GlobalID_2":"d86319ff-9932-46ac-8c88-0a77bc78d0d0","whole_in_zone":true,"in_cw":false}},
{"type":"Feature","geometry":{"type":"Point","coordinates":[-0.040897,51.51921]},"properties":{"LSOA21CD":"E01035681","GlobalID_2":"f3f1b762-b427-4166-9599-3e3fff162131","whole_in_zone":true,"in_cw":false}},
{"type":"Feature","geometry":{"type":"Point","coordinates":[-0.085785,51.48592]},"properties":{"LSOA21CD":"E01033879","GlobalID_2":"0c26217a-d763-4d2a-8eda-ed773f9827a6","whole_in_zone":true,"in_cw":false}},
{"type":"Feature","geometry":{"type":"Point","coordinates":[-0.005836,51.505801]},"properties":{"LSOA21CD":"E01032779","GlobalID_2":"ea4d7271-b8ef-4938-88c5-249162e349a7","whole_in_zone":true,"in_cw":true}},
{"type":"Feature","geometry":{"type":"Point","coordinates":[-0.085439,51.476333]},"properties":{"LSOA21CD":"E01003917","GlobalID_2":"7be07495-6030-49ce-8d9e-5a921771dccd","whole_in_zone":true,"in_cw":false}},
{"type":"Feature","geometry":{"type":"Point","coordinates":[-0.028848,51.516408]},"properties":{"LSOA21CD":"E01035676","GlobalID_2":"5ed8260b-ee44-4ede-b407-10d6258e9075","whole_in_zone":true,"in_cw":false}},
{"type":"Feature","geometry":{"type":"Point","coordinates":[-0.024701,51.501839]},"properties":{"LSOA21CD":"E01032782","GlobalID_2":"f783ce48-21f0-4e5f-8eb8-72bc0cd3af04","whole_in_zone":true,"in_cw":true}},
{"type":"Feature","geometry":{"type":"Point","coordinates":[-0.065195,51.482143]},"properties":{"LSOA21CD":"E01003989","GlobalID_2":"c850f84b-ab95-4a8f-9b43-f1f3936b8214","whole_in_zone":true,"in_cw":false}},
{"type":"Feature","geometry":{"type":"Point","coordinates":[-0.062497,51.475266]},"properties":{"LSOA21CD":"E01033883","GlobalID_2":"87df3f78-0210-4563-9f31-6ebc0d807556","whole_in_zone":true,"in_cw":false}},
{"type":"Feature","geometry":{"type":"Point","coordinates":[-0.058989,51.476783]},"properties":{"LSOA21CD":"E01003984","GlobalID_2":"272242cc-e1b9-4985-bfe9-1266d8e01a0a","whole_in_zone":true,"in_cw":false}},
{"type":"Feature","geometry":{"type":"Point","coordinates":[-0.020584,51.499483]},"properties":{"LSOA21CD":"E01032772","GlobalID_2":"c555e175-3a7d-4a1f-9b7b-1632959f6e15","whole_in_zone":true,"in_cw":true}},
{"type":"Feature","geometry":{"type":"Point","coordinates":[0.011388,51.497938]},"properties":{"LSOA21CD":"E01034193","GlobalID_2":"bf93c2d3-f383-4029-b5ba-4ca745b4004e","whole_in_zone":true,"in_cw":false}},
{"type":"Feature","geometry":{"type":"Point","coordinates":[-0.073868,51.516764]},"properties":{"LSOA21CD":"E01004310","GlobalID_2":"d8c03a79-add7-4a67-998e-1cc622fa2e5d","whole_in_zone":true,"in_cw":false}},
{"type":"Feature","geometry":{"type":"Point","coordinates":[-0.091035,51.500767]},"properties":{"LSOA21CD":"E01003939","GlobalID_2":"5cf753cb-db2a-486e-92ab-d027bccf5c1e","whole_in_zone":true,"in_cw":false}},
{"type":"Feature","geometry":{"type":"Point","coordinates":[-0.065733,51.496634]},"properties":{"LSOA21CD":"E01033871","GlobalID_2":"bca9dd4e-3f33-42a3-b276-4c24be35814d","whole_in_zone":true,"in_cw":false}},
{"type":"Feature","geometry":{"type":"Point","coordinates":[-0.057072,51.510547]},"properties":{"LSOA21CD":"E01004301","GlobalID_2":"8e4bd845-f0e2-405d-8f14-7d36800034fe","whole_in_zone":true,"in_cw":false}},
{"type":"Feature","geometry":{"type":"Point","coordinates":[-0.041029,51.511418]},"properties":{"LSOA21CD":"E01032769","GlobalID_2":"e2d99fb3-a5ed-40b7-8817-59f52781ae1b","whole_in_zone":true,"in_cw":false}},
{"type":"Feature","geometry":{"type":"Point","coordinates":[-0.018674,51.500858]},"properties":{"LSOA21CD":"E01032771","GlobalID_2":"8616e3b6-cbbe-46a5-918c-c111704124eb","whole_in_zone":true,"in_cw":true}},
{"type":"Feature","geometry":{"type":"Point","coordinates":[-0.015136,51.50983]},"properties":{"LSOA21CD":"E01004257","GlobalID_2":"56ae622b-041d-41cf-8dd1-f0c6d843a5d6","whole_in_zone":true,"in_cw":true}},
{"type":"Feature","geometry":{"type":"Point","coordinates":[-0.062855,51.499043]},"properties":{"LSOA21CD":"E01004023","GlobalID_2":"b0a09282-0c9c-4e0a-9664-46d19fad6e46","whole_in_zone":true,"in_cw":false}},
{"type":"Feature","geometry":{"type":"Point","coordinates":[0.01491,51.515004]},"properties":{"LSOA21CD":"E01034208","GlobalID_2":"e30aa522-8379-405b-8acf-56700c8e5138","whole_in_zone":true,"in_cw":false}},
{"type":"Feature","geometry":{"type":"Point","coordinates":[-0.005478,51.506825]},"properties":{"LSOA21CD":"E01032776","GlobalID_2":"b618066e-169f-4bf0-acb7-8b3a41627c0e","whole_in_zone":true,"in_cw":true}},
{"type":"Feature","geometry":{"type":"Point","coordinates":[-0.078442,51.4779]},"properties":{"LSOA21CD":"E01004011","GlobalID_2":"9c0c2687-80fd-4dec-b138-79dd8bc5a59c","whole_in_zone":true,"in_cw":false}},
{"type":"Feature","geometry":{"type":"Point","coordinates":[0.001374,51.486162]},"properties":{"LSOA21CD":"E01034192","GlobalID_2":"97116a7f-4a64-4db0-9a7f-43cd0450b31e","whole_in_zone":true,"in_cw":false}},
{"type":"Feature","geometry":{"type":"Point","coordinates":[-0.089492,51.496227]},"properties":{"LSOA21CD":"E01003942","GlobalID_2":"2bc84aab-d366-4804-b20c-71cb83739339","whole_in_zone":true,"in_cw":false}},
{"type":"Feature","geometry":{"type":"Point","coordinates":[0.010451,51.514894]},"properties":{"LSOA21CD":"E01034209","GlobalID_2":"40eee05e-836c-4aee-bad4-c6a722bdc3b4","whole_in_zone":true,"in_cw":false}},
{"type":"Feature","geometry":{"type":"Point","coordinates":[-0.019343,51.519464]},"properties":{"LSOA21CD":"E01035672","GlobalID_2":"45e7f87a-91fe-4472-b950-b7adf216a00c","whole_in_zone":true,"in_cw":false}},
{"type":"Feature","geometry":{"type":"Point","coordinates":[0.005501,51.489547]},"properties":{"LSOA21CD":"E01034183","GlobalID_2":"85518489-4ec0-4b61-8894-aa111f906e7e","whole_in_zone":true,"in_cw":false}},
{"type":"Feature","geometry":{"type":"Point","coordinates":[-0.050906,51.51571]},"properties":{"LSOA21CD":"E01004287","GlobalID_2":"81662cd4-b2a4-487a-b716-b7c239fe39b1","whole_in_zone":true,"in_cw":false}},
{"type":"Feature","geometry":{"type":"Point","coordinates":[-0.083315,51.478447]},"properties":{"LSOA21CD":"E01003916","GlobalID_2":"54f53a08-050e-4730-bc8b-f5bdf179e4fa","whole_in_zone":true,"in_cw":false}},
{"type":"Feature","geometry":{"type":"Point","coordinates":[-0.011266,51.479262]},"properties":{"LSOA21CD":"E01001641","GlobalID_2":"459112da-7689-4ad2-b0ad-27b8864c9f08","whole_in_zone":true,"in_cw":false}},
{"type":"Feature","geometry":{"type":"Point","coordinates":[-0.007815,51.496779]},"properties":{"LSOA21CD":"E01004214","GlobalID_2":"188a85e6-8d8d-4688-a784-83ce6be1c8ba","whole_in_zone":true,"in_cw":false}},
{"type":"Feature","geometry":{"type":"Point","coordinates":[-0.07929,51.491663]},"properties":{"LSOA21CD":"E01003980","GlobalID_2":"7ace0a7a-90d6-45fd-8106-1a8638b3710f","whole_in_zone":true,"in_cw":false}},
{"type":"Feature","geometry":{"type":"Point","coordinates":[-0.09165,51.519189]},"properties":{"LSOA21CD":"E01000002","GlobalID_2":"7d968655-4363-4cfa-b943-84f9bbe78b83","whole_in_zone":true,"in_cw":false}},
{"type":"Feature","geometry":{"type":"Point","coordinates":[-0.089278,51.50012]},"properties":{"LSOA21CD":"E01003938","GlobalID_2":"0438ff86-9800-4f33-b106-726818580377","whole_in_zone":true,"in_cw":false}},
{"type":"Feature","geometry":{"type":"Point","coordinates":[-0.036091,51.491584]},"properties":{"LSOA21CD":"E01034388","GlobalID_2":"07303fa6-a1d9-4e72-9402-99640302897b","whole_in_zone":true,"in_cw":false}},
{"type":"Feature","geometry":{"type":"Point","coordinates":[-0.045083,51.476227]},"properties":{"LSOA21CD":"E01003299","GlobalID_2":"36d8888e-46d7-47ff-818f-17851373bac6","whole_in_zone":true,"in_cw":false}},
{"type":"Feature","geometry":{"type":"Point","coordinates":[-0.069288,51.509671]},"properties":{"LSOA21CD":"E01035697","GlobalID_2":"b289b783-2fee-4800-a748-a5902f4a85aa","whole_in_zone":true,"in_cw":false}},
{"type":"Feature","geometry":{"type":"Point","coordinates":[-0.001324,51.509314]},"properties":{"LSOA21CD":"E01032777","GlobalID_2":"e059d0de-6243-497a-b4c2-f43dccc0031f","whole_in_zone":true,"in_cw":false}},
{"type":"Feature","geometry":{"type":"Point","coordinates":[0.012933,51.486258]},"properties":{"LSOA21CD":"E01001665","GlobalID_2":"3c78b9a7-7fad-41bd-8849-58545b219f76","whole_in_zone":true,"in_cw":false}},
{"type":"Feature","geometry":{"type":"Point","coordinates":[-0.059673,51.498205]},"properties":{"LSOA21CD":"E01004034","GlobalID_2":"f3d87be0-902c-4089-bca7-3f8e27cc4c40","whole_in_zone":true,"in_cw":false}},
{"type":"Feature","geometry":{"type":"Point","coordinates":[0.012514,51.511079]},"properties":{"LSOA21CD":"E01034211","GlobalID_2":"4119eae3-7fe9-4964-ab44-f8b66e037585","whole_in_zone":true,"in_cw":false}},
{"type":"Feature","geometry":{"type":"Point","coordinates":[-0.019808,51.497862]},"properties":{"LSOA21CD":"E01035699","GlobalID_2":"22ce5abe-2798-4827-9b4a-65993ca29b9b","whole_in_zone":true,"in_cw":false}},
{"type":"Feature","geometry":{"type":"Point","coordinates":[-0.031576,51.509359]},"properties":{"LSOA21CD":"E01004258","GlobalID_2":"a209ca38-2684-4464-9413-7c7daac58ac7","whole_in_zone":true,"in_cw":false}},
{"type":"Feature","geometry":{"type":"Point","coordinates":[0.012382,51.496268]},"properties":{"LSOA21CD":"E01034195","GlobalID_2":"21365f3e-068e-4076-bf50-7565a4af4452","whole_in_zone":true,"in_cw":false}},
{"type":"Feature","geometry":{"type":"Point","coordinates":[-0.05721,51.480672]},"properties":{"LSOA21CD":"E01003988","GlobalID_2":"0f751048-f443-494d-ab1a-c6f9450fb422","whole_in_zone":true,"in_cw":false}},
{"type":"Feature","geometry":{"type":"Point","coordinates":[-0.04073,51.495894]},"properties":{"LSOA21CD":"E01004059","GlobalID_2":"1671d286-5524-4393-a1a5-602c11817f2a","whole_in_zone":true,"in_cw":false}},
{"type":"Feature","geometry":{"type":"Point","coordinates":[-0.031828,51.521329]},"properties":{"LSOA21CD":"E01004270","GlobalID_2":"5466bf4f-cb18-487e-a163-3b73b6834c41","whole_in_zone":true,"in_cw":false}},
{"type":"Feature","geometry":{"type":"Point","coordinates":[-0.022134,51.52062]},"properties":{"LSOA21CD":"E01004241","GlobalID_2":"dd13a881-2e84-41fa-bd34-56d0627458c8","whole_in_zone":true,"in_cw":false}},
{"type":"Feature","geometry":{"type":"Point","coordinates":[-0.044889,51.500742]},"properties":{"LSOA21CD":"E01004032","GlobalID_2":"f355268e-3e08-4b0f-8eb3-caa428e0bda5","whole_in_zone":true,"in_cw":false}},
{"type":"Feature","geometry":{"type":"Point","coordinates":[0.006528,51.512209]},"properties":{"LSOA21CD":"E01035701","GlobalID_2":"9be94d29-549e-4ff3-94ea-0b6b4bdc2b95","whole_in_zone":true,"in_cw":false}},
{"type":"Feature","geometry":{"type":"Point","coordinates":[-0.063817,51.477657]},"properties":{"LSOA21CD":"E01033882","GlobalID_2":"c9e7e581-5b77-476b-b716-ae2efedd7971","whole_in_zone":true,"in_cw":false}},
{"type":"Feature","geometry":{"type":"Point","coordinates":[-0.055808,51.520927]},"properties":{"LSOA21CD":"E01004208","GlobalID_2":"b4fe5f72-4297-4ffe-800f-9e54772b31ec","whole_in_zone":true,"in_cw":false}},
{"type":"Feature","geometry":{"type":"Point","coordinates":[0.011049,51.517003]},"properties":{"LSOA21CD":"E01003503","GlobalID_2":"5b1e74a3-d1d1-4dfd-9a75-c7f6c1ec720d","whole_in_zone":true,"in_cw":false}},
{"type":"Feature","geometry":{"type":"Point","coordinates":[-0.072832,51.489224]},"properties":{"LSOA21CD":"E01004039","GlobalID_2":"9e775b42-b79d-49ce-b504-6c6530b984c4","whole_in_zone":true,"in_cw":false}},
{"type":"Feature","geometry":{"type":"Point","coordinates":[-0.069337,51.487595]},"properties":{"LSOA21CD":"E01004041","GlobalID_2":"10ebaa60-e22a-42d5-94f2-4c04fd6b7839","whole_in_zone":true,"in_cw":false}},
{"type":"Feature","geometry":{"type":"Point","coordinates":[-0.045198,51.505023]},"properties":{"LSOA21CD":"E01004053","GlobalID_2":"436888dc-049d-43ea-af42-6d5e8041757e","whole_in_zone":true,"in_cw":false}},
{"type":"Feature","geometry":{"type":"Point","coordinates":[0.01247,51.519137]},"properties":{"LSOA21CD":"E01003502","GlobalID_2":"d0ffed13-50d6-49ae-b99a-4a91da3be1bd","whole_in_zone":true,"in_cw":false}}
]}
