{"type":"FeatureCollection","meta":{
 "source": "London Datastore: Water Quality of London's Rivers and Other Waterbodies (Environment Agency)",
 "dataset": "vqmy6",
 "page": "https://data.london.gov.uk/dataset/water-quality-of-londons-rivers-and-other-waterbodies-vqmy6",
 "resources": [
  {
   "resource": "ac8f6c22-f742-40a1-bad7-1040bec661bb",
   "file": "WFD_London.zip",
   "url": "https://data.london.gov.uk/download/vqmy6/ac8f6c22-f742-40a1-bad7-1040bec661bb/WFD_London.zip",
   "size": 604962,
   "resource_date": "2018-03-29",
   "fetched": "2026-10-04",
   "entries": 7
  }
 ],
 "licence": "Open Government Licence v3",
 "licence_url": "https://www.nationalarchives.gov.uk/doc/open-government-licence/version/3/",
 "attribution": "Contains public sector information licensed under the Open Government Licence v3 (Environment Agency). The GLA cannot warrant the quality or accuracy of the data (London Datastore terms).",
 "dataset_modified": "2018-03-29",
 "update_frequency": null,
 "geo": "Custom Polygons",
 "theme": "transport",
 "layers": [
  {
   "table": "WFD_London",
   "srs": 27700
  }
 ],
 "crs_source": "EPSG:27700",
 "crs_output": "EPSG:4326 (WGS84), 6 decimal places; BNG to WGS84 through the OS OSTN15 grid (lib.mjs bngProjector)",
 "method": "lds-harvest-auto.mjs run vqmy6: resources chosen by the written rules (harvest-log.json meta.rules: formats, dedupe, caps); every feature read (GeoPackage, GeoJSON, shapefile, or table rows with coordinate columns as points, the CRS judged per row by value); a feature is kept when it meets the zone (the 3D model box, BNG E 532400-539900, N 176700-182300): a vertex inside, an edge crossing or the box inside a polygon; whole geometries kept, whole_in_zone and in_cw added; WGS84 6 decimals through OSTN15; contact fields dropped.",
 "counts": {
  "source_features": 54,
  "no_geometry": 0,
  "in_zone": 3,
  "in_cw": 0
 },
 "attributes_in_source": "yes",
 "fields_dropped": [],
 "harvest_rules": "tools/lds-harvest-auto.mjs AUTO_RULES (feeds/london-datastore/harvest-log.json meta.rules)",
 "selection_notes": []
},
"features":[
{"type":"Feature","properties":{"WB_ID":"GB106039023270","WB_NAME":"Ravensbourne (Catford to Deptford)","RBD_ID":6,"RBD_NAME":"Thames","WB_CAT":"River","COUNTRY":"England","RBD_NAME_1":"Thames","AREA_NAME":"Kent and South London","MNCAT_NAME":"London","OPCAT_NAME":"Ravensbourne","WB_ID_1":"GB106039023270","WB_NAME_1":"Ravensbourne (Catford to Deptford)","WB_CAT_1":"River","HMD_NAME":"Heavily Modified","OV_CLASS":"Moderate","ECO_CLASS":"Moderate","ECO_LESS":"Very Certain","CHEM_CLASS":"Good","CHEM_LESS":"No Information","ANG_CLASS":null,"CHI_CLASS":null,"FISH_CLASS":"Bad","INV_CLASS":"Moderate","LIT_CLASS":null,"ALG_CLASS":null,"COM_CLASS":"Not assessed","PHY_CLASS":null,"ANC_CLASS":"High","AMM_CLASS":"High","BOD_CLASS":null,"DIN_CLASS":null,"DIS_CLASS":"High","PH_CLASS":"High","PHO_CLASS":"Poor","SAL_CLASS":null,"TEM_CLASS":"High","TP_CLASS":null,"PHS_CLASS":"Good","PS_CLASS":"Good","OP_CLASS":"Good","SP_CLASS":"Good","EXJ_CLASS":null,"REG_CLASS":"Supports Good","MMA_CLASS":"Moderate or less","MOR_CLASS":null,"ORAS_CLASS":null,"in_cw":false,"whole_in_zone":false},"geometry":{"type":"LineString","coordinates":[[-0.026258,51.439808],[-0.02624,51.439987],[-0.026232,51.440023],[-0.026229,51.440068],[-0.026241,51.440139],[-0.02624,51.440175],[-0.026285,51.440348],[-0.026298,51.440401],[-0.026305,51.440419],[-0.02632,51.440444],[-0.026326,51.440471],[-0.026331,51.440489],[-0.026428,51.440724],[-0.026445,51.440758],[-0.026513,51.440876],[-0.026552,51.440963],[-0.026662,51.441167],[-0.026687,51.441228],[-0.026712,51.44127],[-0.026737,51.441331],[-0.026792,51.441424],[-0.026921,51.4417],[-0.026927,51.441718],[-0.026929,51.441745],[-0.026928,51.441772],[-0.02692,51.441798],[-0.026894,51.44185],[-0.026839,51.441943],[-0.026823,51.441987],[-0.026816,51.442013],[-0.026816,51.442031],[-0.026843,51.442119],[-0.026859,51.442154],[-0.026866,51.44218],[-0.026871,51.442207],[-0.026871,51.442252],[-0.026867,51.442288],[-0.026859,51.442315],[-0.026802,51.442454],[-0.026784,51.442488],[-0.02676,51.442531],[-0.026737,51.442564],[-0.026709,51.442595],[-0.026683,51.442616],[-0.026642,51.442642],[-0.026488,51.442723],[-0.026355,51.442797],[-0.025718,51.443371],[-0.025247,51.444324],[-0.02527,51.444476],[-0.025268,51.444521],[-0.02526,51.444548],[-0.025258,51.444566],[-0.025252,51.4447],[-0.02526,51.444835],[-0.025294,51.445032],[-0.02531,51.445066],[-0.025322,51.445129],[-0.025334,51.445164],[-0.025409,51.445356],[-0.025441,51.445499],[-0.025512,51.445645],[-0.025523,51.44568],[-0.025546,51.445723],[-0.02555,51.44574],[-0.02555,51.445768],[-0.025556,51.445795],[-0.025563,51.445813],[-0.025575,51.445828],[-0.025587,51.445832],[-0.025615,51.44584],[-0.025728,51.445879],[-0.025781,51.445895],[-0.0258,51.445908],[-0.025826,51.445939],[-0.025859,51.44599],[-0.025982,51.446201],[-0.025996,51.446236],[-0.026044,51.446413],[-0.02606,51.446448],[-0.026086,51.44649],[-0.026162,51.446587],[-0.026239,51.446693],[-0.026254,51.446718],[-0.026349,51.446888],[-0.026364,51.446932],[-0.026423,51.447052],[-0.026432,51.447088],[-0.026448,51.447177],[-0.026449,51.447195],[-0.026447,51.44724],[-0.026438,51.447275],[-0.026404,51.447363],[-0.026392,51.447379],[-0.026385,51.447397],[-0.02633,51.447555],[-0.026252,51.447737],[-0.026227,51.447817],[-0.026211,51.447851],[-0.026174,51.447919],[-0.026154,51.447981],[-0.026135,51.448015],[-0.026075,51.448154],[-0.026049,51.448269],[-0.026044,51.448368],[-0.026037,51.448395],[-0.026034,51.448422],[-0.026027,51.448601],[-0.026019,51.448799],[-0.02601,51.448834],[-0.026005,51.44896],[-0.025996,51.448987],[-0.025995,51.449005],[-0.025987,51.449355],[-0.025989,51.449373],[-0.025994,51.449391],[-0.026062,51.449547],[-0.026069,51.449583],[-0.026073,51.449637],[-0.02607,51.449664],[-0.026062,51.44969],[-0.026029,51.449759],[-0.025988,51.449855],[-0.02597,51.449868],[-0.025936,51.449885],[-0.025739,51.449959],[-0.025607,51.450029],[-0.025558,51.450062],[-0.025517,51.450099],[-0.025476,51.450124],[-0.025467,51.450131],[-0.025462,51.450139],[-0.025453,51.450146],[-0.025423,51.450165],[-0.025306,51.450233],[-0.025186,51.450297],[-0.025174,51.450302],[-0.025111,51.450324],[-0.025089,51.450335],[-0.024953,51.450416],[-0.024801,51.450536],[-0.024783,51.45056],[-0.024761,51.450583],[-0.024672,51.450654],[-0.024648,51.450676],[-0.024502,51.45081],[-0.024339,51.450947],[-0.02389,51.451365],[-0.023774,51.451468],[-0.023692,51.45153],[-0.023546,51.451617],[-0.023535,51.451623],[-0.023508,51.45163],[-0.023497,51.451636],[-0.023338,51.451713],[-0.023325,51.451729],[-0.023317,51.451736],[-0.023208,51.45182],[-0.023168,51.451858],[-0.023141,51.451879],[-0.023109,51.451897],[-0.023062,51.451918],[-0.023036,51.451925],[-0.022941,51.451948],[-0.0229,51.451953],[-0.022786,51.451965],[-0.022604,51.451993],[-0.022391,51.452016],[-0.022335,51.452021],[-0.022277,51.452019],[-0.022235,51.452023],[-0.022191,51.452023],[-0.022163,51.452021],[-0.022135,51.452017],[-0.022106,51.452015],[-0.021604,51.451994],[-0.021532,51.451998],[-0.021463,51.452008],[-0.021409,51.452023],[-0.021359,51.45204],[-0.021212,51.452097],[-0.021131,51.452135],[-0.021066,51.452154],[-0.021054,51.452158],[-0.021034,51.452171],[-0.020995,51.452183],[-0.020756,51.452284],[-0.020633,51.45233],[-0.020577,51.452358],[-0.020454,51.452405],[-0.020401,51.452435],[-0.02036,51.452461],[-0.02027,51.452531],[-0.020263,51.452538],[-0.020157,51.452686],[-0.020138,51.45271],[-0.020128,51.452717],[-0.020106,51.452729],[-0.020056,51.452773],[-0.019951,51.452847],[-0.019903,51.452892],[-0.019868,51.452931],[-0.019844,51.452964],[-0.019829,51.452989],[-0.019816,51.453024],[-0.01981,51.45306],[-0.019807,51.45315],[-0.019795,51.453194],[-0.019778,51.453219],[-0.01975,51.45325],[-0.019718,51.45328],[-0.019674,51.453316],[-0.019646,51.453336],[-0.019603,51.45336],[-0.019477,51.45342],[-0.019352,51.453465],[-0.01929,51.453488],[-0.019264,51.453496],[-0.019224,51.453505],[-0.019112,51.453522],[-0.019058,51.453534],[-0.018992,51.453553],[-0.01893,51.453575],[-0.018801,51.453633],[-0.018645,51.453726],[-0.01861,51.453742],[-0.0186,51.453748],[-0.018555,51.453783],[-0.018512,51.453819],[-0.01848,51.453849],[-0.018444,51.453888],[-0.018424,51.453912],[-0.018402,51.453945],[-0.018382,51.453979],[-0.018365,51.454013],[-0.018352,51.454058],[-0.018337,51.454081],[-0.018336,51.454083],[-0.018334,51.45411],[-0.018319,51.454154],[-0.018317,51.454171],[-0.018359,51.454313],[-0.018415,51.454434],[-0.018428,51.454469],[-0.018434,51.454504],[-0.018437,51.454541],[-0.018437,51.454558],[-0.018431,51.454585],[-0.018411,51.454647],[-0.018386,51.454689],[-0.018359,51.454721],[-0.018167,51.454942],[-0.01807,51.455042],[-0.017894,51.455196],[-0.017851,51.455242],[-0.017836,51.455268],[-0.01779,51.455313],[-0.017767,51.455346],[-0.01774,51.455388],[-0.017681,51.455489],[-0.017656,51.455541],[-0.017618,51.455664],[-0.017607,51.455727],[-0.017593,51.455795],[-0.017565,51.455923],[-0.017551,51.456049],[-0.017552,51.456067],[-0.017556,51.456084],[-0.017571,51.456128],[-0.0176,51.456179],[-0.017637,51.456229],[-0.017668,51.456289],[-0.017684,51.456314],[-0.017699,51.45633],[-0.017717,51.456344],[-0.01777,51.456374],[-0.017882,51.456429],[-0.017969,51.456461],[-0.018013,51.456485],[-0.018053,51.45659],[-0.018084,51.456683],[-0.018089,51.456728],[-0.018096,51.456745],[-0.018205,51.45695],[-0.018262,51.457042],[-0.018274,51.457078],[-0.018278,51.457104],[-0.018276,51.457113],[-0.01826,51.457138],[-0.018228,51.457179],[-0.018173,51.457242],[-0.018114,51.457324],[-0.018046,51.457403],[-0.018,51.457469],[-0.017937,51.45754],[-0.017889,51.457605],[-0.017864,51.457627],[-0.017798,51.457662],[-0.017763,51.457678],[-0.017711,51.457693],[-0.017603,51.45772],[-0.017592,51.457724],[-0.01757,51.457736],[-0.017544,51.457744],[-0.017501,51.457767],[-0.017453,51.457801],[-0.017412,51.457838],[-0.017385,51.45787],[-0.017326,51.457952],[-0.017312,51.457968],[-0.017286,51.457989],[-0.017209,51.458043],[-0.017197,51.458048],[-0.017122,51.458075],[-0.01707,51.45809],[-0.017,51.458098],[-0.016877,51.458124],[-0.016708,51.458148],[-0.016669,51.458158],[-0.016529,51.45818],[-0.016317,51.458206],[-0.016248,51.458221],[-0.016223,51.458229],[-0.016211,51.458233],[-0.016189,51.458245],[-0.016171,51.458259],[-0.016156,51.458275],[-0.016143,51.458291],[-0.016133,51.458308],[-0.01612,51.458353],[-0.016112,51.458369],[-0.016087,51.458392],[-0.016054,51.45841],[-0.016017,51.458422],[-0.015937,51.458444],[-0.015665,51.458527],[-0.015569,51.458545],[-0.015529,51.458555],[-0.015281,51.458628],[-0.015132,51.458698],[-0.014958,51.458792],[-0.014937,51.458805],[-0.01492,51.458819],[-0.014795,51.45888],[-0.014778,51.458894],[-0.014767,51.4589],[-0.014698,51.458933],[-0.014649,51.458952],[-0.014583,51.45897],[-0.014515,51.458983],[-0.014359,51.459002],[-0.014316,51.459002],[-0.014303,51.459005],[-0.013925,51.459137],[-0.013874,51.459154],[-0.013865,51.45916],[-0.013848,51.459185],[-0.013841,51.459193],[-0.013806,51.459222],[-0.013791,51.459237],[-0.013732,51.459309],[-0.013709,51.45938],[-0.013704,51.459433],[-0.013705,51.459478],[-0.013727,51.459549],[-0.013755,51.459637],[-0.013805,51.45974],[-0.013815,51.459776],[-0.013865,51.459879],[-0.013874,51.459914],[-0.013934,51.460035],[-0.013947,51.460079],[-0.013995,51.460173],[-0.014001,51.4602],[-0.014011,51.460226],[-0.014127,51.460476],[-0.014312,51.460911],[-0.014321,51.460928],[-0.01435,51.460969],[-0.014357,51.460996],[-0.014728,51.461235],[-0.014797,51.461281],[-0.014817,51.461293],[-0.014863,51.461315],[-0.014873,51.461321],[-0.014889,51.461336],[-0.014918,51.461356],[-0.015067,51.461454],[-0.01511,51.461478],[-0.015227,51.461569],[-0.015281,51.461622],[-0.015308,51.461654],[-0.015338,51.461704],[-0.015367,51.461765],[-0.015372,51.461782],[-0.015374,51.4618],[-0.015369,51.461926],[-0.015365,51.461944],[-0.015359,51.461962],[-0.015332,51.462013],[-0.015309,51.462046],[-0.015162,51.462169],[-0.015122,51.462194],[-0.014479,51.462581],[-0.014429,51.462613],[-0.014286,51.462714],[-0.014144,51.462827],[-0.014135,51.462834],[-0.014111,51.462844],[-0.014101,51.46285],[-0.014082,51.462864],[-0.013842,51.463055],[-0.013513,51.463305],[-0.013423,51.463375],[-0.013375,51.46342],[-0.013348,51.463452],[-0.013334,51.463477],[-0.013324,51.463503],[-0.013293,51.463628],[-0.013284,51.463654],[-0.013257,51.463706],[-0.01324,51.46373],[-0.013226,51.463746],[-0.0132,51.463768],[-0.013153,51.463802],[-0.012884,51.463977],[-0.012596,51.464178],[-0.012554,51.464203],[-0.012503,51.464221],[-0.012483,51.464233],[-0.012456,51.464265],[-0.012365,51.464367],[-0.01234,51.464409],[-0.012307,51.464624],[-0.012337,51.464766],[-0.012344,51.464784],[-0.012359,51.464813],[-0.012535,51.465151],[-0.01257,51.465217],[-0.012633,51.465277],[-0.012691,51.465339],[-0.012727,51.465388],[-0.012736,51.465405],[-0.01274,51.465423],[-0.012681,51.465617],[-0.012619,51.465708],[-0.012567,51.46583],[-0.012569,51.465848],[-0.01259,51.4659],[-0.012598,51.465907],[-0.012796,51.466038],[-0.01293,51.46612],[-0.012964,51.466136],[-0.013087,51.466183],[-0.013624,51.466375],[-0.014305,51.466627],[-0.014373,51.46666],[-0.014405,51.466678],[-0.014443,51.466705],[-0.014479,51.466733],[-0.014528,51.466778],[-0.014566,51.466805],[-0.014745,51.466922],[-0.014768,51.466932],[-0.014788,51.466945],[-0.015219,51.467235],[-0.015253,51.467252],[-0.015289,51.46728],[-0.015517,51.46743],[-0.015573,51.467471],[-0.015597,51.467493],[-0.015618,51.467517],[-0.015676,51.46759],[-0.015892,51.467923],[-0.015995,51.468061],[-0.01604,51.468118],[-0.016054,51.468133],[-0.016073,51.468147],[-0.01608,51.468155],[-0.016162,51.46826],[-0.016365,51.468456],[-0.016464,51.468566],[-0.016523,51.468617],[-0.016653,51.468724],[-0.01674,51.468807],[-0.016811,51.468915],[-0.016834,51.468967],[-0.016845,51.468984],[-0.016982,51.469099],[-0.01704,51.469151],[-0.01706,51.469164],[-0.017091,51.469182],[-0.017182,51.469227],[-0.017232,51.469245],[-0.017311,51.469268],[-0.017335,51.469277],[-0.017346,51.469283],[-0.01737,51.469306],[-0.017393,51.469315],[-0.017447,51.469329],[-0.017516,51.469343],[-0.017544,51.469347],[-0.017573,51.46935],[-0.01763,51.469352],[-0.017688,51.469352],[-0.017701,51.469351],[-0.017758,51.469343],[-0.017787,51.46934],[-0.017814,51.469335],[-0.017851,51.469322],[-0.017924,51.469293],[-0.018084,51.469232],[-0.018125,51.469223],[-0.018168,51.469218],[-0.018211,51.469217],[-0.018254,51.46922],[-0.018281,51.469225],[-0.018321,51.469236],[-0.018346,51.469245],[-0.018381,51.469261],[-0.018458,51.469301],[-0.018511,51.469332],[-0.018531,51.469344],[-0.018587,51.469386],[-0.018607,51.469398],[-0.018665,51.469425],[-0.018738,51.469455],[-0.018819,51.469474],[-0.018847,51.469478],[-0.018889,51.469483],[-0.018989,51.469486],[-0.019148,51.469484],[-0.019205,51.469489],[-0.019233,51.469494],[-0.019271,51.469506],[-0.019357,51.469539],[-0.019368,51.469545],[-0.019411,51.469581],[-0.019432,51.469605],[-0.019454,51.469638],[-0.019491,51.469706],[-0.019506,51.46975],[-0.019567,51.470017],[-0.019689,51.470247],[-0.019705,51.470262],[-0.019753,51.470296],[-0.01977,51.47031],[-0.019865,51.470411],[-0.019951,51.470483],[-0.019962,51.4705],[-0.01997,51.470507],[-0.02012,51.470628],[-0.02015,51.470647],[-0.020176,51.470656],[-0.020197,51.470667],[-0.020408,51.47079],[-0.020464,51.470818],[-0.020495,51.470837],[-0.020719,51.470989],[-0.020728,51.470996],[-0.02075,51.47102],[-0.020809,51.471059],[-0.020848,51.471096],[-0.020875,51.471117],[-0.021153,51.471312],[-0.021208,51.471354],[-0.021432,51.471529],[-0.021564,51.471625],[-0.021589,51.471646],[-0.021663,51.471713],[-0.0217,51.471752],[-0.021729,51.471793],[-0.021758,51.471844],[-0.021831,51.471989],[-0.022107,51.472529],[-0.022126,51.472572],[-0.022136,51.472617],[-0.022143,51.47267],[-0.022172,51.473021],[-0.022185,51.473218],[-0.022193,51.473272],[-0.022204,51.473298],[-0.022216,51.473314],[-0.022255,51.473352],[-0.022281,51.473374],[-0.022311,51.473393],[-0.022456,51.473467],[-0.022585,51.473524],[-0.022726,51.473602],[-0.022756,51.473632],[-0.022784,51.473664],[-0.022795,51.47368],[-0.022807,51.473706],[-0.022817,51.473733],[-0.022819,51.473759],[-0.022817,51.473795],[-0.02281,51.473813],[-0.022789,51.473847],[-0.022759,51.473887],[-0.022666,51.473999],[-0.022643,51.474042],[-0.022639,51.474059],[-0.022637,51.474078],[-0.02264,51.474105],[-0.022654,51.47413],[-0.022703,51.474195],[-0.022766,51.474286],[-0.022765,51.474637],[-0.022764,51.474655],[-0.022754,51.47469],[-0.022754,51.474699],[-0.022765,51.474734],[-0.022805,51.474821],[-0.022834,51.474918],[-0.022926,51.475182],[-0.022925,51.475243]]}},
{"type":"Feature","properties":{"WB_ID":"GB106038077852","WB_NAME":"Lee (Tottenham Locks to Bow Locks/Three Mills Locks)","RBD_ID":6,"RBD_NAME":"Thames","WB_CAT":"River","COUNTRY":"England","RBD_NAME_1":"Thames","AREA_NAME":"Hertfordshire and North London","MNCAT_NAME":"London","OPCAT_NAME":"Lee Lower Rivers and Lakes","WB_ID_1":"GB106038077852","WB_NAME_1":"Lee (Tottenham Locks to Bow Locks/Three Mills Locks)","WB_CAT_1":"River","HMD_NAME":"Heavily Modified","OV_CLASS":"Bad","ECO_CLASS":"Bad","ECO_LESS":"Very Certain","CHEM_CLASS":"Good","CHEM_LESS":"No Information","ANG_CLASS":null,"CHI_CLASS":null,"FISH_CLASS":"Bad","INV_CLASS":"Moderate","LIT_CLASS":null,"ALG_CLASS":null,"COM_CLASS":"Poor","PHY_CLASS":null,"ANC_CLASS":"High","AMM_CLASS":"Moderate","BOD_CLASS":"Good","DIN_CLASS":null,"DIS_CLASS":"Bad","PH_CLASS":"High","PHO_CLASS":"Poor","SAL_CLASS":null,"TEM_CLASS":"High","TP_CLASS":null,"PHS_CLASS":"Good","PS_CLASS":"Good","OP_CLASS":"Good","SP_CLASS":"Good","EXJ_CLASS":null,"REG_CLASS":"Does Not Support Good","MMA_CLASS":"Moderate or less","MOR_CLASS":null,"ORAS_CLASS":null,"in_cw":false,"whole_in_zone":false},"geometry":{"type":"MultiLineString","coordinates":[[[-0.04042,51.590287],[-0.041311,51.590311],[-0.042954,51.590313],[-0.043026,51.590312],[-0.043083,51.590306],[-0.043125,51.590299],[-0.043192,51.590283],[-0.043243,51.590265],[-0.043279,51.59025],[-0.0433,51.590238],[-0.043318,51.590225],[-0.043349,51.590194],[-0.043375,51.590162],[-0.043417,51.590094],[-0.043726,51.589552],[-0.043881,51.589253],[-0.044041,51.588759],[-0.044166,51.588271],[-0.044211,51.588139],[-0.044315,51.587934],[-0.044329,51.587912],[-0.044342,51.587892],[-0.044716,51.587395],[-0.044761,51.587337],[-0.044989,51.587043],[-0.045056,51.586971],[-0.045161,51.58681],[-0.045199,51.586615],[-0.045182,51.586349],[-0.045133,51.586172],[-0.04498,51.585715],[-0.044832,51.585247],[-0.044564,51.584419],[-0.044512,51.584288],[-0.044448,51.584159],[-0.044368,51.584024],[-0.044153,51.58373],[-0.04381,51.583264],[-0.043473,51.582816],[-0.043212,51.582476],[-0.042949,51.582115],[-0.042711,51.581798],[-0.042184,51.581088],[-0.042099,51.580954],[-0.042025,51.580799],[-0.042009,51.580755],[-0.041974,51.580632],[-0.041958,51.580542],[-0.041947,51.580497],[-0.041945,51.580479],[-0.041943,51.58047],[-0.041946,51.580284],[-0.041975,51.580039],[-0.042041,51.579823],[-0.042179,51.579421],[-0.042294,51.579243],[-0.042341,51.579093],[-0.042339,51.578999],[-0.042181,51.578693],[-0.04205,51.578487],[-0.041689,51.578059],[-0.041315,51.577659],[-0.040924,51.577327],[-0.040914,51.577319],[-0.040793,51.577195],[-0.040786,51.57719],[-0.040658,51.577093],[-0.04065,51.577086],[-0.04064,51.577069],[-0.040544,51.577002],[-0.040436,51.576917],[-0.040246,51.576748],[-0.040153,51.576657],[-0.040125,51.576615],[-0.040102,51.576593],[-0.040074,51.576542],[-0.039952,51.576378],[-0.039905,51.576344],[-0.039883,51.576333],[-0.039849,51.576317],[-0.039703,51.576258],[-0.039691,51.576253],[-0.039677,51.576251],[-0.039653,51.576241],[-0.039226,51.576057],[-0.03887,51.575874],[-0.038744,51.5758],[-0.038686,51.575773],[-0.038535,51.575689],[-0.038464,51.575658],[-0.03838,51.575609],[-0.038346,51.575592],[-0.038321,51.575582],[-0.038295,51.575574],[-0.038268,51.575569],[-0.038239,51.575567],[-0.038196,51.575568],[-0.038153,51.575573],[-0.038112,51.575581],[-0.038058,51.575593],[-0.038033,51.575602],[-0.038005,51.575607],[-0.037962,51.575613],[-0.03792,51.575615],[-0.037803,51.575611],[-0.037776,51.575607],[-0.037762,51.575606],[-0.037603,51.575604],[-0.037576,51.575599],[-0.037518,51.575598],[-0.037489,51.575597],[-0.037461,51.575591],[-0.037437,51.575582],[-0.037413,51.575572],[-0.037364,51.575539],[-0.037328,51.575511],[-0.037228,51.575423],[-0.03713,51.575345],[-0.036958,51.575236],[-0.036726,51.575101],[-0.03669,51.575085],[-0.036653,51.575072],[-0.036625,51.57507],[-0.036421,51.575023],[-0.036393,51.575023],[-0.036379,51.575024],[-0.036226,51.575051],[-0.036116,51.575073],[-0.036102,51.575075],[-0.036087,51.575074],[-0.036074,51.575076],[-0.036034,51.575086],[-0.036005,51.575087],[-0.035878,51.575106],[-0.03585,51.575106],[-0.035781,51.575122],[-0.035757,51.57513],[-0.035724,51.575148],[-0.035658,51.575196],[-0.03556,51.575262],[-0.035542,51.575276],[-0.035528,51.575292],[-0.035465,51.575328],[-0.03542,51.575364],[-0.035377,51.575388],[-0.035353,51.575399],[-0.035342,51.575403],[-0.035328,51.575405],[-0.035298,51.575404],[-0.035285,51.575401],[-0.035207,51.57536],[-0.035158,51.575342],[-0.035138,51.575328],[-0.035112,51.57532],[-0.035092,51.575307],[-0.035056,51.575293],[-0.035036,51.57528],[-0.03501,51.575272],[-0.034991,51.575259],[-0.034965,51.575251],[-0.034953,51.575245],[-0.034853,51.575194],[-0.034723,51.575137],[-0.034692,51.575118],[-0.034666,51.57511],[-0.034646,51.575097],[-0.034621,51.575089],[-0.034589,51.57507],[-0.034563,51.575062],[-0.034544,51.575049],[-0.034518,51.575041],[-0.034507,51.575035],[-0.034337,51.574951],[-0.034086,51.57483],[-0.034037,51.574812],[-0.033973,51.574791],[-0.033815,51.574747],[-0.033624,51.574684],[-0.033561,51.574661],[-0.0335,51.574637],[-0.033418,51.574601],[-0.033221,51.574526],[-0.033043,51.574449],[-0.03288,51.574391],[-0.03275,51.574334],[-0.032712,51.574322],[-0.032333,51.574158],[-0.032312,51.574146],[-0.032284,51.574125],[-0.03219,51.574046],[-0.031942,51.573814],[-0.031823,51.573712],[-0.031779,51.573666],[-0.031742,51.573638],[-0.031683,51.573598],[-0.031674,51.573592],[-0.031638,51.573576],[-0.031589,51.573556],[-0.031577,51.573552],[-0.031534,51.57355],[-0.031505,51.573552],[-0.031477,51.573556],[-0.031398,51.573579],[-0.031261,51.573607],[-0.031248,51.573608],[-0.031222,51.573599],[-0.031199,51.573588],[-0.031189,51.573582],[-0.031143,51.573536],[-0.031115,51.573495],[-0.031064,51.57344],[-0.031048,51.573416],[-0.031032,51.573381],[-0.031014,51.573357],[-0.030922,51.573167],[-0.030911,51.573151],[-0.030883,51.573119],[-0.030875,51.573102],[-0.030831,51.572998],[-0.03083,51.57298],[-0.030822,51.572963],[-0.030796,51.572911],[-0.030777,51.572887],[-0.030757,51.572816],[-0.030693,51.572687],[-0.030692,51.572678],[-0.030692,51.572669],[-0.030686,51.572652],[-0.030615,51.572496],[-0.030614,51.572487],[-0.030615,51.572451],[-0.030622,51.572361],[-0.03062,51.572343],[-0.030614,51.572326],[-0.03058,51.572248],[-0.030528,51.572183],[-0.030513,51.572158],[-0.030511,51.57214],[-0.030508,51.572068],[-0.030479,51.571943],[-0.03048,51.571898],[-0.030462,51.571846],[-0.03046,51.571837],[-0.030463,51.571819],[-0.03046,51.57181],[-0.030449,51.571794],[-0.030429,51.571769],[-0.030408,51.571746],[-0.030384,51.571723],[-0.030348,51.571696],[-0.030195,51.571588],[-0.030154,51.571551],[-0.030129,51.571521],[-0.029987,51.571364],[-0.029944,51.57134],[-0.029801,51.571265],[-0.029576,51.571112],[-0.029395,51.570961],[-0.029275,51.570849],[-0.028982,51.570626],[-0.028965,51.570612],[-0.028773,51.570422],[-0.02876,51.570406],[-0.028756,51.570397],[-0.028748,51.57039],[-0.028627,51.570278],[-0.028606,51.570254],[-0.028514,51.570122],[-0.028446,51.569994],[-0.028426,51.56997],[-0.028408,51.569918],[-0.028399,51.569901],[-0.028376,51.569867],[-0.02835,51.569836],[-0.028334,51.569821],[-0.028315,51.569807],[-0.028232,51.569757],[-0.028203,51.569737],[-0.028149,51.569695],[-0.028119,51.569664],[-0.028092,51.569632],[-0.02805,51.569575],[-0.027955,51.569474],[-0.027657,51.569209],[-0.027489,51.569074],[-0.027377,51.568992],[-0.027346,51.568962],[-0.027227,51.568871],[-0.027196,51.568841],[-0.027148,51.568808],[-0.026966,51.568657],[-0.026927,51.56863],[-0.026894,51.568613],[-0.026868,51.568605],[-0.02654,51.568535],[-0.026502,51.568523],[-0.026445,51.568495],[-0.026405,51.568469],[-0.026368,51.568441],[-0.026276,51.568364],[-0.026251,51.568342],[-0.02612,51.568213],[-0.026054,51.568132],[-0.025959,51.568032],[-0.025916,51.567975],[-0.025732,51.567792],[-0.025724,51.567785],[-0.025715,51.567768],[-0.025662,51.567714],[-0.025569,51.567602],[-0.025435,51.567423],[-0.025425,51.567406],[-0.025416,51.56737],[-0.025408,51.567353],[-0.025366,51.567317],[-0.02534,51.567284],[-0.025329,51.567268],[-0.02532,51.567251],[-0.025318,51.567233],[-0.025323,51.567179],[-0.025329,51.567161],[-0.025335,51.567153],[-0.025344,51.567146],[-0.02536,51.567121],[-0.025425,51.567011],[-0.02544,51.566976],[-0.025439,51.566959],[-0.025435,51.566941],[-0.025413,51.566908],[-0.025357,51.566844],[-0.025331,51.566822],[-0.025312,51.566809],[-0.025301,51.566804],[-0.025275,51.566795],[-0.025194,51.566775],[-0.02517,51.566766],[-0.025089,51.566747],[-0.025074,51.566748],[-0.025061,51.566745],[-0.025021,51.566735],[-0.024982,51.566723],[-0.024962,51.56671],[-0.024937,51.566701],[-0.024893,51.566677],[-0.024875,51.566663],[-0.024855,51.56664],[-0.024829,51.566588],[-0.02483,51.566579],[-0.024828,51.56657],[-0.024804,51.566509],[-0.02479,51.566493],[-0.024736,51.566381],[-0.024731,51.566373],[-0.024716,51.566358],[-0.024652,51.566229],[-0.024648,51.566211],[-0.02464,51.566157],[-0.024624,51.566123],[-0.024603,51.566025],[-0.024591,51.565999],[-0.024589,51.56599],[-0.024589,51.565981],[-0.024586,51.565972],[-0.024577,51.565955],[-0.024576,51.565937],[-0.024561,51.565903],[-0.024527,51.565779],[-0.024513,51.565751],[-0.024505,51.565733],[-0.024497,51.565707],[-0.02447,51.565564],[-0.024418,51.565471],[-0.024391,51.56545],[-0.024353,51.565412],[-0.024329,51.56539],[-0.024147,51.56525],[-0.024036,51.565134],[-0.024029,51.565126],[-0.024019,51.565109],[-0.023971,51.565064],[-0.023968,51.565056],[-0.023962,51.565048],[-0.023679,51.564786],[-0.023571,51.56468],[-0.023554,51.564656],[-0.023542,51.56463],[-0.023535,51.564612],[-0.023532,51.564576],[-0.023518,51.564551],[-0.023513,51.564479],[-0.023502,51.564443],[-0.023501,51.564408],[-0.02348,51.56431],[-0.023467,51.564284],[-0.02346,51.564239],[-0.023445,51.564204],[-0.023423,51.564106],[-0.023372,51.563957],[-0.02336,51.563886],[-0.023326,51.563789],[-0.023292,51.563628],[-0.023293,51.56362],[-0.023299,51.563611],[-0.023301,51.563603],[-0.023303,51.563495],[-0.023306,51.563486],[-0.023311,51.563477],[-0.023325,51.563379],[-0.023339,51.563335],[-0.023342,51.563317],[-0.023342,51.56329],[-0.023361,51.56321],[-0.023371,51.563093],[-0.023373,51.563084],[-0.023378,51.563076],[-0.023381,51.563067],[-0.023388,51.562968],[-0.023386,51.562951],[-0.023379,51.562933],[-0.023312,51.562814],[-0.023298,51.562799],[-0.023254,51.562775],[-0.023105,51.562741],[-0.02302,51.56273],[-0.022993,51.562724],[-0.022954,51.562712],[-0.022907,51.562691],[-0.022899,51.562685],[-0.022843,51.562621],[-0.022743,51.562533],[-0.022722,51.56251],[-0.022703,51.562496],[-0.022691,51.56248],[-0.022671,51.562467],[-0.022659,51.562451],[-0.022614,51.562415],[-0.022602,51.562399],[-0.022595,51.562392],[-0.022576,51.562377],[-0.022557,51.562364],[-0.022531,51.562356],[-0.022511,51.562343],[-0.022484,51.562336],[-0.022457,51.562332],[-0.022298,51.562324],[-0.02227,51.56232],[-0.022256,51.562316],[-0.022245,51.562311],[-0.022219,51.56229],[-0.02217,51.562234],[-0.022149,51.562201],[-0.022117,51.562132],[-0.022099,51.562107],[-0.022085,51.562091],[-0.022057,51.562071],[-0.02197,51.561978],[-0.021888,51.561915],[-0.021587,51.561685],[-0.021496,51.561593],[-0.021468,51.561573],[-0.021442,51.561541],[-0.021341,51.561442],[-0.021221,51.561309],[-0.021113,51.561202],[-0.02109,51.56118],[-0.021011,51.561116],[-0.020957,51.561062],[-0.020778,51.560921],[-0.020617,51.560807],[-0.020591,51.560785],[-0.020554,51.560746],[-0.020525,51.560726],[-0.020488,51.560687],[-0.020425,51.560597],[-0.020304,51.560485],[-0.019827,51.560101],[-0.019518,51.55983],[-0.019411,51.559745],[-0.019169,51.559567],[-0.019138,51.559548],[-0.019049,51.559502],[-0.019018,51.559483],[-0.018998,51.55947],[-0.018984,51.559455],[-0.018948,51.559405],[-0.018901,51.559354],[-0.018973,51.559315],[-0.019639,51.558847],[-0.020731,51.558171],[-0.022277,51.556998],[-0.023637,51.557284],[-0.023941,51.557293]],[[-0.056384,51.586954],[-0.056397,51.586892],[-0.056406,51.586829],[-0.056468,51.586544],[-0.056468,51.586508],[-0.056466,51.586427],[-0.056478,51.586185],[-0.056476,51.586149],[-0.056429,51.585926],[-0.056364,51.585659],[-0.056125,51.584528],[-0.056059,51.58417],[-0.056049,51.584135],[-0.056021,51.584063],[-0.056088,51.583954],[-0.05611,51.583931],[-0.056238,51.5838],[-0.056366,51.583703],[-0.05661,51.583563],[-0.056637,51.583556],[-0.056649,51.583551],[-0.056843,51.583457],[-0.057027,51.583387],[-0.057062,51.583371],[-0.057094,51.583352],[-0.057174,51.5833],[-0.057211,51.583287],[-0.057221,51.58328],[-0.057249,51.58326],[-0.05731,51.58321],[-0.057343,51.58318],[-0.057372,51.583149],[-0.057492,51.583016],[-0.057516,51.582983],[-0.057538,51.582949],[-0.057588,51.582846],[-0.057699,51.58268],[-0.057748,51.582615],[-0.057769,51.582591],[-0.057819,51.582548],[-0.057853,51.582508],[-0.057893,51.582482],[-0.057941,51.582437],[-0.05796,51.582423],[-0.058114,51.582329],[-0.058305,51.582233],[-0.058424,51.582167],[-0.058461,51.582154],[-0.058479,51.58214],[-0.058489,51.582134],[-0.058538,51.582114],[-0.058659,51.58205],[-0.058686,51.582043],[-0.058697,51.582038],[-0.058828,51.581967],[-0.058911,51.581932],[-0.058964,51.581901],[-0.059023,51.581876],[-0.059178,51.581795],[-0.059273,51.581754],[-0.059336,51.581716],[-0.05941,51.581689],[-0.059433,51.581678],[-0.059941,51.581408],[-0.059996,51.58138],[-0.060351,51.581182],[-0.060518,51.581096],[-0.060636,51.581045],[-0.060669,51.581027],[-0.060738,51.580984],[-0.060771,51.580966],[-0.060887,51.580913],[-0.061027,51.580835],[-0.061177,51.580738],[-0.06125,51.580682],[-0.061263,51.580666],[-0.061294,51.580647],[-0.061348,51.580594],[-0.061358,51.580587],[-0.061379,51.580575],[-0.061397,51.580561],[-0.061513,51.580448],[-0.061529,51.580433],[-0.061557,51.580412],[-0.061573,51.580397],[-0.061764,51.580206],[-0.062014,51.579943],[-0.062059,51.579887],[-0.062084,51.579845],[-0.062117,51.579776],[-0.062198,51.579585],[-0.062212,51.579531],[-0.062217,51.579496],[-0.062217,51.579361],[-0.062212,51.579316],[-0.062188,51.579209],[-0.062161,51.579139],[-0.06213,51.579079],[-0.062119,51.579063],[-0.062097,51.579039],[-0.062085,51.579013],[-0.062004,51.578928],[-0.061989,51.578903],[-0.061898,51.578801],[-0.061807,51.578709],[-0.061691,51.578554],[-0.061661,51.578524],[-0.061563,51.578374],[-0.061524,51.578326],[-0.061453,51.578208],[-0.061407,51.578152],[-0.061383,51.578119],[-0.061278,51.577961],[-0.061057,51.577619],[-0.060771,51.577101],[-0.060726,51.576987],[-0.060562,51.576559],[-0.060481,51.576377],[-0.060185,51.575766],[-0.059954,51.575359],[-0.059724,51.575],[-0.059656,51.574911],[-0.059641,51.574876],[-0.059617,51.574854],[-0.059611,51.574845],[-0.059584,51.574794],[-0.059567,51.57477],[-0.059501,51.574679],[-0.059428,51.574592],[-0.059317,51.574435],[-0.059288,51.574405],[-0.059275,51.574388],[-0.059141,51.574209],[-0.058959,51.573935],[-0.058939,51.573892],[-0.058846,51.573741],[-0.058757,51.57356],[-0.058698,51.573366],[-0.058672,51.57325],[-0.058525,51.572737],[-0.058507,51.572666],[-0.058499,51.572649],[-0.05848,51.572624],[-0.058438,51.572577],[-0.0584,51.572528],[-0.058379,51.572505],[-0.058343,51.572477],[-0.058282,51.572438],[-0.057994,51.572245],[-0.057721,51.57206],[-0.057054,51.571564],[-0.056961,51.571495],[-0.056931,51.571475],[-0.056923,51.571468],[-0.056909,51.571453],[-0.05668,51.571123],[-0.056607,51.570986],[-0.056577,51.570936],[-0.05655,51.570904],[-0.056491,51.570842],[-0.056464,51.57081],[-0.056427,51.570783],[-0.056315,51.570713],[-0.056251,51.570676],[-0.056207,51.570653],[-0.056181,51.570644],[-0.056127,51.570615],[-0.056102,51.570606],[-0.056034,51.570591],[-0.055952,51.570575],[-0.055909,51.570568],[-0.055852,51.570563],[-0.055694,51.570555],[-0.055453,51.570527],[-0.055123,51.570505],[-0.054699,51.57045],[-0.054612,51.570442],[-0.054587,51.570435],[-0.054553,51.570419],[-0.054492,51.570379],[-0.054354,51.5703],[-0.054197,51.570149],[-0.054148,51.570104],[-0.054123,51.570072],[-0.054034,51.569911],[-0.053951,51.569748],[-0.053827,51.569546],[-0.053787,51.56946],[-0.053724,51.569369],[-0.053607,51.569147],[-0.053539,51.569038],[-0.053522,51.569004],[-0.053495,51.568916],[-0.053474,51.568873],[-0.053452,51.56884],[-0.053434,51.568825],[-0.053393,51.568768],[-0.053372,51.568744],[-0.053294,51.568679],[-0.053249,51.568644],[-0.053208,51.568618],[-0.053104,51.568557],[-0.053067,51.568529],[-0.053047,51.568516],[-0.052913,51.568448],[-0.052807,51.568401],[-0.052515,51.568269],[-0.052491,51.568259],[-0.052465,51.568252],[-0.052336,51.568194],[-0.052129,51.568112],[-0.051987,51.56805],[-0.051873,51.568012],[-0.05174,51.567959],[-0.051687,51.567943],[-0.05137,51.567818],[-0.050885,51.567593],[-0.050839,51.567558],[-0.050816,51.567547],[-0.050806,51.567541],[-0.050692,51.567448],[-0.050478,51.56729],[-0.050446,51.56726],[-0.050429,51.567245],[-0.050179,51.567059],[-0.049845,51.566836],[-0.049695,51.566751],[-0.049626,51.566705],[-0.049569,51.566678],[-0.04947,51.566612],[-0.049334,51.566532],[-0.049276,51.566492],[-0.049195,51.566429],[-0.049186,51.566421],[-0.049175,51.566405],[-0.049166,51.566398],[-0.049109,51.566357],[-0.049083,51.566336],[-0.048983,51.566248],[-0.048956,51.566216],[-0.048947,51.566209],[-0.048923,51.566198],[-0.048911,51.566182],[-0.048887,51.566159],[-0.048736,51.566028],[-0.04867,51.56598],[-0.048658,51.565964],[-0.048553,51.56589],[-0.048541,51.565873],[-0.048456,51.565812],[-0.048445,51.565796],[-0.048435,51.565789],[-0.048124,51.565602],[-0.048086,51.565588],[-0.048001,51.56554],[-0.047922,51.5655],[-0.047899,51.56549],[-0.047875,51.565481],[-0.047852,51.56547],[-0.047652,51.565366],[-0.047631,51.565353],[-0.047499,51.565271],[-0.04737,51.565174],[-0.047355,51.565158],[-0.047302,51.565095],[-0.047268,51.565065],[-0.047176,51.564964],[-0.047111,51.564884],[-0.046655,51.564342],[-0.04665,51.564334],[-0.04664,51.564308],[-0.046593,51.564158],[-0.046579,51.564122],[-0.046584,51.564087],[-0.046623,51.563936],[-0.046636,51.563873],[-0.046646,51.563847],[-0.046661,51.563822],[-0.046707,51.563766],[-0.046949,51.563439],[-0.046955,51.563431],[-0.046966,51.563425],[-0.047069,51.563376],[-0.047101,51.563358],[-0.047191,51.563299],[-0.047208,51.563285],[-0.047226,51.563261],[-0.047245,51.563247],[-0.047272,51.563205],[-0.047298,51.563154],[-0.047312,51.56311],[-0.047327,51.563029],[-0.047339,51.562922],[-0.047336,51.562895],[-0.047317,51.562815],[-0.047314,51.562806],[-0.047298,51.562781],[-0.047265,51.562741],[-0.047233,51.562711],[-0.047043,51.562564],[-0.04679,51.562445],[-0.046683,51.562399],[-0.046605,51.562373],[-0.046553,51.562359],[-0.046526,51.562355],[-0.046497,51.562353],[-0.046381,51.562351],[-0.046107,51.562352],[-0.046064,51.562346],[-0.045953,51.562326],[-0.045868,51.562314],[-0.045829,51.562303],[-0.045818,51.562298],[-0.045783,51.562268],[-0.045517,51.562079],[-0.045305,51.56192],[-0.045114,51.561776],[-0.044578,51.561708],[-0.04426,51.561704],[-0.043842,51.561715],[-0.043755,51.561719],[-0.043712,51.561716],[-0.043658,51.561706],[-0.043578,51.561684],[-0.043336,51.561604],[-0.0433,51.561588],[-0.043249,51.561572],[-0.042843,51.561455],[-0.042644,51.561403],[-0.042563,51.561385],[-0.042492,51.561375],[-0.042434,51.561372],[-0.042304,51.56137],[-0.041989,51.561392],[-0.041849,51.561413],[-0.04159,51.561468],[-0.040813,51.561685],[-0.040571,51.561745],[-0.040516,51.561753],[-0.040275,51.561781],[-0.040203,51.561781],[-0.040131,51.561777],[-0.040102,51.561773],[-0.040074,51.561768],[-0.039982,51.561743],[-0.03988,51.561709],[-0.039821,51.561684],[-0.039732,51.561638],[-0.039551,51.561534],[-0.039533,51.56152],[-0.03951,51.561487],[-0.039491,51.561474],[-0.039255,51.561329],[-0.038906,51.561169],[-0.038883,51.561157],[-0.038871,51.561153],[-0.038843,51.561152],[-0.038655,51.561161],[-0.038541,51.561155],[-0.038223,51.561163],[-0.038041,51.561191],[-0.037976,51.56121],[-0.037826,51.561243],[-0.037696,51.561283],[-0.037656,51.56129],[-0.037618,51.561304],[-0.037522,51.561344],[-0.037497,51.561352],[-0.037165,51.56144],[-0.03711,51.561452],[-0.036713,51.561498],[-0.036641,51.561501],[-0.036511,51.561499],[-0.036455,51.561495],[-0.036283,51.561481],[-0.0362,51.561465],[-0.036004,51.561437],[-0.035852,51.561406],[-0.035697,51.561385],[-0.03552,51.561346],[-0.035306,51.561293],[-0.035241,51.561273],[-0.035194,51.561253],[-0.034994,51.561182],[-0.034888,51.561135],[-0.034702,51.561066],[-0.034633,51.561033],[-0.03439,51.560936],[-0.034323,51.560902],[-0.034251,51.560872],[-0.034179,51.560843],[-0.033893,51.560738],[-0.03384,51.560722],[-0.033773,51.560705],[-0.033544,51.560653],[-0.033489,51.560643],[-0.033333,51.560621],[-0.033305,51.560617],[-0.033248,51.560615],[-0.03306,51.560617],[-0.032801,51.560631],[-0.032758,51.560635],[-0.03273,51.560639],[-0.03251,51.560683],[-0.032418,51.560708],[-0.032078,51.560784],[-0.032026,51.560799],[-0.031864,51.560858],[-0.031601,51.560951],[-0.031467,51.561003],[-0.031434,51.561022],[-0.031409,51.561029],[-0.031384,51.561039],[-0.031134,51.561145],[-0.030983,51.561198],[-0.030892,51.561225],[-0.030838,51.561238],[-0.030311,51.561332],[-0.030256,51.561343],[-0.030214,51.561348],[-0.029753,51.561356],[-0.029537,51.561346],[-0.029369,51.561348],[-0.029281,51.561318],[-0.029121,51.561256],[-0.02893,51.561194],[-0.028825,51.561163],[-0.028688,51.561113],[-0.028521,51.56106],[-0.028095,51.560909],[-0.027874,51.560824],[-0.027848,51.560816],[-0.027821,51.560809],[-0.027718,51.56076],[-0.027654,51.560739],[-0.027617,51.560725],[-0.027558,51.560699],[-0.027548,51.560694],[-0.027528,51.56068],[-0.027517,51.560675],[-0.02736,51.56061],[-0.027222,51.560545],[-0.026962,51.560432],[-0.026814,51.56036],[-0.026615,51.560272],[-0.026502,51.560215],[-0.026478,51.560206],[-0.026454,51.560196],[-0.026199,51.560078],[-0.025905,51.559932],[-0.025882,51.559922],[-0.025856,51.559913],[-0.025791,51.559878],[-0.025647,51.55979],[-0.025629,51.559776],[-0.025585,51.55974],[-0.025512,51.559697],[-0.025505,51.559689],[-0.0255,51.55968],[-0.025492,51.559674],[-0.025469,51.559663],[-0.025437,51.559633],[-0.025404,51.559615],[-0.025392,51.559599],[-0.025369,51.559588],[-0.025359,51.559581],[-0.025209,51.559461],[-0.02515,51.559421],[-0.025137,51.559405],[-0.025129,51.559398],[-0.025089,51.559372],[-0.025062,51.559351],[-0.024598,51.55895],[-0.024522,51.558874],[-0.024506,51.558848],[-0.024446,51.558787],[-0.024409,51.558738],[-0.024345,51.558628],[-0.024231,51.558387],[-0.024195,51.558309],[-0.024071,51.557967],[-0.023933,51.557326],[-0.023933,51.557317],[-0.023941,51.557293]],[[-0.023941,51.557293],[-0.023974,51.557196],[-0.023979,51.557188],[-0.024043,51.557078],[-0.024133,51.556945],[-0.024158,51.556913],[-0.024378,51.55666],[-0.024418,51.556623],[-0.024483,51.556543],[-0.024654,51.556355],[-0.024791,51.556207],[-0.024855,51.556147],[-0.02499,51.555999],[-0.025149,51.555838],[-0.025194,51.555782],[-0.025351,51.55562],[-0.02537,51.555596],[-0.025443,51.555498],[-0.025471,51.555447],[-0.025558,51.555324],[-0.025676,51.55513],[-0.025684,51.555104],[-0.025698,51.555032],[-0.025695,51.554943],[-0.025621,51.554722],[-0.025606,51.554697],[-0.025525,51.554582],[-0.025445,51.554497],[-0.025378,51.554438],[-0.02534,51.554412],[-0.025144,51.554292],[-0.025108,51.554277],[-0.024824,51.554171],[-0.024733,51.554142],[-0.024412,51.554022],[-0.024309,51.55399],[-0.02403,51.553879],[-0.024016,51.553874],[-0.023976,51.553865],[-0.023929,51.553844],[-0.023771,51.553766],[-0.023734,51.553753],[-0.023634,51.5537],[-0.023405,51.553564],[-0.023359,51.553542],[-0.023327,51.553524],[-0.023016,51.553336],[-0.02297,51.553315],[-0.022944,51.553293],[-0.022918,51.553285],[-0.022791,51.553212],[-0.02247,51.553059],[-0.022185,51.552937],[-0.022096,51.552907],[-0.021967,51.55285],[-0.021364,51.552603],[-0.021319,51.552581],[-0.021099,51.552495],[-0.020538,51.552258],[-0.020103,51.552084],[-0.019824,51.551972],[-0.019774,51.551954],[-0.01975,51.551944],[-0.019729,51.551932],[-0.019539,51.551809],[-0.019497,51.551772],[-0.019422,51.551685],[-0.01938,51.551609],[-0.018974,51.55084],[-0.018965,51.550805],[-0.018949,51.550697],[-0.018948,51.55067],[-0.018951,51.550607],[-0.018944,51.550481],[-0.018937,51.550437],[-0.018929,51.55041],[-0.018902,51.550368],[-0.018866,51.550281],[-0.018783,51.550157],[-0.018749,51.550117],[-0.018691,51.550015],[-0.018664,51.549984],[-0.018653,51.549967],[-0.018387,51.549501],[-0.018258,51.549197],[-0.018158,51.548981],[-0.018115,51.548803],[-0.018084,51.548706],[-0.018076,51.548689],[-0.017987,51.548527],[-0.017897,51.548376],[-0.017886,51.548359],[-0.017859,51.548327],[-0.017781,51.548201],[-0.017684,51.548061],[-0.017631,51.547978],[-0.017557,51.547861],[-0.017534,51.547818],[-0.017503,51.547758],[-0.017448,51.547618],[-0.017439,51.547583],[-0.01742,51.547485],[-0.017309,51.547068],[-0.01726,51.546927],[-0.01725,51.546856],[-0.017244,51.546829],[-0.017199,51.546706],[-0.017181,51.546635],[-0.017121,51.546497],[-0.017108,51.546462],[-0.016995,51.546081],[-0.016934,51.545769],[-0.01693,51.545697],[-0.016925,51.545662],[-0.016827,51.545141],[-0.016808,51.545015],[-0.016755,51.544748],[-0.016678,51.544519],[-0.016659,51.544476],[-0.016636,51.544442],[-0.016628,51.544425],[-0.016615,51.54439],[-0.016606,51.544355],[-0.016522,51.543945],[-0.01652,51.543698],[-0.016518,51.543644],[-0.016475,51.543079],[-0.016376,51.54292],[-0.016105,51.542532],[-0.016086,51.542508],[-0.016052,51.542483]],[[-0.016052,51.542483],[-0.015866,51.542334],[-0.01578,51.542286],[-0.01568,51.542222],[-0.015486,51.542145],[-0.01545,51.542129],[-0.014993,51.54191],[-0.014915,51.54187],[-0.014771,51.541781],[-0.014694,51.541741],[-0.014429,51.541588],[-0.014205,51.541436],[-0.013897,51.541247],[-0.013801,51.541192],[-0.01379,51.541187],[-0.013765,51.541178],[-0.013732,51.541161],[-0.013562,51.541064],[-0.01329,51.540903],[-0.013094,51.540797],[-0.012981,51.540727],[-0.012673,51.540551],[-0.012523,51.540454],[-0.012462,51.540404],[-0.012414,51.540371],[-0.012317,51.540292],[-0.012297,51.540268],[-0.012236,51.540218],[-0.012224,51.540202],[-0.012195,51.540182],[-0.012098,51.540082],[-0.012048,51.540038],[-0.011932,51.539914],[-0.011859,51.539847],[-0.011852,51.539839],[-0.011844,51.539822],[-0.011814,51.539802],[-0.011799,51.539777],[-0.011755,51.539741],[-0.01174,51.539726],[-0.011512,51.539486],[-0.011362,51.539343],[-0.011306,51.53928],[-0.011251,51.539207],[-0.011185,51.539117],[-0.011107,51.539001],[-0.01104,51.538882],[-0.010967,51.538775],[-0.01081,51.538485],[-0.010725,51.538351],[-0.010397,51.537614],[-0.010388,51.537597],[-0.010374,51.537582],[-0.010345,51.537562],[-0.010266,51.537523],[-0.009068,51.536861],[-0.009029,51.536823],[-0.009012,51.536809],[-0.008805,51.536683],[-0.008666,51.536605],[-0.008536,51.536517],[-0.008496,51.536491],[-0.008477,51.536477],[-0.008455,51.536454],[-0.008392,51.536383],[-0.007989,51.53601],[-0.007951,51.535973],[-0.007885,51.535903],[-0.007869,51.535878],[-0.007819,51.535834],[-0.007741,51.535748],[-0.007492,51.535454],[-0.007468,51.535421],[-0.007359,51.535255],[-0.007311,51.535151],[-0.007255,51.534947],[-0.007253,51.534912],[-0.007253,51.534786],[-0.007258,51.53475],[-0.007267,51.534714],[-0.00728,51.534679],[-0.007317,51.534602],[-0.007339,51.534568],[-0.007359,51.534545],[-0.007423,51.534485],[-0.007772,51.534199],[-0.008211,51.533966],[-0.00828,51.533932],[-0.008312,51.533914],[-0.008328,51.533899],[-0.008342,51.533884],[-0.008379,51.533835],[-0.008472,51.533723],[-0.008485,51.533697],[-0.008506,51.533638]],[[-0.016052,51.542483],[-0.016252,51.542233],[-0.016335,51.542099],[-0.016349,51.542074],[-0.01636,51.542039],[-0.01637,51.541985],[-0.016468,51.54154],[-0.016479,51.541486],[-0.016497,51.541452],[-0.016586,51.541316],[-0.017437,51.541049],[-0.01749,51.541034],[-0.017512,51.541023],[-0.01753,51.54101],[-0.017595,51.54095],[-0.017623,51.540918],[-0.017641,51.540894],[-0.01769,51.540809],[-0.017696,51.540792],[-0.017731,51.540686],[-0.017778,51.540373],[-0.01779,51.540319],[-0.017807,51.540266],[-0.017821,51.540232],[-0.017877,51.540139],[-0.017922,51.540093],[-0.017946,51.540071],[-0.018047,51.539994],[-0.018415,51.539766],[-0.018462,51.539732],[-0.018558,51.539654],[-0.01861,51.5396],[-0.018638,51.539579],[-0.018736,51.539469],[-0.01876,51.539436],[-0.018821,51.539345],[-0.018846,51.539303],[-0.01891,51.539146],[-0.018957,51.539042],[-0.019037,51.538842],[-0.019056,51.538808],[-0.019103,51.538736],[-0.019214,51.538561],[-0.019392,51.538344],[-0.019491,51.538245],[-0.019508,51.538231],[-0.019562,51.538189],[-0.019615,51.538158],[-0.01966,51.538122],[-0.019808,51.538038],[-0.019842,51.538021],[-0.019971,51.537963],[-0.020108,51.537913],[-0.020239,51.537857],[-0.020295,51.537829],[-0.020334,51.537817],[-0.020609,51.537686],[-0.020903,51.537592],[-0.020965,51.53757],[-0.021,51.537455],[-0.021217,51.537026],[-0.021129,51.536589],[-0.020958,51.536303],[-0.02094,51.536278],[-0.020925,51.536263],[-0.020907,51.536249],[-0.020886,51.536237],[-0.020839,51.536216],[-0.020812,51.536209],[-0.0208,51.536204],[-0.020683,51.536151],[-0.020646,51.536138],[-0.020387,51.536058],[-0.020255,51.536024],[-0.020216,51.536011],[-0.020193,51.536],[-0.020109,51.53595],[-0.020062,51.535917],[-0.020002,51.535866],[-0.019717,51.535618],[-0.019678,51.535569],[-0.019657,51.535556],[-0.019635,51.535534],[-0.019544,51.535421],[-0.0195,51.535375],[-0.019415,51.53526],[-0.019408,51.535253],[-0.01938,51.535232],[-0.019373,51.535224],[-0.019356,51.5352],[-0.019287,51.535091],[-0.019254,51.535051],[-0.01922,51.534992],[-0.019187,51.534952],[-0.019123,51.534842],[-0.01911,51.534807],[-0.019092,51.534736],[-0.019077,51.534448],[-0.01907,51.534394],[-0.01906,51.534359],[-0.019015,51.534236],[-0.019004,51.53421],[-0.01899,51.534185],[-0.01896,51.534154],[-0.018929,51.534104],[-0.018903,51.534072],[-0.018872,51.534041],[-0.018788,51.533968],[-0.018751,51.533941],[-0.018476,51.533756],[-0.018466,51.53375],[-0.01844,51.533742],[-0.018419,51.53373],[-0.018271,51.533631],[-0.018251,51.533608],[-0.018175,51.533554],[-0.018154,51.53353],[-0.018133,51.533518],[-0.018104,51.533487],[-0.018086,51.533453],[-0.017963,51.53311],[-0.017954,51.533093],[-0.017953,51.533084],[-0.01796,51.533067],[-0.018013,51.532973],[-0.018186,51.532707],[-0.018201,51.532672],[-0.018226,51.532611],[-0.018239,51.532494],[-0.018237,51.532458],[-0.018233,51.53244],[-0.018224,51.532424],[-0.018202,51.532401],[-0.018149,51.532357],[-0.017816,51.532052],[-0.017762,51.532009],[-0.017748,51.531994],[-0.01774,51.531977],[-0.017741,51.531969],[-0.017753,51.531932],[-0.017752,51.531923],[-0.017745,51.531906],[-0.017733,51.53189],[-0.017692,51.531842],[-0.017437,51.531499],[-0.01743,51.531491],[-0.017299,51.531396],[-0.017266,51.531378],[-0.017199,51.531344],[-0.017149,51.531312],[-0.017123,51.531304],[-0.017041,51.531253],[-0.01703,51.531247],[-0.017005,51.531239],[-0.016965,51.531213],[-0.016932,51.531196],[-0.016806,51.531135],[-0.016698,51.53109],[-0.016673,51.531081],[-0.016647,51.531074],[-0.016426,51.530989],[-0.016113,51.530878],[-0.01593,51.530806],[-0.01567,51.53071],[-0.015625,51.530688],[-0.015546,51.530664],[-0.015474,51.530635],[-0.015421,51.530621],[-0.015005,51.530519],[-0.014745,51.530442],[-0.014589,51.530395],[-0.014429,51.530334],[-0.014371,51.530308],[-0.014294,51.530267],[-0.014244,51.530234],[-0.014201,51.530198],[-0.014188,51.530182],[-0.014165,51.530152]],[[-0.008506,51.533638],[-0.008546,51.533533],[-0.008536,51.533498],[-0.008474,51.533322],[-0.008247,51.532764],[-0.007935,51.532035],[-0.007832,51.531773],[-0.007735,51.531501],[-0.007648,51.531292],[-0.007466,51.530903],[-0.007328,51.530629],[-0.00731,51.530576],[-0.007299,51.53056],[-0.007265,51.53052],[-0.007248,51.530495],[-0.007186,51.530369],[-0.006899,51.530285],[-0.006442,51.530131],[-0.005745,51.529878],[-0.005506,51.529777],[-0.005263,51.529663],[-0.004987,51.529519],[-0.004864,51.529444],[-0.004739,51.529344],[-0.004497,51.529118],[-0.004394,51.529009],[-0.004323,51.528912],[-0.004267,51.528802],[-0.004219,51.528671],[-0.004131,51.528318]],[[-0.008506,51.533638],[-0.008648,51.533595],[-0.008828,51.53352],[-0.00886,51.533502],[-0.009021,51.533375],[-0.00938,51.533006],[-0.009408,51.532975],[-0.009428,51.532962],[-0.00945,51.532951],[-0.009591,51.532885],[-0.009632,51.532828],[-0.009639,51.53282],[-0.009657,51.532806],[-0.009846,51.532695],[-0.009915,51.532662],[-0.009962,51.532642],[-0.010407,51.532474],[-0.010488,51.532438],[-0.010529,51.532428],[-0.01066,51.532372],[-0.010687,51.532366],[-0.010699,51.532362],[-0.010719,51.532349],[-0.010731,51.532344],[-0.010797,51.532326],[-0.010828,51.532307],[-0.010968,51.53226],[-0.011383,51.532097],[-0.011422,51.532086],[-0.011555,51.532051],[-0.011941,51.531975],[-0.01198,51.531964],[-0.012014,51.531948],[-0.012123,51.531889],[-0.012214,51.531831],[-0.012225,51.531825],[-0.012237,51.531821],[-0.012246,51.531814],[-0.01226,51.531798],[-0.012308,51.531765],[-0.01241,51.531677],[-0.012609,51.53149],[-0.012654,51.531455],[-0.012671,51.531441],[-0.012709,51.531392],[-0.012782,51.531315],[-0.012851,51.531206],[-0.012907,51.531085],[-0.012986,51.530979],[-0.013007,51.530956],[-0.013023,51.530941],[-0.013336,51.530717],[-0.013393,51.530666],[-0.013435,51.530641],[-0.013477,51.530604],[-0.013496,51.530591],[-0.013646,51.530494],[-0.014165,51.530152]],[[-0.014165,51.530152],[-0.014131,51.530112],[-0.014086,51.530066],[-0.014077,51.53006],[-0.013159,51.529704],[-0.01311,51.529683],[-0.013085,51.529675],[-0.013072,51.529673],[-0.013042,51.529675],[-0.013028,51.529673],[-0.01296,51.529659],[-0.012734,51.529629],[-0.012562,51.529616],[-0.012193,51.529576],[-0.012064,51.529566],[-0.011468,51.529499],[-0.011108,51.529435],[-0.011053,51.529424],[-0.010973,51.529404],[-0.010844,51.529363],[-0.010668,51.529323],[-0.010644,51.529314],[-0.010623,51.529302],[-0.010615,51.529294],[-0.010611,51.529285],[-0.010544,51.529083],[-0.010492,51.52898],[-0.010468,51.528855],[-0.010404,51.528661],[-0.010381,51.528609],[-0.010365,51.528584],[-0.010353,51.528568],[-0.010315,51.52853],[-0.010306,51.528512],[-0.010283,51.52849],[-0.010208,51.528423],[-0.010057,51.528327],[-0.010037,51.528314],[-0.00999,51.528293],[-0.00995,51.528267],[-0.009939,51.528261],[-0.009914,51.528253],[-0.009854,51.528213],[-0.009755,51.528162],[-0.009652,51.528098],[-0.009616,51.528085],[-0.009538,51.528043],[-0.009429,51.527984],[-0.009393,51.52797],[-0.009238,51.527889],[-0.009166,51.527859],[-0.009122,51.527836],[-0.008763,51.527628],[-0.008677,51.527567],[-0.008654,51.527557],[-0.008617,51.527529],[-0.008583,51.5275],[-0.00856,51.527477],[-0.008548,51.52746],[-0.008508,51.527384],[-0.008363,51.527054],[-0.008351,51.527028],[-0.008295,51.526936],[-0.008288,51.526928]],[[-0.008536,51.523087],[-0.008853,51.522652],[-0.008952,51.522532],[-0.008966,51.522506],[-0.008973,51.522499],[-0.009064,51.522418],[-0.009076,51.522401],[-0.009103,51.522359],[-0.009124,51.522336],[-0.009153,51.522316],[-0.009231,51.522275],[-0.009655,51.522032],[-0.010126,51.521728],[-0.010838,51.521322],[-0.010883,51.521299],[-0.010904,51.521286],[-0.010913,51.521279],[-0.010926,51.521264],[-0.010962,51.521204],[-0.010993,51.521174],[-0.011089,51.521096],[-0.011236,51.520985],[-0.011245,51.520977],[-0.011252,51.52096],[-0.011302,51.520916],[-0.011461,51.520799],[-0.011572,51.520706],[-0.011651,51.520666],[-0.011737,51.520634],[-0.011759,51.520622],[-0.011771,51.520617],[-0.011823,51.520602],[-0.011844,51.520589],[-0.011932,51.520559],[-0.011953,51.520546],[-0.012025,51.520517],[-0.012075,51.520499],[-0.012114,51.520487],[-0.012141,51.520481],[-0.012184,51.520476],[-0.012209,51.520469],[-0.012448,51.520367],[-0.012532,51.520333],[-0.012545,51.520329],[-0.012559,51.520327],[-0.012574,51.520327],[-0.012613,51.520317],[-0.012683,51.520285],[-0.01271,51.520277],[-0.012733,51.520268],[-0.013161,51.520085],[-0.013343,51.519996],[-0.013499,51.519931],[-0.01353,51.519912],[-0.013694,51.519839],[-0.013706,51.519834],[-0.013746,51.519824],[-0.013861,51.51977],[-0.014039,51.519694],[-0.014077,51.519681],[-0.014102,51.519671],[-0.014516,51.519492],[-0.014541,51.519483],[-0.014568,51.519477],[-0.01458,51.519472],[-0.014683,51.519423],[-0.014695,51.519418],[-0.014722,51.519412],[-0.014734,51.519407],[-0.014754,51.519394],[-0.014847,51.519352],[-0.014885,51.519338],[-0.014912,51.519332],[-0.014943,51.519314],[-0.015073,51.519257],[-0.017237,51.518365],[-0.017424,51.518298],[-0.017541,51.518246],[-0.017846,51.518126],[-0.018248,51.517951],[-0.018418,51.517884],[-0.018893,51.517696],[-0.01896,51.517662],[-0.019,51.517652],[-0.019091,51.517607],[-0.01936,51.517503],[-0.019383,51.517492],[-0.019427,51.517469],[-0.019439,51.517464],[-0.019466,51.517459],[-0.019499,51.51744],[-0.019563,51.51742],[-0.019599,51.517406],[-0.019818,51.517319],[-0.020118,51.517195],[-0.020157,51.517182],[-0.020199,51.517158],[-0.020257,51.517132],[-0.020562,51.517012],[-0.020766,51.516927],[-0.021192,51.516743],[-0.021398,51.51666],[-0.021424,51.516651],[-0.02145,51.516644],[-0.021462,51.516639],[-0.021504,51.516614],[-0.021516,51.516609],[-0.024432,51.515434],[-0.025233,51.515113],[-0.025296,51.515092],[-0.025333,51.515078],[-0.02692,51.514424],[-0.027055,51.514373],[-0.027067,51.514368],[-0.027088,51.514355],[-0.027152,51.514334],[-0.027221,51.514302],[-0.027248,51.514295],[-0.027315,51.514261],[-0.027417,51.514227],[-0.027437,51.514214],[-0.027471,51.514198],[-0.028556,51.513738],[-0.028862,51.51362],[-0.029002,51.513557],[-0.029065,51.513535],[-0.029109,51.513512],[-0.029231,51.513464],[-0.029787,51.513223],[-0.030141,51.513085],[-0.030192,51.513068],[-0.030296,51.513036],[-0.030446,51.512983],[-0.030496,51.512965],[-0.030508,51.51296],[-0.030528,51.512947],[-0.030564,51.512932],[-0.03074,51.512871],[-0.031254,51.512624],[-0.031554,51.51247],[-0.031585,51.512452],[-0.031914,51.512201],[-0.031943,51.512181],[-0.031964,51.512169],[-0.031974,51.512162],[-0.032049,51.512085],[-0.032082,51.512045],[-0.032113,51.512005],[-0.03216,51.51193],[-0.032228,51.51185],[-0.032445,51.511517],[-0.032582,51.511319],[-0.032864,51.510876],[-0.032898,51.510847],[-0.032935,51.51082],[-0.032955,51.510807],[-0.033011,51.510778],[-0.033019,51.51077],[-0.03304,51.510759],[-0.03316,51.510709],[-0.033293,51.510675],[-0.033608,51.51061],[-0.033664,51.510618],[-0.03369,51.510626],[-0.033725,51.510641],[-0.033792,51.510675],[-0.033919,51.510736],[-0.034119,51.510838],[-0.034173,51.510868],[-0.034456,51.511034],[-0.034517,51.51106],[-0.034543,51.511066],[-0.034572,51.511069],[-0.034601,51.511071],[-0.03463,51.51107],[-0.03467,51.511062],[-0.034696,51.511054],[-0.034771,51.511025],[-0.035111,51.51091]]]}},
{"type":"Feature","properties":{"WB_ID":"GB70610510","WB_NAME":"Regents Canal, lower section","RBD_ID":6,"RBD_NAME":"Thames","WB_CAT":"Canal","COUNTRY":"England","RBD_NAME_1":"Thames","AREA_NAME":"Hertfordshire and North London","MNCAT_NAME":"Thames AWB","OPCAT_NAME":"Lee Lower Canals and SWT","WB_ID_1":"GB70610510","WB_NAME_1":"Regents Canal, lower section","WB_CAT_1":"Canal","HMD_NAME":"Artificial","OV_CLASS":"Moderate","ECO_CLASS":"Moderate","ECO_LESS":"No Information","CHEM_CLASS":"Good","CHEM_LESS":"No Information","ANG_CLASS":null,"CHI_CLASS":null,"FISH_CLASS":null,"INV_CLASS":null,"LIT_CLASS":null,"ALG_CLASS":null,"COM_CLASS":null,"PHY_CLASS":null,"ANC_CLASS":null,"AMM_CLASS":null,"BOD_CLASS":null,"DIN_CLASS":null,"DIS_CLASS":null,"PH_CLASS":null,"PHO_CLASS":null,"SAL_CLASS":null,"TEM_CLASS":null,"TP_CLASS":null,"PHS_CLASS":"Does not require assessment","PS_CLASS":"Does not require assessment","OP_CLASS":"Does not require assessment","SP_CLASS":"Does not require assessment","EXJ_CLASS":null,"REG_CLASS":null,"MMA_CLASS":"Moderate or less","MOR_CLASS":null,"ORAS_CLASS":null,"in_cw":false,"whole_in_zone":false},"geometry":{"type":"MultiLineString","coordinates":[[[-0.043677,51.531498],[-0.042918,51.53187],[-0.042894,51.53188],[-0.042854,51.531891],[-0.042842,51.531896],[-0.042822,51.531909],[-0.042711,51.531951],[-0.042603,51.532011],[-0.042337,51.532134],[-0.041975,51.532312],[-0.041729,51.532422],[-0.041715,51.532425],[-0.04169,51.532434],[-0.041493,51.532524],[-0.041328,51.532611],[-0.041218,51.53266],[-0.04114,51.532694],[-0.040882,51.532838],[-0.04087,51.532843],[-0.040843,51.532851],[-0.040832,51.532856],[-0.040767,51.532891],[-0.040729,51.532905],[-0.04064,51.532935],[-0.040533,51.53298],[-0.040419,51.533035],[-0.040366,51.533066],[-0.04034,51.533073],[-0.040322,51.533087],[-0.040312,51.533093],[-0.040262,51.533111],[-0.040234,51.533131],[-0.040171,51.533154],[-0.039988,51.533242],[-0.039964,51.533251],[-0.039938,51.533259],[-0.039909,51.53326],[-0.039871,51.533272],[-0.039827,51.533296],[-0.039628,51.533385],[-0.03955,51.533424],[-0.039085,51.53368],[-0.039002,51.533716],[-0.038959,51.53374],[-0.038948,51.533745],[-0.038922,51.533753],[-0.03877,51.533822],[-0.038759,51.533828],[-0.038731,51.533848],[-0.038646,51.533882],[-0.038628,51.533896],[-0.038618,51.533902],[-0.038544,51.53393],[-0.038497,51.533951],[-0.038453,51.533974],[-0.038436,51.533989],[-0.038423,51.533993],[-0.038395,51.533997],[-0.03837,51.534006],[-0.037968,51.534196],[-0.037807,51.534272],[-0.037776,51.534291],[-0.037742,51.53432],[-0.037697,51.534342],[-0.037499,51.534433],[-0.037473,51.53444],[-0.037449,51.53445],[-0.037165,51.534588],[-0.037153,51.534593],[-0.037126,51.534601],[-0.037068,51.534627],[-0.037022,51.534649],[-0.036981,51.534674],[-0.036919,51.534697],[-0.036805,51.534736],[-0.036781,51.534746],[-0.036738,51.534769],[-0.036676,51.534792],[-0.036193,51.535035],[-0.03614,51.53505],[-0.036116,51.535059],[-0.035945,51.535142],[-0.035626,51.535282],[-0.035595,51.5353],[-0.035557,51.535339],[-0.035526,51.535357],[-0.035315,51.535452],[-0.035021,51.535596],[-0.034903,51.535648],[-0.034688,51.535754],[-0.034593,51.535795],[-0.034458,51.535863],[-0.033946,51.536095],[-0.033732,51.536187],[-0.03371,51.536199],[-0.033684,51.536231],[-0.033674,51.536237],[-0.033648,51.536245],[-0.033636,51.53625],[-0.033409,51.53636],[-0.03299,51.536551],[-0.032703,51.536687],[-0.032679,51.536697],[-0.032653,51.536705],[-0.032435,51.536808],[-0.032243,51.536889],[-0.031902,51.537054],[-0.031807,51.537095],[-0.031604,51.537196],[-0.030914,51.537521],[-0.03073,51.537592],[-0.030674,51.53762],[-0.030598,51.537646],[-0.030551,51.537667],[-0.030241,51.537814],[-0.030062,51.537904],[-0.02997,51.537947],[-0.029947,51.537959],[-0.02992,51.537979],[-0.029898,51.537991],[-0.029411,51.538215],[-0.029056,51.538399],[-0.029009,51.53842],[-0.028925,51.538455],[-0.028872,51.538485],[-0.02886,51.53849],[-0.028835,51.538498],[-0.028758,51.538539],[-0.028673,51.538573],[-0.028662,51.538579],[-0.028644,51.538593],[-0.028559,51.538626],[-0.028506,51.538657],[-0.028444,51.53868],[-0.028392,51.538711],[-0.02833,51.538734],[-0.028254,51.538775],[-0.028169,51.538809],[-0.028116,51.53884],[-0.028089,51.538847],[-0.028078,51.538852],[-0.027978,51.538904],[-0.027939,51.538916],[-0.027895,51.538939],[-0.027703,51.539018],[-0.027611,51.539062],[-0.027537,51.53909],[-0.027509,51.53911],[-0.027423,51.539144],[-0.027406,51.539158],[-0.027394,51.539163],[-0.027369,51.539171],[-0.027257,51.539228],[-0.027198,51.539253],[-0.026791,51.53944],[-0.026717,51.539468],[-0.026694,51.539478],[-0.026666,51.539499],[-0.026655,51.539505],[-0.026507,51.539576],[-0.025595,51.540016],[-0.025569,51.540025],[-0.025516,51.54004],[-0.025492,51.540049],[-0.025377,51.540104],[-0.025289,51.54015],[-0.025263,51.540158],[-0.025209,51.540187],[-0.024912,51.54033],[-0.024762,51.540414],[-0.024737,51.540423],[-0.024357,51.540601],[-0.024228,51.540673],[-0.024089,51.540738],[-0.024079,51.540743],[-0.024051,51.540764],[-0.024006,51.540787],[-0.023801,51.540886],[-0.023764,51.540899],[-0.023746,51.540913],[-0.023735,51.540918],[-0.02372,51.540922],[-0.023708,51.540926],[-0.023587,51.54099],[-0.023267,51.541128],[-0.023245,51.54114],[-0.023228,51.541154],[-0.023216,51.541159],[-0.023155,51.541183],[-0.023107,51.541203],[-0.022959,51.541275],[-0.022948,51.54128],[-0.02293,51.541295],[-0.022919,51.5413],[-0.022891,51.541305],[-0.022859,51.541324],[-0.022836,51.541334],[-0.021736,51.541828],[-0.021459,51.541925],[-0.021155,51.542025]],[[-0.145816,51.540998],[-0.145717,51.541031],[-0.145646,51.541061],[-0.145569,51.541087],[-0.145558,51.541092],[-0.145538,51.541105],[-0.145526,51.54111],[-0.145462,51.541131],[-0.145426,51.541146],[-0.145063,51.541318],[-0.144474,51.541523],[-0.14433,51.541522],[-0.144243,51.541519],[-0.144201,51.541523],[-0.144174,51.541529],[-0.144082,51.541556],[-0.143725,51.541652],[-0.143377,51.541749],[-0.143263,51.54174],[-0.143009,51.541727],[-0.142709,51.541603],[-0.142683,51.541595],[-0.14263,51.541581],[-0.142608,51.54157],[-0.142481,51.541527],[-0.142347,51.541474],[-0.142293,51.541461],[-0.142259,51.541445],[-0.142234,51.541436],[-0.141849,51.541313],[-0.14176,51.541284],[-0.141567,51.541205],[-0.14126,51.541071],[-0.141043,51.540982],[-0.140991,51.540967],[-0.140762,51.540913],[-0.140735,51.540905],[-0.140708,51.540906],[-0.140665,51.540913],[-0.140568,51.54093],[-0.140513,51.540943],[-0.140449,51.540963],[-0.139963,51.541099],[-0.139746,51.541149],[-0.139677,51.541161],[-0.139634,51.541167],[-0.139592,51.54117],[-0.139549,51.541171],[-0.139477,51.541167],[-0.139421,51.541157],[-0.139382,51.541145],[-0.139322,51.54112],[-0.139298,51.541111],[-0.139269,51.541111],[-0.139257,51.541107],[-0.138937,51.540983],[-0.138881,51.540956],[-0.138737,51.540881],[-0.138677,51.540855],[-0.138539,51.540807],[-0.138394,51.540767],[-0.138326,51.540753],[-0.138269,51.540744],[-0.138099,51.540728],[-0.138012,51.540725],[-0.137954,51.540728],[-0.137944,51.540729],[-0.137713,51.540753],[-0.137672,51.540761],[-0.137592,51.540783],[-0.13721,51.540825],[-0.136908,51.540848],[-0.136867,51.540843],[-0.136617,51.540799],[-0.136604,51.540794],[-0.136572,51.540776],[-0.135905,51.540379],[-0.135521,51.540189],[-0.134741,51.539818],[-0.134363,51.539597],[-0.13298,51.538795],[-0.132945,51.538766],[-0.132567,51.538427],[-0.132511,51.538374],[-0.132494,51.53836],[-0.132463,51.538341],[-0.13237,51.538298],[-0.131594,51.537925],[-0.130513,51.53743],[-0.130218,51.537337],[-0.130082,51.537305],[-0.129813,51.537241],[-0.12893,51.53702],[-0.128781,51.536964],[-0.128758,51.536954],[-0.128726,51.536936],[-0.12854,51.536823],[-0.128326,51.53669],[-0.128066,51.536481],[-0.127955,51.536386],[-0.127759,51.536126],[-0.12765,51.535999],[-0.127633,51.535965],[-0.127565,51.535815],[-0.127532,51.535786],[-0.127509,51.535762],[-0.127071,51.535256],[-0.126895,51.53503],[-0.126805,51.534938],[-0.126483,51.534758],[-0.126411,51.534712],[-0.126387,51.534702],[-0.126374,51.534699],[-0.126347,51.534695],[-0.126319,51.534694],[-0.126245,51.534695],[-0.126043,51.534686],[-0.125885,51.534693],[-0.125784,51.534691],[-0.125741,51.534691],[-0.125683,51.534696],[-0.125641,51.534702],[-0.125589,51.534717],[-0.125476,51.534758],[-0.12545,51.534765],[-0.125091,51.534857],[-0.123791,51.535179],[-0.122763,51.535464],[-0.122709,51.535475],[-0.122596,51.535491],[-0.122568,51.535497],[-0.122554,51.535498],[-0.122526,51.535498],[-0.122267,51.535485],[-0.121871,51.535434],[-0.121632,51.535402],[-0.12142,51.535373],[-0.121377,51.535369],[-0.117204,51.53503],[-0.115002,51.534796],[-0.104483,51.533411],[-0.102652,51.53317],[-0.102499,51.533143],[-0.102129,51.533105],[-0.102045,51.533094],[-0.101031,51.532954],[-0.099993,51.532802],[-0.099909,51.532788],[-0.09922,51.532658],[-0.09905,51.532635],[-0.098712,51.532593],[-0.098539,51.532586],[-0.098185,51.532623]],[[-0.098185,51.532623],[-0.097999,51.532641],[-0.097959,51.53265],[-0.096306,51.53308],[-0.096119,51.533128],[-0.095822,51.533239],[-0.095501,51.533341],[-0.09549,51.533347],[-0.095482,51.533355],[-0.095472,51.53336],[-0.095412,51.533385],[-0.095015,51.533532],[-0.094946,51.533564],[-0.094868,51.533587],[-0.094848,51.5336],[-0.094836,51.533605],[-0.094808,51.533611],[-0.094738,51.533642],[-0.094698,51.533652],[-0.094565,51.533706],[-0.094048,51.53395],[-0.093332,51.534163],[-0.093306,51.534171],[-0.093295,51.534176],[-0.093275,51.534189],[-0.093211,51.53421],[-0.093179,51.534228],[-0.09308,51.534264],[-0.093047,51.534283],[-0.09295,51.534321],[-0.09268,51.534441],[-0.092627,51.534471],[-0.09253,51.534511],[-0.092499,51.534529],[-0.092473,51.534537],[-0.092445,51.534557],[-0.09239,51.534587],[-0.092366,51.534595],[-0.092286,51.534634],[-0.092179,51.53468],[-0.091981,51.534753],[-0.091751,51.534861],[-0.091424,51.535009],[-0.091379,51.535032],[-0.091148,51.535168],[-0.091105,51.535191],[-0.090989,51.535245],[-0.090977,51.53525],[-0.090951,51.535258],[-0.090854,51.535311],[-0.090831,51.535322],[-0.090757,51.53535],[-0.090721,51.535365],[-0.090343,51.535545],[-0.090296,51.535566],[-0.09027,51.535574],[-0.090228,51.535598],[-0.090216,51.535603],[-0.090191,51.535611],[-0.090079,51.535669],[-0.090042,51.535681],[-0.089984,51.535708],[-0.089879,51.535769],[-0.089821,51.53581],[-0.08979,51.535828],[-0.089755,51.535844],[-0.089682,51.535873],[-0.089378,51.536024],[-0.089246,51.536095],[-0.089205,51.53612],[-0.08915,51.536149],[-0.089091,51.536188],[-0.089069,51.5362],[-0.088383,51.536498],[-0.087625,51.536871],[-0.087356,51.536993],[-0.08732,51.537007],[-0.087269,51.537024],[-0.087073,51.537081],[-0.086977,51.5371],[-0.086849,51.537142],[-0.086365,51.537259],[-0.086309,51.537265],[-0.086166,51.537274],[-0.086109,51.537283],[-0.085958,51.537312],[-0.085677,51.537352],[-0.085663,51.537351],[-0.085621,51.537341],[-0.085593,51.537338],[-0.085565,51.537338],[-0.085536,51.53734],[-0.085409,51.537356],[-0.08513,51.537403],[-0.085044,51.53741],[-0.084876,51.537434],[-0.084547,51.537463],[-0.084423,51.537485],[-0.08438,51.537491],[-0.084337,51.537492],[-0.084294,51.537491],[-0.084122,51.537481],[-0.084093,51.537478],[-0.083333,51.537371],[-0.083307,51.537366],[-0.08324,51.537349],[-0.083198,51.537343],[-0.083,51.537318],[-0.082913,51.537312],[-0.082762,51.537284],[-0.082494,51.537246],[-0.082437,51.537242],[-0.082409,51.537238],[-0.082144,51.537196],[-0.082043,51.53719],[-0.081987,51.537184],[-0.081371,51.53709],[-0.081186,51.537068],[-0.08061,51.536986],[-0.080107,51.536907],[-0.079922,51.536886],[-0.079824,51.536871],[-0.079782,51.536866],[-0.07971,51.536864],[-0.07958,51.536866],[-0.079566,51.536864],[-0.079228,51.536816],[-0.07916,51.536802],[-0.079118,51.536796],[-0.07878,51.53675],[-0.078572,51.536714],[-0.07813,51.536653],[-0.07782,51.536613],[-0.077748,51.536607],[-0.077652,51.536589],[-0.077202,51.536525],[-0.076735,51.536468],[-0.075642,51.536347],[-0.075432,51.536316],[-0.074932,51.53627],[-0.074834,51.536256],[-0.074006,51.536185],[-0.072609,51.536052],[-0.071034,51.53594],[-0.070576,51.535907],[-0.070045,51.535874],[-0.069988,51.535868],[-0.069298,51.535775],[-0.069068,51.535764],[-0.069026,51.535759],[-0.068971,51.535747],[-0.068943,51.535745],[-0.068712,51.535734],[-0.068455,51.535712],[-0.068254,51.535704],[-0.068126,51.535693],[-0.067981,51.53569],[-0.06768,51.535672],[-0.06745,51.535668],[-0.067018,51.535648],[-0.06686,51.535649],[-0.065866,51.535629],[-0.065578,51.535633],[-0.065217,51.535627],[-0.065116,51.53563],[-0.064756,51.535629],[-0.064685,51.535623],[-0.064287,51.53558],[-0.063884,51.535569],[-0.063769,51.535566],[-0.063466,51.535563],[-0.062716,51.535566],[-0.062661,51.535556],[-0.062014,51.53543],[-0.061934,51.53541],[-0.061882,51.535394],[-0.061847,51.535379],[-0.061732,51.535324],[-0.061676,51.535283],[-0.061653,51.535273],[-0.061643,51.535266],[-0.061617,51.535245],[-0.061543,51.535201],[-0.061514,51.535181],[-0.061488,51.53516],[-0.061263,51.534962],[-0.061224,51.534936],[-0.061215,51.534929],[-0.061203,51.534912],[-0.061131,51.534856],[-0.061078,51.534802],[-0.061006,51.534746],[-0.060986,51.534723],[-0.060945,51.534697],[-0.060898,51.534652],[-0.060858,51.534626],[-0.060846,51.53461],[-0.060838,51.534602],[-0.060798,51.534576],[-0.060786,51.53456],[-0.060707,51.534508],[-0.060625,51.534445],[-0.060604,51.534432],[-0.060558,51.53441],[-0.060498,51.534372],[-0.060303,51.534265],[-0.060274,51.534244],[-0.060264,51.534238],[-0.060225,51.534228],[-0.06014,51.534216],[-0.060111,51.534216],[-0.060055,51.534207],[-0.059889,51.534177],[-0.059822,51.53416],[-0.059766,51.534152],[-0.059714,51.534136],[-0.059686,51.534132],[-0.059557,51.534126],[-0.059371,51.53411],[-0.059241,51.534107],[-0.059156,51.534101],[-0.058968,51.534098],[-0.058896,51.534101],[-0.058838,51.534105],[-0.058797,51.53411],[-0.058698,51.534124],[-0.05864,51.534123],[-0.058612,51.534126],[-0.058316,51.534166],[-0.058261,51.534177],[-0.057677,51.534305],[-0.05761,51.534321],[-0.057133,51.534471],[-0.05671,51.534642],[-0.056488,51.534725],[-0.05638,51.534752],[-0.056101,51.534845],[-0.055644,51.534979],[-0.055453,51.53502],[-0.05544,51.535024],[-0.055417,51.535034],[-0.055404,51.535039],[-0.055309,51.53506],[-0.055089,51.535103],[-0.054962,51.535119],[-0.054881,51.535137],[-0.05461,51.535164],[-0.054423,51.535174],[-0.054365,51.535174],[-0.054322,51.535174],[-0.05428,51.535171],[-0.054226,51.535156],[-0.054199,51.535152],[-0.054156,51.53515],[-0.053982,51.535149],[-0.053811,51.535137],[-0.053502,51.535092],[-0.053132,51.535016],[-0.052802,51.534925],[-0.052648,51.534877],[-0.052407,51.534795],[-0.05238,51.534788],[-0.052351,51.534786],[-0.052312,51.534775],[-0.052019,51.534679],[-0.051971,51.534659],[-0.051934,51.534645],[-0.051489,51.534497],[-0.051452,51.534483],[-0.051396,51.534454],[-0.051359,51.53444],[-0.051307,51.534425],[-0.051267,51.534415],[-0.051239,51.53441],[-0.051209,51.534411],[-0.051197,51.534408],[-0.051099,51.534369],[-0.051049,51.534351],[-0.050843,51.534286],[-0.050672,51.534219],[-0.050581,51.534193],[-0.050446,51.534141],[-0.050138,51.534042],[-0.049595,51.533856],[-0.049434,51.533796],[-0.048956,51.533629],[-0.048869,51.533597],[-0.048843,51.533589],[-0.048816,51.533584],[-0.048717,51.533571],[-0.048676,51.533562],[-0.048573,51.53353],[-0.048305,51.533442],[-0.048238,51.533425],[-0.047806,51.533281],[-0.04778,51.533272],[-0.047746,51.533257],[-0.047708,51.533243],[-0.047199,51.533075],[-0.047139,51.53305],[-0.046894,51.532973],[-0.046882,51.532968],[-0.046864,51.532954],[-0.046827,51.53294],[-0.046688,51.532892],[-0.046018,51.532612],[-0.045973,51.532589],[-0.04571,51.532435],[-0.045655,51.532407],[-0.045358,51.532264],[-0.044938,51.532089],[-0.044734,51.532005],[-0.044401,51.531833],[-0.04401,51.531664],[-0.043677,51.531498]],[[-0.096459,51.529997],[-0.097036,51.53086],[-0.098185,51.532623]],[[-0.043677,51.531498],[-0.043249,51.531284],[-0.043181,51.531252],[-0.043064,51.531184],[-0.043028,51.531156],[-0.042975,51.531126],[-0.042949,51.531105],[-0.042474,51.530676],[-0.042255,51.530475],[-0.042018,51.530118],[-0.04184,51.529862],[-0.04149,51.529419],[-0.041432,51.529327],[-0.041304,51.529156],[-0.04129,51.52913],[-0.041279,51.529113],[-0.041221,51.529041],[-0.041209,51.529015],[-0.041186,51.528982],[-0.040954,51.528663],[-0.040941,51.528647],[-0.040911,51.528616],[-0.040823,51.528483],[-0.040698,51.528311],[-0.040667,51.528281],[-0.040615,51.528197],[-0.04056,51.528134],[-0.040496,51.528034],[-0.040467,51.528003],[-0.040428,51.527954],[-0.040412,51.527929],[-0.040398,51.527895],[-0.040387,51.527878],[-0.040196,51.527636],[-0.039872,51.527224],[-0.039646,51.526817],[-0.039392,51.526464],[-0.039379,51.526448],[-0.039334,51.526402],[-0.03927,51.526321],[-0.038845,51.525904],[-0.038713,51.525786],[-0.038704,51.525779],[-0.038671,51.525762],[-0.038626,51.525727],[-0.038593,51.525697],[-0.038552,51.52565],[-0.038527,51.525617],[-0.038481,51.525551],[-0.038416,51.525471],[-0.038308,51.525375],[-0.038142,51.525197],[-0.038111,51.525166],[-0.037801,51.524885],[-0.037474,51.524669],[-0.037466,51.524662],[-0.037379,51.524569],[-0.037217,51.52442],[-0.037133,51.524325],[-0.036938,51.524147],[-0.036899,51.524109],[-0.036814,51.524037],[-0.036753,51.523946],[-0.036734,51.523884],[-0.036688,51.52378],[-0.036685,51.523762],[-0.036679,51.523735],[-0.036657,51.523692],[-0.036648,51.523666],[-0.036648,51.523648],[-0.036654,51.523594],[-0.03665,51.523567],[-0.036597,51.523437],[-0.036546,51.523269],[-0.03654,51.523233],[-0.036523,51.523108],[-0.036525,51.523018],[-0.036511,51.522856],[-0.036501,51.522776],[-0.036499,51.522641],[-0.036489,51.522551],[-0.03649,51.522506],[-0.03648,51.522471],[-0.036477,51.522453],[-0.036473,51.522237],[-0.036457,51.522112],[-0.036458,51.52204],[-0.036443,51.521923],[-0.036444,51.52186],[-0.036417,51.521519],[-0.036419,51.521474],[-0.036433,51.52143],[-0.036436,51.521412],[-0.036433,51.521304],[-0.036385,51.520775],[-0.036373,51.520712],[-0.036369,51.520677],[-0.036363,51.520596],[-0.036368,51.520488],[-0.036356,51.520335],[-0.036349,51.5203],[-0.036328,51.520229],[-0.036301,51.52005],[-0.036253,51.519836],[-0.03624,51.51954],[-0.036256,51.519342],[-0.036249,51.519297],[-0.036205,51.519065],[-0.03616,51.518952],[-0.036145,51.518927],[-0.036083,51.518845],[-0.036038,51.51876],[-0.036022,51.518735],[-0.036008,51.518719],[-0.035991,51.518704],[-0.035964,51.518683],[-0.035836,51.518598],[-0.035537,51.518367],[-0.035411,51.518281],[-0.035355,51.518228],[-0.035334,51.518205],[-0.035319,51.518179],[-0.035294,51.518158],[-0.035216,51.518105],[-0.035151,51.518057],[-0.035117,51.518039],[-0.035046,51.51801],[-0.035015,51.517991],[-0.034819,51.517835],[-0.03477,51.517802],[-0.034715,51.51776],[-0.034683,51.51773],[-0.034671,51.517704],[-0.034657,51.517689],[-0.034517,51.517586],[-0.034499,51.517572],[-0.034476,51.517549],[-0.034455,51.517537],[-0.034406,51.517517],[-0.034384,51.517506],[-0.034373,51.51749],[-0.034339,51.517472],[-0.034321,51.517459],[-0.034258,51.517409],[-0.034226,51.517379],[-0.034159,51.517332],[-0.034127,51.517302],[-0.034024,51.517194],[-0.033932,51.517082],[-0.033864,51.516983],[-0.033821,51.516888],[-0.033796,51.516846],[-0.033787,51.516819],[-0.033778,51.516766],[-0.033761,51.516613],[-0.033757,51.516523],[-0.033851,51.516141],[-0.033895,51.516046],[-0.033991,51.515906],[-0.034102,51.51573],[-0.034123,51.515687],[-0.034183,51.515616],[-0.034247,51.515525],[-0.034349,51.515386],[-0.034416,51.515296],[-0.034694,51.514971],[-0.034718,51.514949],[-0.034796,51.514863],[-0.034961,51.514673],[-0.034993,51.514643],[-0.03506,51.514584],[-0.035101,51.514537],[-0.035137,51.514488],[-0.03515,51.514472],[-0.035205,51.51443],[-0.03523,51.514398],[-0.035273,51.514331],[-0.035374,51.514267],[-0.035392,51.514253],[-0.035415,51.51423],[-0.035794,51.513796],[-0.035807,51.51378],[-0.035828,51.513746],[-0.035841,51.51373],[-0.036113,51.513433],[-0.036135,51.51341],[-0.036142,51.513393],[-0.036148,51.513348],[-0.036155,51.513331],[-0.036165,51.513314],[-0.036186,51.51329],[-0.036195,51.513273],[-0.036394,51.512841],[-0.036612,51.512158],[-0.036734,51.511782],[-0.036782,51.51165],[-0.036795,51.51156],[-0.036771,51.511525],[-0.036699,51.511479],[-0.036476,51.511418],[-0.035724,51.511254],[-0.035482,51.511188],[-0.035369,51.511128],[-0.03529,51.511065],[-0.035211,51.511004],[-0.035111,51.51091],[-0.035893,51.510641],[-0.035905,51.510636],[-0.036167,51.510482],[-0.036197,51.510462],[-0.036523,51.510199],[-0.036798,51.510004]]]}}
]}
