{"type":"FeatureCollection","meta":{
 "source": "data.gov.uk: Statutory Main River Map (Environment Agency)",
 "dgu_dataset": "statutory-main-river-map",
 "page": "https://www.data.gov.uk/dataset/4ae8ba46-f9a4-47d0-8d93-0f93eb494540/statutory-main-river-map",
 "api": "https://environment.data.gov.uk/spatialdata/statutory-main-river-map/wfs",
 "layers": [
  {
   "name": "dataset-25dde009-ba7d-40de-8380-c5c3bb32ccdc:Statutory_Main_River_Map",
   "zone_count": 56
  }
 ],
 "fetched": "2026-10-04",
 "licence": "Open Government Licence v3.0",
 "licence_evidence": "[\"Open Government Licence\"] | [\"There are no public access constraints to this data. Use of this data is subject to the licence identified.\", \"There are no public access constraints to this data. Use of this data is subject to the licence identified.\"]",
 "attribution": "Contains public sector information licensed under the Open Government Licence v3.0 (Environment Agency)",
 "zone": "the 3D model box, BNG E 532400-539900, N 176700-182300 (WGS84 -0.095, 51.474 to 0.015, 51.522)",
 "method": "walk-portals.mjs dgu harvest statutory-main-river-map: the service the probe counted, read with the zone box (WFS 2.0 GetFeature in EPSG:4326, or ArcGIS query with the envelope); polygons that cross the box edge are cut at the box, lines keep only their runs of vertices inside it plus one either side (clipped_to_zone: for display, not for area or length sums); coordinates rounded to 6 decimals; empty fields, shape measures and fields matching /e-?mail|phone|tel(ephone)?$|^tel|contact|^fax|mobile|^owner_?name|person|officer|case_?officer|agent_?name|applicant/i left out",
 "counts": {
  "features": 54,
  "probe_zone_count": 56,
  "clipped": 5
 }
},
"features":[
{"type":"Feature","geometry":{"type":"MultiLineString","coordinates":[[[0.007661,51.505515],[0.008042,51.50539],[0.010172,51.503818],[0.012314,51.501814],[0.015356,51.499512]]]},"properties":{"layer":"dataset-25dde009-ba7d-40de-8380-c5c3bb32ccdc:Statutory_Main_River_Map","status":"Main River","length_km":5.608205146180893,"clipped_to_zone":true,"in_cw":false}},
{"type":"Feature","geometry":{"type":"MultiLineString","coordinates":[[[-0.021938,51.475496],[-0.021725,51.475495],[-0.021179,51.475513],[-0.020981,51.475534],[-0.020868,51.475572],[-0.020804,51.47562],[-0.020683,51.475763],[-0.020638,51.475895],[-0.02064,51.475984],[-0.020741,51.476295],[-0.020746,51.476392],[-0.020732,51.476545],[-0.020627,51.476683],[-0.020561,51.476741],[-0.020459,51.476803],[-0.020119,51.47697],[-0.019901,51.477036],[-0.019689,51.477076],[-0.019335,51.47714],[-0.019162,51.477203],[-0.019109,51.477245],[-0.019074,51.477294],[-0.019057,51.477356],[-0.019058,51.477433]]]},"properties":{"layer":"dataset-25dde009-ba7d-40de-8380-c5c3bb32ccdc:Statutory_Main_River_Map","status":"Main River","length_km":0.3527436660960179,"in_cw":false}},
{"type":"Feature","geometry":{"type":"MultiLineString","coordinates":[[[-0.029736,51.504106],[-0.029587,51.503384],[-0.029587,51.502841]]]},"properties":{"layer":"dataset-25dde009-ba7d-40de-8380-c5c3bb32ccdc:Statutory_Main_River_Map","status":"Main River","length_km":0.1413811624101725,"in_cw":true}},
{"type":"Feature","geometry":{"type":"MultiLineString","coordinates":[[[-0.036647,51.508266],[-0.036578,51.508251],[-0.033792,51.507448],[-0.032176,51.507101]]]},"properties":{"layer":"dataset-25dde009-ba7d-40de-8380-c5c3bb32ccdc:Statutory_Main_River_Map","status":"Main River","length_km":0.33669337373324,"in_cw":false}},
{"type":"Feature","geometry":{"type":"MultiLineString","coordinates":[[[-0.047472,51.503551],[-0.04779,51.504115]]]},"properties":{"layer":"dataset-25dde009-ba7d-40de-8380-c5c3bb32ccdc:Statutory_Main_River_Map","status":"Main River","length_km":0.0664278174631457,"in_cw":false}},
{"type":"Feature","geometry":{"type":"MultiLineString","coordinates":[[[-0.036519,51.5102],[-0.036554,51.510159],[-0.036604,51.510139],[-0.036752,51.510035],[-0.036778,51.510001],[-0.036829,51.509982],[-0.036845,51.509978]]]},"properties":{"layer":"dataset-25dde009-ba7d-40de-8380-c5c3bb32ccdc:Statutory_Main_River_Map","status":"Main River","length_km":0.034214299971540255,"in_cw":false}},
{"type":"Feature","geometry":{"type":"MultiLineString","coordinates":[[[-0.035257,51.511038],[-0.035869,51.510618],[-0.036519,51.5102]]]},"properties":{"layer":"dataset-25dde009-ba7d-40de-8380-c5c3bb32ccdc:Statutory_Main_River_Map","status":"Main River","length_km":0.1279073895697659,"in_cw":false}},
{"type":"Feature","geometry":{"type":"MultiLineString","coordinates":[[[-0.002017,51.517891],[-0.001742,51.517738],[-0.001149,51.517452],[-0.001017,51.517371],[-0.000391,51.517039],[0.000408,51.516671],[0.00089,51.516491],[0.00137,51.516328],[0.002429,51.515945],[0.002814,51.515772],[0.003178,51.515581],[0.003469,51.515408],[0.003592,51.51532],[0.003761,51.515174],[0.003835,51.515098],[0.003892,51.515025],[0.004026,51.514812],[0.004046,51.514772],[0.004082,51.514622],[0.004084,51.514577],[0.004063,51.514468],[0.003999,51.514141],[0.003829,51.513912],[0.003643,51.513665]]]},"properties":{"layer":"dataset-25dde009-ba7d-40de-8380-c5c3bb32ccdc:Statutory_Main_River_Map","status":"Main River","length_km":0.6833323445387938,"in_cw":false}},
{"type":"Feature","geometry":{"type":"MultiLineString","coordinates":[[[-0.030066,51.494449],[-0.02998,51.493178],[-0.029019,51.491294],[-0.026184,51.488349],[-0.026149,51.488313],[-0.02611,51.488287],[-0.023471,51.486798],[-0.020174,51.485287],[-0.020097,51.485266],[-0.018029,51.484987]]]},"properties":{"layer":"dataset-25dde009-ba7d-40de-8380-c5c3bb32ccdc:Statutory_Main_River_Map","status":"Main River","length_km":1.4362019381886941,"in_cw":false}},
{"type":"Feature","geometry":{"type":"MultiLineString","coordinates":[[[-0.095438,51.509172],[-0.094183,51.508911]]]},"properties":{"layer":"dataset-25dde009-ba7d-40de-8380-c5c3bb32ccdc:Statutory_Main_River_Map","status":"Main River","length_km":1.3136511002374194,"clipped_to_zone":true,"in_cw":false}},
{"type":"Feature","geometry":{"type":"MultiLineString","coordinates":[[[-0.016435,51.48177],[-0.016514,51.481833],[-0.016664,51.481917],[-0.016897,51.482007],[-0.017139,51.482085],[-0.017553,51.482247],[-0.017882,51.482418],[-0.018067,51.482544],[-0.018196,51.482685],[-0.018333,51.482873],[-0.018432,51.482972],[-0.018492,51.483053],[-0.018572,51.483207],[-0.018672,51.483451],[-0.018676,51.483504],[-0.018662,51.483568],[-0.018635,51.483691],[-0.018451,51.484087],[-0.018029,51.484987]]]},"properties":{"layer":"dataset-25dde009-ba7d-40de-8380-c5c3bb32ccdc:Statutory_Main_River_Map","status":"Main River","length_km":0.43064154805790605,"in_cw":false}},
{"type":"Feature","geometry":{"type":"MultiLineString","coordinates":[[[-0.022686,51.475359],[-0.022379,51.475395],[-0.022132,51.475444],[-0.021938,51.475496]]]},"properties":{"layer":"dataset-25dde009-ba7d-40de-8380-c5c3bb32ccdc:Statutory_Main_River_Map","status":"Main River","length_km":0.05433173725235104,"in_cw":false}},
{"type":"Feature","geometry":{"type":"MultiLineString","coordinates":[[[-0.022837,51.47534],[-0.022686,51.475359]]]},"properties":{"layer":"dataset-25dde009-ba7d-40de-8380-c5c3bb32ccdc:Statutory_Main_River_Map","status":"Main River","length_km":0.010727932234070965,"in_cw":false}},
{"type":"Feature","geometry":{"type":"MultiLineString","coordinates":[[[0.009191,51.507049],[0.008011,51.505866],[0.007661,51.505515]]]},"properties":{"layer":"dataset-25dde009-ba7d-40de-8380-c5c3bb32ccdc:Statutory_Main_River_Map","status":"Main River","length_km":0.2009508152042644,"in_cw":false}},
{"type":"Feature","geometry":{"type":"MultiLineString","coordinates":[[[-0.005043,51.501107],[-0.004925,51.501951],[-0.004079,51.503358]]]},"properties":{"layer":"dataset-25dde009-ba7d-40de-8380-c5c3bb32ccdc:Statutory_Main_River_Map","status":"Main River","length_km":0.261452906577058,"in_cw":true}},
{"type":"Feature","geometry":{"type":"MultiLineString","coordinates":[[[-0.029587,51.502841],[-0.029589,51.502298],[-0.029973,51.499387],[-0.03011,51.496244]]]},"properties":{"layer":"dataset-25dde009-ba7d-40de-8380-c5c3bb32ccdc:Statutory_Main_River_Map","status":"Main River","length_km":0.7350645849012227,"in_cw":true}},
{"type":"Feature","geometry":{"type":"MultiLineString","coordinates":[[[-0.036845,51.509978],[-0.037618,51.509447],[-0.037871,51.50894],[-0.037976,51.508533]]]},"properties":{"layer":"dataset-25dde009-ba7d-40de-8380-c5c3bb32ccdc:Statutory_Main_River_Map","status":"Main River","length_km":0.18474686231753426,"in_cw":false}},
{"type":"Feature","geometry":{"type":"MultiLineString","coordinates":[[[-0.03011,51.496244],[-0.03014,51.495549],[-0.030066,51.494449]]]},"properties":{"layer":"dataset-25dde009-ba7d-40de-8380-c5c3bb32ccdc:Statutory_Main_River_Map","status":"Main River","length_km":0.1997950052968258,"in_cw":false}},
{"type":"Feature","geometry":{"type":"MultiLineString","coordinates":[[[-0.019083,51.477539],[-0.019183,51.47787],[-0.019175,51.478015],[-0.019114,51.478334],[-0.019106,51.478909],[-0.019077,51.479042],[-0.019069,51.47924],[-0.019051,51.479291],[-0.018951,51.479431],[-0.018766,51.479613],[-0.018593,51.479745],[-0.01846,51.479826],[-0.018362,51.479864],[-0.018184,51.479898],[-0.018054,51.479904],[-0.017829,51.479928],[-0.017402,51.479961],[-0.017154,51.480009],[-0.017103,51.480025],[-0.017025,51.480064],[-0.016912,51.480157],[-0.016801,51.480293],[-0.016666,51.48042],[-0.016577,51.480543],[-0.016552,51.480613],[-0.016557,51.480756],[-0.016536,51.480853],[-0.016471,51.480911],[-0.016311,51.481001],[-0.016266,51.481046],[-0.016247,51.481081],[-0.016242,51.481169],[-0.016273,51.481273],[-0.016336,51.481523],[-0.016338,51.481639],[-0.016388,51.481722],[-0.016435,51.48177]]]},"properties":{"layer":"dataset-25dde009-ba7d-40de-8380-c5c3bb32ccdc:Statutory_Main_River_Map","status":"Main River","length_km":0.5819495606801897,"in_cw":false}},
{"type":"Feature","geometry":{"type":"MultiLineString","coordinates":[[[-0.03182,51.5079],[-0.032176,51.507101]]]},"properties":{"layer":"dataset-25dde009-ba7d-40de-8380-c5c3bb32ccdc:Statutory_Main_River_Map","status":"Main River","length_km":0.0922137592601724,"in_cw":false}},
{"type":"Feature","geometry":{"type":"MultiLineString","coordinates":[[[-0.034338,51.510965],[-0.034567,51.511138],[-0.035257,51.511038]]]},"properties":{"layer":"dataset-25dde009-ba7d-40de-8380-c5c3bb32ccdc:Statutory_Main_River_Map","status":"Main River","length_km":0.07410484126408798,"in_cw":false}},
{"type":"Feature","geometry":{"type":"MultiLineString","coordinates":[[[-0.022925,51.475243],[-0.022919,51.475272],[-0.022837,51.47534]]]},"properties":{"layer":"dataset-25dde009-ba7d-40de-8380-c5c3bb32ccdc:Statutory_Main_River_Map","status":"Main River","length_km":0.012783106129002419,"in_cw":false}},
{"type":"Feature","geometry":{"type":"MultiLineString","coordinates":[[[-0.002984,51.504931],[-0.000233,51.506016],[0.002633,51.506777],[0.002712,51.506777],[0.005104,51.506335],[0.007574,51.505543],[0.007661,51.505515]]]},"properties":{"layer":"dataset-25dde009-ba7d-40de-8380-c5c3bb32ccdc:Statutory_Main_River_Map","status":"Main River","length_km":0.8202956520203485,"in_cw":false}},
{"type":"Feature","geometry":{"type":"MultiLineString","coordinates":[[[-0.002062,51.517916],[-0.002017,51.517891]]]},"properties":{"layer":"dataset-25dde009-ba7d-40de-8380-c5c3bb32ccdc:Statutory_Main_River_Map","status":"Main River","length_km":0.004216894711348189,"in_cw":false}},
{"type":"Feature","geometry":{"type":"MultiLineString","coordinates":[[[-0.04971,51.505679],[-0.047812,51.50723]]]},"properties":{"layer":"dataset-25dde009-ba7d-40de-8380-c5c3bb32ccdc:Statutory_Main_River_Map","status":"Main River","length_km":0.21703747718704508,"in_cw":false}},
{"type":"Feature","geometry":{"type":"MultiLineString","coordinates":[[[-0.018029,51.484987],[-0.017876,51.484967],[-0.01534,51.484624],[-0.011569,51.48456],[-0.006444,51.485529],[-0.002446,51.487412],[-0.002404,51.487449],[-0.000795,51.489256],[-0.000783,51.489291],[-0.000569,51.491547],[-0.000554,51.491704],[-0.002111,51.494649],[-0.004554,51.498527],[-0.005118,51.500573],[-0.005043,51.501107]]]},"properties":{"layer":"dataset-25dde009-ba7d-40de-8380-c5c3bb32ccdc:Statutory_Main_River_Map","status":"Main River","length_km":2.7798021039352587,"in_cw":true}},
{"type":"Feature","geometry":{"type":"MultiLineString","coordinates":[[[-0.036653,51.512073],[-0.036773,51.511548],[-0.035257,51.511038]]]},"properties":{"layer":"dataset-25dde009-ba7d-40de-8380-c5c3bb32ccdc:Statutory_Main_River_Map","status":"Main River","length_km":0.17853611115228768,"in_cw":false}},
{"type":"Feature","geometry":{"type":"MultiLineString","coordinates":[[[-0.069232,51.503525],[-0.06741,51.502964],[-0.064779,51.502233],[-0.064724,51.502223],[-0.061963,51.501817],[-0.06187,51.501815],[-0.059113,51.501771],[-0.056699,51.502255],[-0.054704,51.502796],[-0.04971,51.505679]]]},"properties":{"layer":"dataset-25dde009-ba7d-40de-8380-c5c3bb32ccdc:Statutory_Main_River_Map","status":"Main River","length_km":1.5392182976656208,"in_cw":false}},
{"type":"Feature","geometry":{"type":"MultiLineString","coordinates":[[[-0.094183,51.508911],[-0.09395,51.508862]]]},"properties":{"layer":"dataset-25dde009-ba7d-40de-8380-c5c3bb32ccdc:Statutory_Main_River_Map","status":"Main River","length_km":0.017067397751529108,"in_cw":false}},
{"type":"Feature","geometry":{"type":"MultiLineString","coordinates":[[[-0.032176,51.507101],[-0.031905,51.506744],[-0.031261,51.506428],[-0.031201,51.50639],[-0.030624,51.505941],[-0.030306,51.505619],[-0.030038,51.505212],[-0.029887,51.504828],[-0.029736,51.504106]]]},"properties":{"layer":"dataset-25dde009-ba7d-40de-8380-c5c3bb32ccdc:Statutory_Main_River_Map","status":"Main River","length_km":0.38675351746586084,"in_cw":true}},
{"type":"Feature","geometry":{"type":"MultiLineString","coordinates":[[[0.003643,51.513665],[0.003612,51.513624]]]},"properties":{"layer":"dataset-25dde009-ba7d-40de-8380-c5c3bb32ccdc:Statutory_Main_River_Map","status":"Main River","length_km":0.005096297577255385,"in_cw":false}},
{"type":"Feature","geometry":{"type":"MultiLineString","coordinates":[[[-0.036629,51.512107],[-0.036653,51.512073]]]},"properties":{"layer":"dataset-25dde009-ba7d-40de-8380-c5c3bb32ccdc:Statutory_Main_River_Map","status":"Main River","length_km":0.00408562125053917,"in_cw":false}},
{"type":"Feature","geometry":{"type":"MultiLineString","coordinates":[[[-0.02983,51.508868],[-0.030135,51.508787],[-0.030608,51.508596],[-0.030935,51.508448],[-0.031149,51.508331],[-0.031342,51.50815],[-0.031415,51.508095],[-0.031491,51.508055],[-0.03172,51.507959],[-0.03182,51.5079]]]},"properties":{"layer":"dataset-25dde009-ba7d-40de-8380-c5c3bb32ccdc:Statutory_Main_River_Map","status":"Main River","length_km":0.17767168401079134,"in_cw":true}},
{"type":"Feature","geometry":{"type":"MultiLineString","coordinates":[[[-0.022533,51.475567],[-0.022319,51.475551],[-0.022122,51.475525],[-0.021938,51.475496]]]},"properties":{"layer":"dataset-25dde009-ba7d-40de-8380-c5c3bb32ccdc:Statutory_Main_River_Map","status":"Main River","length_km":0.04207230992664752,"in_cw":false}},
{"type":"Feature","geometry":{"type":"MultiLineString","coordinates":[[[-0.024662,51.51534],[-0.025288,51.515092],[-0.026763,51.514481],[-0.02763,51.514137],[-0.028274,51.513861],[-0.029208,51.513472],[-0.029701,51.513257],[-0.030106,51.513099],[-0.03036,51.513012],[-0.030773,51.512855],[-0.031089,51.512713],[-0.031348,51.512578],[-0.031535,51.512468],[-0.031827,51.512283],[-0.031953,51.512176],[-0.032028,51.512097],[-0.032259,51.511802],[-0.032389,51.511596],[-0.032405,51.511578],[-0.032561,51.511335],[-0.032861,51.51088],[-0.032919,51.510827],[-0.032995,51.510778],[-0.033094,51.510728],[-0.033211,51.510686],[-0.033312,51.510662],[-0.033443,51.51064],[-0.033578,51.510625],[-0.033686,51.510632],[-0.03372,51.510642],[-0.034218,51.510889],[-0.034338,51.510965]]]},"properties":{"layer":"dataset-25dde009-ba7d-40de-8380-c5c3bb32ccdc:Statutory_Main_River_Map","status":"Main River","length_km":0.9014115595546854,"in_cw":false}},
{"type":"Feature","geometry":{"type":"MultiLineString","coordinates":[[[-0.022837,51.47534],[-0.022792,51.475396],[-0.022749,51.475443],[-0.022644,51.475552],[-0.022636,51.475557],[-0.022626,51.475559],[-0.022533,51.475567]]]},"properties":{"layer":"dataset-25dde009-ba7d-40de-8380-c5c3bb32ccdc:Statutory_Main_River_Map","status":"Main River","length_km":0.03518633575572285,"in_cw":false}},
{"type":"Feature","geometry":{"type":"MultiLineString","coordinates":[[[-0.047812,51.50723],[-0.046172,51.507584],[-0.044912,51.508121],[-0.044598,51.508232],[-0.043835,51.508395],[-0.04259,51.508544],[-0.041319,51.508643],[-0.039662,51.508661],[-0.037976,51.508533]]]},"properties":{"layer":"dataset-25dde009-ba7d-40de-8380-c5c3bb32ccdc:Statutory_Main_River_Map","status":"Main River","length_km":0.7173168105177421,"in_cw":false}},
{"type":"Feature","geometry":{"type":"MultiLineString","coordinates":[[[-0.019058,51.477433],[-0.019083,51.477539]]]},"properties":{"layer":"dataset-25dde009-ba7d-40de-8380-c5c3bb32ccdc:Statutory_Main_River_Map","status":"Main River","length_km":0.01194201231048122,"in_cw":false}},
{"type":"Feature","geometry":{"type":"MultiLineString","coordinates":[[[0.003612,51.513624],[0.003196,51.513016],[0.003106,51.512818],[0.002608,51.512052],[0.002467,51.511816],[0.002364,51.511629],[0.002283,51.511447],[0.002233,51.511207],[0.002226,51.511072],[0.002266,51.510876],[0.002287,51.510824],[0.002314,51.510793],[0.002565,51.510638]]]},"properties":{"layer":"dataset-25dde009-ba7d-40de-8380-c5c3bb32ccdc:Statutory_Main_River_Map","status":"Main River","length_km":0.3577609769954431,"in_cw":false}},
{"type":"Feature","geometry":{"type":"MultiLineString","coordinates":[[[-0.004079,51.503358],[-0.002984,51.504931]]]},"properties":{"layer":"dataset-25dde009-ba7d-40de-8380-c5c3bb32ccdc:Statutory_Main_River_Map","status":"Main River","length_km":0.1907691217418714,"in_cw":false}},
{"type":"Feature","geometry":{"type":"MultiLineString","coordinates":[[[-0.037976,51.508533],[-0.036647,51.508266]]]},"properties":{"layer":"dataset-25dde009-ba7d-40de-8380-c5c3bb32ccdc:Statutory_Main_River_Map","status":"Main River","length_km":0.09691728772491733,"in_cw":false}},
{"type":"Feature","geometry":{"type":"MultiLineString","coordinates":[[[-0.009477,51.522142],[-0.01005,51.521782],[-0.010735,51.521388],[-0.010786,51.521358],[-0.01085,51.5213],[-0.010943,51.521219],[-0.011251,51.520966],[-0.011297,51.520918],[-0.011585,51.520698],[-0.011999,51.520527],[-0.012006,51.520525],[-0.012248,51.52045],[-0.012575,51.520317],[-0.01301,51.520149],[-0.013532,51.51991],[-0.015174,51.519211],[-0.015743,51.518996],[-0.016521,51.51866],[-0.016831,51.518534],[-0.017244,51.518363],[-0.017771,51.518154],[-0.018257,51.517949],[-0.020786,51.516916],[-0.021383,51.516664],[-0.02181,51.516501],[-0.02347,51.515831],[-0.023712,51.515734],[-0.024662,51.51534]]]},"properties":{"layer":"dataset-25dde009-ba7d-40de-8380-c5c3bb32ccdc:Statutory_Main_River_Map","status":"Main River","length_km":1.4784757138259317,"clipped_to_zone":true,"in_cw":false}},
{"type":"Feature","geometry":{"type":"MultiLineString","coordinates":[[[-0.072934,51.504637],[-0.069232,51.503525]]]},"properties":{"layer":"dataset-25dde009-ba7d-40de-8380-c5c3bb32ccdc:Statutory_Main_River_Map","status":"Main River","length_km":0.28521371574583476,"in_cw":false}},
{"type":"Feature","geometry":{"type":"MultiLineString","coordinates":[[[0.002565,51.510638],[0.002642,51.51059],[0.002718,51.510566],[0.002967,51.510521],[0.003096,51.510516],[0.003411,51.510539],[0.003803,51.510627],[0.00389,51.510658],[0.003991,51.510708],[0.004108,51.510787],[0.004244,51.510903],[0.004351,51.51107],[0.004432,51.511252],[0.004488,51.511419],[0.004647,51.512013],[0.00466,51.512219],[0.004655,51.512381],[0.004627,51.512596],[0.004638,51.512829],[0.004664,51.512963],[0.00475,51.513246],[0.004794,51.51334],[0.004865,51.513438],[0.004916,51.513551],[0.004971,51.513634],[0.005102,51.513762],[0.005329,51.513948],[0.005451,51.514081],[0.005549,51.514146],[0.005584,51.514161],[0.005893,51.514234],[0.00609,51.514307],[0.006201,51.514326],[0.006343,51.514338],[0.006992,51.514313],[0.00707,51.514297],[0.007221,51.514227],[0.007403,51.514101],[0.007528,51.513919],[0.007604,51.513833],[0.007695,51.513742],[0.007802,51.513657],[0.007879,51.513572],[0.007907,51.513403],[0.007936,51.513333],[0.008004,51.513225],[0.008039,51.513038],[0.008048,51.512921],[0.007986,51.512609],[0.007865,51.512304],[0.007737,51.512185],[0.007588,51.512021],[0.007497,51.511899],[0.007334,51.511742],[0.007113,51.51142],[0.00704,51.511256],[0.006968,51.511158],[0.006856,51.511053],[0.006663,51.510932],[0.006505,51.510793],[0.006352,51.510686],[0.006237,51.510562],[0.00607,51.510323],[0.006019,51.509913],[0.006038,51.509879],[0.006086,51.509835],[0.006229,51.509746],[0.006427,51.509674],[0.006713,51.509589],[0.006873,51.509548],[0.00704,51.509521],[0.007479,51.50947],[0.008052,51.509382],[0.008489,51.509292],[0.008949,51.509145],[0.009106,51.509063],[0.00913,51.509041],[0.009866,51.508237],[0.009878,51.508213],[0.009776,51.507961],[0.00928,51.507146],[0.009191,51.507049]]]},"properties":{"layer":"dataset-25dde009-ba7d-40de-8380-c5c3bb32ccdc:Statutory_Main_River_Map","status":"Main River","length_km":1.6579915646221342,"in_cw":false}},
{"type":"Feature","geometry":{"type":"MultiLineString","coordinates":[[[-0.04779,51.504115],[-0.048101,51.50455],[-0.048192,51.504654],[-0.04971,51.505679]]]},"properties":{"layer":"dataset-25dde009-ba7d-40de-8380-c5c3bb32ccdc:Statutory_Main_River_Map","status":"Main River","length_km":0.22150001466775054,"in_cw":false}},
{"type":"Feature","geometry":{"type":"MultiLineString","coordinates":[[[-0.008212,51.522049],[-0.00845,51.521673],[-0.008646,51.521434],[-0.008696,51.52134],[-0.008799,51.52105],[-0.008935,51.520785],[-0.008988,51.5206],[-0.008997,51.520438],[-0.008984,51.520169],[-0.008931,51.519975],[-0.008888,51.519899],[-0.008834,51.519835],[-0.008632,51.519695],[-0.008325,51.519546],[-0.007937,51.519391],[-0.007696,51.51928],[-0.007187,51.519018],[-0.006877,51.518818],[-0.006574,51.518534],[-0.006342,51.518265],[-0.006019,51.517833],[-0.005889,51.517623],[-0.005853,51.517509],[-0.005843,51.51741],[-0.005836,51.517042],[-0.005825,51.516989],[-0.005771,51.516896],[-0.005696,51.516808],[-0.0056,51.516719],[-0.005513,51.516659],[-0.00542,51.516619],[-0.005284,51.516589],[-0.005099,51.516576],[-0.004928,51.51659],[-0.004846,51.516609],[-0.004579,51.516713],[-0.004497,51.516764],[-0.00441,51.516835],[-0.004243,51.517013],[-0.004091,51.517236],[-0.003923,51.517513],[-0.003831,51.517626],[-0.003716,51.517716],[-0.003594,51.51778],[-0.003395,51.517852],[-0.00306,51.517936],[-0.002515,51.518021],[-0.002229,51.518002],[-0.002184,51.517985],[-0.002062,51.517916]]]},"properties":{"layer":"dataset-25dde009-ba7d-40de-8380-c5c3bb32ccdc:Statutory_Main_River_Map","status":"Main River","length_km":1.0664102633710992,"clipped_to_zone":true,"in_cw":false}},
{"type":"Feature","geometry":{"type":"MultiLineString","coordinates":[[[-0.09395,51.508862],[-0.092948,51.508654],[-0.091641,51.508429],[-0.090273,51.508251],[-0.087926,51.507991],[-0.086709,51.507857],[-0.085755,51.507723],[-0.0846,51.507533],[-0.08426,51.507472],[-0.082771,51.507203],[-0.081012,51.506851],[-0.07926,51.506465],[-0.077787,51.506104],[-0.076283,51.505674],[-0.075565,51.505452],[-0.072934,51.504637]]]},"properties":{"layer":"dataset-25dde009-ba7d-40de-8380-c5c3bb32ccdc:Statutory_Main_River_Map","status":"Main River","length_km":1.540078700543893,"in_cw":false}},
{"type":"Feature","geometry":{"type":"MultiLineString","coordinates":[[[-0.036625,51.512121],[-0.036629,51.512107]]]},"properties":{"layer":"dataset-25dde009-ba7d-40de-8380-c5c3bb32ccdc:Statutory_Main_River_Map","status":"Main River","length_km":0.0016022562215990308,"in_cw":false}},
{"type":"Feature","geometry":{"type":"MultiLineString","coordinates":[[[-0.069232,51.503525],[-0.070886,51.502439],[-0.071202,51.5022],[-0.071821,51.501735],[-0.072028,51.501415],[-0.073566,51.500561]]]},"properties":{"layer":"dataset-25dde009-ba7d-40de-8380-c5c3bb32ccdc:Statutory_Main_River_Map","status":"Main River","length_km":0.44969316906853457,"in_cw":false}},
{"type":"Feature","geometry":{"type":"MultiLineString","coordinates":[[[-0.016435,51.48177],[-0.015092,51.481711]]]},"properties":{"layer":"dataset-25dde009-ba7d-40de-8380-c5c3bb32ccdc:Statutory_Main_River_Map","status":"Main River","length_km":0.09349856472684114,"in_cw":false}},
{"type":"Feature","geometry":{"type":"MultiLineString","coordinates":[[[-0.015092,51.481711],[-0.015032,51.481707]]]},"properties":{"layer":"dataset-25dde009-ba7d-40de-8380-c5c3bb32ccdc:Statutory_Main_River_Map","status":"Main River","length_km":0.004174474707736942,"in_cw":false}},
{"type":"Feature","geometry":{"type":"MultiLineString","coordinates":[[[-0.020745,51.476333],[-0.020807,51.476275],[-0.021505,51.476125]]]},"properties":{"layer":"dataset-25dde009-ba7d-40de-8380-c5c3bb32ccdc:Statutory_Main_River_Map","status":"Main River","length_km":0.059049512609250204,"in_cw":false}},
{"type":"Feature","geometry":{"type":"MultiLineString","coordinates":[[[-0.022766,51.473873],[-0.022654,51.474014],[-0.022637,51.47407],[-0.022645,51.47411],[-0.022671,51.474156],[-0.022737,51.474239],[-0.022783,51.47428],[-0.022755,51.47459],[-0.022742,51.474609],[-0.022766,51.474706],[-0.022769,51.474737],[-0.022935,51.475189],[-0.022925,51.475243]]]},"properties":{"layer":"dataset-25dde009-ba7d-40de-8380-c5c3bb32ccdc:Statutory_Main_River_Map","status":"Main River","length_km":0.27253477895392164,"clipped_to_zone":true,"in_cw":false}},
{"type":"Feature","geometry":{"type":"MultiLineString","coordinates":[[[-0.022743,51.47597],[-0.022397,51.475931],[-0.021505,51.476125]]]},"properties":{"layer":"dataset-25dde009-ba7d-40de-8380-c5c3bb32ccdc:Statutory_Main_River_Map","status":"Main River","length_km":0.09006491016027394,"in_cw":false}}
]}
