{"type":"FeatureCollection","meta":{
 "source": "City of London INSPIRE map service: Riverside Walk",
 "borough": "City of London",
 "page": "https://www.mapping.cityoflondon.gov.uk/arcgis/rest/services/INSPIRE/MapServer/123",
 "api": "https://www.mapping.cityoflondon.gov.uk/arcgis/rest/services/INSPIRE/MapServer/123/query?where=1=1&geometry=<zone box>&geometryType=esriGeometryEnvelope&inSR=4326&spatialRel=esriSpatialRelIntersects&outFields=*&outSR=4326&f=geojson&resultOffset=<n>",
 "fetched": "2026-10-04",
 "licence": "Open Government Licence v3.0",
 "licence_evidence": "the City's INSPIRE record on data.gov.uk (riverside-walk6): [\"http://www.nationalarchives.gov.uk/doc/open-government-licence/version/3/\"] | [\"https://inspire.ec.europa.eu/metadata-codelist/LimitationsOnPublicAccess\", \"License\"]",
 "licence_url": "https://www.nationalarchives.gov.uk/doc/open-government-licence/version/3/",
 "attribution": "Contains public sector information licensed under the Open Government Licence v3.0 (City of London Corporation)",
 "zone": "the 3D model box, BNG E 532400-539900, N 176700-182300 (WGS84 -0.095, 51.474 to 0.015, 51.522)",
 "method": "walk-portals.mjs boroughs harvest city-riverside-walk: features that meet the zone box, WGS84 rounded to 6 decimals, whole geometries; whole_in_zone, in_cw; empty fields and ArcGIS shape measures left out; fields matching /e-?mail|phone|tel(ephone)?$|^tel|contact|^fax|mobile|^owner_?name|person|officer|case_?officer|agent_?name|applicant/i dropped",
 "counts": {
  "features": 1,
  "zone_count_at_walk": 1,
  "in_cw": 0
 },
 "fields_dropped": []
},
"features":[
{"type":"Feature","geometry":{"type":"Polygon","coordinates":[[[-0.10568,51.510911],[-0.105566,51.510904],[-0.105567,51.510894],[-0.105567,51.510893],[-0.105567,51.510892],[-0.105567,51.510891],[-0.105566,51.51089],[-0.105566,51.510889],[-0.105565,51.510887],[-0.105565,51.510886],[-0.105564,51.510885],[-0.105563,51.510884],[-0.105562,51.510883],[-0.105561,51.510882],[-0.10556,51.510881],[-0.105558,51.51088],[-0.105557,51.51088],[-0.105556,51.510879],[-0.105554,51.510878],[-0.105552,51.510878],[-0.105551,51.510877],[-0.105549,51.510877],[-0.105547,51.510876],[-0.105546,51.510876],[-0.105544,51.510876],[-0.105542,51.510875],[-0.10554,51.510875],[-0.105539,51.510875],[-0.104483,51.510853],[-0.104482,51.510853],[-0.104109,51.510852],[-0.104109,51.510852],[-0.104107,51.510852],[-0.104105,51.510852],[-0.104103,51.510852],[-0.104101,51.510853],[-0.1041,51.510853],[-0.103952,51.510883],[-0.103496,51.510875],[-0.103115,51.510864],[-0.103114,51.510864],[-0.102064,51.510849],[-0.101276,51.510836],[-0.101275,51.510836],[-0.100561,51.510834],[-0.100034,51.510825],[-0.100033,51.510825],[-0.099663,51.510824],[-0.099182,51.510797],[-0.098731,51.510767],[-0.098444,51.51073],[-0.098443,51.51073],[-0.098442,51.51073],[-0.09808,51.510696],[-0.097779,51.51065],[-0.097778,51.51065],[-0.097564,51.510618],[-0.097564,51.510618],[-0.097166,51.510561],[-0.09705,51.510536],[-0.097055,51.510514],[-0.097055,51.510514],[-0.097056,51.510512],[-0.097056,51.510511],[-0.097056,51.51051],[-0.097055,51.510509],[-0.097055,51.510508],[-0.097055,51.510507],[-0.097054,51.510505],[-0.097054,51.510504],[-0.097053,51.510503],[-0.097052,51.510502],[-0.097051,51.510501],[-0.09705,51.5105],[-0.097049,51.510499],[-0.097047,51.510498],[-0.097046,51.510498],[-0.097044,51.510497],[-0.097043,51.510496],[-0.097041,51.510496],[-0.09704,51.510495],[-0.097038,51.510495],[-0.097036,51.510494],[-0.097034,51.510494],[-0.097033,51.510494],[-0.096859,51.510471],[-0.096865,51.510441],[-0.096865,51.51044],[-0.096865,51.510438],[-0.096865,51.510437],[-0.096865,51.510436],[-0.096865,51.510435],[-0.096864,51.510434],[-0.096864,51.510433],[-0.096863,51.510432],[-0.096862,51.510431],[-0.096861,51.510429],[-0.09686,51.510428],[-0.096859,51.510428],[-0.096858,51.510427],[-0.096857,51.510426],[-0.096856,51.510425],[-0.096854,51.510424],[-0.096853,51.510424],[-0.096851,51.510423],[-0.096849,51.510422],[-0.096848,51.510422],[-0.096847,51.510422],[-0.096206,51.510267],[-0.096205,51.510267],[-0.096203,51.510267],[-0.096202,51.510267],[-0.096165,51.510261],[-0.096164,51.510261],[-0.096162,51.510261],[-0.09616,51.510261],[-0.096158,51.510261],[-0.096156,51.510261],[-0.096155,51.510261],[-0.096153,51.510261],[-0.096151,51.510261],[-0.096149,51.510262],[-0.096147,51.510262],[-0.096146,51.510263],[-0.096144,51.510263],[-0.096142,51.510264],[-0.096141,51.510265],[-0.096139,51.510265],[-0.096138,51.510266],[-0.096137,51.510267],[-0.096136,51.510267],[-0.096028,51.51035],[-0.096028,51.510351],[-0.096027,51.510352],[-0.096026,51.510353],[-0.096025,51.510354],[-0.096025,51.510354],[-0.095996,51.510393],[-0.095995,51.510394],[-0.095995,51.510395],[-0.095994,51.510396],[-0.095994,51.510397],[-0.095816,51.510889],[-0.094988,51.510768],[-0.095185,51.510322],[-0.095267,51.510189],[-0.095267,51.510188],[-0.095268,51.510187],[-0.095268,51.510186],[-0.095268,51.510184],[-0.095269,51.510183],[-0.095269,51.510182],[-0.095269,51.510181],[-0.095268,51.51018],[-0.095268,51.510179],[-0.095268,51.510177],[-0.095267,51.510176],[-0.095266,51.510175],[-0.095266,51.510174],[-0.095265,51.510173],[-0.095264,51.510172],[-0.095263,51.510171],[-0.095261,51.51017],[-0.09526,51.510169],[-0.095259,51.510169],[-0.095257,51.510168],[-0.095256,51.510167],[-0.095254,51.510166],[-0.095253,51.510166],[-0.095251,51.510165],[-0.09525,51.510165],[-0.094654,51.510024],[-0.094628,51.510016],[-0.094521,51.509893],[-0.094521,51.509893],[-0.09452,51.509892],[-0.094519,51.509891],[-0.094517,51.50989],[-0.094516,51.509889],[-0.094515,51.509888],[-0.094513,51.509888],[-0.094512,51.509887],[-0.09451,51.509886],[-0.094508,51.509886],[-0.094507,51.509885],[-0.094505,51.509885],[-0.094504,51.509885],[-0.093951,51.509779],[-0.09395,51.509779],[-0.093949,51.509778],[-0.093947,51.509778],[-0.093945,51.509778],[-0.093943,51.509778],[-0.093941,51.509778],[-0.093939,51.509778],[-0.093937,51.509778],[-0.093935,51.509779],[-0.093934,51.509779],[-0.093932,51.509779],[-0.09393,51.50978],[-0.093929,51.50978],[-0.093701,51.509857],[-0.093674,51.509852],[-0.093673,51.509852],[-0.093671,51.509852],[-0.093669,51.509852],[-0.093667,51.509851],[-0.093665,51.509851],[-0.093664,51.509851],[-0.093662,51.509852],[-0.09366,51.509852],[-0.093658,51.509852],[-0.093656,51.509852],[-0.093654,51.509853],[-0.093653,51.509853],[-0.093651,51.509854],[-0.093649,51.509854],[-0.093648,51.509855],[-0.093646,51.509856],[-0.093645,51.509857],[-0.093644,51.509858],[-0.093643,51.509858],[-0.093641,51.509859],[-0.09364,51.50986],[-0.09364,51.509861],[-0.093639,51.509862],[-0.093638,51.509864],[-0.093638,51.509864],[-0.093593,51.50995],[-0.093363,51.509904],[-0.093421,51.509804],[-0.093421,51.509803],[-0.093422,51.509802],[-0.093422,51.509801],[-0.093422,51.5098],[-0.093423,51.509799],[-0.093423,51.509798],[-0.093423,51.509796],[-0.093422,51.509795],[-0.093422,51.509794],[-0.093422,51.509793],[-0.093421,51.509792],[-0.093421,51.509791],[-0.09342,51.50979],[-0.093419,51.509789],[-0.093418,51.509788],[-0.093417,51.509787],[-0.093416,51.509786],[-0.093414,51.509785],[-0.093413,51.509784],[-0.093411,51.509783],[-0.09341,51.509783],[-0.093408,51.509782],[-0.093407,51.509781],[-0.093405,51.509781],[-0.093405,51.509781],[-0.092994,51.509677],[-0.092988,51.509666],[-0.092988,51.509666],[-0.092987,51.509665],[-0.092986,51.509664],[-0.092985,51.509663],[-0.092984,51.509662],[-0.092983,51.509661],[-0.092981,51.50966],[-0.09298,51.509659],[-0.092978,51.509658],[-0.092977,51.509658],[-0.092975,51.509657],[-0.092974,51.509656],[-0.092972,51.509656],[-0.092971,51.509656],[-0.092643,51.509583],[-0.092574,51.509558],[-0.092574,51.509558],[-0.092572,51.509557],[-0.09257,51.509557],[-0.09257,51.509557],[-0.09226,51.509481],[-0.092258,51.509481],[-0.092257,51.509481],[-0.092255,51.50948],[-0.092253,51.50948],[-0.092251,51.50948],[-0.092249,51.50948],[-0.092247,51.50948],[-0.092245,51.50948],[-0.092243,51.50948],[-0.092243,51.509481],[-0.092211,51.509485],[-0.092133,51.509465],[-0.092113,51.509445],[-0.092112,51.509444],[-0.092111,51.509443],[-0.09211,51.509442],[-0.092109,51.509441],[-0.092107,51.509441],[-0.092106,51.50944],[-0.092104,51.509439],[-0.092103,51.509439],[-0.092101,51.509438],[-0.092099,51.509438],[-0.092098,51.509437],[-0.091857,51.509384],[-0.091857,51.509384],[-0.091855,51.509384],[-0.091853,51.509384],[-0.091851,51.509384],[-0.091849,51.509383],[-0.091847,51.509383],[-0.091846,51.509383],[-0.091844,51.509384],[-0.091842,51.509384],[-0.09184,51.509384],[-0.091838,51.509384],[-0.091836,51.509385],[-0.091835,51.509385],[-0.091833,51.509386],[-0.091831,51.509386],[-0.09183,51.509387],[-0.091828,51.509388],[-0.091827,51.509389],[-0.091826,51.509389],[-0.091825,51.50939],[-0.091823,51.509391],[-0.091822,51.509392],[-0.091822,51.509393],[-0.091821,51.509394],[-0.09182,51.509396],[-0.09182,51.509397],[-0.091819,51.509397],[-0.091802,51.509443],[-0.091771,51.509438],[-0.09177,51.509438],[-0.091768,51.509437],[-0.091767,51.509437],[-0.091765,51.509437],[-0.091763,51.509437],[-0.091761,51.509437],[-0.091759,51.509437],[-0.091757,51.509437],[-0.091755,51.509438],[-0.091754,51.509438],[-0.091752,51.509438],[-0.09175,51.509439],[-0.091748,51.50944],[-0.091747,51.50944],[-0.091746,51.509441],[-0.091647,51.509486],[-0.090801,51.509325],[-0.090849,51.509221],[-0.09085,51.509221],[-0.09085,51.50922],[-0.09085,51.509219],[-0.09085,51.509217],[-0.090851,51.509216],[-0.09085,51.509215],[-0.09085,51.509214],[-0.09085,51.509213],[-0.09085,51.509212],[-0.090849,51.50921],[-0.090848,51.509209],[-0.090848,51.509208],[-0.090847,51.509207],[-0.090846,51.509206],[-0.090845,51.509205],[-0.090843,51.509204],[-0.090842,51.509203],[-0.090841,51.509203],[-0.090839,51.509202],[-0.090838,51.509201],[-0.090836,51.509201],[-0.090834,51.5092],[-0.090833,51.5092],[-0.090831,51.509199],[-0.09083,51.509199],[-0.089935,51.509038],[-0.089935,51.509038],[-0.089933,51.509037],[-0.089932,51.509037],[-0.089661,51.509011],[-0.089661,51.509011],[-0.089659,51.50901],[-0.089657,51.50901],[-0.089655,51.50901],[-0.089654,51.509011],[-0.089477,51.509021],[-0.089097,51.509017],[-0.088747,51.508987],[-0.088747,51.508987],[-0.088745,51.508987],[-0.088744,51.508987],[-0.088742,51.508987],[-0.08874,51.508987],[-0.088738,51.508987],[-0.088736,51.508988],[-0.088734,51.508988],[-0.088733,51.508988],[-0.088731,51.508989],[-0.088565,51.509039],[-0.088181,51.508995],[-0.08818,51.508995],[-0.088178,51.508995],[-0.088176,51.508995],[-0.088174,51.508995],[-0.088173,51.508995],[-0.088171,51.508995],[-0.088169,51.508996],[-0.088167,51.508996],[-0.088165,51.508996],[-0.088164,51.508997],[-0.088162,51.508997],[-0.08816,51.508998],[-0.088159,51.508999],[-0.088157,51.508999],[-0.088156,51.509],[-0.088155,51.509001],[-0.088035,51.509079],[-0.087619,51.509022],[-0.08715,51.508951],[-0.087057,51.50892],[-0.087057,51.50892],[-0.087055,51.508919],[-0.087054,51.508919],[-0.087016,51.50891],[-0.087042,51.508836],[-0.087042,51.508836],[-0.087042,51.508834],[-0.087042,51.508833],[-0.087043,51.508832],[-0.087042,51.508831],[-0.087042,51.50883],[-0.087042,51.508829],[-0.087042,51.508827],[-0.087041,51.508826],[-0.08704,51.508825],[-0.08704,51.508824],[-0.087039,51.508823],[-0.087038,51.508822],[-0.087038,51.508822],[-0.087004,51.508791],[-0.087003,51.50879],[-0.087002,51.50879],[-0.087001,51.508789],[-0.087,51.508788],[-0.086998,51.508787],[-0.086997,51.508786],[-0.086995,51.508786],[-0.086993,51.508785],[-0.086992,51.508785],[-0.08699,51.508784],[-0.086988,51.508784],[-0.086986,51.508784],[-0.086986,51.508784],[-0.086594,51.508739],[-0.086594,51.508739],[-0.085928,51.508667],[-0.085791,51.508648],[-0.085791,51.508648],[-0.085462,51.508604],[-0.085462,51.508604],[-0.08546,51.508604],[-0.085458,51.508604],[-0.085456,51.508604],[-0.085455,51.508604],[-0.08542,51.508599],[-0.08542,51.508599],[-0.085418,51.508599],[-0.084641,51.50853],[-0.083728,51.508429],[-0.083727,51.508429],[-0.083725,51.508429],[-0.083723,51.508429],[-0.083721,51.508429],[-0.083719,51.508429],[-0.083717,51.508429],[-0.083715,51.508429],[-0.083714,51.50843],[-0.083712,51.50843],[-0.08371,51.508431],[-0.083708,51.508431],[-0.083707,51.508432],[-0.083705,51.508432],[-0.083704,51.508433],[-0.083702,51.508434],[-0.083701,51.508435],[-0.0837,51.508436],[-0.083699,51.508437],[-0.083698,51.508438],[-0.083697,51.508439],[-0.083696,51.50844],[-0.083695,51.508441],[-0.083695,51.508442],[-0.083695,51.508443],[-0.083694,51.508444],[-0.083633,51.508687],[-0.082815,51.50858],[-0.082163,51.508485],[-0.082162,51.508485],[-0.082161,51.508485],[-0.081345,51.508393],[-0.08136,51.508355],[-0.08136,51.508354],[-0.08136,51.508353],[-0.08136,51.508352],[-0.08136,51.50835],[-0.08136,51.508349],[-0.08136,51.508348],[-0.08136,51.508347],[-0.081359,51.508346],[-0.081359,51.508345],[-0.081358,51.508344],[-0.081357,51.508342],[-0.081356,51.508341],[-0.081355,51.50834],[-0.081354,51.508339],[-0.081353,51.508339],[-0.081352,51.508338],[-0.081351,51.508337],[-0.081349,51.508336],[-0.081348,51.508335],[-0.081347,51.508335],[-0.081286,51.50831],[-0.081284,51.50831],[-0.081283,51.508309],[-0.081281,51.508309],[-0.080388,51.508071],[-0.080387,51.508071],[-0.080386,51.508071],[-0.080385,51.50807],[-0.080372,51.508068],[-0.080371,51.508067],[-0.08037,51.508066],[-0.080368,51.508065],[-0.080367,51.508065],[-0.080365,51.508064],[-0.080364,51.508063],[-0.080362,51.508063],[-0.080361,51.508062],[-0.080359,51.508062],[-0.080357,51.508061],[-0.080355,51.508061],[-0.080354,51.508061],[-0.080352,51.50806],[-0.08035,51.50806],[-0.080348,51.50806],[-0.080346,51.50806],[-0.080344,51.50806],[-0.080342,51.508061],[-0.08034,51.508061],[-0.080339,51.508061],[-0.080337,51.508061],[-0.080249,51.508045],[-0.080033,51.507967],[-0.080033,51.507967],[-0.080031,51.507966],[-0.08003,51.507966],[-0.080028,51.507965],[-0.079459,51.507836],[-0.079458,51.507836],[-0.079457,51.507835],[-0.079455,51.507835],[-0.079453,51.507835],[-0.079451,51.507835],[-0.079449,51.507835],[-0.079447,51.507835],[-0.079445,51.507835],[-0.079444,51.507835],[-0.079442,51.507835],[-0.07944,51.507836],[-0.079438,51.507836],[-0.079436,51.507836],[-0.079435,51.507837],[-0.079433,51.507838],[-0.079432,51.507838],[-0.07943,51.507839],[-0.079429,51.50784],[-0.079428,51.507841],[-0.079426,51.507842],[-0.079425,51.507843],[-0.079424,51.507844],[-0.079423,51.507845],[-0.079423,51.507846],[-0.079422,51.507846],[-0.079358,51.507946],[-0.079289,51.507941],[-0.079287,51.50794],[-0.079285,51.50794],[-0.079283,51.50794],[-0.079282,51.507941],[-0.07928,51.507941],[-0.079278,51.507941],[-0.079276,51.507941],[-0.079274,51.507942],[-0.079273,51.507942],[-0.079271,51.507943],[-0.079269,51.507943],[-0.079268,51.507944],[-0.079266,51.507945],[-0.079265,51.507946],[-0.079264,51.507946],[-0.079263,51.507947],[-0.079261,51.507948],[-0.07926,51.507949],[-0.07926,51.50795],[-0.079259,51.507951],[-0.079258,51.507953],[-0.079258,51.507954],[-0.079257,51.507954],[-0.079159,51.508221],[-0.079159,51.508221],[-0.079159,51.508223],[-0.079158,51.508224],[-0.079158,51.508225],[-0.079158,51.508226],[-0.079159,51.508227],[-0.079159,51.508228],[-0.079159,51.50823],[-0.07916,51.508231],[-0.079161,51.508232],[-0.079161,51.508233],[-0.079162,51.508234],[-0.079163,51.508235],[-0.079164,51.508236],[-0.079166,51.508237],[-0.079167,51.508238],[-0.079168,51.508238],[-0.07917,51.508239],[-0.079171,51.50824],[-0.079173,51.50824],[-0.079174,51.508241],[-0.079176,51.508242],[-0.079178,51.508242],[-0.07918,51.508242],[-0.079182,51.508243],[-0.079183,51.508243],[-0.079185,51.508243],[-0.079187,51.508243],[-0.079189,51.508243],[-0.079191,51.508243],[-0.079193,51.508243],[-0.079195,51.508242],[-0.079196,51.508242],[-0.079198,51.508242],[-0.0792,51.508241],[-0.079202,51.50824],[-0.079203,51.50824],[-0.079205,51.508239],[-0.079206,51.508238],[-0.079208,51.508238],[-0.079209,51.508237],[-0.07921,51.508236],[-0.079211,51.508235],[-0.079212,51.508234],[-0.079213,51.508233],[-0.079214,51.508232],[-0.079214,51.508231],[-0.079215,51.50823],[-0.079215,51.508229],[-0.079308,51.507978],[-0.079373,51.507984],[-0.079375,51.507984],[-0.079377,51.507984],[-0.079379,51.507984],[-0.079381,51.507984],[-0.079382,51.507983],[-0.079384,51.507983],[-0.079386,51.507983],[-0.079388,51.507982],[-0.07939,51.507982],[-0.079391,51.507981],[-0.079393,51.507981],[-0.079394,51.50798],[-0.079396,51.507979],[-0.079397,51.507979],[-0.079398,51.507978],[-0.0794,51.507977],[-0.079401,51.507976],[-0.079402,51.507975],[-0.079403,51.507974],[-0.079403,51.507973],[-0.079404,51.507972],[-0.079466,51.507875],[-0.080006,51.507999],[-0.080223,51.508077],[-0.080223,51.508077],[-0.080225,51.508077],[-0.080226,51.508078],[-0.080228,51.508078],[-0.080229,51.508078],[-0.080306,51.508093],[-0.080147,51.508318],[-0.079908,51.508609],[-0.079908,51.508609],[-0.079907,51.50861],[-0.079907,51.508611],[-0.079906,51.508612],[-0.079906,51.508613],[-0.079905,51.508614],[-0.079905,51.508616],[-0.079905,51.508617],[-0.079905,51.508618],[-0.079905,51.508619],[-0.079906,51.50862],[-0.079906,51.508621],[-0.079907,51.508623],[-0.079907,51.508624],[-0.079908,51.508625],[-0.079909,51.508626],[-0.07991,51.508627],[-0.079911,51.508628],[-0.079912,51.508629],[-0.079914,51.508629],[-0.079915,51.50863],[-0.079916,51.508631],[-0.079918,51.508632],[-0.07992,51.508632],[-0.079921,51.508633],[-0.079923,51.508633],[-0.079925,51.508634],[-0.079927,51.508634],[-0.079928,51.508634],[-0.07993,51.508635],[-0.079932,51.508635],[-0.079934,51.508635],[-0.079936,51.508635],[-0.079938,51.508635],[-0.07994,51.508634],[-0.079941,51.508634],[-0.079943,51.508634],[-0.079945,51.508633],[-0.079947,51.508633],[-0.079948,51.508632],[-0.07995,51.508632],[-0.079951,51.508631],[-0.079953,51.50863],[-0.079954,51.508629],[-0.079956,51.508629],[-0.079957,51.508628],[-0.079958,51.508627],[-0.079959,51.508626],[-0.07996,51.508625],[-0.080199,51.508334],[-0.080199,51.508333],[-0.0802,51.508333],[-0.080361,51.508104],[-0.080367,51.508105],[-0.081256,51.508341],[-0.081299,51.508359],[-0.081282,51.508403],[-0.081282,51.508404],[-0.081281,51.508405],[-0.081281,51.508406],[-0.081281,51.508407],[-0.081281,51.508408],[-0.081281,51.50841],[-0.081282,51.508411],[-0.081282,51.508412],[-0.081283,51.508413],[-0.081283,51.508414],[-0.081284,51.508415],[-0.081285,51.508416],[-0.081286,51.508417],[-0.081287,51.508418],[-0.081288,51.508419],[-0.081289,51.50842],[-0.081291,51.508421],[-0.081292,51.508422],[-0.081294,51.508422],[-0.081295,51.508423],[-0.081297,51.508423],[-0.081299,51.508424],[-0.081301,51.508424],[-0.081302,51.508425],[-0.081304,51.508425],[-0.081305,51.508425],[-0.08215,51.50852],[-0.082802,51.508615],[-0.082803,51.508615],[-0.083626,51.508723],[-0.083591,51.508846],[-0.083591,51.508846],[-0.083591,51.508847],[-0.083591,51.508849],[-0.083591,51.50885],[-0.083591,51.508851],[-0.083591,51.508852],[-0.083602,51.508891],[-0.083545,51.509103],[-0.083545,51.509104],[-0.083545,51.509105],[-0.083545,51.509106],[-0.083545,51.509107],[-0.083545,51.509108],[-0.083545,51.50911],[-0.083546,51.509111],[-0.083546,51.509112],[-0.083547,51.509113],[-0.083548,51.509114],[-0.083549,51.509115],[-0.08355,51.509116],[-0.083551,51.509117],[-0.083552,51.509118],[-0.083553,51.509119],[-0.083555,51.50912],[-0.083556,51.50912],[-0.083558,51.509121],[-0.083559,51.509122],[-0.083561,51.509122],[-0.083563,51.509123],[-0.083564,51.509123],[-0.083566,51.509123],[-0.083568,51.509124],[-0.08357,51.509124],[-0.083572,51.509124],[-0.083574,51.509124],[-0.083576,51.509124],[-0.083577,51.509124],[-0.083579,51.509124],[-0.083581,51.509123],[-0.083583,51.509123],[-0.083585,51.509123],[-0.083586,51.509122],[-0.083588,51.509122],[-0.08359,51.509121],[-0.083591,51.50912],[-0.083593,51.50912],[-0.083594,51.509119],[-0.083595,51.509118],[-0.083597,51.509117],[-0.083598,51.509116],[-0.083599,51.509115],[-0.083599,51.509114],[-0.0836,51.509113],[-0.083601,51.509112],[-0.083601,51.509111],[-0.083602,51.50911],[-0.083602,51.509109],[-0.08366,51.508894],[-0.08366,51.508894],[-0.08366,51.508892],[-0.083661,51.508891],[-0.08366,51.50889],[-0.08366,51.508889],[-0.08366,51.508888],[-0.083649,51.508849],[-0.083687,51.508713],[-0.083687,51.508712],[-0.083687,51.508711],[-0.083687,51.50871],[-0.083687,51.508709],[-0.083687,51.508708],[-0.083687,51.508706],[-0.083686,51.508706],[-0.083747,51.508468],[-0.084632,51.508566],[-0.084633,51.508566],[-0.085409,51.508634],[-0.085419,51.508635],[-0.08531,51.508998],[-0.08531,51.508998],[-0.085258,51.509193],[-0.085226,51.509305],[-0.085226,51.509306],[-0.085226,51.509307],[-0.085226,51.509308],[-0.085226,51.509309],[-0.085226,51.50931],[-0.085226,51.509312],[-0.085227,51.509313],[-0.085227,51.509314],[-0.085228,51.509315],[-0.085229,51.509316],[-0.08523,51.509317],[-0.085231,51.509318],[-0.085232,51.509319],[-0.085233,51.50932],[-0.085234,51.509321],[-0.085236,51.509322],[-0.085237,51.509322],[-0.085238,51.509323],[-0.08524,51.509324],[-0.085242,51.509324],[-0.085243,51.509325],[-0.085245,51.509325],[-0.085247,51.509325],[-0.085249,51.509326],[-0.085251,51.509326],[-0.085253,51.509326],[-0.085254,51.509326],[-0.085256,51.509326],[-0.085258,51.509326],[-0.08526,51.509326],[-0.085262,51.509325],[-0.085264,51.509325],[-0.085266,51.509325],[-0.085267,51.509324],[-0.085269,51.509324],[-0.085271,51.509323],[-0.085272,51.509322],[-0.085273,51.509322],[-0.085275,51.509321],[-0.085276,51.50932],[-0.085277,51.509319],[-0.085278,51.509318],[-0.085279,51.509317],[-0.08528,51.509316],[-0.085281,51.509315],[-0.085282,51.509314],[-0.085282,51.509313],[-0.085283,51.509312],[-0.085283,51.509311],[-0.085315,51.509199],[-0.085315,51.509198],[-0.085366,51.509004],[-0.085475,51.508643],[-0.085779,51.508683],[-0.085786,51.508684],[-0.085598,51.509305],[-0.085598,51.509306],[-0.085598,51.509307],[-0.085597,51.509308],[-0.085598,51.50931],[-0.085598,51.509311],[-0.085598,51.509312],[-0.085598,51.509313],[-0.085599,51.509314],[-0.085631,51.509375],[-0.085568,51.509581],[-0.085568,51.509582],[-0.085568,51.509583],[-0.085567,51.509584],[-0.085568,51.509585],[-0.085568,51.509586],[-0.085568,51.509587],[-0.085568,51.509589],[-0.085569,51.50959],[-0.08557,51.509591],[-0.08557,51.509592],[-0.085571,51.509593],[-0.085572,51.509594],[-0.085573,51.509595],[-0.085575,51.509596],[-0.085576,51.509597],[-0.085577,51.509597],[-0.085579,51.509598],[-0.08558,51.509599],[-0.085582,51.509599],[-0.085584,51.5096],[-0.085585,51.5096],[-0.085587,51.509601],[-0.085589,51.509601],[-0.085591,51.509602],[-0.085593,51.509602],[-0.085594,51.509602],[-0.085596,51.509602],[-0.085598,51.509602],[-0.0856,51.509602],[-0.085602,51.509602],[-0.085604,51.509601],[-0.085606,51.509601],[-0.085607,51.5096],[-0.085609,51.5096],[-0.085611,51.509599],[-0.085612,51.509599],[-0.085614,51.509598],[-0.085615,51.509597],[-0.085617,51.509597],[-0.085618,51.509596],[-0.085619,51.509595],[-0.08562,51.509594],[-0.085621,51.509593],[-0.085622,51.509592],[-0.085623,51.509591],[-0.085624,51.50959],[-0.085624,51.509589],[-0.085625,51.509587],[-0.085625,51.509587],[-0.085689,51.509377],[-0.085689,51.509376],[-0.085689,51.509375],[-0.085689,51.509374],[-0.085689,51.509373],[-0.085689,51.509372],[-0.085689,51.509371],[-0.085688,51.509369],[-0.085688,51.509369],[-0.085656,51.509307],[-0.085842,51.508692],[-0.085916,51.508703],[-0.085917,51.508703],[-0.085917,51.508703],[-0.08632,51.508746],[-0.086221,51.509043],[-0.086209,51.509043],[-0.086209,51.509043],[-0.086207,51.509043],[-0.086205,51.509043],[-0.086203,51.509043],[-0.086201,51.509043],[-0.086199,51.509044],[-0.086198,51.509044],[-0.086196,51.509044],[-0.086194,51.509045],[-0.086193,51.509046],[-0.086191,51.509046],[-0.08619,51.509047],[-0.086188,51.509048],[-0.086187,51.509049],[-0.086186,51.50905],[-0.086185,51.509051],[-0.086184,51.509052],[-0.086183,51.509053],[-0.086182,51.509054],[-0.086181,51.509055],[-0.086181,51.509055],[-0.086133,51.509151],[-0.086027,51.509137],[-0.086027,51.509137],[-0.086025,51.509137],[-0.086023,51.509137],[-0.086021,51.509137],[-0.086019,51.509137],[-0.086018,51.509137],[-0.086016,51.509137],[-0.086014,51.509137],[-0.086012,51.509138],[-0.08601,51.509138],[-0.086009,51.509138],[-0.086007,51.509139],[-0.086005,51.50914],[-0.086004,51.50914],[-0.086002,51.509141],[-0.086001,51.509142],[-0.086,51.509143],[-0.085998,51.509144],[-0.085997,51.509145],[-0.085996,51.509146],[-0.085995,51.509147],[-0.085995,51.509148],[-0.085994,51.509149],[-0.085994,51.50915],[-0.085993,51.509151],[-0.085907,51.509393],[-0.085907,51.509393],[-0.085907,51.509395],[-0.085907,51.509396],[-0.085907,51.509397],[-0.085907,51.509398],[-0.085907,51.509399],[-0.085907,51.5094],[-0.085908,51.509402],[-0.085908,51.509403],[-0.085909,51.509404],[-0.08591,51.509405],[-0.08591,51.509406],[-0.085911,51.509407],[-0.085913,51.509408],[-0.085914,51.509409],[-0.085915,51.50941],[-0.085916,51.509411],[-0.085918,51.509411],[-0.085919,51.509412],[-0.085921,51.509413],[-0.085923,51.509413],[-0.085924,51.509414],[-0.085926,51.509414],[-0.085928,51.509414],[-0.08593,51.509415],[-0.085932,51.509415],[-0.085933,51.509415],[-0.085935,51.509415],[-0.085937,51.509415],[-0.085939,51.509415],[-0.085941,51.509415],[-0.085943,51.509414],[-0.085945,51.509414],[-0.085946,51.509414],[-0.085948,51.509413],[-0.08595,51.509413],[-0.085951,51.509412],[-0.085953,51.509411],[-0.085954,51.509411],[-0.085956,51.50941],[-0.085957,51.509409],[-0.085958,51.509408],[-0.085959,51.509407],[-0.08596,51.509406],[-0.085961,51.509405],[-0.085962,51.509404],[-0.085963,51.509403],[-0.085963,51.509402],[-0.085964,51.509401],[-0.086043,51.509176],[-0.086146,51.509189],[-0.086147,51.509189],[-0.086148,51.509189],[-0.08615,51.50919],[-0.086152,51.50919],[-0.086154,51.50919],[-0.086156,51.509189],[-0.086158,51.509189],[-0.08616,51.509189],[-0.086161,51.509189],[-0.086163,51.509188],[-0.086165,51.509188],[-0.086167,51.509187],[-0.086168,51.509187],[-0.08617,51.509186],[-0.086171,51.509185],[-0.086173,51.509184],[-0.086174,51.509183],[-0.086175,51.509183],[-0.086176,51.509182],[-0.086177,51.509181],[-0.086178,51.50918],[-0.086179,51.509179],[-0.08618,51.509177],[-0.08618,51.509177],[-0.08623,51.509079],[-0.086244,51.509079],[-0.086245,51.509079],[-0.086247,51.509079],[-0.086248,51.509079],[-0.08625,51.509079],[-0.086252,51.509079],[-0.086254,51.509078],[-0.086256,51.509078],[-0.086257,51.509077],[-0.086259,51.509077],[-0.086261,51.509076],[-0.086262,51.509075],[-0.086264,51.509075],[-0.086265,51.509074],[-0.086266,51.509073],[-0.086267,51.509072],[-0.086269,51.509071],[-0.08627,51.50907],[-0.08627,51.509069],[-0.086271,51.509068],[-0.086272,51.509067],[-0.086272,51.509066],[-0.086273,51.509065],[-0.086377,51.508752],[-0.086584,51.508774],[-0.086963,51.508818],[-0.086983,51.508836],[-0.086954,51.508918],[-0.086954,51.508919],[-0.086954,51.50892],[-0.086954,51.508921],[-0.086954,51.508922],[-0.086954,51.508923],[-0.086954,51.508924],[-0.086954,51.508926],[-0.086955,51.508927],[-0.086955,51.508928],[-0.086956,51.508929],[-0.086957,51.50893],[-0.086957,51.508931],[-0.086958,51.508932],[-0.08696,51.508933],[-0.086961,51.508934],[-0.086962,51.508935],[-0.086963,51.508936],[-0.086965,51.508936],[-0.086966,51.508937],[-0.086968,51.508938],[-0.08697,51.508938],[-0.086971,51.508939],[-0.086973,51.508939],[-0.087032,51.508952],[-0.087126,51.508984],[-0.087127,51.508984],[-0.087128,51.508984],[-0.08713,51.508985],[-0.087132,51.508985],[-0.087132,51.508985],[-0.087606,51.509057],[-0.087606,51.509058],[-0.088039,51.509117],[-0.088039,51.509117],[-0.088041,51.509117],[-0.088043,51.509117],[-0.088045,51.509117],[-0.088047,51.509117],[-0.088049,51.509117],[-0.08805,51.509117],[-0.088052,51.509117],[-0.088054,51.509116],[-0.088056,51.509116],[-0.088058,51.509115],[-0.088059,51.509115],[-0.088061,51.509114],[-0.088062,51.509113],[-0.088064,51.509113],[-0.088065,51.509112],[-0.088066,51.509112],[-0.088186,51.509032],[-0.088564,51.509075],[-0.088565,51.509075],[-0.088567,51.509075],[-0.088569,51.509075],[-0.088571,51.509075],[-0.088573,51.509075],[-0.088575,51.509075],[-0.088577,51.509075],[-0.088578,51.509075],[-0.08858,51.509074],[-0.088582,51.509074],[-0.088748,51.509023],[-0.089091,51.509053],[-0.089091,51.509053],[-0.089093,51.509053],[-0.089095,51.509053],[-0.089478,51.509057],[-0.089478,51.509057],[-0.08948,51.509057],[-0.089481,51.509057],[-0.089656,51.509047],[-0.089921,51.509073],[-0.090786,51.509228],[-0.090738,51.509332],[-0.090738,51.509333],[-0.090737,51.509334],[-0.090737,51.509335],[-0.090737,51.509336],[-0.090737,51.509337],[-0.090737,51.509339],[-0.090737,51.50934],[-0.090737,51.509341],[-0.090738,51.509342],[-0.090738,51.509343],[-0.090739,51.509344],[-0.09074,51.509345],[-0.09074,51.509346],[-0.090741,51.509347],[-0.090743,51.509348],[-0.090744,51.509349],[-0.090745,51.50935],[-0.090746,51.509351],[-0.090748,51.509352],[-0.090749,51.509352],[-0.090751,51.509353],[-0.090753,51.509353],[-0.090754,51.509354],[-0.090756,51.509354],[-0.090757,51.509355],[-0.091644,51.509523],[-0.091645,51.509523],[-0.091647,51.509524],[-0.091648,51.509524],[-0.09165,51.509524],[-0.091652,51.509524],[-0.091654,51.509524],[-0.091656,51.509524],[-0.091658,51.509524],[-0.09166,51.509523],[-0.091661,51.509523],[-0.091663,51.509523],[-0.091665,51.509522],[-0.091667,51.509521],[-0.091668,51.509521],[-0.091669,51.50952],[-0.091768,51.509475],[-0.091814,51.509483],[-0.091815,51.509483],[-0.091817,51.509484],[-0.091819,51.509484],[-0.091821,51.509484],[-0.091823,51.509484],[-0.091824,51.509484],[-0.091826,51.509484],[-0.091828,51.509484],[-0.09183,51.509483],[-0.091832,51.509483],[-0.091834,51.509483],[-0.091835,51.509482],[-0.091837,51.509482],[-0.091839,51.509481],[-0.09184,51.50948],[-0.091842,51.50948],[-0.091843,51.509479],[-0.091844,51.509478],[-0.091845,51.509477],[-0.091847,51.509476],[-0.091848,51.509475],[-0.091848,51.509474],[-0.091849,51.509473],[-0.09185,51.509472],[-0.09185,51.509471],[-0.091851,51.50947],[-0.091868,51.509425],[-0.092069,51.509469],[-0.092089,51.509489],[-0.092089,51.50949],[-0.09209,51.509491],[-0.092092,51.509491],[-0.092093,51.509492],[-0.092094,51.509493],[-0.092096,51.509494],[-0.092097,51.509495],[-0.092099,51.509495],[-0.092101,51.509496],[-0.092102,51.509496],[-0.092102,51.509496],[-0.092198,51.50952],[-0.092199,51.509521],[-0.092201,51.509521],[-0.092203,51.509521],[-0.092205,51.509522],[-0.092207,51.509522],[-0.092209,51.509522],[-0.092211,51.509522],[-0.092212,51.509522],[-0.092214,51.509521],[-0.092215,51.509521],[-0.092247,51.509517],[-0.092547,51.50959],[-0.092616,51.509615],[-0.092616,51.509615],[-0.092618,51.509616],[-0.092619,51.509616],[-0.092621,51.509616],[-0.092939,51.509687],[-0.092944,51.509697],[-0.092945,51.509697],[-0.092946,51.509698],[-0.092947,51.509699],[-0.092948,51.5097],[-0.092949,51.509701],[-0.09295,51.509702],[-0.092951,51.509703],[-0.092952,51.509704],[-0.092954,51.509705],[-0.092955,51.509705],[-0.092957,51.509706],[-0.092959,51.509706],[-0.09296,51.509707],[-0.092961,51.509707],[-0.093357,51.509808],[-0.093298,51.50991],[-0.093298,51.50991],[-0.093297,51.509911],[-0.093297,51.509912],[-0.093297,51.509913],[-0.093296,51.509915],[-0.093296,51.509916],[-0.093296,51.509917],[-0.093297,51.509918],[-0.093297,51.509919],[-0.093297,51.50992],[-0.093298,51.509922],[-0.093299,51.509923],[-0.093299,51.509924],[-0.0933,51.509925],[-0.093301,51.509926],[-0.093302,51.509927],[-0.093304,51.509928],[-0.093305,51.509928],[-0.093306,51.509929],[-0.093308,51.50993],[-0.093309,51.509931],[-0.093311,51.509931],[-0.093312,51.509932],[-0.093314,51.509932],[-0.093316,51.509933],[-0.093317,51.509933],[-0.093602,51.509989],[-0.093604,51.50999],[-0.093606,51.50999],[-0.093607,51.50999],[-0.093609,51.50999],[-0.093611,51.50999],[-0.093613,51.50999],[-0.093615,51.50999],[-0.093617,51.50999],[-0.093619,51.50999],[-0.09362,51.509989],[-0.093622,51.509989],[-0.093624,51.509988],[-0.093626,51.509988],[-0.093627,51.509987],[-0.093629,51.509987],[-0.09363,51.509986],[-0.093632,51.509985],[-0.093633,51.509984],[-0.093634,51.509983],[-0.093635,51.509982],[-0.093636,51.509981],[-0.093637,51.50998],[-0.093638,51.509979],[-0.093638,51.509978],[-0.093639,51.509978],[-0.093684,51.509892],[-0.093695,51.509894],[-0.093696,51.509894],[-0.093698,51.509895],[-0.0937,51.509895],[-0.093702,51.509895],[-0.093704,51.509895],[-0.093706,51.509895],[-0.093708,51.509895],[-0.09371,51.509895],[-0.093711,51.509894],[-0.093713,51.509894],[-0.093715,51.509894],[-0.093717,51.509893],[-0.093718,51.509893],[-0.093946,51.509815],[-0.094476,51.509917],[-0.094565,51.510019],[-0.094051,51.510885],[-0.094051,51.510886],[-0.09405,51.510887],[-0.09405,51.510888],[-0.09405,51.510889],[-0.094049,51.510891],[-0.094049,51.510892],[-0.094049,51.510893],[-0.09405,51.510894],[-0.09405,51.510895],[-0.09405,51.510896],[-0.094051,51.510897],[-0.094052,51.510899],[-0.094052,51.5109],[-0.094053,51.510901],[-0.094054,51.510902],[-0.094055,51.510903],[-0.094057,51.510904],[-0.094058,51.510904],[-0.094059,51.510905],[-0.094061,51.510906],[-0.094062,51.510907],[-0.094064,51.510907],[-0.094065,51.510908],[-0.094067,51.510908],[-0.094069,51.510909],[-0.094071,51.510909],[-0.094073,51.510909],[-0.094074,51.51091],[-0.094076,51.51091],[-0.094078,51.51091],[-0.09408,51.51091],[-0.094082,51.51091],[-0.094084,51.510909],[-0.094086,51.510909],[-0.094087,51.510909],[-0.094089,51.510908],[-0.094091,51.510908],[-0.094093,51.510907],[-0.094094,51.510907],[-0.094096,51.510906],[-0.094097,51.510905],[-0.094099,51.510904],[-0.0941,51.510904],[-0.094101,51.510903],[-0.094102,51.510902],[-0.094103,51.510901],[-0.094104,51.5109],[-0.094105,51.510899],[-0.094105,51.510898],[-0.094608,51.51005],[-0.09463,51.510057],[-0.094631,51.510057],[-0.094632,51.510058],[-0.095203,51.510192],[-0.09513,51.51031],[-0.09513,51.51031],[-0.09513,51.510311],[-0.094925,51.510776],[-0.094925,51.510776],[-0.094924,51.510778],[-0.094924,51.510779],[-0.094924,51.51078],[-0.094924,51.510781],[-0.094924,51.510782],[-0.094924,51.510783],[-0.094924,51.510785],[-0.094925,51.510786],[-0.094925,51.510787],[-0.094926,51.510788],[-0.094927,51.510789],[-0.094928,51.51079],[-0.094929,51.510791],[-0.09493,51.510792],[-0.094931,51.510793],[-0.094932,51.510794],[-0.094934,51.510795],[-0.094935,51.510795],[-0.094937,51.510796],[-0.094938,51.510797],[-0.09494,51.510797],[-0.094942,51.510798],[-0.094943,51.510798],[-0.094945,51.510798],[-0.094946,51.510799],[-0.095831,51.510929],[-0.095832,51.510929],[-0.095834,51.510929],[-0.095836,51.510929],[-0.095838,51.510929],[-0.09584,51.510929],[-0.095842,51.510929],[-0.095844,51.510929],[-0.095845,51.510928],[-0.095847,51.510928],[-0.095849,51.510928],[-0.095851,51.510927],[-0.095852,51.510927],[-0.095854,51.510926],[-0.095856,51.510925],[-0.095857,51.510925],[-0.095858,51.510924],[-0.09586,51.510923],[-0.095861,51.510922],[-0.095862,51.510921],[-0.095863,51.51092],[-0.095864,51.510919],[-0.095865,51.510918],[-0.095865,51.510917],[-0.095866,51.510916],[-0.095866,51.510915],[-0.09605,51.510406],[-0.096076,51.510371],[-0.096169,51.510299],[-0.096187,51.510301],[-0.096805,51.51045],[-0.096799,51.510482],[-0.096798,51.510484],[-0.096798,51.510485],[-0.096798,51.510486],[-0.096799,51.510487],[-0.096799,51.510488],[-0.096799,51.510489],[-0.0968,51.510491],[-0.096801,51.510492],[-0.096801,51.510493],[-0.096802,51.510494],[-0.096803,51.510495],[-0.096804,51.510496],[-0.096806,51.510497],[-0.096807,51.510497],[-0.096808,51.510498],[-0.09681,51.510499],[-0.096811,51.5105],[-0.096813,51.5105],[-0.096814,51.510501],[-0.096816,51.510501],[-0.096818,51.510502],[-0.09682,51.510502],[-0.096821,51.510502],[-0.096994,51.510525],[-0.096989,51.510545],[-0.096989,51.510546],[-0.096989,51.510547],[-0.096989,51.510548],[-0.096989,51.510549],[-0.096989,51.51055],[-0.09699,51.510552],[-0.09699,51.510553],[-0.096991,51.510554],[-0.096991,51.510555],[-0.096992,51.510556],[-0.096993,51.510557],[-0.096994,51.510558],[-0.096995,51.510559],[-0.096996,51.51056],[-0.096998,51.510561],[-0.096999,51.510562],[-0.097,51.510562],[-0.097002,51.510563],[-0.097004,51.510564],[-0.097005,51.510564],[-0.097007,51.510565],[-0.097009,51.510565],[-0.097149,51.510595],[-0.097149,51.510595],[-0.097151,51.510596],[-0.097152,51.510596],[-0.097551,51.510653],[-0.097765,51.510685],[-0.098068,51.510731],[-0.098069,51.510731],[-0.09807,51.510732],[-0.098433,51.510765],[-0.098721,51.510802],[-0.098721,51.510802],[-0.098723,51.510802],[-0.098723,51.510803],[-0.099176,51.510833],[-0.099176,51.510833],[-0.099659,51.510859],[-0.099659,51.510859],[-0.099661,51.51086],[-0.100033,51.510861],[-0.10056,51.510869],[-0.100561,51.510869],[-0.101274,51.510872],[-0.102062,51.510884],[-0.102062,51.510884],[-0.103112,51.5109],[-0.103494,51.510911],[-0.103494,51.510911],[-0.103956,51.510919],[-0.103957,51.510919],[-0.103958,51.510919],[-0.10396,51.510919],[-0.103962,51.510919],[-0.103964,51.510918],[-0.103965,51.510918],[-0.104113,51.510888],[-0.104481,51.510889],[-0.105509,51.510911],[-0.105508,51.51092],[-0.105508,51.510921],[-0.105508,51.510922],[-0.105508,51.510923],[-0.105509,51.510924],[-0.105509,51.510926],[-0.10551,51.510927],[-0.10551,51.510928],[-0.105511,51.510929],[-0.105512,51.51093],[-0.105513,51.510931],[-0.105514,51.510932],[-0.105515,51.510933],[-0.105517,51.510934],[-0.105518,51.510934],[-0.105519,51.510935],[-0.105521,51.510936],[-0.105523,51.510936],[-0.105524,51.510937],[-0.105526,51.510937],[-0.105528,51.510938],[-0.105529,51.510938],[-0.105531,51.510939],[-0.105533,51.510939],[-0.105534,51.510939],[-0.105676,51.510947],[-0.105677,51.510947],[-0.105679,51.510947],[-0.105679,51.510947],[-0.106292,51.510945],[-0.106292,51.510945],[-0.106753,51.510942],[-0.107249,51.510955],[-0.10803,51.510979],[-0.108031,51.510979],[-0.108866,51.510987],[-0.108866,51.510987],[-0.108866,51.510987],[-0.111571,51.51098],[-0.111572,51.51098],[-0.111574,51.51098],[-0.111576,51.51098],[-0.111578,51.51098],[-0.11158,51.510979],[-0.111582,51.510979],[-0.111583,51.510978],[-0.111585,51.510978],[-0.111587,51.510977],[-0.111588,51.510977],[-0.11159,51.510976],[-0.111591,51.510975],[-0.111592,51.510974],[-0.111593,51.510973],[-0.111595,51.510972],[-0.111596,51.510971],[-0.111596,51.51097],[-0.111597,51.510969],[-0.111598,51.510968],[-0.111598,51.510967],[-0.111599,51.510966],[-0.111599,51.510965],[-0.111599,51.510964],[-0.111599,51.510962],[-0.111599,51.510961],[-0.111599,51.51096],[-0.111599,51.510959],[-0.111598,51.510958],[-0.111598,51.510957],[-0.111597,51.510955],[-0.111596,51.510954],[-0.111596,51.510953],[-0.111595,51.510952],[-0.111593,51.510951],[-0.111592,51.510951],[-0.111591,51.51095],[-0.11159,51.510949],[-0.111588,51.510948],[-0.111587,51.510947],[-0.111585,51.510947],[-0.111583,51.510946],[-0.111582,51.510946],[-0.11158,51.510945],[-0.111578,51.510945],[-0.111576,51.510945],[-0.111574,51.510945],[-0.111572,51.510944],[-0.111571,51.510944],[-0.11157,51.510944],[-0.108866,51.510951],[-0.108032,51.510943],[-0.107252,51.51092],[-0.107252,51.51092],[-0.106755,51.510906],[-0.106754,51.510906],[-0.106753,51.510906],[-0.106291,51.51091],[-0.10568,51.510911]]]},"properties":{"OBJECTID":1,"NAME":"Riverside Walk","whole_in_zone":false,"in_cw":false}}
]}
