{"type":"FeatureCollection","meta":{
 "source": "ONS Open Geography Portal: Wards (May 2026) Boundaries UK BGC",
 "item": "10c346276bf64c588916179d01c6e68f",
 "page": "https://geoportal.statistics.gov.uk/datasets/10c346276bf64c588916179d01c6e68f",
 "api": "https://services1.arcgis.com/ESMARspQHYMw9BZ9/arcgis/rest/services/WD_MAY_2026_UK_BGC/FeatureServer/0/query",
 "item_modified": "2026-08-06",
 "fetched": "2026-10-04",
 "licence": "Open Government Licence v3.0 (ONS geography licences: https://www.ons.gov.uk/methodology/geography/licences)",
 "licence_url": "https://www.ons.gov.uk/methodology/geography/licences",
 "attribution": "Source: Office for National Statistics licensed under the Open Government Licence v3.0. Contains OS data © Crown copyright and database right 2026",
 "why": "the latest ward boundaries (the 2022 Tower Hamlets wards; the London Datastore file stops at 2018)",
 "zone": "the 3D model box, BNG E 532400-539900, N 176700-182300 (WGS84 -0.095, 51.474 to 0.015, 51.522)",
 "method": "walk-portals.mjs onsgeo harvest wards-latest: features that meet the zone box (ArcGIS envelope query), whole geometries, WGS84 rounded to 6 decimals; whole_in_zone, in_cw",
 "counts": {
  "features": 69,
  "in_cw": 4
 }
},
"features":[
{"type":"Feature","geometry":{"type":"Polygon","coordinates":[[[-0.095363,51.517493],[-0.096024,51.51607],[-0.096954,51.516337],[-0.096904,51.516795],[-0.098524,51.516631],[-0.098497,51.517278],[-0.097014,51.518022],[-0.097573,51.521175],[-0.097385,51.521592],[-0.095471,51.521715],[-0.09524,51.520532],[-0.094259,51.520712],[-0.094446,51.519815],[-0.095096,51.519223],[-0.094944,51.518095],[-0.095363,51.517493]]]},"properties":{"WD26CD":"E05009288","WD26NM":"Aldersgate","WD26NMW":" ","LAD26CD":"E09000001","LAD26NM":"City of London","BNG_E":532171,"BNG_N":181720,"LONG":-0.096422,"LAT":51.51895,"whole_in_zone":false,"in_cw":false}},
{"type":"Feature","geometry":{"type":"Polygon","coordinates":[[[-0.077886,51.515816],[-0.075751,51.514648],[-0.078123,51.513619],[-0.07758,51.513379],[-0.07674,51.513847],[-0.076103,51.513752],[-0.078277,51.512801],[-0.077118,51.511863],[-0.077511,51.51152],[-0.079181,51.51183],[-0.079535,51.512306],[-0.080212,51.512106],[-0.080334,51.512579],[-0.082191,51.512651],[-0.080753,51.514835],[-0.079961,51.515405],[-0.079422,51.51577],[-0.079072,51.515567],[-0.078466,51.516052],[-0.077886,51.515816]]]},"properties":{"WD26CD":"E05009289","WD26NM":"Aldgate","WD26NMW":" ","LAD26CD":"E09000001","LAD26NM":"City of London","BNG_E":533397,"BNG_N":181175,"LONG":-0.078969,"LAT":51.51376,"whole_in_zone":true,"in_cw":false}},
{"type":"Feature","geometry":{"type":"Polygon","coordinates":[[[-0.091195,51.518075],[-0.089534,51.517474],[-0.089947,51.51576],[-0.091001,51.515819],[-0.091047,51.515414],[-0.091872,51.515428],[-0.091753,51.515899],[-0.09229,51.515911],[-0.092782,51.515206],[-0.096024,51.51607],[-0.095363,51.517493],[-0.094161,51.517693],[-0.093067,51.518526],[-0.091195,51.518075]]]},"properties":{"WD26CD":"E05009290","WD26NM":"Bassishaw","WD26NMW":" ","LAD26CD":"E09000001","LAD26NM":"City of London","BNG_E":532438,"BNG_N":181495,"LONG":-0.092661,"LAT":51.51686,"whole_in_zone":false,"in_cw":false}},
{"type":"Feature","geometry":{"type":"Polygon","coordinates":[[[-0.080316,51.508075],[-0.085464,51.508606],[-0.085211,51.509433],[-0.08444,51.509337],[-0.083981,51.510647],[-0.083227,51.510594],[-0.083037,51.511565],[-0.081556,51.511708],[-0.081507,51.511334],[-0.080098,51.511411],[-0.080637,51.509727],[-0.081791,51.510124],[-0.082276,51.509549],[-0.079991,51.50854],[-0.080316,51.508075]]]},"properties":{"WD26CD":"E05009291","WD26NM":"Billingsgate","WD26NMW":" ","LAD26CD":"E09000001","LAD26NM":"City of London","BNG_E":533151,"BNG_N":180754,"LONG":-0.082671,"LAT":51.51004,"whole_in_zone":true,"in_cw":false}},
{"type":"Feature","geometry":{"type":"Polygon","coordinates":[[[-0.078529,51.521512],[-0.079413,51.518885],[-0.078099,51.518979],[-0.078173,51.518471],[-0.076872,51.516625],[-0.077886,51.515816],[-0.078466,51.516052],[-0.079072,51.515567],[-0.079422,51.51577],[-0.079961,51.515405],[-0.081034,51.5159],[-0.081186,51.515018],[-0.08247,51.515365],[-0.081637,51.516144],[-0.083538,51.516387],[-0.083103,51.517568],[-0.08444,51.517782],[-0.084233,51.518203],[-0.0862,51.518812],[-0.085233,51.520348],[-0.083123,51.519852],[-0.081773,51.520745],[-0.081041,51.521973],[-0.078529,51.521512]]]},"properties":{"WD26CD":"E05009292","WD26NM":"Bishopsgate","WD26NMW":" ","LAD26CD":"E09000001","LAD26NM":"City of London","BNG_E":533207,"BNG_N":181664,"LONG":-0.081521,"LAT":51.5182,"whole_in_zone":true,"in_cw":false}},
{"type":"Feature","geometry":{"type":"Polygon","coordinates":[[[-0.098676,51.515363],[-0.0963,51.514484],[-0.094462,51.514178],[-0.09514,51.512657],[-0.096516,51.512905],[-0.096676,51.511901],[-0.097196,51.511897],[-0.098455,51.511952],[-0.098414,51.512942],[-0.099099,51.512971],[-0.099084,51.513293],[-0.097044,51.513451],[-0.097226,51.514467],[-0.099825,51.513977],[-0.100169,51.513329],[-0.100816,51.513433],[-0.101061,51.513098],[-0.100524,51.515837],[-0.098676,51.515363]]]},"properties":{"WD26CD":"E05009293","WD26NM":"Bread Street","WD26NMW":" ","LAD26CD":"E09000001","LAD26NM":"City of London","BNG_E":532224,"BNG_N":181151,"LONG":-0.095872,"LAT":51.51382,"whole_in_zone":false,"in_cw":false}},
{"type":"Feature","geometry":{"type":"Polygon","coordinates":[[[-0.083037,51.511565],[-0.083227,51.510594],[-0.083981,51.510647],[-0.08444,51.509337],[-0.085211,51.509433],[-0.085464,51.508606],[-0.087089,51.508986],[-0.088516,51.508973],[-0.087952,51.510228],[-0.085994,51.510302],[-0.085134,51.511921],[-0.083037,51.511565]]]},"properties":{"WD26CD":"E05009294","WD26NM":"Bridge","WD26NMW":" ","LAD26CD":"E09000001","LAD26NM":"City of London","BNG_E":532930,"BNG_N":180703,"LONG":-0.085873,"LAT":51.50963,"whole_in_zone":true,"in_cw":false}},
{"type":"Feature","geometry":{"type":"Polygon","coordinates":[[[-0.083538,51.516387],[-0.084524,51.515255],[-0.085471,51.514841],[-0.089044,51.514715],[-0.089328,51.515686],[-0.087847,51.515705],[-0.087621,51.517119],[-0.085612,51.516847],[-0.08444,51.517782],[-0.083103,51.517568],[-0.083538,51.516387]]]},"properties":{"WD26CD":"E05009295","WD26NM":"Broad Street","WD26NMW":" ","LAD26CD":"E09000001","LAD26NM":"City of London","BNG_E":532919,"BNG_N":181435,"LONG":-0.085755,"LAT":51.51621,"whole_in_zone":true,"in_cw":false}},
{"type":"Feature","geometry":{"type":"Polygon","coordinates":[[[-0.085134,51.511921],[-0.085994,51.510302],[-0.087952,51.510228],[-0.088435,51.510459],[-0.087993,51.511178],[-0.089384,51.511442],[-0.08837,51.51279],[-0.085134,51.511921]]]},"properties":{"WD26CD":"E05009296","WD26NM":"Candlewick","WD26NMW":" ","LAD26CD":"E09000001","LAD26NM":"City of London","BNG_E":532818,"BNG_N":180909,"LONG":-0.087408,"LAT":51.51151,"whole_in_zone":true,"in_cw":false}},
{"type":"Feature","geometry":{"type":"Polygon","coordinates":[[[-0.096024,51.51607],[-0.092782,51.515206],[-0.09229,51.515911],[-0.091753,51.515899],[-0.091872,51.515428],[-0.091047,51.515414],[-0.091085,51.514987],[-0.091783,51.514446],[-0.090844,51.514335],[-0.091157,51.513648],[-0.094462,51.514178],[-0.0963,51.514484],[-0.098676,51.515363],[-0.098524,51.516631],[-0.096904,51.516795],[-0.096954,51.516337],[-0.096024,51.51607]]]},"properties":{"WD26CD":"E05009298","WD26NM":"Cheap","WD26NMW":" ","LAD26CD":"E09000001","LAD26NM":"City of London","BNG_E":532238,"BNG_N":181311,"LONG":-0.095611,"LAT":51.51525,"whole_in_zone":false,"in_cw":false}},
{"type":"Feature","geometry":{"type":"Polygon","coordinates":[[[-0.0862,51.518812],[-0.084233,51.518203],[-0.08444,51.517782],[-0.085612,51.516847],[-0.087621,51.517119],[-0.087847,51.515705],[-0.089328,51.515686],[-0.089044,51.514715],[-0.091085,51.514987],[-0.091047,51.515414],[-0.091001,51.515819],[-0.089947,51.51576],[-0.089534,51.517474],[-0.091195,51.518075],[-0.089964,51.51992],[-0.090829,51.520174],[-0.091056,51.519731],[-0.092465,51.520069],[-0.09236,51.521036],[-0.089673,51.520719],[-0.089983,51.519973],[-0.0862,51.518812]]]},"properties":{"WD26CD":"E05009299","WD26NM":"Coleman Street","WD26NMW":" ","LAD26CD":"E09000001","LAD26NM":"City of London","BNG_E":532729,"BNG_N":181580,"LONG":-0.088437,"LAT":51.51756,"whole_in_zone":true,"in_cw":false}},
{"type":"Feature","geometry":{"type":"Polygon","coordinates":[[[-0.091157,51.513648],[-0.089721,51.513399],[-0.090632,51.513153],[-0.090091,51.512843],[-0.090719,51.511696],[-0.092006,51.512004],[-0.09514,51.512657],[-0.094462,51.514178],[-0.091157,51.513648]]]},"properties":{"WD26CD":"E05009300","WD26NM":"Cordwainer","WD26NMW":" ","LAD26CD":"E09000001","LAD26NM":"City of London","BNG_E":532452,"BNG_N":181059,"LONG":-0.092623,"LAT":51.51294,"whole_in_zone":false,"in_cw":false}},
{"type":"Feature","geometry":{"type":"Polygon","coordinates":[[[-0.08247,51.515365],[-0.083807,51.514186],[-0.084322,51.513028],[-0.085202,51.513074],[-0.085317,51.512778],[-0.086311,51.51303],[-0.086173,51.513358],[-0.086918,51.513338],[-0.08894,51.513397],[-0.086385,51.514106],[-0.085471,51.514841],[-0.084524,51.515255],[-0.083538,51.516387],[-0.081637,51.516144],[-0.08247,51.515365]]]},"properties":{"WD26CD":"E05009301","WD26NM":"Cornhill","WD26NMW":" ","LAD26CD":"E09000001","LAD26NM":"City of London","BNG_E":532956,"BNG_N":181174,"LONG":-0.085321,"LAT":51.51385,"whole_in_zone":true,"in_cw":false}},
{"type":"Feature","geometry":{"type":"Polygon","coordinates":[[[-0.09236,51.521036],[-0.092465,51.520069],[-0.091056,51.519731],[-0.090829,51.520174],[-0.089964,51.51992],[-0.091195,51.518075],[-0.093067,51.518526],[-0.094161,51.517693],[-0.095363,51.517493],[-0.094944,51.518095],[-0.095096,51.519223],[-0.094446,51.519815],[-0.094259,51.520712],[-0.09524,51.520532],[-0.095471,51.521715],[-0.097385,51.521592],[-0.097945,51.522874],[-0.096759,51.523314],[-0.096415,51.522832],[-0.09509,51.523109],[-0.094319,51.521485],[-0.092498,51.521473],[-0.09236,51.521036]]]},"properties":{"WD26CD":"E05009302","WD26NM":"Cripplegate","WD26NMW":" ","LAD26CD":"E09000001","LAD26NM":"City of London","BNG_E":532335,"BNG_N":181803,"LONG":-0.094029,"LAT":51.51965,"whole_in_zone":false,"in_cw":false}},
{"type":"Feature","geometry":{"type":"Polygon","coordinates":[[[-0.090719,51.511696],[-0.089384,51.511442],[-0.087993,51.511178],[-0.088435,51.510459],[-0.087952,51.510228],[-0.088516,51.508973],[-0.088643,51.508971],[-0.091866,51.509408],[-0.091227,51.510515],[-0.092558,51.510762],[-0.092006,51.512004],[-0.090719,51.511696]]]},"properties":{"WD26CD":"E05009303","WD26NM":"Dowgate","WD26NMW":" ","LAD26CD":"E09000001","LAD26NM":"City of London","BNG_E":532623,"BNG_N":180775,"LONG":-0.090267,"LAT":51.51035,"whole_in_zone":true,"in_cw":false}},
{"type":"Feature","geometry":{"type":"Polygon","coordinates":[[[-0.084322,51.513028],[-0.082393,51.512461],[-0.082191,51.512651],[-0.080334,51.512579],[-0.080212,51.512106],[-0.081556,51.511708],[-0.083037,51.511565],[-0.085134,51.511921],[-0.08837,51.51279],[-0.088571,51.513163],[-0.087118,51.512685],[-0.086918,51.513338],[-0.086173,51.513358],[-0.086311,51.51303],[-0.085317,51.512778],[-0.085202,51.513074],[-0.084322,51.513028]]]},"properties":{"WD26CD":"E05009306","WD26NM":"Langbourn","WD26NMW":" ","LAD26CD":"E09000001","LAD26NM":"City of London","BNG_E":533083,"BNG_N":181020,"LONG":-0.08355,"LAT":51.51244,"whole_in_zone":true,"in_cw":false}},
{"type":"Feature","geometry":{"type":"Polygon","coordinates":[[[-0.079961,51.515405],[-0.080753,51.514835],[-0.082191,51.512651],[-0.082393,51.512461],[-0.084322,51.513028],[-0.083807,51.514186],[-0.08247,51.515365],[-0.081186,51.515018],[-0.081034,51.5159],[-0.079961,51.515405]]]},"properties":{"WD26CD":"E05009307","WD26NM":"Lime Street","WD26NMW":" ","LAD26CD":"E09000001","LAD26NM":"City of London","BNG_E":533174,"BNG_N":181187,"LONG":-0.082176,"LAT":51.51392,"whole_in_zone":true,"in_cw":false}},
{"type":"Feature","geometry":{"type":"Polygon","coordinates":[[[-0.074003,51.514478],[-0.073052,51.511808],[-0.073863,51.511736],[-0.073946,51.512122],[-0.07457,51.512059],[-0.074639,51.512309],[-0.074031,51.51237],[-0.074223,51.512792],[-0.07483,51.512713],[-0.074166,51.513224],[-0.074383,51.51373],[-0.075058,51.513634],[-0.075204,51.514075],[-0.076103,51.513752],[-0.07674,51.513847],[-0.07758,51.513379],[-0.078123,51.513619],[-0.075751,51.514648],[-0.077886,51.515816],[-0.076872,51.516625],[-0.074003,51.514478]]]},"properties":{"WD26CD":"E05009308","WD26NM":"Portsoken","WD26NMW":" ","LAD26CD":"E09000001","LAD26NM":"City of London","BNG_E":533651,"BNG_N":181228,"LONG":-0.075291,"LAT":51.51418,"whole_in_zone":true,"in_cw":false}},
{"type":"Feature","geometry":{"type":"Polygon","coordinates":[[[-0.097196,51.511897],[-0.097081,51.511511],[-0.09535,51.511139],[-0.09516,51.511837],[-0.094707,51.511811],[-0.094596,51.511141],[-0.095231,51.51018],[-0.095175,51.510617],[-0.096137,51.510266],[-0.099807,51.510817],[-0.099655,51.511721],[-0.098455,51.511952],[-0.097196,51.511897]]]},"properties":{"WD26CD":"E05009309","WD26NM":"Queenhithe","WD26NMW":" ","LAD26CD":"E09000001","LAD26NM":"City of London","BNG_E":532129,"BNG_N":180843,"LONG":-0.097356,"LAT":51.51107,"whole_in_zone":false,"in_cw":false}},
{"type":"Feature","geometry":{"type":"Polygon","coordinates":[[[-0.073052,51.511808],[-0.072813,51.510237],[-0.074545,51.509954],[-0.075517,51.509736],[-0.076212,51.51056],[-0.077856,51.510085],[-0.078815,51.509461],[-0.079072,51.509064],[-0.078705,51.508835],[-0.079464,51.507825],[-0.080316,51.508075],[-0.079991,51.50854],[-0.082276,51.509549],[-0.081791,51.510124],[-0.080637,51.509727],[-0.080098,51.511411],[-0.081507,51.511334],[-0.081556,51.511708],[-0.080212,51.512106],[-0.079535,51.512306],[-0.079181,51.51183],[-0.077511,51.51152],[-0.077118,51.511863],[-0.078277,51.512801],[-0.076103,51.513752],[-0.075204,51.514075],[-0.075058,51.513634],[-0.074383,51.51373],[-0.074166,51.513224],[-0.07483,51.512713],[-0.074223,51.512792],[-0.074031,51.51237],[-0.074639,51.512309],[-0.07457,51.512059],[-0.073946,51.512122],[-0.073863,51.511736],[-0.073052,51.511808]]]},"properties":{"WD26CD":"E05009310","WD26NM":"Tower","WD26NMW":" ","LAD26CD":"E09000001","LAD26NM":"City of London","BNG_E":533578,"BNG_N":180864,"LONG":-0.07648,"LAT":51.51092,"whole_in_zone":true,"in_cw":false}},
{"type":"Feature","geometry":{"type":"Polygon","coordinates":[[[-0.09514,51.512657],[-0.092006,51.512004],[-0.092558,51.510762],[-0.091227,51.510515],[-0.091866,51.509408],[-0.09192,51.509415],[-0.095231,51.51018],[-0.094596,51.511141],[-0.094707,51.511811],[-0.09516,51.511837],[-0.09535,51.511139],[-0.097081,51.511511],[-0.097196,51.511897],[-0.096676,51.511901],[-0.096516,51.512905],[-0.09514,51.512657]]]},"properties":{"WD26CD":"E05009311","WD26NM":"Vintry","WD26NMW":" ","LAD26CD":"E09000001","LAD26NM":"City of London","BNG_E":532346,"BNG_N":180858,"LONG":-0.094225,"LAT":51.51116,"whole_in_zone":false,"in_cw":false}},
{"type":"Feature","geometry":{"type":"Polygon","coordinates":[[[-0.089044,51.514715],[-0.085471,51.514841],[-0.086385,51.514106],[-0.08894,51.513397],[-0.086918,51.513338],[-0.087118,51.512685],[-0.088571,51.513163],[-0.08837,51.51279],[-0.089384,51.511442],[-0.090719,51.511696],[-0.090091,51.512843],[-0.090632,51.513153],[-0.089721,51.513399],[-0.091157,51.513648],[-0.090844,51.514335],[-0.091783,51.514446],[-0.091085,51.514987],[-0.089044,51.514715]]]},"properties":{"WD26CD":"E05009312","WD26NM":"Walbrook","WD26NMW":" ","LAD26CD":"E09000001","LAD26NM":"City of London","BNG_E":532728,"BNG_N":181096,"LONG":-0.088634,"LAT":51.51321,"whole_in_zone":true,"in_cw":false}},
{"type":"Feature","geometry":{"type":"Polygon","coordinates":[[[-0.037038,51.524248],[-0.040886,51.522697],[-0.050013,51.52107],[-0.05635,51.519834],[-0.056178,51.520965],[-0.054963,51.523004],[-0.054875,51.52411],[-0.055831,51.529319],[-0.052193,51.530333],[-0.049039,51.533654],[-0.046285,51.532744],[-0.042935,51.531097],[-0.039214,51.526291],[-0.037038,51.524248]]]},"properties":{"WD26CD":"E05009317","WD26NM":"Bethnal Green East","WD26NMW":" ","LAD26CD":"E09000030","LAD26NM":"Tower Hamlets","BNG_E":535607,"BNG_N":182735,"LONG":-0.046539,"LAT":51.52725,"whole_in_zone":false,"in_cw":false}},
{"type":"Feature","geometry":{"type":"Polygon","coordinates":[[[-0.003092,51.490776],[-0.004716,51.490744],[-0.00585,51.49095],[-0.005616,51.491628],[-0.006961,51.492968],[-0.007845,51.492458],[-0.009699,51.49305],[-0.010542,51.49367],[-0.011601,51.493298],[-0.017328,51.493516],[-0.016511,51.499973],[-0.016206,51.499941],[-0.015433,51.50414],[-0.012736,51.504355],[-0.011843,51.504912],[-0.010642,51.506049],[-0.010644,51.507349],[-0.005451,51.507945],[-0.003836,51.508723],[-0.001844,51.510471],[0.001775,51.510945],[0.001759,51.510912],[0.002808,51.510386],[0.004327,51.510595],[0.005538,51.513522],[0.00594,51.513929],[0.006695,51.513924],[0.007393,51.512728],[0.005583,51.510026],[0.006351,51.509373],[0.008958,51.508838],[0.00879,51.507368],[0.005801,51.508265],[0.003676,51.50838],[0.00347,51.508017],[0.00299,51.508237],[-0.001733,51.507476],[-0.003433,51.506623],[-0.005391,51.505032],[-0.005774,51.505135],[-0.00559,51.504798],[-0.007219,51.503119],[-0.007506,51.502001],[-0.007633,51.501506],[-0.008657,51.501349],[-0.007743,51.500804],[-0.007277,51.498307],[-0.006956,51.498342],[-0.005606,51.495837],[-0.006212,51.49561],[-0.005424,51.494644],[-0.00476,51.494543],[-0.003299,51.492271],[-0.003058,51.490876],[-0.003092,51.490776]]]},"properties":{"WD26CD":"E05009318","WD26NM":"Blackwall & Cubitt Town","WD26NMW":" ","LAD26CD":"E09000030","LAD26NM":"Tower Hamlets","BNG_E":538100,"BNG_N":180056,"LONG":-0.011674,"LAT":51.50257,"whole_in_zone":true,"in_cw":true}},
{"type":"Feature","geometry":{"type":"Polygon","coordinates":[[[-0.00809,51.523835],[-0.009074,51.522405],[-0.011611,51.520689],[-0.021612,51.516571],[-0.023715,51.519231],[-0.027314,51.520736],[-0.023939,51.523175],[-0.022613,51.524072],[-0.021019,51.524496],[-0.013394,51.524461],[-0.007819,51.525323],[-0.00809,51.523835]]]},"properties":{"WD26CD":"E05009322","WD26NM":"Bromley South","WD26NMW":" ","LAD26CD":"E09000030","LAD26NM":"Tower Hamlets","BNG_E":537535,"BNG_N":182093,"LONG":-0.019014,"LAT":51.52102,"whole_in_zone":false,"in_cw":false}},
{"type":"Feature","geometry":{"type":"Polygon","coordinates":[[[-0.010644,51.507349],[-0.010642,51.506049],[-0.011843,51.504912],[-0.012736,51.504355],[-0.015433,51.50414],[-0.016206,51.499941],[-0.016511,51.499973],[-0.017328,51.493516],[-0.026616,51.493935],[-0.026232,51.494014],[-0.027629,51.494251],[-0.027873,51.494685],[-0.027413,51.501813],[-0.027186,51.502334],[-0.026748,51.50334],[-0.028457,51.505667],[-0.028629,51.504991],[-0.028935,51.505393],[-0.028579,51.505284],[-0.028521,51.505664],[-0.028452,51.505719],[-0.030102,51.507423],[-0.030415,51.507242],[-0.030483,51.507278],[-0.029527,51.507901],[-0.027267,51.507906],[-0.026652,51.509004],[-0.02549,51.509737],[-0.024163,51.508977],[-0.018655,51.507774],[-0.014248,51.507414],[-0.010702,51.507576],[-0.010644,51.507349]]]},"properties":{"WD26CD":"E05009323","WD26NM":"Canary Wharf","WD26NMW":" ","LAD26CD":"E09000030","LAD26NM":"Tower Hamlets","BNG_E":537488,"BNG_N":179863,"LONG":-0.020561,"LAT":51.50099,"whole_in_zone":true,"in_cw":true}},
{"type":"Feature","geometry":{"type":"Polygon","coordinates":[[[-0.003092,51.490776],[-0.003687,51.488984],[-0.004435,51.488278],[-0.005126,51.488607],[-0.004621,51.488137],[-0.006669,51.487084],[-0.0115,51.48614],[-0.016377,51.486142],[-0.02098,51.487329],[-0.023823,51.488946],[-0.025699,51.490695],[-0.027332,51.493512],[-0.027235,51.493808],[-0.026616,51.493935],[-0.017328,51.493516],[-0.011601,51.493298],[-0.010542,51.49367],[-0.009699,51.49305],[-0.007845,51.492458],[-0.006961,51.492968],[-0.005616,51.491628],[-0.00585,51.49095],[-0.004716,51.490744],[-0.003092,51.490776]]]},"properties":{"WD26CD":"E05009324","WD26NM":"Island Gardens","WD26NMW":" ","LAD26CD":"E09000030","LAD26NM":"Tower Hamlets","BNG_E":537960,"BNG_N":178641,"LONG":-0.014243,"LAT":51.48989,"whole_in_zone":true,"in_cw":false}},
{"type":"Feature","geometry":{"type":"Polygon","coordinates":[[[-0.007862,51.523026],[-0.008636,51.521826],[-0.00935,51.521822],[-0.009165,51.519895],[-0.006723,51.518299],[-0.005971,51.516422],[-0.005132,51.516235],[-0.004374,51.516411],[-0.003454,51.517614],[-0.002593,51.517791],[0.002673,51.515517],[0.003589,51.514545],[0.003562,51.514491],[0.00215,51.514067],[0.000698,51.512897],[-0.006653,51.511604],[-0.020979,51.510806],[-0.019986,51.512281],[-0.021923,51.512316],[-0.021934,51.513782],[-0.0245,51.513784],[-0.023674,51.51457],[-0.023307,51.515898],[-0.021612,51.516571],[-0.011611,51.520689],[-0.009074,51.522405],[-0.00809,51.523835],[-0.007862,51.523026]]]},"properties":{"WD26CD":"E05009325","WD26NM":"Lansbury","WD26NMW":" ","LAD26CD":"E09000030","LAD26NM":"Tower Hamlets","BNG_E":538149,"BNG_N":181610,"LONG":-0.010359,"LAT":51.51653,"whole_in_zone":false,"in_cw":false}},
{"type":"Feature","geometry":{"type":"Polygon","coordinates":[[[-0.03647,51.512597],[-0.030127,51.5124],[-0.028106,51.511872],[-0.02549,51.509737],[-0.026652,51.509004],[-0.027267,51.507906],[-0.029527,51.507901],[-0.030483,51.507278],[-0.031525,51.50784],[-0.029856,51.508908],[-0.031598,51.508206],[-0.0326,51.508242],[-0.033164,51.508683],[-0.035585,51.509072],[-0.035917,51.509382],[-0.037334,51.509361],[-0.036923,51.509979],[-0.037801,51.5095],[-0.041883,51.509785],[-0.041895,51.5106],[-0.039695,51.511334],[-0.038924,51.512698],[-0.03647,51.512597]]]},"properties":{"WD26CD":"E05009326","WD26NM":"Limehouse","WD26NMW":" ","LAD26CD":"E09000030","LAD26NM":"Tower Hamlets","BNG_E":536543,"BNG_N":180835,"LONG":-0.033791,"LAT":51.50995,"whole_in_zone":true,"in_cw":true}},
{"type":"Feature","geometry":{"type":"Polygon","coordinates":[[[-0.023939,51.523175],[-0.027314,51.520736],[-0.023715,51.519231],[-0.021612,51.516571],[-0.023307,51.515898],[-0.023674,51.51457],[-0.0245,51.513784],[-0.021934,51.513782],[-0.021923,51.512316],[-0.019986,51.512281],[-0.020979,51.510806],[-0.028106,51.511872],[-0.030127,51.5124],[-0.03647,51.512597],[-0.033828,51.516144],[-0.033758,51.516761],[-0.036171,51.518965],[-0.036541,51.523228],[-0.037038,51.524248],[-0.030167,51.5261],[-0.029052,51.524077],[-0.025262,51.525047],[-0.023939,51.523175]]]},"properties":{"WD26CD":"E05009327","WD26NM":"Mile End","WD26NMW":" ","LAD26CD":"E09000030","LAD26NM":"Tower Hamlets","BNG_E":536885,"BNG_N":181753,"LONG":-0.028509,"LAT":51.51812,"whole_in_zone":false,"in_cw":false}},
{"type":"Feature","geometry":{"type":"Polygon","coordinates":[[[0.001775,51.510945],[-0.001844,51.510471],[-0.003836,51.508723],[-0.005451,51.507945],[-0.010644,51.507349],[-0.010702,51.507576],[-0.014248,51.507414],[-0.018655,51.507774],[-0.024163,51.508977],[-0.02549,51.509737],[-0.028106,51.511872],[-0.020979,51.510806],[-0.006653,51.511604],[0.000698,51.512897],[0.00215,51.514067],[0.003562,51.514491],[0.001775,51.510945]]]},"properties":{"WD26CD":"E05009328","WD26NM":"Poplar","WD26NMW":" ","LAD26CD":"E09000030","LAD26NM":"Tower Hamlets","BNG_E":538442,"BNG_N":181002,"LONG":-0.006378,"LAT":51.51099,"whole_in_zone":true,"in_cw":true}},
{"type":"Feature","geometry":{"type":"Polygon","coordinates":[[[-0.03647,51.512597],[-0.038924,51.512698],[-0.041821,51.51295],[-0.041458,51.51573],[-0.042627,51.516785],[-0.042685,51.517759],[-0.045274,51.51835],[-0.044924,51.518724],[-0.0458,51.519611],[-0.046778,51.519627],[-0.047558,51.519969],[-0.048012,51.520663],[-0.048348,51.520488],[-0.049281,51.520883],[-0.049787,51.520763],[-0.050013,51.52107],[-0.040886,51.522697],[-0.037038,51.524248],[-0.036541,51.523228],[-0.036171,51.518965],[-0.033758,51.516761],[-0.033828,51.516144],[-0.03647,51.512597]]]},"properties":{"WD26CD":"E05009329","WD26NM":"St Dunstan's","WD26NMW":" ","LAD26CD":"E09000030","LAD26NM":"Tower Hamlets","BNG_E":535956,"BNG_N":181873,"LONG":-0.041844,"LAT":51.51942,"whole_in_zone":false,"in_cw":false}},
{"type":"Feature","geometry":{"type":"Polygon","coordinates":[[[-0.041883,51.509785],[-0.042105,51.5098],[-0.046058,51.509356],[-0.04913,51.50801],[-0.049687,51.50808],[-0.0494,51.507849],[-0.050421,51.507593],[-0.056163,51.503877],[-0.059473,51.502873],[-0.05963,51.502826],[-0.060843,51.502809],[-0.061033,51.502899],[-0.061625,51.503179],[-0.062578,51.503098],[-0.065177,51.503727],[-0.065347,51.50349],[-0.06522,51.503738],[-0.068081,51.50448],[-0.068068,51.504878],[-0.068665,51.504536],[-0.070574,51.505356],[-0.071186,51.505166],[-0.071272,51.505779],[-0.073767,51.506195],[-0.074759,51.506714],[-0.079388,51.507803],[-0.079464,51.507825],[-0.078705,51.508835],[-0.079072,51.509064],[-0.078815,51.509461],[-0.077856,51.510085],[-0.076212,51.51056],[-0.075517,51.509736],[-0.074545,51.509954],[-0.073211,51.508886],[-0.071317,51.508304],[-0.066608,51.509329],[-0.060487,51.509444],[-0.057497,51.509725],[-0.047539,51.509813],[-0.041895,51.5106],[-0.041883,51.509785]]]},"properties":{"WD26CD":"E05009330","WD26NM":"St Katharine's & Wapping","WD26NMW":" ","LAD26CD":"E09000030","LAD26NM":"Tower Hamlets","BNG_E":534459,"BNG_N":180441,"LONG":-0.063953,"LAT":51.50691,"whole_in_zone":true,"in_cw":false}},
{"type":"Feature","geometry":{"type":"Polygon","coordinates":[[[-0.057302,51.534414],[-0.054674,51.535155],[-0.052856,51.534939],[-0.049039,51.533654],[-0.052193,51.530333],[-0.055831,51.529319],[-0.054875,51.52411],[-0.054963,51.523004],[-0.056178,51.520965],[-0.057683,51.521039],[-0.058042,51.521758],[-0.061251,51.521176],[-0.061988,51.523677],[-0.063991,51.52358],[-0.065388,51.529732],[-0.066253,51.53122],[-0.065162,51.533155],[-0.065009,51.532904],[-0.06219,51.533259],[-0.06286,51.534919],[-0.062434,51.535532],[-0.060073,51.534196],[-0.058758,51.534105],[-0.057302,51.534414]]]},"properties":{"WD26CD":"E05009331","WD26NM":"Bethnal Green West","WD26NMW":" ","LAD26CD":"E09000030","LAD26NM":"Tower Hamlets","BNG_E":534821,"BNG_N":182802,"LONG":-0.057837,"LAT":51.52804,"whole_in_zone":false,"in_cw":false}},
{"type":"Feature","geometry":{"type":"Polygon","coordinates":[[[-0.055696,51.514345],[-0.046442,51.513209],[-0.041821,51.51295],[-0.038924,51.512698],[-0.039695,51.511334],[-0.041895,51.5106],[-0.047539,51.509813],[-0.057497,51.509725],[-0.060487,51.509444],[-0.061884,51.514759],[-0.055696,51.514345]]]},"properties":{"WD26CD":"E05009332","WD26NM":"Shadwell","WD26NMW":" ","LAD26CD":"E09000030","LAD26NM":"Tower Hamlets","BNG_E":535395,"BNG_N":181023,"LONG":-0.050251,"LAT":51.51192,"whole_in_zone":true,"in_cw":false}},
{"type":"Feature","geometry":{"type":"Polygon","coordinates":[[[-0.056178,51.520965],[-0.05635,51.519834],[-0.065632,51.517699],[-0.074003,51.514478],[-0.076872,51.516625],[-0.078173,51.518471],[-0.078099,51.518979],[-0.079413,51.518885],[-0.078529,51.521512],[-0.078252,51.521903],[-0.076458,51.522046],[-0.07612,51.522369],[-0.063991,51.52358],[-0.061988,51.523677],[-0.061251,51.521176],[-0.058042,51.521758],[-0.057683,51.521039],[-0.056178,51.520965]]]},"properties":{"WD26CD":"E05009333","WD26NM":"Spitalfields & Banglatown","WD26NMW":" ","LAD26CD":"E09000030","LAD26NM":"Tower Hamlets","BNG_E":534011,"BNG_N":181786,"LONG":-0.069893,"LAT":51.51911,"whole_in_zone":false,"in_cw":false}},
{"type":"Feature","geometry":{"type":"Polygon","coordinates":[[[-0.041821,51.51295],[-0.046442,51.513209],[-0.055696,51.514345],[-0.055142,51.517637],[-0.05635,51.519834],[-0.050013,51.52107],[-0.049787,51.520763],[-0.049281,51.520883],[-0.048348,51.520488],[-0.048012,51.520663],[-0.047558,51.519969],[-0.046778,51.519627],[-0.0458,51.519611],[-0.044924,51.518724],[-0.045274,51.51835],[-0.042685,51.517759],[-0.042627,51.516785],[-0.041458,51.51573],[-0.041821,51.51295]]]},"properties":{"WD26CD":"E05009334","WD26NM":"Stepney Green","WD26NMW":" ","LAD26CD":"E09000030","LAD26NM":"Tower Hamlets","BNG_E":535474,"BNG_N":181597,"LONG":-0.048893,"LAT":51.51706,"whole_in_zone":true,"in_cw":false}},
{"type":"Feature","geometry":{"type":"Polygon","coordinates":[[[-0.055696,51.514345],[-0.061884,51.514759],[-0.060487,51.509444],[-0.066608,51.509329],[-0.071317,51.508304],[-0.073211,51.508886],[-0.074545,51.509954],[-0.072813,51.510237],[-0.073052,51.511808],[-0.074003,51.514478],[-0.065632,51.517699],[-0.05635,51.519834],[-0.055142,51.517637],[-0.055696,51.514345]]]},"properties":{"WD26CD":"E05009336","WD26NM":"Whitechapel","WD26NMW":" ","LAD26CD":"E09000030","LAD26NM":"Tower Hamlets","BNG_E":534377,"BNG_N":181187,"LONG":-0.06485,"LAT":51.51364,"whole_in_zone":true,"in_cw":false}},
{"type":"Feature","geometry":{"type":"Polygon","coordinates":[[[-0.078153,51.536651],[-0.076863,51.536481],[-0.077052,51.531418],[-0.077866,51.52878],[-0.075715,51.528358],[-0.077273,51.527305],[-0.076297,51.527142],[-0.076641,51.526347],[-0.07646,51.524318],[-0.075927,51.524339],[-0.075742,51.523681],[-0.07612,51.522369],[-0.076458,51.522046],[-0.078252,51.521903],[-0.078529,51.521512],[-0.081041,51.521973],[-0.081773,51.520745],[-0.083123,51.519852],[-0.085233,51.520348],[-0.084214,51.52393],[-0.085201,51.523945],[-0.085119,51.524457],[-0.085464,51.524539],[-0.084745,51.525429],[-0.08501,51.526238],[-0.083715,51.526555],[-0.083597,51.529071],[-0.082918,51.530563],[-0.083006,51.5332],[-0.086199,51.533147],[-0.086308,51.533747],[-0.087669,51.533355],[-0.089689,51.536043],[-0.086563,51.537302],[-0.084213,51.537493],[-0.078153,51.536651]]]},"properties":{"WD26CD":"E05009377","WD26NM":"Hoxton East & Shoreditch","WD26NMW":" ","LAD26CD":"E09000012","LAD26NM":"Hackney","BNG_E":533090,"BNG_N":182812,"LONG":-0.082772,"LAT":51.52855,"whole_in_zone":false,"in_cw":false}},
{"type":"Feature","geometry":{"type":"Polygon","coordinates":[[[-0.104151,51.508544],[-0.096113,51.508378],[-0.092077,51.50723],[-0.088147,51.506915],[-0.088515,51.506035],[-0.091741,51.503216],[-0.093234,51.50121],[-0.097237,51.498928],[-0.098816,51.497543],[-0.100608,51.500696],[-0.105709,51.501062],[-0.106674,51.501228],[-0.106474,51.501571],[-0.105917,51.502033],[-0.106077,51.502524],[-0.106757,51.50221],[-0.107392,51.503036],[-0.106403,51.503367],[-0.106486,51.505063],[-0.107339,51.507072],[-0.108165,51.506922],[-0.108714,51.507765],[-0.108858,51.508426],[-0.104721,51.508558],[-0.104678,51.508615],[-0.104684,51.508405],[-0.104151,51.508544]]]},"properties":{"WD26CD":"E05011095","WD26NM":"Borough & Bankside","WD26NMW":" ","LAD26CD":"E09000028","LAD26NM":"Southwark","BNG_E":532060,"BNG_N":179953,"LONG":-0.098683,"LAT":51.50309,"whole_in_zone":false,"in_cw":false}},
{"type":"Feature","geometry":{"type":"Polygon","coordinates":[[[-0.090306,51.480475],[-0.088256,51.479931],[-0.086475,51.478814],[-0.087015,51.478543],[-0.085934,51.47776],[-0.085774,51.477156],[-0.090586,51.476413],[-0.0904,51.475776],[-0.092296,51.475536],[-0.091747,51.474161],[-0.090536,51.473947],[-0.090013,51.473267],[-0.093015,51.472029],[-0.093626,51.471735],[-0.094143,51.470673],[-0.095975,51.469867],[-0.098829,51.471872],[-0.099365,51.472643],[-0.100654,51.474447],[-0.099972,51.476864],[-0.103573,51.478358],[-0.099874,51.479337],[-0.100377,51.480301],[-0.101962,51.480972],[-0.095668,51.483753],[-0.094199,51.483638],[-0.094517,51.482653],[-0.094399,51.481427],[-0.0938,51.481435],[-0.093966,51.481121],[-0.093366,51.480985],[-0.093385,51.481229],[-0.091534,51.481379],[-0.091613,51.480652],[-0.090639,51.480292],[-0.090306,51.480475]]]},"properties":{"WD26CD":"E05011096","WD26NM":"Camberwell Green","WD26NMW":" ","LAD26CD":"E09000028","LAD26NM":"Southwark","BNG_E":532412,"BNG_N":176985,"LONG":-0.094727,"LAT":51.47634,"whole_in_zone":false,"in_cw":false}},
{"type":"Feature","geometry":{"type":"Polygon","coordinates":[[[-0.085287,51.493952],[-0.08671,51.494226],[-0.094331,51.49415],[-0.099804,51.495062],[-0.100075,51.495889],[-0.098816,51.497543],[-0.097237,51.498928],[-0.093234,51.50121],[-0.091741,51.503216],[-0.088389,51.502167],[-0.089243,51.500727],[-0.083991,51.498488],[-0.081404,51.497944],[-0.082299,51.496937],[-0.081905,51.496649],[-0.084824,51.494686],[-0.085287,51.493952]]]},"properties":{"WD26CD":"E05011098","WD26NM":"Chaucer","WD26NMW":" ","LAD26CD":"E09000028","LAD26NM":"Southwark","BNG_E":532629,"BNG_N":179457,"LONG":-0.090676,"LAT":51.4985,"whole_in_zone":false,"in_cw":false}},
{"type":"Feature","geometry":{"type":"Polygon","coordinates":[[[-0.077951,51.488882],[-0.075463,51.487564],[-0.07615,51.48701],[-0.076592,51.48504],[-0.077792,51.485105],[-0.077942,51.484341],[-0.075936,51.484114],[-0.075843,51.484423],[-0.074094,51.484368],[-0.073948,51.482622],[-0.07404,51.482234],[-0.075599,51.482146],[-0.075777,51.482431],[-0.075714,51.482142],[-0.0838,51.481652],[-0.085549,51.481522],[-0.085505,51.481311],[-0.087619,51.481651],[-0.087488,51.481379],[-0.088713,51.480457],[-0.08921,51.48075],[-0.090306,51.480475],[-0.090639,51.480292],[-0.091613,51.480652],[-0.091534,51.481379],[-0.093385,51.481229],[-0.093366,51.480985],[-0.093966,51.481121],[-0.0938,51.481435],[-0.094399,51.481427],[-0.094517,51.482653],[-0.094199,51.483638],[-0.095668,51.483753],[-0.095993,51.485662],[-0.093117,51.486407],[-0.093314,51.486661],[-0.092767,51.48686],[-0.093182,51.487368],[-0.091371,51.487944],[-0.090996,51.487393],[-0.090463,51.487536],[-0.090599,51.48776],[-0.087867,51.488512],[-0.088979,51.489545],[-0.086603,51.489323],[-0.081089,51.490764],[-0.077951,51.488882]]]},"properties":{"WD26CD":"E05011102","WD26NM":"Faraday","WD26NMW":" ","LAD26CD":"E09000028","LAD26NM":"Southwark","BNG_E":532978,"BNG_N":178023,"LONG":-0.086191,"LAT":51.48553,"whole_in_zone":false,"in_cw":false}},
{"type":"Feature","geometry":{"type":"Polygon","coordinates":[[[-0.076119,51.50441],[-0.077492,51.502353],[-0.070119,51.498766],[-0.070576,51.498456],[-0.072831,51.498121],[-0.073939,51.498],[-0.073185,51.495762],[-0.07647,51.495019],[-0.078294,51.493152],[-0.079793,51.492179],[-0.081556,51.492829],[-0.083549,51.49268],[-0.085287,51.493952],[-0.084824,51.494686],[-0.081905,51.496649],[-0.082299,51.496937],[-0.081404,51.497944],[-0.083991,51.498488],[-0.089243,51.500727],[-0.088389,51.502167],[-0.091741,51.503216],[-0.088515,51.506035],[-0.088147,51.506915],[-0.088075,51.506909],[-0.086129,51.506547],[-0.084688,51.506623],[-0.081135,51.50594],[-0.076119,51.50441]]]},"properties":{"WD26CD":"E05011104","WD26NM":"London Bridge & West Bermondsey","WD26NMW":" ","LAD26CD":"E09000028","LAD26NM":"Southwark","BNG_E":533298,"BNG_N":179563,"LONG":-0.081004,"LAT":51.4993,"whole_in_zone":true,"in_cw":false}},
{"type":"Feature","geometry":{"type":"Polygon","coordinates":[[[-0.057255,51.500854],[-0.057225,51.500726],[-0.056506,51.500583],[-0.05552,51.499402],[-0.055809,51.498919],[-0.058704,51.498807],[-0.058595,51.498383],[-0.059309,51.498332],[-0.058322,51.495087],[-0.058945,51.494786],[-0.0579,51.49432],[-0.057589,51.494473],[-0.054113,51.491749],[-0.051139,51.491634],[-0.055266,51.490182],[-0.072831,51.498121],[-0.070576,51.498456],[-0.070119,51.498766],[-0.077492,51.502353],[-0.076119,51.50441],[-0.072718,51.503603],[-0.071777,51.503076],[-0.070872,51.50257],[-0.073487,51.500486],[-0.070778,51.50221],[-0.067358,51.501229],[-0.06719,51.501444],[-0.063789,51.50063],[-0.057255,51.500854]]]},"properties":{"WD26CD":"E05011106","WD26NM":"North Bermondsey","WD26NMW":" ","LAD26CD":"E09000028","LAD26NM":"Southwark","BNG_E":534403,"BNG_N":179367,"LONG":-0.065169,"LAT":51.49728,"whole_in_zone":true,"in_cw":false}},
{"type":"Feature","geometry":{"type":"Polygon","coordinates":[[[-0.085287,51.493952],[-0.083549,51.49268],[-0.081089,51.490764],[-0.086603,51.489323],[-0.088979,51.489545],[-0.087867,51.488512],[-0.090599,51.48776],[-0.090463,51.487536],[-0.090996,51.487393],[-0.091371,51.487944],[-0.093182,51.487368],[-0.092767,51.48686],[-0.093314,51.486661],[-0.093117,51.486407],[-0.095993,51.485662],[-0.098766,51.490294],[-0.099187,51.492214],[-0.100898,51.491648],[-0.101783,51.492298],[-0.100368,51.493339],[-0.10066,51.494697],[-0.099804,51.495062],[-0.094331,51.49415],[-0.08671,51.494226],[-0.085287,51.493952]]]},"properties":{"WD26CD":"E05011107","WD26NM":"North Walworth","WD26NMW":" ","LAD26CD":"E09000028","LAD26NM":"Southwark","BNG_E":532642,"BNG_N":178540,"LONG":-0.090833,"LAT":51.49026,"whole_in_zone":false,"in_cw":false}},
{"type":"Feature","geometry":{"type":"Polygon","coordinates":[[[-0.052687,51.478014],[-0.052742,51.47297],[-0.051658,51.469716],[-0.052269,51.469226],[-0.050851,51.467577],[-0.051297,51.46737],[-0.050544,51.46679],[-0.050812,51.466654],[-0.048176,51.465894],[-0.048515,51.465627],[-0.047471,51.465124],[-0.048253,51.465143],[-0.050298,51.46611],[-0.0507,51.465966],[-0.047362,51.461258],[-0.050112,51.459499],[-0.055743,51.462763],[-0.056926,51.462482],[-0.058117,51.462711],[-0.060485,51.464321],[-0.059693,51.464433],[-0.060023,51.465065],[-0.059445,51.46535],[-0.059942,51.466912],[-0.061139,51.469087],[-0.063773,51.470109],[-0.064252,51.471607],[-0.063851,51.474014],[-0.064666,51.473982],[-0.063342,51.476109],[-0.060956,51.476674],[-0.058662,51.477441],[-0.056112,51.477375],[-0.055868,51.477668],[-0.054978,51.477427],[-0.054235,51.478596],[-0.052687,51.478014]]]},"properties":{"WD26CD":"E05011108","WD26NM":"Nunhead & Queen's Road","WD26NMW":" ","LAD26CD":"E09000028","LAD26NM":"Southwark","BNG_E":535126,"BNG_N":176358,"LONG":-0.05591,"LAT":51.47006,"whole_in_zone":false,"in_cw":false}},
{"type":"Feature","geometry":{"type":"Polygon","coordinates":[[[-0.053969,51.487941],[-0.052854,51.486684],[-0.052925,51.486004],[-0.053534,51.48568],[-0.053056,51.485038],[-0.052782,51.482725],[-0.053099,51.480927],[-0.054235,51.478596],[-0.054978,51.477427],[-0.055868,51.477668],[-0.056112,51.477375],[-0.058662,51.477441],[-0.060956,51.476674],[-0.063019,51.479265],[-0.06884,51.478151],[-0.07103,51.477468],[-0.073029,51.48178],[-0.072926,51.482725],[-0.073948,51.482622],[-0.074094,51.484368],[-0.075843,51.484423],[-0.075936,51.484114],[-0.077942,51.484341],[-0.077792,51.485105],[-0.076592,51.48504],[-0.07615,51.48701],[-0.075463,51.487564],[-0.077951,51.488882],[-0.076243,51.490349],[-0.074788,51.489182],[-0.068426,51.488116],[-0.065702,51.487133],[-0.061588,51.487274],[-0.058339,51.488067],[-0.057804,51.488501],[-0.055678,51.488395],[-0.053969,51.487941]]]},"properties":{"WD26CD":"E05011109","WD26NM":"Old Kent Road","WD26NMW":" ","LAD26CD":"E09000028","LAD26NM":"Southwark","BNG_E":534560,"BNG_N":177830,"LONG":-0.063494,"LAT":51.48343,"whole_in_zone":true,"in_cw":false}},
{"type":"Feature","geometry":{"type":"Polygon","coordinates":[[[-0.060956,51.476674],[-0.063342,51.476109],[-0.064666,51.473982],[-0.067843,51.47396],[-0.070721,51.473341],[-0.07511,51.474247],[-0.077405,51.474255],[-0.078534,51.476016],[-0.080967,51.477462],[-0.08075,51.477668],[-0.082521,51.480457],[-0.084062,51.480688],[-0.0838,51.481652],[-0.075714,51.482142],[-0.075777,51.482431],[-0.075599,51.482146],[-0.07404,51.482234],[-0.073948,51.482622],[-0.072926,51.482725],[-0.073029,51.48178],[-0.07103,51.477468],[-0.06884,51.478151],[-0.063019,51.479265],[-0.060956,51.476674]]]},"properties":{"WD26CD":"E05011110","WD26NM":"Peckham","WD26NMW":" ","LAD26CD":"E09000028","LAD26NM":"Southwark","BNG_E":533948,"BNG_N":177110,"LONG":-0.072575,"LAT":51.4771,"whole_in_zone":false,"in_cw":false}},
{"type":"Feature","geometry":{"type":"Polygon","coordinates":[[[-0.040492,51.492797],[-0.040031,51.492182],[-0.041024,51.491831],[-0.040277,51.491046],[-0.042479,51.490251],[-0.042256,51.490089],[-0.046016,51.490291],[-0.046529,51.490348],[-0.046541,51.490669],[-0.051339,51.489504],[-0.051937,51.489115],[-0.050065,51.48833],[-0.050487,51.48792],[-0.055266,51.490182],[-0.051139,51.491634],[-0.054113,51.491749],[-0.057589,51.494473],[-0.0579,51.49432],[-0.058945,51.494786],[-0.058322,51.495087],[-0.059309,51.498332],[-0.058595,51.498383],[-0.058704,51.498807],[-0.055809,51.498919],[-0.05552,51.499402],[-0.056506,51.500583],[-0.057225,51.500726],[-0.057255,51.500854],[-0.051243,51.502737],[-0.050721,51.5029],[-0.048783,51.504026],[-0.04917,51.504359],[-0.048762,51.504437],[-0.048279,51.504399],[-0.048039,51.504297],[-0.047578,51.503546],[-0.045166,51.50466],[-0.043032,51.503763],[-0.042327,51.504437],[-0.041798,51.504437],[-0.039237,51.503069],[-0.039704,51.502468],[-0.038527,51.501981],[-0.039516,51.501004],[-0.04039,51.501424],[-0.041109,51.501184],[-0.042856,51.498848],[-0.044725,51.499554],[-0.046103,51.498171],[-0.045748,51.497497],[-0.045914,51.495671],[-0.045305,51.495137],[-0.044302,51.494903],[-0.045473,51.493797],[-0.044919,51.493619],[-0.044164,51.492437],[-0.043301,51.492104],[-0.040492,51.492797]]]},"properties":{"WD26CD":"E05011112","WD26NM":"Rotherhithe","WD26NMW":" ","LAD26CD":"E09000028","LAD26NM":"Southwark","BNG_E":535522,"BNG_N":179391,"LONG":-0.049049,"LAT":51.49722,"whole_in_zone":true,"in_cw":false}},
{"type":"Feature","geometry":{"type":"Polygon","coordinates":[[[-0.064666,51.473982],[-0.063851,51.474014],[-0.064252,51.471607],[-0.063773,51.470109],[-0.061139,51.469087],[-0.059942,51.466912],[-0.059445,51.46535],[-0.060023,51.465065],[-0.059693,51.464433],[-0.060485,51.464321],[-0.063612,51.463082],[-0.066658,51.462391],[-0.069304,51.461971],[-0.069517,51.463309],[-0.06982,51.46383],[-0.07029,51.463747],[-0.070394,51.463982],[-0.072307,51.463612],[-0.072126,51.463068],[-0.075636,51.462739],[-0.076431,51.461981],[-0.077188,51.462017],[-0.077756,51.463925],[-0.078363,51.463699],[-0.078819,51.463879],[-0.078575,51.466117],[-0.078015,51.467209],[-0.076597,51.468304],[-0.074047,51.468963],[-0.073666,51.46902],[-0.074306,51.471707],[-0.075395,51.471583],[-0.075846,51.472684],[-0.077702,51.472413],[-0.078345,51.474164],[-0.077405,51.474255],[-0.07511,51.474247],[-0.070721,51.473341],[-0.067843,51.47396],[-0.064666,51.473982]]]},"properties":{"WD26CD":"E05011113","WD26NM":"Rye Lane","WD26NMW":" ","LAD26CD":"E09000028","LAD26NM":"Southwark","BNG_E":534224,"BNG_N":176122,"LONG":-0.068978,"LAT":51.46815,"whole_in_zone":false,"in_cw":false}},
{"type":"Feature","geometry":{"type":"Polygon","coordinates":[[[-0.077405,51.474255],[-0.078345,51.474164],[-0.077702,51.472413],[-0.075846,51.472684],[-0.075395,51.471583],[-0.074306,51.471707],[-0.073666,51.46902],[-0.074047,51.468963],[-0.082672,51.469604],[-0.086524,51.468976],[-0.091151,51.467596],[-0.092756,51.469869],[-0.093015,51.472029],[-0.090013,51.473267],[-0.090536,51.473947],[-0.091747,51.474161],[-0.092296,51.475536],[-0.0904,51.475776],[-0.090586,51.476413],[-0.085774,51.477156],[-0.085934,51.47776],[-0.087015,51.478543],[-0.086475,51.478814],[-0.088256,51.479931],[-0.090306,51.480475],[-0.08921,51.48075],[-0.088713,51.480457],[-0.087488,51.481379],[-0.087619,51.481651],[-0.085505,51.481311],[-0.085549,51.481522],[-0.0838,51.481652],[-0.084062,51.480688],[-0.082521,51.480457],[-0.08075,51.477668],[-0.080967,51.477462],[-0.078534,51.476016],[-0.077405,51.474255]]]},"properties":{"WD26CD":"E05011115","WD26NM":"St Giles","WD26NMW":" ","LAD26CD":"E09000028","LAD26NM":"Southwark","BNG_E":533220,"BNG_N":176862,"LONG":-0.083145,"LAT":51.47504,"whole_in_zone":false,"in_cw":false}},
{"type":"Feature","geometry":{"type":"Polygon","coordinates":[[[-0.055266,51.490182],[-0.050487,51.48792],[-0.052346,51.487801],[-0.052592,51.487552],[-0.053969,51.487941],[-0.055678,51.488395],[-0.057804,51.488501],[-0.058339,51.488067],[-0.061588,51.487274],[-0.065702,51.487133],[-0.068426,51.488116],[-0.074788,51.489182],[-0.076243,51.490349],[-0.077951,51.488882],[-0.081089,51.490764],[-0.083549,51.49268],[-0.081556,51.492829],[-0.079793,51.492179],[-0.078294,51.493152],[-0.07647,51.495019],[-0.073185,51.495762],[-0.073939,51.498],[-0.072831,51.498121],[-0.055266,51.490182]]]},"properties":{"WD26CD":"E05011116","WD26NM":"South Bermondsey","WD26NMW":" ","LAD26CD":"E09000028","LAD26NM":"Southwark","BNG_E":534098,"BNG_N":178843,"LONG":-0.069759,"LAT":51.49264,"whole_in_zone":true,"in_cw":false}},
{"type":"Feature","geometry":{"type":"Polygon","coordinates":[[[-0.032393,51.493089],[-0.037251,51.492224],[-0.039235,51.492966],[-0.040492,51.492797],[-0.043301,51.492104],[-0.044164,51.492437],[-0.044919,51.493619],[-0.045473,51.493797],[-0.044302,51.494903],[-0.045305,51.495137],[-0.045914,51.495671],[-0.045748,51.497497],[-0.046103,51.498171],[-0.044725,51.499554],[-0.042856,51.498848],[-0.041109,51.501184],[-0.04039,51.501424],[-0.039516,51.501004],[-0.038527,51.501981],[-0.039704,51.502468],[-0.039237,51.503069],[-0.041798,51.504437],[-0.042327,51.504437],[-0.043032,51.503763],[-0.045166,51.50466],[-0.047578,51.503546],[-0.048039,51.504297],[-0.047705,51.504155],[-0.048009,51.504768],[-0.046981,51.505361],[-0.04605,51.505148],[-0.046542,51.505656],[-0.045728,51.50613],[-0.045318,51.505923],[-0.044367,51.506951],[-0.041302,51.507491],[-0.037264,51.507231],[-0.037314,51.506422],[-0.03679,51.507133],[-0.034194,51.506304],[-0.033058,51.505094],[-0.033017,51.504361],[-0.032322,51.504349],[-0.032334,51.50242],[-0.032349,51.500108],[-0.032729,51.500088],[-0.03249,51.498284],[-0.032944,51.496942],[-0.032549,51.496009],[-0.033957,51.495682],[-0.033849,51.495473],[-0.032534,51.495674],[-0.032664,51.494403],[-0.033249,51.494144],[-0.03264,51.494131],[-0.032398,51.493113],[-0.032393,51.493089]]]},"properties":{"WD26CD":"E05011117","WD26NM":"Surrey Docks","WD26NMW":" ","LAD26CD":"E09000028","LAD26NM":"Southwark","BNG_E":536117,"BNG_N":179390,"LONG":-0.040483,"LAT":51.49707,"whole_in_zone":true,"in_cw":false}},
{"type":"Feature","geometry":{"type":"Polygon","coordinates":[[[-0.08501,51.526238],[-0.084745,51.525429],[-0.085464,51.524539],[-0.085119,51.524457],[-0.085201,51.523945],[-0.084214,51.52393],[-0.085233,51.520348],[-0.0862,51.518812],[-0.089983,51.519973],[-0.089673,51.520719],[-0.09236,51.521036],[-0.092498,51.521473],[-0.094319,51.521485],[-0.09509,51.523109],[-0.096415,51.522832],[-0.096759,51.523314],[-0.097945,51.522874],[-0.097385,51.521592],[-0.097573,51.521175],[-0.097663,51.520713],[-0.100252,51.520129],[-0.101749,51.519683],[-0.101547,51.521156],[-0.103196,51.524338],[-0.102871,51.524548],[-0.103496,51.525871],[-0.100103,51.526519],[-0.091473,51.527759],[-0.091481,51.528209],[-0.088731,51.527453],[-0.087832,51.526242],[-0.086977,51.525768],[-0.08501,51.526238]]]},"properties":{"WD26CD":"E05013699","WD26NM":"Bunhill","WD26NMW":" ","LAD26CD":"E09000019","LAD26NM":"Islington","BNG_E":532360,"BNG_N":182241,"LONG":-0.093504,"LAT":51.52358,"whole_in_zone":false,"in_cw":false}},
{"type":"Feature","geometry":{"type":"Polygon","coordinates":[[[-0.022792,51.474466],[-0.022582,51.474112],[-0.021275,51.473776],[-0.019973,51.473002],[-0.020312,51.472305],[-0.019301,51.472036],[-0.018659,51.470686],[-0.019245,51.470507],[-0.019114,51.470009],[-0.017161,51.469328],[-0.020102,51.468308],[-0.019505,51.468087],[-0.019863,51.468068],[-0.022788,51.467478],[-0.023123,51.467644],[-0.023324,51.467372],[-0.022807,51.467157],[-0.023828,51.464602],[-0.024067,51.462448],[-0.024812,51.462317],[-0.02479,51.462637],[-0.02555,51.462769],[-0.025427,51.463165],[-0.025844,51.463283],[-0.028102,51.46285],[-0.029787,51.463326],[-0.031663,51.461558],[-0.034162,51.461012],[-0.034011,51.458515],[-0.039107,51.459666],[-0.037779,51.463324],[-0.037429,51.466551],[-0.038031,51.470175],[-0.040218,51.474922],[-0.040031,51.474967],[-0.037199,51.475635],[-0.032302,51.475877],[-0.030204,51.473552],[-0.027986,51.471865],[-0.026355,51.472781],[-0.027099,51.473626],[-0.026322,51.47411],[-0.025739,51.473786],[-0.024062,51.474665],[-0.022792,51.474466]]]},"properties":{"WD26CD":"E05013716","WD26NM":"Brockley","WD26NMW":" ","LAD26CD":"E09000023","LAD26NM":"Lewisham","BNG_E":537010,"BNG_N":176148,"LONG":-0.028884,"LAT":51.46772,"whole_in_zone":false,"in_cw":false}},
{"type":"Feature","geometry":{"type":"Polygon","coordinates":[[[-0.026365,51.481507],[-0.023281,51.480781],[-0.02304,51.479665],[-0.020308,51.479914],[-0.020401,51.480219],[-0.017801,51.480873],[-0.017091,51.480411],[-0.017102,51.480395],[-0.019166,51.479651],[-0.019418,51.478014],[-0.01984,51.478048],[-0.019288,51.477618],[-0.019388,51.47719],[-0.020051,51.477131],[-0.020556,51.476723],[-0.020595,51.476709],[-0.020596,51.476695],[-0.021119,51.476268],[-0.022804,51.475929],[-0.020923,51.476135],[-0.020953,51.475677],[-0.022528,51.475592],[-0.02226,51.475455],[-0.022679,51.475366],[-0.022562,51.475358],[-0.022861,51.475312],[-0.022792,51.474466],[-0.024062,51.474665],[-0.025739,51.473786],[-0.026322,51.47411],[-0.027099,51.473626],[-0.026355,51.472781],[-0.027986,51.471865],[-0.030204,51.473552],[-0.032302,51.475877],[-0.037199,51.475635],[-0.040031,51.474967],[-0.042549,51.479527],[-0.043237,51.483797],[-0.041076,51.482604],[-0.038083,51.48222],[-0.032905,51.484421],[-0.028405,51.482194],[-0.026365,51.481507]]]},"properties":{"WD26CD":"E05013719","WD26NM":"Deptford","WD26NMW":" ","LAD26CD":"E09000023","LAD26NM":"Lewisham","BNG_E":536842,"BNG_N":177304,"LONG":-0.030854,"LAT":51.47815,"whole_in_zone":false,"in_cw":false}},
{"type":"Feature","geometry":{"type":"Polygon","coordinates":[[[-0.024714,51.485483],[-0.025167,51.485023],[-0.025762,51.482151],[-0.026365,51.481507],[-0.028405,51.482194],[-0.032905,51.484421],[-0.038083,51.48222],[-0.041076,51.482604],[-0.043237,51.483797],[-0.043897,51.486944],[-0.046016,51.490291],[-0.042256,51.490089],[-0.042479,51.490251],[-0.040277,51.491046],[-0.041024,51.491831],[-0.040031,51.492182],[-0.040492,51.492797],[-0.039235,51.492966],[-0.037251,51.492224],[-0.032393,51.493089],[-0.032384,51.493053],[-0.029385,51.488938],[-0.029447,51.488551],[-0.029107,51.488623],[-0.027554,51.487222],[-0.024822,51.485533],[-0.024714,51.485483]]]},"properties":{"WD26CD":"E05013721","WD26NM":"Evelyn","WD26NMW":" ","LAD26CD":"E09000023","LAD26NM":"Lewisham","BNG_E":536462,"BNG_N":178322,"LONG":-0.035929,"LAT":51.48739,"whole_in_zone":true,"in_cw":false}},
{"type":"Feature","geometry":{"type":"Polygon","coordinates":[[[-0.046016,51.490291],[-0.043897,51.486944],[-0.043237,51.483797],[-0.042549,51.479527],[-0.040031,51.474967],[-0.040218,51.474922],[-0.043355,51.474301],[-0.046161,51.474414],[-0.047466,51.475841],[-0.052687,51.478014],[-0.054235,51.478596],[-0.053099,51.480927],[-0.052782,51.482725],[-0.053056,51.485038],[-0.053534,51.48568],[-0.052925,51.486004],[-0.052854,51.486684],[-0.053969,51.487941],[-0.052592,51.487552],[-0.052346,51.487801],[-0.050487,51.48792],[-0.050065,51.48833],[-0.051937,51.489115],[-0.051339,51.489504],[-0.046541,51.490669],[-0.046529,51.490348],[-0.046016,51.490291]]]},"properties":{"WD26CD":"E05013728","WD26NM":"New Cross Gate","WD26NMW":" ","LAD26CD":"E09000023","LAD26NM":"Lewisham","BNG_E":535711,"BNG_N":177833,"LONG":-0.046927,"LAT":51.48318,"whole_in_zone":true,"in_cw":false}},
{"type":"Feature","geometry":{"type":"Polygon","coordinates":[[[-0.040218,51.474922],[-0.038031,51.470175],[-0.037429,51.466551],[-0.037779,51.463324],[-0.039107,51.459666],[-0.040852,51.455507],[-0.041264,51.454893],[-0.041648,51.454997],[-0.044574,51.456581],[-0.046134,51.456946],[-0.045211,51.459431],[-0.045191,51.462045],[-0.045973,51.463975],[-0.047471,51.465124],[-0.048515,51.465627],[-0.048176,51.465894],[-0.050812,51.466654],[-0.050544,51.46679],[-0.051297,51.46737],[-0.050851,51.467577],[-0.052269,51.469226],[-0.051658,51.469716],[-0.052742,51.47297],[-0.052687,51.478014],[-0.047466,51.475841],[-0.046161,51.474414],[-0.043355,51.474301],[-0.040218,51.474922]]]},"properties":{"WD26CD":"E05013732","WD26NM":"Telegraph Hill","WD26NMW":" ","LAD26CD":"E09000023","LAD26NM":"Lewisham","BNG_E":535874,"BNG_N":176220,"LONG":-0.045201,"LAT":51.46864,"whole_in_zone":false,"in_cw":false}},
{"type":"Feature","geometry":{"type":"MultiPolygon","coordinates":[[[[-0.007153,51.525496],[-0.007862,51.523026],[-0.00809,51.523835],[-0.007819,51.525323],[-0.007763,51.525394],[-0.007141,51.525538],[-0.007153,51.525496]]],[[[0.014021,51.52908],[0.013123,51.527766],[0.011517,51.52821],[0.011542,51.525356],[0.014857,51.52552],[0.014965,51.525223],[0.013404,51.524747],[0.01233,51.523676],[0.01233,51.522111],[0.012708,51.522136],[0.012805,51.521436],[0.012373,51.521243],[0.012703,51.520972],[0.012434,51.519628],[0.014878,51.519627],[0.014921,51.519872],[0.016371,51.519941],[0.017658,51.518691],[0.016822,51.517953],[0.017343,51.517141],[0.017009,51.517101],[0.004384,51.514704],[0.003151,51.515832],[-0.002537,51.518482],[-0.002483,51.5182],[-0.004035,51.517889],[-0.005124,51.516921],[-0.006555,51.51896],[-0.008554,51.520046],[-0.008658,51.520759],[-0.007224,51.522821],[-0.00652,51.525647],[-0.006508,51.525685],[0.004764,51.5283],[0.011965,51.530002],[0.014021,51.52908]]]]},"properties":{"WD26CD":"E05013906","WD26NM":"Canning Town North","WD26NMW":" ","LAD26CD":"E09000025","LAD26NM":"Newham","BNG_E":539170,"BNG_N":182208,"LONG":0.004582,"LAT":51.52165,"whole_in_zone":false,"in_cw":false}},
{"type":"Feature","geometry":{"type":"Polygon","coordinates":[[[0.01873,51.509575],[0.015442,51.509141],[0.015429,51.50871],[0.013841,51.508581],[0.008878,51.509924],[0.006625,51.510108],[0.008176,51.512545],[0.008121,51.513341],[0.007207,51.514369],[0.006322,51.514611],[0.005144,51.514177],[0.004282,51.513411],[0.003712,51.51104],[0.00257,51.510972],[0.004384,51.514704],[0.017009,51.517101],[0.017212,51.515315],[0.021714,51.513709],[0.019945,51.511838],[0.018624,51.511374],[0.01873,51.509575]]]},"properties":{"WD26CD":"E05013907","WD26NM":"Canning Town South","WD26NMW":" ","LAD26CD":"E09000025","LAD26NM":"Newham","BNG_E":539885,"BNG_N":181249,"LONG":0.0145,"LAT":51.51286,"whole_in_zone":false,"in_cw":false}},
{"type":"Feature","geometry":{"type":"Polygon","coordinates":[[[0.029339,51.525945],[0.024272,51.522965],[0.02263,51.522393],[0.024284,51.520207],[0.023366,51.517308],[0.017343,51.517141],[0.016822,51.517953],[0.017658,51.518691],[0.016371,51.519941],[0.014921,51.519872],[0.014878,51.519627],[0.012434,51.519628],[0.012703,51.520972],[0.012373,51.521243],[0.012805,51.521436],[0.012708,51.522136],[0.01233,51.522111],[0.01233,51.523676],[0.013404,51.524747],[0.014965,51.525223],[0.014857,51.52552],[0.011542,51.525356],[0.011517,51.52821],[0.013123,51.527766],[0.014021,51.52908],[0.011965,51.530002],[0.01795,51.531405],[0.020201,51.531005],[0.024368,51.529353],[0.025547,51.529234],[0.029339,51.525945]]]},"properties":{"WD26CD":"E05013920","WD26NM":"Plaistow West & Canning Town East","WD26NMW":" ","LAD26CD":"E09000025","LAD26NM":"Newham","BNG_E":540253,"BNG_N":182503,"LONG":0.020298,"LAT":51.52404,"whole_in_zone":false,"in_cw":false}},
{"type":"Feature","geometry":{"type":"Polygon","coordinates":[[[0.040289,51.509505],[0.03933,51.501801],[0.038418,51.501825],[0.038379,51.50036],[0.03891,51.500302],[0.038918,51.499767],[0.034962,51.499645],[0.026802,51.498625],[0.02465,51.498615],[0.022456,51.499121],[0.022359,51.498903],[0.019676,51.499639],[0.017132,51.500998],[0.016543,51.50159],[0.015697,51.50244],[0.015496,51.502643],[0.015169,51.502513],[0.014643,51.502981],[0.014864,51.50324],[0.014467,51.503159],[0.013085,51.504449],[0.013342,51.504836],[0.013406,51.504933],[0.012031,51.505281],[0.009692,51.506837],[0.010473,51.508581],[0.009834,51.50917],[0.006574,51.510028],[0.006625,51.510108],[0.008878,51.509924],[0.013841,51.508581],[0.015429,51.50871],[0.015442,51.509141],[0.01873,51.509575],[0.030597,51.509981],[0.033263,51.509915],[0.036783,51.509327],[0.040289,51.509505]]]},"properties":{"WD26CD":"E05013923","WD26NM":"Royal Victoria","WD26NMW":" ","LAD26CD":"E09000025","LAD26NM":"Newham","BNG_E":540734,"BNG_N":180323,"LONG":0.026357,"LAT":51.50433,"whole_in_zone":false,"in_cw":false}},
{"type":"Feature","geometry":{"type":"Polygon","coordinates":[[[0.024562,51.474785],[0.029309,51.46724],[0.02732,51.466466],[0.02639,51.467061],[0.021648,51.464468],[0.020822,51.462522],[0.022436,51.459626],[0.010439,51.458482],[0.009903,51.459631],[0.009095,51.465873],[0.011537,51.466236],[0.013266,51.466839],[0.012701,51.467397],[0.013088,51.468147],[0.01261,51.469809],[0.014364,51.469747],[0.016358,51.468975],[0.016544,51.469129],[0.016703,51.469504],[0.01553,51.471316],[0.015001,51.473081],[0.017963,51.47383],[0.012114,51.473169],[0.005206,51.479621],[0.001436,51.482116],[0.001609,51.482752],[0.005276,51.482675],[0.020161,51.484389],[0.020196,51.484392],[0.020869,51.481551],[0.024562,51.474785]]]},"properties":{"WD26CD":"E05014073","WD26NM":"Blackheath Westcombe","WD26NMW":" ","LAD26CD":"E09000011","LAD26NM":"Greenwich","BNG_E":540059,"BNG_N":175831,"LONG":0.014857,"LAT":51.46413,"whole_in_zone":false,"in_cw":false}},
{"type":"Feature","geometry":{"type":"Polygon","coordinates":[[[0.020161,51.484389],[0.005276,51.482675],[0.001609,51.482752],[0.001436,51.482116],[-0.002042,51.481405],[-0.004528,51.484615],[-0.003268,51.484864],[-0.00118,51.48632],[-0.000023,51.48673],[0.001376,51.487815],[0.002403,51.489528],[0.002687,51.491866],[0.00237,51.492988],[0.001953,51.492918],[0.002999,51.493177],[0.003108,51.492996],[0.00616,51.493949],[0.01255,51.48917],[0.017458,51.486902],[0.020161,51.484389]]]},"properties":{"WD26CD":"E05014076","WD26NM":"East Greenwich","WD26NMW":" ","LAD26CD":"E09000011","LAD26NM":"Greenwich","BNG_E":539565,"BNG_N":178425,"LONG":0.008774,"LAT":51.48756,"whole_in_zone":false,"in_cw":false}},
{"type":"Feature","geometry":{"type":"MultiPolygon","coordinates":[[[[-0.011032,51.483322],[-0.010215,51.482465],[-0.01038,51.482118],[-0.009915,51.482112],[-0.010069,51.481421],[-0.009254,51.480629],[-0.009359,51.48011],[-0.013381,51.478281],[-0.019069,51.4781],[-0.019076,51.47821],[-0.018931,51.478448],[-0.018371,51.479366],[-0.016832,51.480097],[-0.015714,51.481638],[-0.014988,51.481747],[-0.017909,51.482548],[-0.017899,51.483195],[-0.016329,51.483227],[-0.016345,51.482965],[-0.015685,51.482928],[-0.015266,51.483131],[-0.013541,51.482896],[-0.011134,51.483021],[-0.011032,51.483322]]],[[[-0.016391,51.481465],[-0.017091,51.480411],[-0.017801,51.480873],[-0.020401,51.480219],[-0.020308,51.479914],[-0.02304,51.479665],[-0.023281,51.480781],[-0.026365,51.481507],[-0.025762,51.482151],[-0.025167,51.485023],[-0.024714,51.485483],[-0.022701,51.484557],[-0.018826,51.48348],[-0.018134,51.481964],[-0.016391,51.481465]]]]},"properties":{"WD26CD":"E05014080","WD26NM":"Greenwich Creekside","WD26NMW":" ","LAD26CD":"E09000011","LAD26NM":"Greenwich","BNG_E":537999,"BNG_N":177614,"LONG":-0.014083,"LAT":51.48066,"whole_in_zone":true,"in_cw":false}},
{"type":"Feature","geometry":{"type":"MultiPolygon","coordinates":[[[[-0.020556,51.476723],[-0.020596,51.476695],[-0.020595,51.476709],[-0.020556,51.476723]]],[[[-0.004528,51.484615],[-0.002042,51.481405],[0.001436,51.482116],[0.005206,51.479621],[0.012114,51.473169],[-0.000898,51.471803],[-0.008229,51.47276],[-0.012563,51.472343],[-0.014045,51.472671],[-0.014528,51.471903],[-0.015147,51.471749],[-0.013106,51.468939],[-0.015062,51.468044],[-0.016562,51.46926],[-0.016891,51.469072],[-0.017161,51.469328],[-0.019114,51.470009],[-0.019245,51.470507],[-0.018659,51.470686],[-0.019301,51.472036],[-0.020312,51.472305],[-0.019973,51.473002],[-0.021275,51.473776],[-0.022582,51.474112],[-0.022792,51.474466],[-0.022861,51.475312],[-0.022562,51.475358],[-0.022511,51.475355],[-0.021167,51.475263],[-0.020559,51.475659],[-0.020475,51.476583],[-0.019001,51.477049],[-0.01904,51.47766],[-0.019069,51.4781],[-0.013381,51.478281],[-0.009359,51.48011],[-0.009254,51.480629],[-0.010069,51.481421],[-0.009915,51.482112],[-0.01038,51.482118],[-0.010215,51.482465],[-0.011032,51.483322],[-0.009934,51.483604],[-0.007256,51.483775],[-0.00467,51.484575],[-0.004561,51.484608],[-0.004528,51.484615]]]]},"properties":{"WD26CD":"E05014081","WD26NM":"Greenwich Park","WD26NMW":" ","LAD26CD":"E09000011","LAD26NM":"Greenwich","BNG_E":538593,"BNG_N":177143,"LONG":-0.005719,"LAT":51.47628,"whole_in_zone":false,"in_cw":false}},
{"type":"Feature","geometry":{"type":"Polygon","coordinates":[[[0.029043,51.493847],[0.030055,51.491247],[0.029891,51.490068],[0.031933,51.486943],[0.028229,51.486241],[0.02576,51.485276],[0.02444,51.484817],[0.020196,51.484392],[0.020161,51.484389],[0.017458,51.486902],[0.01255,51.48917],[0.00616,51.493949],[0.003108,51.492996],[0.002999,51.493177],[0.001953,51.492918],[0.001586,51.494035],[0.000991,51.494412],[0.001027,51.495155],[0.000749,51.49507],[0.00072,51.495442],[-0.000214,51.495229],[-0.000978,51.496278],[-0.002186,51.499842],[-0.002229,51.501271],[-0.001889,51.501266],[-0.001583,51.5019],[-0.00152,51.50203],[-0.002053,51.502116],[-0.001742,51.502842],[-0.000738,51.503799],[0.000821,51.504532],[0.003258,51.504939],[0.005147,51.504396],[0.008292,51.501732],[0.013882,51.496995],[0.015424,51.496259],[0.017961,51.495049],[0.021497,51.494472],[0.021572,51.493952],[0.022005,51.493889],[0.022157,51.494283],[0.024293,51.49382],[0.029043,51.493847]]]},"properties":{"WD26CD":"E05014082","WD26NM":"Greenwich Peninsula","WD26NMW":" ","LAD26CD":"E09000011","LAD26NM":"Greenwich","BNG_E":539716,"BNG_N":179221,"LONG":0.011263,"LAT":51.49467,"whole_in_zone":false,"in_cw":false}}
]}
