{"type":"FeatureCollection","meta":{
 "source": "planning.data.gov.uk: Certificate of immunity (certificate-of-immunity)",
 "dataset": "certificate-of-immunity",
 "page": "https://www.planning.data.gov.uk/dataset/certificate-of-immunity",
 "typology": "geography",
 "phase": "beta",
 "api": "https://www.planning.data.gov.uk/entity.geojson?dataset=certificate-of-immunity&geometry=<zone polygon WKT>&geometry_relation=intersects&limit=500&offset=<n>",
 "fetched": "2026-10-04",
 "licence": "Open Government Licence v3.0",
 "licence_url": "https://www.nationalarchives.gov.uk/doc/open-government-licence/version/3/",
 "attribution": "© Historic England 2026. Contains Ordnance Survey data © Crown copyright and database right 2026. The Historic England GIS Data contained in this material was obtained on [date]. The most publicly available up to date Historic England GIS Data can be obtained from [HistoricEngland.org.uk](https://historicengland.org.uk).",
 "why": "certificates of immunity from listing",
 "zone": "the 3D model box, BNG E 532400-539900, N 176700-182300 (WGS84 -0.095, 51.474 to 0.015, 51.522)",
 "method": "walk-portals.mjs pdg harvest certificate-of-immunity: the platform's spatial query (geometry intersects the zone box) in pages of 500; whole geometries kept (not cut), rounded to 6 decimals; in_zone, whole_in_zone, in_cw (Canary Wharf registry box -0.03, 51.498, -0.005, 51.51); fields kept as published except empty ones and fields matching /e-?mail|phone|tel(ephone)?$|^tel|contact|^fax|mobile|^owner_?name|person|officer|case_?officer|agent_?name|applicant/i",
 "counts": {
  "features": 20,
  "zone_count_at_walk": 20,
  "whole_in_zone": 19,
  "in_cw": 2,
  "pages": 1
 }
},
"features":[
{"type":"Feature","geometry":{"type":"MultiPolygon","coordinates":[[[[-0.0915,51.516385],[-0.091704,51.516386],[-0.091706,51.516335],[-0.092255,51.516337],[-0.092254,51.516386],[-0.092462,51.516387],[-0.092462,51.516337],[-0.092491,51.516337],[-0.09249,51.516288],[-0.092475,51.516289],[-0.092475,51.516259],[-0.092491,51.516259],[-0.092491,51.516209],[-0.092451,51.516209],[-0.092451,51.51613],[-0.092381,51.51613],[-0.092382,51.516043],[-0.092361,51.516043],[-0.092361,51.515981],[-0.092306,51.51598],[-0.092297,51.515986],[-0.092298,51.516002],[-0.092283,51.516001],[-0.092283,51.515993],[-0.092267,51.515983],[-0.092205,51.515982],[-0.092204,51.516006],[-0.092185,51.516006],[-0.092185,51.515983],[-0.09212,51.515982],[-0.09212,51.516006],[-0.092102,51.516006],[-0.092102,51.515983],[-0.092036,51.515982],[-0.092036,51.516006],[-0.092016,51.516006],[-0.092016,51.515983],[-0.091952,51.515983],[-0.091954,51.516006],[-0.091933,51.516006],[-0.091933,51.515984],[-0.091872,51.515983],[-0.091872,51.515996],[-0.09185,51.515996],[-0.09185,51.515983],[-0.091793,51.515982],[-0.091791,51.515991],[-0.091776,51.51599],[-0.091777,51.515984],[-0.091715,51.51598],[-0.091712,51.516006],[-0.091692,51.516005],[-0.091695,51.515982],[-0.091649,51.51598],[-0.091634,51.515989],[-0.091633,51.516005],[-0.091614,51.516004],[-0.091615,51.515994],[-0.09161,51.515994],[-0.091602,51.515991],[-0.091596,51.515986],[-0.091594,51.515981],[-0.091589,51.51598],[-0.091587,51.515996],[-0.091517,51.515996],[-0.09151,51.516041],[-0.091504,51.516041],[-0.091502,51.51606],[-0.091498,51.516211],[-0.091462,51.516211],[-0.091461,51.516254],[-0.091481,51.516254],[-0.09148,51.516289],[-0.09146,51.516288],[-0.091459,51.516335],[-0.091502,51.516335],[-0.0915,51.516385]]]]},"properties":{"entry-date":"2026-09-02","start-date":"2021-09-17","end-date":"2026-09-16","entity":2300201,"name":"North Wing, The Guildhall","dataset":"certificate-of-immunity","typology":"geography","reference":"1477241","prefix":"certificate-of-immunity","organisation-entity":16,"quality":"authoritative","documentation-url":"https://historicengland.org.uk/listing/the-list/list-entry/1477241","in_zone":true,"whole_in_zone":true,"in_cw":false}},
{"type":"Feature","geometry":{"type":"MultiPolygon","coordinates":[[[[-0.007854,51.509975],[-0.007869,51.509975],[-0.007885,51.509929],[-0.007806,51.509526],[-0.007846,51.509124],[-0.007855,51.509086],[-0.007874,51.508985],[-0.007703,51.508979],[-0.007698,51.509021],[-0.0077,51.509098],[-0.00766,51.509509],[-0.007736,51.50994],[-0.007776,51.509982],[-0.00779,51.50998],[-0.007793,51.510002],[-0.007859,51.51],[-0.007854,51.509975]]]]},"properties":{"entry-date":"2026-09-29","start-date":"2022-09-26","end-date":"2027-09-25","entity":2300213,"name":"Robin Hood Gardens","dataset":"certificate-of-immunity","typology":"geography","reference":"1473999","prefix":"certificate-of-immunity","organisation-entity":16,"quality":"authoritative","documentation-url":"https://historicengland.org.uk/listing/the-list/list-entry/1473999","in_zone":true,"whole_in_zone":true,"in_cw":true}},
{"type":"Feature","geometry":{"type":"MultiPolygon","coordinates":[[[[-0.062453,51.517684],[-0.062438,51.517613],[-0.062419,51.517616],[-0.062412,51.517589],[-0.062432,51.517587],[-0.062398,51.51745],[-0.062383,51.517454],[-0.062376,51.517425],[-0.062392,51.517425],[-0.062376,51.517364],[-0.06236,51.517354],[-0.061714,51.517414],[-0.061698,51.517364],[-0.061443,51.517388],[-0.061455,51.517439],[-0.061072,51.517473],[-0.061096,51.51757],[-0.061114,51.517579],[-0.061131,51.517636],[-0.061141,51.517636],[-0.061158,51.517709],[-0.061132,51.517712],[-0.061138,51.517735],[-0.061163,51.517732],[-0.061192,51.51786],[-0.061463,51.517835],[-0.061479,51.51783],[-0.061488,51.517825],[-0.061556,51.517817],[-0.061599,51.517804],[-0.061594,51.517785],[-0.061732,51.517774],[-0.061734,51.517781],[-0.061715,51.517784],[-0.061722,51.517802],[-0.061744,51.517798],[-0.061759,51.517827],[-0.061833,51.517809],[-0.061816,51.517782],[-0.0619,51.517764],[-0.061916,51.517793],[-0.062015,51.51777],[-0.06201,51.517763],[-0.062063,51.517759],[-0.062076,51.517745],[-0.062074,51.517732],[-0.062159,51.517724],[-0.062165,51.517745],[-0.062254,51.517736],[-0.062251,51.517709],[-0.062453,51.517684]]]]},"properties":{"entry-date":"2026-09-29","start-date":"2022-04-05","end-date":"2027-04-04","entity":2300221,"name":"Former Outpatients' Department and former Outpatintents' Annexe, Royal London Hospital","dataset":"certificate-of-immunity","typology":"geography","reference":"1480003","prefix":"certificate-of-immunity","organisation-entity":16,"quality":"authoritative","documentation-url":"https://historicengland.org.uk/listing/the-list/list-entry/1480003","in_zone":true,"whole_in_zone":true,"in_cw":false}},
{"type":"Feature","geometry":{"type":"MultiPolygon","coordinates":[[[[-0.081346,51.514131],[-0.081343,51.514464],[-0.081652,51.514465],[-0.081886,51.514464],[-0.081885,51.514133],[-0.081346,51.514131]]]]},"properties":{"entry-date":"2026-09-29","start-date":"2022-09-28","end-date":"2027-09-27","entity":2300248,"name":"St Helen's Tower, 1 Undershaft","dataset":"certificate-of-immunity","typology":"geography","reference":"1482873","prefix":"certificate-of-immunity","organisation-entity":16,"quality":"authoritative","documentation-url":"https://historicengland.org.uk/listing/the-list/list-entry/1482873","in_zone":true,"whole_in_zone":true,"in_cw":false}},
{"type":"Feature","geometry":{"type":"MultiPolygon","coordinates":[[[[-0.042801,51.497404],[-0.042713,51.497481],[-0.042745,51.497495],[-0.042636,51.497589],[-0.042681,51.497608],[-0.042336,51.497901],[-0.043135,51.498272],[-0.043024,51.498367],[-0.042993,51.498353],[-0.042913,51.498421],[-0.043087,51.498501],[-0.043156,51.498442],[-0.043181,51.498453],[-0.043025,51.498586],[-0.042735,51.498454],[-0.042709,51.498476],[-0.042694,51.498469],[-0.042811,51.498369],[-0.042379,51.498169],[-0.04227,51.498261],[-0.042222,51.498239],[-0.042102,51.498338],[-0.042114,51.498345],[-0.042584,51.498561],[-0.04259,51.498556],[-0.042635,51.498577],[-0.042641,51.498573],[-0.042658,51.498558],[-0.042613,51.498537],[-0.04265,51.498506],[-0.043006,51.49867],[-0.043078,51.498611],[-0.043372,51.498745],[-0.043434,51.498695],[-0.043461,51.498708],[-0.043532,51.498651],[-0.043502,51.498638],[-0.043741,51.498434],[-0.043748,51.498437],[-0.043959,51.498258],[-0.043982,51.498268],[-0.044002,51.498251],[-0.043979,51.49824],[-0.044061,51.498171],[-0.044083,51.498181],[-0.044114,51.498154],[-0.044125,51.498159],[-0.044166,51.498122],[-0.044173,51.498114],[-0.044162,51.498109],[-0.044182,51.498094],[-0.04416,51.498084],[-0.044984,51.497397],[-0.04463,51.497235],[-0.044642,51.497225],[-0.04461,51.497209],[-0.044722,51.497113],[-0.044616,51.497065],[-0.044618,51.497062],[-0.044618,51.497058],[-0.044611,51.497052],[-0.044601,51.497051],[-0.044591,51.497054],[-0.044548,51.497034],[-0.044271,51.497266],[-0.044179,51.497224],[-0.044004,51.497375],[-0.043888,51.497323],[-0.043909,51.497303],[-0.043885,51.497292],[-0.043866,51.497309],[-0.043322,51.497064],[-0.043218,51.497152],[-0.043138,51.497224],[-0.042982,51.497147],[-0.042846,51.497261],[-0.042722,51.497368],[-0.042801,51.497404]]],[[[-0.042962,51.496891],[-0.042632,51.496441],[-0.042398,51.496508],[-0.042728,51.496958],[-0.042962,51.496891]]],[[[-0.041701,51.497727],[-0.041698,51.497728],[-0.041748,51.497935],[-0.041903,51.497921],[-0.041852,51.497713],[-0.041701,51.497727]]],[[[-0.041809,51.497947],[-0.04178,51.497951],[-0.041753,51.497959],[-0.04173,51.497971],[-0.041713,51.497986],[-0.041702,51.498004],[-0.041697,51.498022],[-0.0417,51.498041],[-0.04171,51.498058],[-0.041726,51.498074],[-0.041745,51.498085],[-0.041784,51.498098],[-0.041808,51.498101],[-0.041834,51.498101],[-0.04187,51.498095],[-0.041886,51.498089],[-0.041911,51.498077],[-0.04193,51.498061],[-0.04194,51.498045],[-0.041945,51.498026],[-0.041942,51.498008],[-0.041932,51.49799],[-0.041915,51.497974],[-0.041894,51.497961],[-0.041868,51.497952],[-0.041839,51.497948],[-0.041809,51.497947]]],[[[-0.042187,51.498237],[-0.041985,51.498143],[-0.041879,51.498232],[-0.04208,51.498326],[-0.042187,51.498237]]]]},"properties":{"entry-date":"2026-09-29","start-date":"2023-02-09","end-date":"2028-02-08","entity":2300254,"name":"The Printworks (former Harmsworth Quays Printing Works)","dataset":"certificate-of-immunity","typology":"geography","reference":"1484065","prefix":"certificate-of-immunity","organisation-entity":16,"quality":"authoritative","documentation-url":"https://historicengland.org.uk/listing/the-list/list-entry/1484065","in_zone":true,"whole_in_zone":true,"in_cw":false}},
{"type":"Feature","geometry":{"type":"MultiPolygon","coordinates":[[[[-0.089774,51.520648],[-0.090465,51.52076],[-0.090489,51.520755],[-0.090711,51.52021],[-0.090701,51.520194],[-0.090006,51.520083],[-0.089774,51.520648]]]]},"properties":{"entry-date":"2026-09-29","start-date":"2023-10-02","end-date":"2028-10-01","entity":2300275,"name":"Milton Gate","dataset":"certificate-of-immunity","typology":"geography","reference":"1486883","prefix":"certificate-of-immunity","organisation-entity":16,"quality":"authoritative","documentation-url":"https://historicengland.org.uk/listing/the-list/list-entry/1486883","in_zone":true,"whole_in_zone":true,"in_cw":false}},
{"type":"Feature","geometry":{"type":"MultiPolygon","coordinates":[[[[-0.094831,51.517652],[-0.094832,51.517593],[-0.09441,51.517593],[-0.094409,51.517603],[-0.094225,51.517601],[-0.094246,51.517584],[-0.094262,51.517566],[-0.094276,51.517544],[-0.094287,51.517516],[-0.094286,51.517488],[-0.094278,51.517459],[-0.094263,51.517436],[-0.094249,51.51742],[-0.094219,51.517395],[-0.094202,51.517394],[-0.094199,51.517375],[-0.094098,51.517374],[-0.094107,51.517355],[-0.09391,51.517311],[-0.093894,51.51734],[-0.094003,51.517365],[-0.094004,51.517373],[-0.0938,51.517374],[-0.09379,51.517366],[-0.093777,51.517359],[-0.093753,51.51735],[-0.093734,51.517345],[-0.09371,51.517344],[-0.093683,51.517347],[-0.093665,51.517351],[-0.093637,51.517364],[-0.093624,51.517375],[-0.0933,51.517376],[-0.093299,51.517399],[-0.093279,51.5174],[-0.093272,51.517405],[-0.093256,51.517424],[-0.093245,51.517441],[-0.093236,51.517461],[-0.09323,51.517482],[-0.093228,51.517504],[-0.09323,51.517522],[-0.093235,51.517543],[-0.093252,51.517577],[-0.093274,51.517602],[-0.093301,51.517603],[-0.093301,51.517659],[-0.093424,51.517661],[-0.093471,51.517672],[-0.093474,51.517688],[-0.09348,51.517697],[-0.09349,51.517706],[-0.093515,51.517715],[-0.093534,51.517717],[-0.093562,51.517712],[-0.093573,51.517708],[-0.09362,51.51772],[-0.093586,51.517779],[-0.093575,51.517777],[-0.093546,51.517806],[-0.093531,51.517828],[-0.093522,51.517845],[-0.093515,51.517863],[-0.093511,51.517881],[-0.09352,51.517885],[-0.093397,51.51809],[-0.093487,51.518109],[-0.094304,51.518294],[-0.094535,51.517922],[-0.094547,51.517914],[-0.094569,51.517907],[-0.09459,51.517906],[-0.094613,51.517911],[-0.09467,51.51782],[-0.094687,51.517823],[-0.094718,51.517774],[-0.0947,51.517768],[-0.094726,51.517725],[-0.094759,51.517729],[-0.094761,51.517742],[-0.094781,51.517741],[-0.094783,51.51774],[-0.094783,51.51773],[-0.09482,51.517725],[-0.094846,51.517717],[-0.094831,51.517698],[-0.094824,51.517685],[-0.09482,51.517673],[-0.09482,51.517664],[-0.094829,51.517664],[-0.094831,51.517652]]]]},"properties":{"entry-date":"2026-09-29","start-date":"2023-12-01","end-date":"2028-11-30","entity":2300276,"name":"Alban Gate: 125 and 130 London Wall, including 2-10 Monkwell Square","dataset":"certificate-of-immunity","typology":"geography","reference":"1487022","prefix":"certificate-of-immunity","organisation-entity":16,"quality":"authoritative","documentation-url":"https://historicengland.org.uk/listing/the-list/list-entry/1487022","in_zone":true,"whole_in_zone":true,"in_cw":false}},
{"type":"Feature","geometry":{"type":"MultiPolygon","coordinates":[[[[-0.082482,51.515524],[-0.082929,51.515733],[-0.08298,51.515755],[-0.083255,51.5155],[-0.083326,51.515526],[-0.083355,51.515496],[-0.083394,51.515509],[-0.083432,51.51547],[-0.083448,51.515475],[-0.083513,51.515403],[-0.083418,51.515372],[-0.083434,51.515356],[-0.083165,51.515239],[-0.083337,51.515092],[-0.083048,51.514964],[-0.082932,51.515074],[-0.082752,51.51525],[-0.082482,51.515524]]]]},"properties":{"entry-date":"2026-09-29","start-date":"2024-01-03","end-date":"2029-01-02","entity":2300284,"name":"55 Bishopsgate","dataset":"certificate-of-immunity","typology":"geography","reference":"1488052","prefix":"certificate-of-immunity","organisation-entity":16,"quality":"authoritative","documentation-url":"https://historicengland.org.uk/listing/the-list/list-entry/1488052","in_zone":true,"whole_in_zone":true,"in_cw":false}},
{"type":"Feature","geometry":{"type":"MultiPolygon","coordinates":[[[[-0.07626,51.522046],[-0.076272,51.522019],[-0.076162,51.521929],[-0.076145,51.521943],[-0.075919,51.521939],[-0.075803,51.521847],[-0.075765,51.521865],[-0.075764,51.521909],[-0.075808,51.521911],[-0.075796,51.52211],[-0.076143,51.522126],[-0.07626,51.522046]]]]},"properties":{"entry-date":"2026-09-29","start-date":"2024-08-22","end-date":"2029-08-21","entity":2300294,"name":"Former Luxor Cinema, 154 Commercial Street","dataset":"certificate-of-immunity","typology":"geography","reference":"1488843","prefix":"certificate-of-immunity","organisation-entity":16,"quality":"authoritative","documentation-url":"https://historicengland.org.uk/listing/the-list/list-entry/1488843","in_zone":true,"whole_in_zone":false,"in_cw":false}},
{"type":"Feature","geometry":{"type":"MultiPolygon","coordinates":[[[[-0.076041,51.521834],[-0.075926,51.52189],[-0.07597,51.521927],[-0.075984,51.521922],[-0.075989,51.521927],[-0.076057,51.521933],[-0.076078,51.521924],[-0.076087,51.52193],[-0.076101,51.521933],[-0.07612,51.521927],[-0.076125,51.52192],[-0.076126,51.521903],[-0.076041,51.521834]]]]},"properties":{"entry-date":"2026-09-29","start-date":"2024-05-30","end-date":"2029-05-29","entity":2300297,"name":"152 Commercial Street","dataset":"certificate-of-immunity","typology":"geography","reference":"1488867","prefix":"certificate-of-immunity","organisation-entity":16,"quality":"authoritative","documentation-url":"https://historicengland.org.uk/listing/the-list/list-entry/1488867","in_zone":true,"whole_in_zone":true,"in_cw":false}},
{"type":"Feature","geometry":{"type":"MultiPolygon","coordinates":[[[[-0.081382,51.510949],[-0.081476,51.510615],[-0.081594,51.510207],[-0.081563,51.510206],[-0.08151,51.510137],[-0.081524,51.510121],[-0.08104,51.509952],[-0.081022,51.509966],[-0.080746,51.50987],[-0.080647,51.5099],[-0.080594,51.510097],[-0.080564,51.510093],[-0.080431,51.510558],[-0.080407,51.510553],[-0.080175,51.511361],[-0.080192,51.511394],[-0.081376,51.511326],[-0.081379,51.511222],[-0.081382,51.510949]]]]},"properties":{"entry-date":"2026-09-29","start-date":"2024-09-23","end-date":"2029-09-22","entity":2300303,"name":"Minster Court including equine sculptures","dataset":"certificate-of-immunity","typology":"geography","reference":"1489024","prefix":"certificate-of-immunity","organisation-entity":16,"quality":"authoritative","documentation-url":"https://historicengland.org.uk/listing/the-list/list-entry/1489024","in_zone":true,"whole_in_zone":true,"in_cw":false}},
{"type":"Feature","geometry":{"type":"MultiPolygon","coordinates":[[[[-0.057519,51.509835],[-0.05752,51.50984],[-0.057675,51.509825],[-0.057715,51.509984],[-0.057761,51.50998],[-0.057779,51.510059],[-0.0584,51.510004],[-0.058387,51.509956],[-0.058403,51.509954],[-0.058407,51.509968],[-0.058582,51.509952],[-0.05858,51.509941],[-0.058595,51.50994],[-0.058615,51.51004],[-0.058787,51.510017],[-0.058723,51.509727],[-0.058718,51.509712],[-0.058543,51.509727],[-0.058544,51.509733],[-0.058007,51.509781],[-0.058009,51.50979],[-0.057674,51.509821],[-0.057519,51.509835]]],[[[-0.057567,51.509836],[-0.05752,51.50984],[-0.057533,51.509889],[-0.057627,51.510158],[-0.057638,51.510157],[-0.057542,51.509888],[-0.05758,51.509884],[-0.057567,51.509836]]]]},"properties":{"entry-date":"2026-09-29","start-date":"2024-11-20","end-date":"2029-11-19","entity":2300321,"name":"St George's Leisure Centre including substation, south-east gates and east boundary wall","dataset":"certificate-of-immunity","typology":"geography","reference":"1491167","prefix":"certificate-of-immunity","organisation-entity":16,"quality":"authoritative","documentation-url":"https://historicengland.org.uk/listing/the-list/list-entry/1491167","in_zone":true,"whole_in_zone":true,"in_cw":false}},
{"type":"Feature","geometry":{"type":"MultiPolygon","coordinates":[[[[-0.081724,51.512346],[-0.081541,51.512345],[-0.081519,51.512472],[-0.081536,51.512497],[-0.082157,51.512601],[-0.082194,51.512594],[-0.082283,51.512484],[-0.082015,51.512403],[-0.08205,51.512306],[-0.082092,51.512226],[-0.08204,51.512213],[-0.082029,51.512232],[-0.081764,51.512194],[-0.081724,51.512346]]]]},"properties":{"entry-date":"2026-09-29","start-date":"2025-01-17","end-date":"2030-01-16","entity":2300331,"name":"40 Lime Street and 4 Fenchurch Avenue","dataset":"certificate-of-immunity","typology":"geography","reference":"1491168","prefix":"certificate-of-immunity","organisation-entity":16,"quality":"authoritative","documentation-url":"https://historicengland.org.uk/listing/the-list/list-entry/1491168","in_zone":true,"whole_in_zone":true,"in_cw":false}},
{"type":"Feature","geometry":{"type":"MultiPolygon","coordinates":[[[[-0.090492,51.502875],[-0.090455,51.502915],[-0.090474,51.502922],[-0.090444,51.502952],[-0.090615,51.50302],[-0.090644,51.502988],[-0.090625,51.502981],[-0.090675,51.502927],[-0.090502,51.502864],[-0.090492,51.502875]]]]},"properties":{"entry-date":"2026-09-29","start-date":"2025-01-08","end-date":"2030-01-07","entity":2300332,"name":"9 Newcomen Street","dataset":"certificate-of-immunity","typology":"geography","reference":"1491850","prefix":"certificate-of-immunity","organisation-entity":16,"quality":"authoritative","documentation-url":"https://historicengland.org.uk/listing/the-list/list-entry/1491850","in_zone":true,"whole_in_zone":true,"in_cw":false}},
{"type":"Feature","geometry":{"type":"MultiPolygon","coordinates":[[[[-0.080678,51.515261],[-0.080766,51.515288],[-0.080808,51.515303],[-0.080953,51.515331],[-0.080991,51.515262],[-0.081097,51.515082],[-0.081145,51.515092],[-0.081218,51.514959],[-0.08122,51.514956],[-0.081225,51.514957],[-0.081305,51.514805],[-0.081355,51.514815],[-0.081349,51.514639],[-0.081236,51.51463],[-0.081211,51.514681],[-0.08117,51.514672],[-0.081193,51.514626],[-0.081119,51.514613],[-0.081126,51.5146],[-0.081041,51.514585],[-0.081035,51.514597],[-0.080964,51.514585],[-0.080837,51.514855],[-0.080825,51.514857],[-0.080813,51.514862],[-0.080795,51.514873],[-0.080777,51.514894],[-0.08076,51.514917],[-0.08075,51.514935],[-0.08075,51.514945],[-0.080726,51.514931],[-0.080407,51.515155],[-0.080542,51.515231],[-0.080562,51.515217],[-0.080615,51.515248],[-0.080633,51.515235],[-0.080678,51.515261]]]]},"properties":{"entry-date":"2026-09-29","start-date":"2025-01-17","end-date":"2030-01-16","entity":2300333,"name":"Exchequer Court, 25-51 St Mary Axe/ 9 St Helen's Place","dataset":"certificate-of-immunity","typology":"geography","reference":"1492320","prefix":"certificate-of-immunity","organisation-entity":16,"quality":"authoritative","documentation-url":"https://historicengland.org.uk/listing/the-list/list-entry/1492320","in_zone":true,"whole_in_zone":true,"in_cw":false}},
{"type":"Feature","geometry":{"type":"MultiPolygon","coordinates":[[[[-0.082152,51.512239],[-0.082192,51.512177],[-0.082138,51.512174],[-0.082169,51.512025],[-0.08206,51.512018],[-0.082059,51.511717],[-0.082027,51.511706],[-0.081364,51.511842],[-0.081349,51.511862],[-0.081561,51.512088],[-0.081788,51.512073],[-0.081795,51.512099],[-0.081763,51.512197],[-0.082027,51.512229],[-0.082035,51.512212],[-0.082152,51.512239]]]]},"properties":{"entry-date":"2026-09-29","start-date":"2025-01-08","end-date":"2030-01-07","entity":2300334,"name":"Fountain House, 130 Fenchurch Street, City of London","dataset":"certificate-of-immunity","typology":"geography","reference":"1492420","prefix":"certificate-of-immunity","organisation-entity":16,"quality":"authoritative","documentation-url":"https://historicengland.org.uk/listing/the-list/list-entry/1492420","in_zone":true,"whole_in_zone":true,"in_cw":false}},
{"type":"Feature","geometry":{"type":"MultiPolygon","coordinates":[[[[-0.087792,51.506792],[-0.087812,51.506794],[-0.087928,51.506443],[-0.087666,51.50641],[-0.087501,51.506481],[-0.087276,51.506452],[-0.08728,51.506446],[-0.086755,51.506304],[-0.086567,51.506575],[-0.086862,51.506656],[-0.087767,51.506785],[-0.087779,51.50678],[-0.087792,51.506792]]],[[[-0.086862,51.506656],[-0.086845,51.506711],[-0.087243,51.506761],[-0.087258,51.506717],[-0.086862,51.506656]]]]},"properties":{"entry-date":"2026-09-29","start-date":"2025-12-01","end-date":"2030-11-30","entity":2300398,"name":"1 London Bridge","dataset":"certificate-of-immunity","typology":"geography","reference":"1495295","prefix":"certificate-of-immunity","organisation-entity":16,"quality":"authoritative","documentation-url":"https://historicengland.org.uk/listing/the-list/list-entry/1495295","in_zone":true,"whole_in_zone":true,"in_cw":false}},
{"type":"Feature","geometry":{"type":"MultiPolygon","coordinates":[[[[-0.0915,51.516385],[-0.091704,51.516386],[-0.091706,51.516335],[-0.092255,51.516337],[-0.092254,51.516386],[-0.092462,51.516387],[-0.092462,51.516337],[-0.092491,51.516337],[-0.09249,51.516288],[-0.092475,51.516289],[-0.092475,51.516259],[-0.092491,51.516259],[-0.092491,51.516209],[-0.092451,51.516209],[-0.092451,51.51613],[-0.092381,51.51613],[-0.092382,51.516043],[-0.092361,51.516043],[-0.092361,51.515981],[-0.092306,51.51598],[-0.092297,51.515986],[-0.092298,51.516002],[-0.092283,51.516001],[-0.092283,51.515993],[-0.092267,51.515983],[-0.092205,51.515982],[-0.092204,51.516006],[-0.092185,51.516006],[-0.092185,51.515983],[-0.09212,51.515982],[-0.09212,51.516006],[-0.092102,51.516006],[-0.092102,51.515983],[-0.092036,51.515982],[-0.092036,51.516006],[-0.092016,51.516006],[-0.092016,51.515983],[-0.091952,51.515983],[-0.091954,51.516006],[-0.091933,51.516006],[-0.091933,51.515984],[-0.091872,51.515983],[-0.091872,51.515996],[-0.09185,51.515996],[-0.09185,51.515983],[-0.091793,51.515982],[-0.091791,51.515991],[-0.091776,51.51599],[-0.091777,51.515984],[-0.091715,51.51598],[-0.091712,51.516006],[-0.091692,51.516005],[-0.091695,51.515982],[-0.091649,51.51598],[-0.091634,51.515989],[-0.091633,51.516005],[-0.091614,51.516004],[-0.091615,51.515994],[-0.09161,51.515994],[-0.091602,51.515991],[-0.091596,51.515986],[-0.091594,51.515981],[-0.091589,51.51598],[-0.091587,51.515996],[-0.091517,51.515996],[-0.09151,51.516041],[-0.091504,51.516041],[-0.091502,51.51606],[-0.091498,51.516211],[-0.091462,51.516211],[-0.091461,51.516254],[-0.091481,51.516254],[-0.09148,51.516289],[-0.09146,51.516288],[-0.091459,51.516335],[-0.091502,51.516335],[-0.0915,51.516385]]]]},"properties":{"entry-date":"2026-09-29","start-date":"2026-01-07","end-date":"2031-01-06","entity":2300401,"name":"The North Wing, Guildhall","dataset":"certificate-of-immunity","typology":"geography","reference":"1495704","prefix":"certificate-of-immunity","organisation-entity":16,"quality":"authoritative","documentation-url":"https://historicengland.org.uk/listing/the-list/list-entry/1495704","in_zone":true,"whole_in_zone":true,"in_cw":false}},
{"type":"Feature","geometry":{"type":"MultiPolygon","coordinates":[[[[-0.078884,51.512445],[-0.078882,51.512445],[-0.078929,51.512486],[-0.079171,51.512399],[-0.079131,51.512356],[-0.078938,51.512425],[-0.078846,51.512341],[-0.078794,51.512361],[-0.078884,51.512445]]]]},"properties":{"entry-date":"2026-09-29","start-date":"2026-07-21","end-date":"2031-07-20","entity":2300416,"name":"68-69 Fenchurch Street","dataset":"certificate-of-immunity","typology":"geography","reference":"1497049","prefix":"certificate-of-immunity","organisation-entity":16,"quality":"authoritative","documentation-url":"https://historicengland.org.uk/listing/the-list/list-entry/1497049","in_zone":true,"whole_in_zone":true,"in_cw":false}},
{"type":"Feature","geometry":{"type":"MultiPolygon","coordinates":[[[[-0.021037,51.505641],[-0.021,51.505639],[-0.020889,51.506018],[-0.020922,51.506024],[-0.020889,51.506138],[-0.022218,51.506287],[-0.022393,51.506207],[-0.022545,51.505695],[-0.021066,51.505537],[-0.021037,51.505641]]]]},"properties":{"entry-date":"2026-09-29","start-date":"2026-09-25","end-date":"2031-09-24","entity":2300425,"name":"10 Cabot Square","dataset":"certificate-of-immunity","typology":"geography","reference":"1497690","prefix":"certificate-of-immunity","organisation-entity":16,"quality":"authoritative","documentation-url":"https://historicengland.org.uk/listing/the-list/list-entry/1497690","in_zone":true,"whole_in_zone":true,"in_cw":true}}
]}
