{"type":"FeatureCollection","meta":{
 "source": "London Datastore: Housing in London - The evidence base for the Mayor's Housing Strategy (Greater London Authority)",
 "dataset": "24rpx",
 "page": "https://data.london.gov.uk/dataset/housing-in-london-the-evidence-base-for-the-mayors-housing-strat-24rpx",
 "resources": [
  {
   "resource": "2bb19607-57d7-4ac3-921f-da6e30a9e5c6",
   "file": "Housing in London 2018 tables.xls",
   "url": "https://data.london.gov.uk/download/24rpx/2bb19607-57d7-4ac3-921f-da6e30a9e5c6/Housing%20in%20London%202018%20tables.xls",
   "size": 3070464,
   "resource_date": "2018-07-27",
   "fetched": "2026-10-04"
  }
 ],
 "licence": "Open Government Licence v2",
 "licence_url": "https://www.nationalarchives.gov.uk/doc/open-government-licence/version/2/",
 "attribution": "Contains public sector information licensed under the Open Government Licence v2 (Greater London Authority). The GLA cannot warrant the quality or accuracy of the data (London Datastore terms).",
 "dataset_modified": "2026-04-23",
 "update_frequency": "Annually",
 "geo": "Middle Super Output Area",
 "theme": "environment",
 "layers": [
  {
   "table": "Housing in London 2018 tables.xls#3.13 Tall buildings",
   "srs": "per row",
   "columns": [
    "Easting",
    "Northing"
   ],
   "rows_read": 312
  }
 ],
 "crs_source": "EPSG:per row",
 "crs_output": "EPSG:4326 (WGS84), 6 decimal places; BNG to WGS84 through the OS OSTN15 grid (lib.mjs bngProjector)",
 "method": "lds-harvest-auto.mjs run 24rpx: resources chosen by the written rules (harvest-log.json meta.rules: formats, dedupe, caps); every feature read (GeoPackage, GeoJSON, shapefile, or table rows with coordinate columns as points, the CRS judged per row by value); a feature is kept when it meets the zone (the 3D model box, BNG E 532400-539900, N 176700-182300): a vertex inside, an edge crossing or the box inside a polygon; whole geometries kept, whole_in_zone and in_cw added; WGS84 6 decimals through OSTN15; contact fields dropped.",
 "counts": {
  "source_features": 83,
  "no_geometry": 0,
  "in_zone": 83,
  "in_cw": 17,
  "table_rows_read": 312,
  "note": "features made from table rows: source_features counts the zone rows only; table_rows_read counts every row read"
 },
 "attributes_in_source": "yes",
 "fields_dropped": [],
 "harvest_rules": "tools/lds-harvest-auto.mjs AUTO_RULES (feeds/london-datastore/harvest-log.json meta.rules)",
 "selection_notes": []
},
"features":[
{"type":"Feature","properties":{"LPA":"City of London","Ref":"11/00905/FULL","Status":"Started","Height of tallest building in floors":44,"Postcode":"EC2","Easting":533286,"Northing":181496,"Use":"Residential, Non-residential, Bedrooms","Proposed_units":160,"in_cw":false,"whole_in_zone":true},"geometry":{"type":"Point","coordinates":[-0.080446,51.516671]}},
{"type":"Feature","properties":{"LPA":"Greenwich","Ref":"13/2865","Status":"Started","Height of tallest building in floors":32,"Postcode":"SE10","Easting":539729,"Northing":179577,"Use":"Residential, Non-residential, ","Proposed_units":520,"in_cw":false,"whole_in_zone":true},"geometry":{"type":"Point","coordinates":[0.011591,51.497871]}},
{"type":"Feature","properties":{"LPA":"Greenwich","Ref":"13/3025","Status":"Started","Height of tallest building in floors":13,"Postcode":"SE10","Easting":539147,"Northing":178757,"Use":"Residential, Non-residential, Bedrooms","Proposed_units":770,"in_cw":false,"whole_in_zone":true},"geometry":{"type":"Point","coordinates":[0.002889,51.490646]}},
{"type":"Feature","properties":{"LPA":"Greenwich","Ref":"14/0293","Status":"Started","Height of tallest building in floors":18,"Postcode":"SE10 0AG","Easting":539414,"Northing":178714,"Use":"Residential, Non-residential, ","Proposed_units":272,"in_cw":false,"whole_in_zone":true},"geometry":{"type":"Point","coordinates":[0.006715,51.490194]}},
{"type":"Feature","properties":{"LPA":"Greenwich","Ref":"14/0460","Status":"Started","Height of tallest building in floors":10,"Postcode":"SE10","Easting":539148,"Northing":178524,"Use":"Residential, Non-residential, ","Proposed_units":439,"in_cw":false,"whole_in_zone":true},"geometry":{"type":"Point","coordinates":[0.002811,51.488552]}},
{"type":"Feature","properties":{"LPA":"Greenwich","Ref":"14/1775","Status":"Submitted","Height of tallest building in floors":10,"Postcode":"SE10 9HG","Easting":538059,"Northing":177844,"Use":"Residential, ","Proposed_units":41,"in_cw":false,"whole_in_zone":true},"geometry":{"type":"Point","coordinates":[-0.013129,51.482708]}},
{"type":"Feature","properties":{"LPA":"Greenwich","Ref":"14/3795","Status":"Submitted","Height of tallest building in floors":22,"Postcode":"SE8","Easting":537785,"Northing":177637,"Use":"Residential, ","Proposed_units":249,"in_cw":false,"whole_in_zone":true},"geometry":{"type":"Point","coordinates":[-0.017154,51.480914]}},
{"type":"Feature","properties":{"LPA":"Greenwich","Ref":"15/0716","Status":"Started","Height of tallest building in floors":40,"Postcode":"SE10","Easting":539263,"Northing":179740,"Use":"Residential, Non-residential, Bedrooms","Proposed_units":12898,"in_cw":false,"whole_in_zone":true},"geometry":{"type":"Point","coordinates":[0.004946,51.499451]}},
{"type":"Feature","properties":{"LPA":"Greenwich","Ref":"15/0973","Status":"Started","Height of tallest building in floors":27,"Postcode":"SE10 OAG","Easting":539147,"Northing":178757,"Use":"Residential, Non-residential, ","Proposed_units":477,"in_cw":false,"whole_in_zone":true},"geometry":{"type":"Point","coordinates":[0.002889,51.490646]}},
{"type":"Feature","properties":{"LPA":"Greenwich","Ref":"15/2104","Status":"Submitted","Height of tallest building in floors":38,"Postcode":"SE10","Easting":539688,"Northing":179641,"Use":"Residential, ","Proposed_units":260,"in_cw":false,"whole_in_zone":true},"geometry":{"type":"Point","coordinates":[0.011026,51.498456]}},
{"type":"Feature","properties":{"LPA":"Greenwich","Ref":"16/0186","Status":"Started","Height of tallest building in floors":28,"Postcode":"SE10","Easting":539492,"Northing":179936,"Use":"Residential, Non-residential, ","Proposed_units":1007,"in_cw":false,"whole_in_zone":true},"geometry":{"type":"Point","coordinates":[0.008321,51.501155]}},
{"type":"Feature","properties":{"LPA":"Greenwich","Ref":"16/1792","Status":"Submitted","Height of tallest building in floors":14,"Postcode":"SE10 8LR","Easting":537593,"Northing":177029,"Use":"Residential, ","Proposed_units":125,"in_cw":false,"whole_in_zone":true},"geometry":{"type":"Point","coordinates":[-0.020154,51.475497]}},
{"type":"Feature","properties":{"LPA":"Hackney","Ref":"2015/3453","Status":"Submitted","Height of tallest building in floors":40,"Postcode":"EC2A 3LS","Easting":533304,"Northing":182173,"Use":"Residential, Non-residential, ","Proposed_units":412,"in_cw":false,"whole_in_zone":true},"geometry":{"type":"Point","coordinates":[-0.079931,51.522751]}},
{"type":"Feature","properties":{"LPA":"Hackney","Ref":"2016/2044","Status":"Started","Height of tallest building in floors":50,"Postcode":"EC2A 3B","Easting":533339,"Northing":182105,"Use":"Residential, Non-residential, ","Proposed_units":357,"in_cw":false,"whole_in_zone":true},"geometry":{"type":"Point","coordinates":[-0.079453,51.522132]}},
{"type":"Feature","properties":{"LPA":"Lewisham","Ref":"10/75331","Status":"Started","Height of tallest building in floors":12,"Postcode":"SE8","Easting":536188,"Northing":178019,"Use":"Residential, Non-residential, ","Proposed_units":199,"in_cw":false,"whole_in_zone":true},"geometry":{"type":"Point","coordinates":[-0.03999,51.484734]}},
{"type":"Feature","properties":{"LPA":"Lewisham","Ref":"12/082000","Status":"Started","Height of tallest building in floors":12,"Postcode":"SE8 3DX","Easting":537577,"Northing":177248,"Use":"Residential, Non-residential, ","Proposed_units":148,"in_cw":false,"whole_in_zone":true},"geometry":{"type":"Point","coordinates":[-0.020298,51.477469]}},
{"type":"Feature","properties":{"LPA":"Lewisham","Ref":"13/083358","Status":"Submitted","Height of tallest building in floors":48,"Postcode":"SE8 3JH","Easting":536997,"Northing":178274,"Use":"Residential, Non-residential, ","Proposed_units":3500,"in_cw":false,"whole_in_zone":true},"geometry":{"type":"Point","coordinates":[-0.028247,51.48683]}},
{"type":"Feature","properties":{"LPA":"Lewisham","Ref":"14/089953","Status":"Submitted","Height of tallest building in floors":16,"Postcode":"SE8 3DZ","Easting":537594,"Northing":177463,"Use":"Residential, Non-residential, ","Proposed_units":143,"in_cw":false,"whole_in_zone":true},"geometry":{"type":"Point","coordinates":[-0.01997,51.479397]}},
{"type":"Feature","properties":{"LPA":"Lewisham","Ref":"14/090267","Status":"Started","Height of tallest building in floors":10,"Postcode":"SE14 6BL","Easting":536271,"Northing":177075,"Use":"Residential, ","Proposed_units":89,"in_cw":false,"whole_in_zone":true},"geometry":{"type":"Point","coordinates":[-0.039159,51.476231]}},
{"type":"Feature","properties":{"LPA":"Lewisham","Ref":"15/091087","Status":"Started","Height of tallest building in floors":10,"Postcode":"SE16","Easting":536481,"Northing":178859,"Use":"Residential, Non-residential, ","Proposed_units":225,"in_cw":false,"whole_in_zone":true},"geometry":{"type":"Point","coordinates":[-0.035448,51.492212]}},
{"type":"Feature","properties":{"LPA":"Lewisham","Ref":"15/092295","Status":"Started","Height of tallest building in floors":24,"Postcode":"SE8","Easting":536512,"Northing":178327,"Use":"Residential, Non-residential, ","Proposed_units":1132,"in_cw":false,"whole_in_zone":true},"geometry":{"type":"Point","coordinates":[-0.035208,51.487424]}},
{"type":"Feature","properties":{"LPA":"Lewisham","Ref":"15/093101","Status":"Started","Height of tallest building in floors":22,"Postcode":"SE14 6EB","Easting":536548,"Northing":177689,"Use":"Residential, Non-residential, ","Proposed_units":316,"in_cw":false,"whole_in_zone":true},"geometry":{"type":"Point","coordinates":[-0.034936,51.481682]}},
{"type":"Feature","properties":{"LPA":"Newham","Ref":"08/02263","Status":"Submitted","Height of tallest building in floors":22,"Postcode":"E16","Easting":539630,"Northing":181680,"Use":"Residential, Non-residential, ","Proposed_units":652,"in_cw":false,"whole_in_zone":true},"geometry":{"type":"Point","coordinates":[0.010998,51.516793]}},
{"type":"Feature","properties":{"LPA":"Newham","Ref":"14/00147/REM","Status":"Started","Height of tallest building in floors":16,"Postcode":"E16 1EN","Easting":539510,"Northing":181492,"Use":"Residential, Non-residential, Bedrooms","Proposed_units":349,"in_cw":false,"whole_in_zone":true},"geometry":{"type":"Point","coordinates":[0.009196,51.515134]}},
{"type":"Feature","properties":{"LPA":"Southwark","Ref":"10-AP-1935","Status":"Started","Height of tallest building in floors":20,"Postcode":"SE1","Easting":533520,"Northing":180067,"Use":"Residential, Non-residential, ","Proposed_units":374,"in_cw":false,"whole_in_zone":true},"geometry":{"type":"Point","coordinates":[-0.077617,51.503774]}},
{"type":"Feature","properties":{"LPA":"Southwark","Ref":"12-AP-4126","Status":"Started","Height of tallest building in floors":40,"Postcode":"SE16 2XU","Easting":535710,"Northing":179451,"Use":"Residential, Non-residential, ","Proposed_units":1030,"in_cw":false,"whole_in_zone":true},"geometry":{"type":"Point","coordinates":[-0.046319,51.497717]}},
{"type":"Feature","properties":{"LPA":"Southwark","Ref":"13-AP-0065","Status":"Started","Height of tallest building in floors":19,"Postcode":"SE16 3HG","Easting":534493,"Northing":178058,"Use":"Residential, Non-residential, ","Proposed_units":158,"in_cw":false,"whole_in_zone":true},"geometry":{"type":"Point","coordinates":[-0.064372,51.48549]}},
{"type":"Feature","properties":{"LPA":"Southwark","Ref":"14-AP-1302","Status":"Started","Height of tallest building in floors":26,"Postcode":"SE1","Easting":532843,"Northing":180150,"Use":"Residential, Non-residential, ","Proposed_units":148,"in_cw":false,"whole_in_zone":true},"geometry":{"type":"Point","coordinates":[-0.087334,51.50468]}},
{"type":"Feature","properties":{"LPA":"Southwark","Ref":"14-AP-3843","Status":"Submitted","Height of tallest building in floors":20,"Postcode":"SE17","Easting":532719,"Northing":177769,"Use":"Residential, ","Proposed_units":830,"in_cw":false,"whole_in_zone":true},"geometry":{"type":"Point","coordinates":[-0.090015,51.483312]}},
{"type":"Feature","properties":{"LPA":"Southwark","Ref":"14-AP-3844","Status":"Submitted","Height of tallest building in floors":20,"Postcode":"SE17","Easting":533076,"Northing":178076,"Use":"Residential, Non-residential, ","Proposed_units":2745,"in_cw":false,"whole_in_zone":true},"geometry":{"type":"Point","coordinates":[-0.084761,51.485987]}},
{"type":"Feature","properties":{"LPA":"Southwark","Ref":"14-AP-4640","Status":"Submitted","Height of tallest building in floors":31,"Postcode":"SE1 3QD","Easting":532994,"Northing":179968,"Use":"Residential, ","Proposed_units":119,"in_cw":false,"whole_in_zone":true},"geometry":{"type":"Point","coordinates":[-0.085228,51.503009]}},
{"type":"Feature","properties":{"LPA":"Southwark","Ref":"16-AP-2681","Status":"Submitted","Height of tallest building in floors":11,"Postcode":"SE16 7LX","Easting":536631,"Northing":179518,"Use":"Residential, ","Proposed_units":74,"in_cw":false,"whole_in_zone":true},"geometry":{"type":"Point","coordinates":[-0.033034,51.498098]}},
{"type":"Feature","properties":{"LPA":"Tower Hamlets","Ref":"PA/04/00993","Status":"Started","Height of tallest building in floors":13,"Postcode":"E1 8JP","Easting":534125,"Northing":180812,"Use":"Residential, ","Proposed_units":89,"in_cw":false,"whole_in_zone":true},"geometry":{"type":"Point","coordinates":[-0.068622,51.510326]}},
{"type":"Feature","properties":{"LPA":"Tower Hamlets","Ref":"PA/10/01734","Status":"Started","Height of tallest building in floors":21,"Postcode":"E3 3QY","Easting":537618,"Northing":182189,"Use":"Residential, Non-residential, ","Proposed_units":557,"in_cw":false,"whole_in_zone":true},"geometry":{"type":"Point","coordinates":[-0.017781,51.521861]}},
{"type":"Feature","properties":{"LPA":"Tower Hamlets","Ref":"PA/11/00642","Status":"Started","Height of tallest building in floors":15,"Postcode":"E1","Easting":533907,"Northing":180848,"Use":"Residential, Non-residential, Bedrooms","Proposed_units":354,"in_cw":false,"whole_in_zone":true},"geometry":{"type":"Point","coordinates":[-0.071748,51.510701]}},
{"type":"Feature","properties":{"LPA":"Tower Hamlets","Ref":"PA/11/00798","Status":"Started","Height of tallest building in floors":14,"Postcode":"E14","Easting":537658,"Northing":179449,"Use":"Residential, ","Proposed_units":132,"in_cw":false,"whole_in_zone":true},"geometry":{"type":"Point","coordinates":[-0.018275,51.497229]}},
{"type":"Feature","properties":{"LPA":"Tower Hamlets","Ref":"PA/11/02716","Status":"Started","Height of tallest building in floors":10,"Postcode":"E14","Easting":538568,"Northing":181205,"Use":"Residential, Non-residential, ","Proposed_units":1176,"in_cw":false,"whole_in_zone":true},"geometry":{"type":"Point","coordinates":[-0.004484,51.512786]}},
{"type":"Feature","properties":{"LPA":"Tower Hamlets","Ref":"PA/11/03375","Status":"Started","Height of tallest building in floors":22,"Postcode":"E14 9RL","Easting":538165,"Northing":180676,"Use":"Residential, Non-residential, ","Proposed_units":392,"in_cw":true,"whole_in_zone":true},"geometry":{"type":"Point","coordinates":[-0.010495,51.508131]}},
{"type":"Feature","properties":{"LPA":"Tower Hamlets","Ref":"PA/11/03587","Status":"Started","Height of tallest building in floors":21,"Postcode":"E1 8EU","Easting":534096,"Northing":181178,"Use":"Residential, Non-residential, Bedrooms","Proposed_units":864,"in_cw":false,"whole_in_zone":true},"geometry":{"type":"Point","coordinates":[-0.068901,51.513622]}},
{"type":"Feature","properties":{"LPA":"Tower Hamlets","Ref":"PA/11/03670A","Status":"Submitted","Height of tallest building in floors":23,"Postcode":"E14 3BT","Easting":538022,"Northing":179177,"Use":"Residential, Non-residential, ","Proposed_units":766,"in_cw":false,"whole_in_zone":true},"geometry":{"type":"Point","coordinates":[-0.013141,51.494696]}},
{"type":"Feature","properties":{"LPA":"Tower Hamlets","Ref":"PA/12/00001","Status":"Started","Height of tallest building in floors":40,"Postcode":"E14","Easting":538298,"Northing":180865,"Use":"Residential, Non-residential, ","Proposed_units":1575,"in_cw":true,"whole_in_zone":true},"geometry":{"type":"Point","coordinates":[-0.008506,51.509797]}},
{"type":"Feature","properties":{"LPA":"Tower Hamlets","Ref":"PA/12/00360","Status":"Started","Height of tallest building in floors":14,"Postcode":"E14","Easting":538413,"Northing":179459,"Use":"Residential, ","Proposed_units":399,"in_cw":false,"whole_in_zone":true},"geometry":{"type":"Point","coordinates":[-0.007401,51.497134]}},
{"type":"Feature","properties":{"LPA":"Tower Hamlets","Ref":"PA/12/00637","Status":"Started","Height of tallest building in floors":22,"Postcode":"E14","Easting":537849,"Northing":181475,"Use":"Residential, ","Proposed_units":206,"in_cw":false,"whole_in_zone":true},"geometry":{"type":"Point","coordinates":[-0.014733,51.515388]}},
{"type":"Feature","properties":{"LPA":"Tower Hamlets","Ref":"PA/12/02923","Status":"Started","Height of tallest building in floors":13,"Postcode":"E14","Easting":537813,"Northing":179307,"Use":"Residential, ","Proposed_units":89,"in_cw":false,"whole_in_zone":true},"geometry":{"type":"Point","coordinates":[-0.016099,51.495915]}},
{"type":"Feature","properties":{"LPA":"Tower Hamlets","Ref":"PA/12/03248","Status":"Started","Height of tallest building in floors":75,"Postcode":"E1","Easting":537143,"Northing":180047,"Use":"Residential, Bedrooms","Proposed_units":822,"in_cw":true,"whole_in_zone":true},"geometry":{"type":"Point","coordinates":[-0.025457,51.502728]}},
{"type":"Feature","properties":{"LPA":"Tower Hamlets","Ref":"PA/13/00218","Status":"Started","Height of tallest building in floors":26,"Postcode":"E1","Easting":533984,"Northing":181291,"Use":"Residential, Non-residential, ","Proposed_units":463,"in_cw":false,"whole_in_zone":true},"geometry":{"type":"Point","coordinates":[-0.070471,51.514664]}},
{"type":"Feature","properties":{"LPA":"Tower Hamlets","Ref":"PA/13/01276A","Status":"Started","Height of tallest building in floors":33,"Postcode":"E98 1XY","Easting":534311,"Northing":180575,"Use":"Residential, Non-residential, ","Proposed_units":529,"in_cw":false,"whole_in_zone":true},"geometry":{"type":"Point","coordinates":[-0.066034,51.508152]}},
{"type":"Feature","properties":{"LPA":"Tower Hamlets","Ref":"PA/13/01455","Status":"Started","Height of tallest building in floors":58,"Postcode":"E1","Easting":537165,"Northing":180227,"Use":"Residential, Non-residential, ","Proposed_units":568,"in_cw":true,"whole_in_zone":true},"geometry":{"type":"Point","coordinates":[-0.02507,51.50434]}},
{"type":"Feature","properties":{"LPA":"Tower Hamlets","Ref":"PA/13/01527","Status":"Started","Height of tallest building in floors":15,"Postcode":"E1","Easting":533907,"Northing":180848,"Use":"Residential, ","Proposed_units":263,"in_cw":false,"whole_in_zone":true},"geometry":{"type":"Point","coordinates":[-0.071748,51.510701]}},
{"type":"Feature","properties":{"LPA":"Tower Hamlets","Ref":"PA/13/01656","Status":"Started","Height of tallest building in floors":11,"Postcode":"E14 7DR","Easting":536962,"Northing":181261,"Use":"Residential, ","Proposed_units":42,"in_cw":false,"whole_in_zone":true},"geometry":{"type":"Point","coordinates":[-0.027591,51.513681]}},
{"type":"Feature","properties":{"LPA":"Tower Hamlets","Ref":"PA/13/01873","Status":"Started","Height of tallest building in floors":22,"Postcode":"E1 8EU","Easting":534115,"Northing":181261,"Use":"Residential, Non-residential, ","Proposed_units":378,"in_cw":false,"whole_in_zone":true},"geometry":{"type":"Point","coordinates":[-0.068595,51.514363]}},
{"type":"Feature","properties":{"LPA":"Tower Hamlets","Ref":"PA/13/02644","Status":"Started","Height of tallest building in floors":46,"Postcode":"E14","Easting":537865,"Northing":179440,"Use":"Residential, Non-residential, Bedrooms","Proposed_units":1150,"in_cw":false,"whole_in_zone":true},"geometry":{"type":"Point","coordinates":[-0.015298,51.497097]}},
{"type":"Feature","properties":{"LPA":"Tower Hamlets","Ref":"PA/13/02911","Status":"Started","Height of tallest building in floors":12,"Postcode":"E14","Easting":536148,"Northing":181600,"Use":"Residential, ","Proposed_units":225,"in_cw":false,"whole_in_zone":true},"geometry":{"type":"Point","coordinates":[-0.039184,51.516924]}},
{"type":"Feature","properties":{"LPA":"Tower Hamlets","Ref":"PA/13/02966","Status":"Submitted","Height of tallest building in floors":56,"Postcode":"E14 9SF","Easting":538243,"Northing":180048,"Use":"Residential, Non-residential, Bedrooms","Proposed_units":3107,"in_cw":true,"whole_in_zone":true},"geometry":{"type":"Point","coordinates":[-0.009618,51.502469]}},
{"type":"Feature","properties":{"LPA":"Tower Hamlets","Ref":"PA/13/03068","Status":"Started","Height of tallest building in floors":14,"Postcode":"E1","Easting":534211,"Northing":180707,"Use":"Residential, ","Proposed_units":65,"in_cw":false,"whole_in_zone":true},"geometry":{"type":"Point","coordinates":[-0.067423,51.509362]}},
{"type":"Feature","properties":{"LPA":"Tower Hamlets","Ref":"PA/14/00293","Status":"Started","Height of tallest building in floors":23,"Postcode":"E14 9NQ","Easting":537991,"Northing":179446,"Use":"Residential, ","Proposed_units":134,"in_cw":false,"whole_in_zone":true},"geometry":{"type":"Point","coordinates":[-0.013482,51.49712]}},
{"type":"Feature","properties":{"LPA":"Tower Hamlets","Ref":"PA/14/00944","Status":"Started","Height of tallest building in floors":68,"Postcode":"E14","Easting":537733,"Northing":179852,"Use":"Residential, Non-residential, ","Proposed_units":888,"in_cw":true,"whole_in_zone":true},"geometry":{"type":"Point","coordinates":[-0.017038,51.500832]}},
{"type":"Feature","properties":{"LPA":"Tower Hamlets","Ref":"PA/14/01010","Status":"Started","Height of tallest building in floors":19,"Postcode":"E98 1XY","Easting":534427,"Northing":180564,"Use":"Residential, Non-residential, ","Proposed_units":177,"in_cw":false,"whole_in_zone":true},"geometry":{"type":"Point","coordinates":[-0.064367,51.508026]}},
{"type":"Feature","properties":{"LPA":"Tower Hamlets","Ref":"PA/14/01428","Status":"Started","Height of tallest building in floors":54,"Postcode":"E14","Easting":538037,"Northing":179758,"Use":"Residential, ","Proposed_units":423,"in_cw":true,"whole_in_zone":true},"geometry":{"type":"Point","coordinates":[-0.012698,51.499913]}},
{"type":"Feature","properties":{"LPA":"Tower Hamlets","Ref":"PA/14/02177","Status":"Started","Height of tallest building in floors":21,"Postcode":"E14","Easting":539315,"Northing":181161,"Use":"Residential, ","Proposed_units":417,"in_cw":false,"whole_in_zone":true},"geometry":{"type":"Point","coordinates":[0.006256,51.512207]}},
{"type":"Feature","properties":{"LPA":"Tower Hamlets","Ref":"PA/14/02480","Status":"Started","Height of tallest building in floors":24,"Postcode":"E14","Easting":538348,"Northing":180728,"Use":"Residential, ","Proposed_units":242,"in_cw":true,"whole_in_zone":true},"geometry":{"type":"Point","coordinates":[-0.00784,51.508554]}},
{"type":"Feature","properties":{"LPA":"Tower Hamlets","Ref":"PA/14/02817","Status":"Started","Height of tallest building in floors":23,"Postcode":"E1","Easting":534127,"Northing":181157,"Use":"Residential, Non-residential, ","Proposed_units":415,"in_cw":false,"whole_in_zone":true},"geometry":{"type":"Point","coordinates":[-0.068462,51.513426]}},
{"type":"Feature","properties":{"LPA":"Tower Hamlets","Ref":"PA/14/02819","Status":"Started","Height of tallest building in floors":33,"Postcode":"E98 1XY","Easting":534314,"Northing":180581,"Use":"Residential, ","Proposed_units":314,"in_cw":false,"whole_in_zone":true},"geometry":{"type":"Point","coordinates":[-0.065988,51.508205]}},
{"type":"Feature","properties":{"LPA":"Tower Hamlets","Ref":"PA/14/03195","Status":"Submitted","Height of tallest building in floors":44,"Postcode":"E14","Easting":537547,"Northing":179764,"Use":"Residential, Non-residential, ","Proposed_units":1513,"in_cw":true,"whole_in_zone":true},"geometry":{"type":"Point","coordinates":[-0.01975,51.500086]}},
{"type":"Feature","properties":{"LPA":"Tower Hamlets","Ref":"PA/14/03548","Status":"Submitted","Height of tallest building in floors":13,"Postcode":"E1","Easting":533442,"Northing":182028,"Use":"Residential, Non-residential, ","Proposed_units":40,"in_cw":false,"whole_in_zone":true},"geometry":{"type":"Point","coordinates":[-0.077998,51.521415]}},
{"type":"Feature","properties":{"LPA":"Tower Hamlets","Ref":"PA/14/03594","Status":"Started","Height of tallest building in floors":30,"Postcode":"E14 0JW","Easting":539384,"Northing":180777,"Use":"Residential, Non-residential, ","Proposed_units":804,"in_cw":false,"whole_in_zone":true},"geometry":{"type":"Point","coordinates":[0.007098,51.50874]}},
{"type":"Feature","properties":{"LPA":"Tower Hamlets","Ref":"PA/15/00039","Status":"Started","Height of tallest building in floors":12,"Postcode":"E14","Easting":537818,"Northing":181569,"Use":"Residential, ","Proposed_units":254,"in_cw":false,"whole_in_zone":true},"geometry":{"type":"Point","coordinates":[-0.015143,51.516241]}},
{"type":"Feature","properties":{"LPA":"Tower Hamlets","Ref":"PA/15/00286","Status":"Submitted","Height of tallest building in floors":52,"Postcode":"E14 9SF","Easting":538027,"Northing":179978,"Use":"Residential, Non-residential, ","Proposed_units":797,"in_cw":true,"whole_in_zone":true},"geometry":{"type":"Point","coordinates":[-0.012756,51.501892]}},
{"type":"Feature","properties":{"LPA":"Tower Hamlets","Ref":"PA/15/00316","Status":"Started","Height of tallest building in floors":43,"Postcode":"E14 9SF","Easting":537898,"Northing":180058,"Use":"Residential, Non-residential, ","Proposed_units":519,"in_cw":true,"whole_in_zone":true},"geometry":{"type":"Point","coordinates":[-0.014582,51.502643]}},
{"type":"Feature","properties":{"LPA":"Tower Hamlets","Ref":"PA/15/01231","Status":"Started","Height of tallest building in floors":14,"Postcode":"E1 5BW","Easting":534416,"Northing":182210,"Use":"Residential, Non-residential, ","Proposed_units":144,"in_cw":false,"whole_in_zone":true},"geometry":{"type":"Point","coordinates":[-0.063898,51.52282]}},
{"type":"Feature","properties":{"LPA":"Tower Hamlets","Ref":"PA/15/01789","Status":"Submitted","Height of tallest building in floors":25,"Postcode":"E1 2EN","Easting":534968,"Northing":181701,"Use":"Residential, Non-residential, ","Proposed_units":564,"in_cw":false,"whole_in_zone":true},"geometry":{"type":"Point","coordinates":[-0.056141,51.518114]}},
{"type":"Feature","properties":{"LPA":"Tower Hamlets","Ref":"PA/15/01826","Status":"Started","Height of tallest building in floors":10,"Postcode":"E14 0PG","Easting":538570,"Northing":181191,"Use":"Residential, Non-residential, ","Proposed_units":344,"in_cw":false,"whole_in_zone":true},"geometry":{"type":"Point","coordinates":[-0.004461,51.51266]}},
{"type":"Feature","properties":{"LPA":"Tower Hamlets","Ref":"PA/15/02216/A1","Status":"Started","Height of tallest building in floors":29,"Postcode":"E14 8NX","Easting":537410,"Northing":179186,"Use":"Residential, Non-residential, ","Proposed_units":722,"in_cw":false,"whole_in_zone":true},"geometry":{"type":"Point","coordinates":[-0.021948,51.494925]}},
{"type":"Feature","properties":{"LPA":"Tower Hamlets","Ref":"PA/15/02527","Status":"Submitted","Height of tallest building in floors":18,"Postcode":"E1","Easting":534117,"Northing":181354,"Use":"Residential, ","Proposed_units":39,"in_cw":false,"whole_in_zone":true},"geometry":{"type":"Point","coordinates":[-0.068531,51.515199]}},
{"type":"Feature","properties":{"LPA":"Tower Hamlets","Ref":"PA/15/02668","Status":"Started","Height of tallest building in floors":34,"Postcode":"E14 5SP","Easting":538252,"Northing":180560,"Use":"Residential, Non-residential, ","Proposed_units":395,"in_cw":true,"whole_in_zone":true},"geometry":{"type":"Point","coordinates":[-0.009288,51.507067]}},
{"type":"Feature","properties":{"LPA":"Tower Hamlets","Ref":"PA/15/02675/B1","Status":"Started","Height of tallest building in floors":67,"Postcode":"E14","Easting":537186,"Northing":180539,"Use":"Residential, ","Proposed_units":861,"in_cw":true,"whole_in_zone":true},"geometry":{"type":"Point","coordinates":[-0.024646,51.507138]}},
{"type":"Feature","properties":{"LPA":"Tower Hamlets","Ref":"PA/15/03073","Status":"Started","Height of tallest building in floors":56,"Postcode":"E14 9SH","Easting":537637,"Northing":179838,"Use":"Residential, ","Proposed_units":396,"in_cw":true,"whole_in_zone":true},"geometry":{"type":"Point","coordinates":[-0.018425,51.500729]}},
{"type":"Feature","properties":{"LPA":"Tower Hamlets","Ref":"PA/16/00139","Status":"Started","Height of tallest building in floors":55,"Postcode":"E14","Easting":537350,"Northing":179927,"Use":"Residential, Non-residential, ","Proposed_units":764,"in_cw":true,"whole_in_zone":true},"geometry":{"type":"Point","coordinates":[-0.022523,51.501599]}},
{"type":"Feature","properties":{"LPA":"Tower Hamlets","Ref":"PA/16/00772/P1","Status":"Started","Height of tallest building in floors":57,"Postcode":"E14","Easting":537986,"Northing":180145,"Use":"Residential, Non-residential, ","Proposed_units":483,"in_cw":true,"whole_in_zone":true},"geometry":{"type":"Point","coordinates":[-0.013281,51.503403]}},
{"type":"Feature","properties":{"LPA":"Tower Hamlets","Ref":"PA/16/01090/B1","Status":"Started","Height of tallest building in floors":12,"Postcode":"E14 6TB","Easting":537429,"Northing":181579,"Use":"Residential, ","Proposed_units":143,"in_cw":false,"whole_in_zone":true},"geometry":{"type":"Point","coordinates":[-0.020742,51.516425]}},
{"type":"Feature","properties":{"LPA":"Tower Hamlets","Ref":"PA/16/01958/P3","Status":"Submitted","Height of tallest building in floors":10,"Postcode":"E14 0EP","Easting":538244,"Northing":180844,"Use":"Residential, ","Proposed_units":268,"in_cw":true,"whole_in_zone":true},"geometry":{"type":"Point","coordinates":[-0.009292,51.509622]}},
{"type":"Feature","properties":{"LPA":"Tower Hamlets","Ref":"PA/16/02139","Status":"Started","Height of tallest building in floors":27,"Postcode":"E14","Easting":539315,"Northing":181161,"Use":"Residential, Non-residential, ","Proposed_units":728,"in_cw":false,"whole_in_zone":true},"geometry":{"type":"Point","coordinates":[0.006256,51.512207]}},
{"type":"Feature","properties":{"LPA":"Tower Hamlets","Ref":"PA/16/02605","Status":"Submitted","Height of tallest building in floors":11,"Postcode":"E14","Easting":536546,"Northing":181328,"Use":"Residential, ","Proposed_units":33,"in_cw":false,"whole_in_zone":true},"geometry":{"type":"Point","coordinates":[-0.033557,51.514384]}}
]}
