{"type":"FeatureCollection","meta":{
 "source": "London Datastore: Housing Zones (Planning Constraints Map)",
 "dataset": "24yxz",
 "page": "https://data.london.gov.uk/dataset/housing-zones-24yxz",
 "resources": [
  {
   "resource": "3239c52f-0c34-41a3-bf18-1408ee53010f",
   "file": "Housing_Zones.gpkg",
   "url": "https://data.london.gov.uk/download/24yxz/3239c52f-0c34-41a3-bf18-1408ee53010f/Housing_Zones.gpkg",
   "size": 241664,
   "resource_date": "2019-08-30",
   "fetched": "2026-10-04"
  }
 ],
 "licence": "Open Government Licence v3",
 "licence_url": "https://www.nationalarchives.gov.uk/doc/open-government-licence/version/3/",
 "attribution": "Contains public sector information licensed under the Open Government Licence v3 (Planning Constraints Map). The GLA cannot warrant the quality or accuracy of the data (London Datastore terms).",
 "dataset_modified": "2022-07-12",
 "update_frequency": null,
 "geo": "Custom Polygons",
 "theme": "buildings-places",
 "layers": [
  {
   "table": "Housing_Zones",
   "srs": 27700
  }
 ],
 "crs_source": "EPSG:27700",
 "crs_output": "EPSG:4326 (WGS84), 6 decimal places; BNG to WGS84 through the OS OSTN15 grid (lib.mjs bngProjector)",
 "method": "lds-harvest-auto.mjs run 24yxz: resources chosen by the written rules (harvest-log.json meta.rules: formats, dedupe, caps); every feature read (GeoPackage, GeoJSON, shapefile, or table rows with coordinate columns as points, the CRS judged per row by value); a feature is kept when it meets the zone (the 3D model box, BNG E 532400-539900, N 176700-182300): a vertex inside, an edge crossing or the box inside a polygon; whole geometries kept, whole_in_zone and in_cw added; WGS84 6 decimals through OSTN15; contact fields dropped.",
 "counts": {
  "source_features": 30,
  "no_geometry": 0,
  "in_zone": 4,
  "in_cw": 2,
  "with_uprn": 0,
  "uprn_suspect": 0
 },
 "attributes_in_source": "yes",
 "fields_dropped": [],
 "harvest_rules": "tools/lds-harvest-auto.mjs AUTO_RULES (feeds/london-datastore/harvest-log.json meta.rules)",
 "selection_notes": []
},
"features":[
{"type":"Feature","properties":{"fid":18,"address":null,"borough":null,"boroughdesignation":null,"classification":null,"designation":"Housing Zone","easting":"535760.890806","extrainfo1":null,"extrainfo2":null,"extrainfo3":null,"firstaddeddate":null,"hectares":null,"lastupdateddate":"20180702","layerreference":"FLR00000017","northing":"179268.06732","notes":"Digistised by GLA GIS Team. Boundaries are approximate and are subject to change.","objectid":17,"planningauthority":"Southwark","removeddate":null,"sitename":"Canada Water","sitereference":null,"source":null,"status":null,"uprn":null,"runtime":"08/29/2019","in_cw":true,"whole_in_zone":true},"geometry":{"type":"MultiPolygon","coordinates":[[[[-0.032992,51.492851],[-0.031491,51.493214],[-0.029892,51.493636],[-0.030133,51.494716],[-0.03015,51.496541],[-0.029725,51.499733],[-0.029372,51.502358],[-0.029467,51.504602],[-0.030279,51.505782],[-0.03191,51.506826],[-0.03484,51.507772],[-0.036972,51.508346],[-0.040166,51.508728],[-0.043243,51.508481],[-0.045564,51.507981],[-0.04792,51.506675],[-0.050867,51.50499],[-0.052733,51.503914],[-0.053431,51.503536],[-0.054769,51.50285],[-0.055511,51.502518],[-0.056452,51.502279],[-0.057832,51.501957],[-0.058797,51.501846],[-0.058072,51.499747],[-0.058805,51.499595],[-0.058401,51.498844],[-0.058724,51.498777],[-0.058681,51.498413],[-0.059236,51.498368],[-0.059243,51.497515],[-0.058902,51.497328],[-0.058658,51.496217],[-0.058499,51.495869],[-0.058515,51.49547],[-0.058285,51.495412],[-0.057966,51.495388],[-0.057943,51.495261],[-0.058146,51.495264],[-0.058152,51.495137],[-0.058663,51.494973],[-0.057095,51.494092],[-0.054723,51.492107],[-0.054491,51.492015],[-0.054166,51.491649],[-0.053977,51.491586],[-0.053549,51.49152],[-0.051438,51.491604],[-0.050816,51.491594],[-0.051402,51.491334],[-0.051266,51.491153],[-0.050839,51.491056],[-0.050074,51.491013],[-0.049548,51.491004],[-0.048874,51.491083],[-0.048245,51.491222],[-0.047909,51.491246],[-0.047326,51.491446],[-0.046891,51.491528],[-0.046406,51.49167],[-0.045784,51.491659],[-0.045459,51.491415],[-0.045026,51.491467],[-0.04424,51.490796],[-0.043366,51.491081],[-0.043784,51.491387],[-0.043484,51.491681],[-0.043714,51.491894],[-0.042892,51.49209],[-0.042267,51.492139],[-0.041055,51.492477],[-0.039988,51.492789],[-0.03965,51.492843],[-0.039268,51.492806],[-0.038935,51.492771],[-0.038557,51.492645],[-0.037856,51.492245],[-0.037336,51.492086],[-0.035205,51.492619],[-0.032992,51.492851]]]]}},
{"type":"Feature","properties":{"fid":19,"address":null,"borough":null,"boroughdesignation":null,"classification":null,"designation":"Housing Zone","easting":"535426.060796","extrainfo1":null,"extrainfo2":null,"extrainfo3":null,"firstaddeddate":null,"hectares":null,"lastupdateddate":"20180702","layerreference":"FLR00000018","northing":"178065.65316","notes":"Digistised by GLA GIS Team. Boundaries are approximate and are subject to change.","objectid":18,"planningauthority":"Southwark","removeddate":null,"sitename":"Old Kent Road","sitereference":null,"source":null,"status":null,"uprn":null,"runtime":"08/29/2019","in_cw":false,"whole_in_zone":true},"geometry":{"type":"MultiPolygon","coordinates":[[[[-0.079878,51.496157],[-0.080675,51.496484],[-0.080919,51.49617],[-0.081186,51.496205],[-0.081566,51.495884],[-0.082054,51.495393],[-0.082436,51.495653],[-0.083024,51.495277],[-0.083434,51.494969],[-0.083692,51.494749],[-0.084331,51.49454],[-0.084456,51.494925],[-0.085187,51.496507],[-0.085857,51.49633],[-0.086593,51.495987],[-0.087526,51.496095],[-0.088189,51.495713],[-0.08872,51.495463],[-0.089077,51.495247],[-0.089506,51.494956],[-0.090125,51.494517],[-0.090187,51.494818],[-0.09052,51.494773],[-0.090764,51.494978],[-0.090979,51.494726],[-0.091417,51.494691],[-0.091884,51.494695],[-0.092406,51.494612],[-0.092809,51.494591],[-0.092831,51.49419],[-0.092411,51.494178],[-0.0918,51.494244],[-0.091748,51.49396],[-0.091695,51.493715],[-0.091635,51.493556],[-0.09157,51.493286],[-0.091528,51.493099],[-0.091486,51.492918],[-0.091469,51.492745],[-0.091301,51.492491],[-0.09108,51.492196],[-0.090885,51.491964],[-0.090685,51.491754],[-0.090422,51.491498],[-0.090254,51.491466],[-0.089757,51.491371],[-0.089158,51.491257],[-0.0886,51.49115],[-0.088251,51.491084],[-0.088154,51.491015],[-0.087879,51.490702],[-0.087658,51.490453],[-0.087362,51.490124],[-0.087174,51.489916],[-0.08698,51.489701],[-0.086771,51.489471],[-0.08655,51.489317],[-0.086073,51.48945],[-0.085473,51.489575],[-0.084909,51.489681],[-0.084445,51.489771],[-0.083985,51.489859],[-0.083455,51.489967],[-0.083098,51.490064],[-0.08278,51.49016],[-0.082504,51.490243],[-0.0821,51.490364],[-0.081797,51.490485],[-0.081624,51.490424],[-0.081413,51.490287],[-0.081128,51.490122],[-0.080881,51.489966],[-0.080391,51.489687],[-0.079952,51.489485],[-0.079607,51.489258],[-0.07906,51.48899],[-0.078326,51.488768],[-0.077978,51.488589],[-0.077703,51.488442],[-0.077412,51.488277],[-0.077103,51.488088],[-0.076659,51.487874],[-0.076362,51.488015],[-0.076186,51.487913],[-0.075897,51.487808],[-0.075751,51.487657],[-0.075507,51.487513],[-0.076222,51.486946],[-0.076323,51.486477],[-0.076273,51.486063],[-0.076543,51.485651],[-0.076705,51.48494],[-0.077803,51.48505],[-0.077917,51.484342],[-0.077303,51.484272],[-0.076346,51.484169],[-0.075885,51.484165],[-0.075657,51.484359],[-0.075246,51.484347],[-0.075143,51.48446],[-0.0742,51.484434],[-0.074129,51.484032],[-0.07403,51.483271],[-0.073895,51.482636],[-0.074018,51.482174],[-0.074278,51.48216],[-0.074856,51.482037],[-0.075693,51.482075],[-0.076434,51.482078],[-0.07768,51.481947],[-0.078893,51.481919],[-0.079823,51.481855],[-0.080618,51.481752],[-0.077977,51.476394],[-0.078596,51.476062],[-0.077707,51.474534],[-0.077434,51.474244],[-0.076576,51.474379],[-0.075574,51.474286],[-0.075032,51.474178],[-0.074145,51.474024],[-0.073329,51.473891],[-0.07295,51.47377],[-0.072363,51.473646],[-0.07123,51.47349],[-0.070192,51.473491],[-0.069642,51.473595],[-0.068987,51.473764],[-0.068617,51.473991],[-0.067653,51.473993],[-0.066539,51.473906],[-0.065171,51.474033],[-0.063396,51.473984],[-0.062253,51.473939],[-0.060751,51.473849],[-0.059569,51.473779],[-0.058491,51.473659],[-0.057582,51.473431],[-0.057267,51.473733],[-0.056855,51.474344],[-0.056535,51.474751],[-0.056409,51.474949],[-0.056138,51.475238],[-0.056003,51.475636],[-0.055763,51.4759],[-0.055666,51.476316],[-0.055479,51.476625],[-0.055237,51.477019],[-0.055153,51.477453],[-0.054789,51.477727],[-0.054608,51.478008],[-0.054435,51.478276],[-0.054307,51.47866],[-0.054305,51.478659],[-0.054259,51.478824],[-0.054215,51.478983],[-0.054175,51.479111],[-0.054046,51.479307],[-0.054023,51.479336],[-0.053912,51.479498],[-0.053769,51.479685],[-0.053642,51.479853],[-0.053626,51.479879],[-0.053561,51.479966],[-0.053546,51.480013],[-0.053543,51.480018],[-0.05354,51.480034],[-0.053473,51.480257],[-0.053457,51.480582],[-0.053457,51.480583],[-0.053353,51.480784],[-0.053322,51.480884],[-0.053237,51.481049],[-0.053228,51.481101],[-0.053203,51.481152],[-0.053177,51.481418],[-0.053116,51.481683],[-0.053061,51.481824],[-0.053,51.482056],[-0.052963,51.482306],[-0.052922,51.482583],[-0.052922,51.482587],[-0.052922,51.482589],[-0.052935,51.482798],[-0.052929,51.483007],[-0.05296,51.48321],[-0.052961,51.483223],[-0.052961,51.483227],[-0.052957,51.483388],[-0.052949,51.48357],[-0.052951,51.483751],[-0.05293,51.48393],[-0.052931,51.483931],[-0.05293,51.483936],[-0.053152,51.484422],[-0.053113,51.484521],[-0.053062,51.484648],[-0.053018,51.484758],[-0.053019,51.48476],[-0.053018,51.484763],[-0.053039,51.484799],[-0.053089,51.484897],[-0.053146,51.484979],[-0.053164,51.485009],[-0.053401,51.485366],[-0.053141,51.485651],[-0.052914,51.486129],[-0.05299,51.486563],[-0.05314,51.486833],[-0.053431,51.487151],[-0.053633,51.48741],[-0.053952,51.487935],[-0.052764,51.487601],[-0.052059,51.487793],[-0.050328,51.487929],[-0.050144,51.488367],[-0.050544,51.488539],[-0.051221,51.488833],[-0.051931,51.48912],[-0.052552,51.489418],[-0.052814,51.489539],[-0.053367,51.489777],[-0.053767,51.48994],[-0.054036,51.490056],[-0.054434,51.490232],[-0.054829,51.490409],[-0.055482,51.490688],[-0.056345,51.491056],[-0.057275,51.491456],[-0.058182,51.49185],[-0.059028,51.492226],[-0.059456,51.492461],[-0.059829,51.492405],[-0.060407,51.492324],[-0.060821,51.492118],[-0.06087,51.491984],[-0.060606,51.491674],[-0.060366,51.49131],[-0.060214,51.491032],[-0.060045,51.49072],[-0.059761,51.490322],[-0.060259,51.490168],[-0.060798,51.490086],[-0.061284,51.489953],[-0.061705,51.489838],[-0.062233,51.489701],[-0.06278,51.48956],[-0.063424,51.489517],[-0.064031,51.489522],[-0.064717,51.489527],[-0.065425,51.489532],[-0.066275,51.489537],[-0.066921,51.489586],[-0.06756,51.489618],[-0.06832,51.48969],[-0.06889,51.489768],[-0.069474,51.489849],[-0.069983,51.489922],[-0.070394,51.489981],[-0.070905,51.490053],[-0.071365,51.490117],[-0.071717,51.490166],[-0.072156,51.490229],[-0.072639,51.490299],[-0.072514,51.490613],[-0.072415,51.490861],[-0.072265,51.491238],[-0.072119,51.49172],[-0.072037,51.49202],[-0.071996,51.49235],[-0.071993,51.492617],[-0.072437,51.492643],[-0.072825,51.492703],[-0.073212,51.492867],[-0.073468,51.493076],[-0.073734,51.493272],[-0.074102,51.493505],[-0.074424,51.493681],[-0.074679,51.49383],[-0.074995,51.493952],[-0.075522,51.494208],[-0.075831,51.494426],[-0.076108,51.494678],[-0.07634,51.494901],[-0.076572,51.495048],[-0.077099,51.495239],[-0.077552,51.495339],[-0.077899,51.495515],[-0.078212,51.495623],[-0.078548,51.495739],[-0.078788,51.495822],[-0.079185,51.495944],[-0.079506,51.496042],[-0.079878,51.496157]]]]}},
{"type":"Feature","properties":{"fid":20,"address":null,"borough":null,"boroughdesignation":null,"classification":null,"designation":"Housing Zone","easting":"535426.060796","extrainfo1":null,"extrainfo2":null,"extrainfo3":null,"firstaddeddate":null,"hectares":null,"lastupdateddate":"20180702","layerreference":"FLR00000019","northing":"178065.65316","notes":"Digistised by GLA GIS Team. Boundaries are approximate and are subject to change.","objectid":19,"planningauthority":"Lewisham","removeddate":null,"sitename":"New Bermondsey","sitereference":null,"source":null,"status":null,"uprn":null,"runtime":"08/29/2019","in_cw":false,"whole_in_zone":true},"geometry":{"type":"MultiPolygon","coordinates":[[[[-0.047325,51.484442],[-0.047463,51.484539],[-0.047738,51.484543],[-0.048713,51.485543],[-0.049023,51.485755],[-0.049526,51.486024],[-0.050409,51.486612],[-0.050889,51.48688],[-0.051592,51.487165],[-0.052765,51.487595],[-0.053952,51.487935],[-0.053703,51.487518],[-0.053633,51.487404],[-0.05349,51.487218],[-0.053054,51.486892],[-0.052847,51.486679],[-0.052768,51.486434],[-0.052867,51.486192],[-0.052857,51.486015],[-0.052737,51.485804],[-0.052517,51.485185],[-0.052393,51.484501],[-0.052754,51.484526],[-0.052749,51.484402],[-0.052779,51.484397],[-0.052599,51.48437],[-0.052495,51.483782],[-0.052454,51.483775],[-0.052436,51.483526],[-0.050228,51.483507],[-0.050113,51.483526],[-0.049644,51.483518],[-0.049538,51.483503],[-0.049464,51.484306],[-0.04757,51.484245],[-0.047618,51.484453],[-0.047325,51.484442]]]]}},
{"type":"Feature","properties":{"fid":23,"address":null,"borough":null,"boroughdesignation":null,"classification":null,"designation":"Housing Zone","easting":"538284.836434","extrainfo1":null,"extrainfo2":null,"extrainfo3":null,"firstaddeddate":null,"hectares":null,"lastupdateddate":"20180702","layerreference":"FLR00000022","northing":"181419.037283","notes":"Digistised by GLA GIS Team. Boundaries are approximate and are subject to change.","objectid":22,"planningauthority":"Tower Hamlets","removeddate":null,"sitename":"Poplar Riverside","sitereference":null,"source":null,"status":null,"uprn":null,"runtime":"08/29/2019","in_cw":true,"whole_in_zone":false},"geometry":{"type":"MultiPolygon","coordinates":[[[[0.009191,51.50696],[0.009404,51.507344],[0.009456,51.507444],[0.009536,51.5076],[0.009636,51.507719],[0.009716,51.50784],[0.009801,51.508006],[0.009867,51.508147],[0.009904,51.50825],[0.00987,51.508369],[0.009842,51.508458],[0.009735,51.50858],[0.009622,51.508714],[0.009517,51.508817],[0.009437,51.508894],[0.009312,51.508976],[0.009004,51.509138],[0.008753,51.509224],[0.008532,51.50928],[0.008311,51.509331],[0.008063,51.509374],[0.007884,51.509423],[0.007696,51.509433],[0.007525,51.509458],[0.007381,51.509476],[0.007201,51.509501],[0.00695,51.509538],[0.00676,51.509572],[0.006573,51.509621],[0.006454,51.509657],[0.006338,51.509698],[0.00624,51.509736],[0.006123,51.509806],[0.006038,51.50987],[0.005983,51.509948],[0.005959,51.51002],[0.005977,51.510111],[0.006011,51.510189],[0.00605,51.510265],[0.006102,51.510356],[0.006176,51.510449],[0.006198,51.510488],[0.006218,51.510553],[0.006293,51.510633],[0.006443,51.510755],[0.006555,51.510845],[0.006688,51.51095],[0.006834,51.51105],[0.006944,51.511128],[0.006986,51.511195],[0.007057,51.511309],[0.00713,51.511424],[0.007199,51.511535],[0.007265,51.511669],[0.007305,51.511753],[0.007328,51.511767],[0.007395,51.511806],[0.007442,51.511838],[0.007482,51.511885],[0.007542,51.511954],[0.007598,51.512037],[0.007679,51.512123],[0.007746,51.512197],[0.007828,51.512265],[0.007893,51.512343],[0.007931,51.512457],[0.007965,51.512558],[0.008,51.512663],[0.008021,51.512744],[0.008038,51.512862],[0.008052,51.512962],[0.008042,51.513074],[0.00803,51.51315],[0.007998,51.513255],[0.007947,51.513325],[0.007919,51.513415],[0.007903,51.51352],[0.007859,51.513592],[0.007792,51.513651],[0.007689,51.513739],[0.007566,51.513873],[0.0075,51.513957],[0.007409,51.514085],[0.007335,51.514175],[0.007201,51.51424],[0.007036,51.51429],[0.006822,51.514326],[0.006696,51.514341],[0.006478,51.514349],[0.006364,51.514341],[0.006173,51.514333],[0.006066,51.514313],[0.00593,51.514274],[0.005661,51.514195],[0.005549,51.514154],[0.005475,51.5141],[0.005392,51.514014],[0.005305,51.513923],[0.005174,51.513831],[0.005089,51.513769],[0.005027,51.513691],[0.004955,51.513602],[0.004911,51.513505],[0.004868,51.513445],[0.004793,51.513308],[0.004734,51.513163],[0.00469,51.513016],[0.004656,51.512861],[0.004644,51.512728],[0.00465,51.512581],[0.004665,51.512421],[0.00469,51.512214],[0.004667,51.512056],[0.004648,51.511932],[0.004625,51.511823],[0.004602,51.511718],[0.004579,51.511609],[0.004546,51.511467],[0.004504,51.511366],[0.004455,51.511245],[0.004416,51.511126],[0.004356,51.511005],[0.004271,51.51089],[0.004191,51.510807],[0.004086,51.510706],[0.003978,51.510643],[0.003868,51.5106],[0.003743,51.510567],[0.003554,51.510547],[0.003304,51.510544],[0.003086,51.510545],[0.002827,51.510582],[0.002622,51.510611],[0.002467,51.510654],[0.002388,51.510728],[0.002318,51.510823],[0.002274,51.510924],[0.00225,51.511032],[0.002257,51.511146],[0.00229,51.511309],[0.002366,51.511514],[0.002445,51.511647],[0.00249,51.511754],[0.002548,51.511872],[0.002602,51.51197],[0.002656,51.512069],[0.002715,51.512177],[0.002775,51.512288],[0.002862,51.512423],[0.00292,51.512511],[0.003027,51.512673],[0.003143,51.512848],[0.003234,51.512986],[0.003331,51.513138],[0.003424,51.513301],[0.003482,51.513412],[0.003564,51.513546],[0.003646,51.513688],[0.003714,51.513789],[0.003773,51.513878],[0.003864,51.514015],[0.003949,51.514143],[0.004014,51.514242],[0.004065,51.51434],[0.004105,51.514449],[0.004146,51.51455],[0.00414,51.51467],[0.004081,51.51479],[0.004033,51.514879],[0.00395,51.515003],[0.003832,51.515133],[0.003678,51.515251],[0.003459,51.515394],[0.003296,51.515511],[0.003057,51.515647],[0.002824,51.51576],[0.002621,51.515859],[0.002423,51.515942],[0.002235,51.516017],[0.002094,51.516071],[0.001811,51.516177],[0.001488,51.516288],[0.00117,51.516395],[0.000838,51.516503],[0.00063,51.516576],[0.000526,51.516621],[0.000363,51.516699],[0.000207,51.516773],[-0.000007,51.516875],[-0.000195,51.516964],[-0.000415,51.517069],[-0.000562,51.517139],[-0.000723,51.517218],[-0.000879,51.517295],[-0.001061,51.517386],[-0.001225,51.517467],[-0.001432,51.517571],[-0.001589,51.517653],[-0.001735,51.51773],[-0.00189,51.517811],[-0.002042,51.517891],[-0.002184,51.517945],[-0.002287,51.517967],[-0.002457,51.517975],[-0.002643,51.517954],[-0.002876,51.517923],[-0.00307,51.517896],[-0.003283,51.517856],[-0.003446,51.517804],[-0.003642,51.517724],[-0.003792,51.5176],[-0.003872,51.517485],[-0.003956,51.517366],[-0.004022,51.517264],[-0.004101,51.517136],[-0.004222,51.517004],[-0.004334,51.516903],[-0.004439,51.516775],[-0.00453,51.516698],[-0.004652,51.516634],[-0.004793,51.516593],[-0.004951,51.516563],[-0.0051,51.51656],[-0.005239,51.516571],[-0.005349,51.516589],[-0.005419,51.516623],[-0.005499,51.516663],[-0.005609,51.516719],[-0.005713,51.516811],[-0.005762,51.516906],[-0.005773,51.516994],[-0.005779,51.517123],[-0.005775,51.517251],[-0.00579,51.517361],[-0.005812,51.517471],[-0.005866,51.517598],[-0.005985,51.517791],[-0.006163,51.518042],[-0.006298,51.518219],[-0.006439,51.518392],[-0.006568,51.518524],[-0.006716,51.518675],[-0.006923,51.518856],[-0.007127,51.518986],[-0.007469,51.519164],[-0.007798,51.519312],[-0.00809,51.519439],[-0.008385,51.519567],[-0.008588,51.519657],[-0.008751,51.519748],[-0.008829,51.519797],[-0.008897,51.519893],[-0.008931,51.52001],[-0.008967,51.520129],[-0.009013,51.520294],[-0.009026,51.520442],[-0.009029,51.520608],[-0.009016,51.520756],[-0.008948,51.520913],[-0.008867,51.521091],[-0.008781,51.52123],[-0.008689,51.521381],[-0.00864,51.521452],[-0.008489,51.52157],[-0.008429,51.521671],[-0.008364,51.521798],[-0.008292,51.521938],[-0.008215,51.522087],[-0.00818,51.522185],[-0.008152,51.52227],[-0.008035,51.522357],[-0.007963,51.522449],[-0.007899,51.522568],[-0.007855,51.522697],[-0.007795,51.522812],[-0.007794,51.522896],[-0.007817,51.522994],[-0.007919,51.52312],[-0.008035,51.523259],[-0.008092,51.523345],[-0.008112,51.523405],[-0.008126,51.523586],[-0.008092,51.523783],[-0.008054,51.524041],[-0.008037,51.524275],[-0.008011,51.524494],[-0.007984,51.524713],[-0.007966,51.524856],[-0.007941,51.524994],[-0.007884,51.52516],[-0.007821,51.52531],[-0.008405,51.52514],[-0.009021,51.525012],[-0.009567,51.524912],[-0.010181,51.5248],[-0.010799,51.524688],[-0.011146,51.524636],[-0.011416,51.524587],[-0.011938,51.524513],[-0.012452,51.524455],[-0.012931,51.524404],[-0.013393,51.524361],[-0.014009,51.524324],[-0.01455,51.524311],[-0.015117,51.524329],[-0.0151,51.524191],[-0.015033,51.523618],[-0.014993,51.523315],[-0.014968,51.523025],[-0.015306,51.522969],[-0.015765,51.522929],[-0.016109,51.522906],[-0.016323,51.52291],[-0.016574,51.522919],[-0.016834,51.522909],[-0.016995,51.522878],[-0.017234,51.52282],[-0.01745,51.522767],[-0.017613,51.522698],[-0.01777,51.522606],[-0.017927,51.522494],[-0.018078,51.522364],[-0.018245,51.522215],[-0.018419,51.522056],[-0.018604,51.522021],[-0.01941,51.521911],[-0.020391,51.521799],[-0.021273,51.521695],[-0.022231,51.521582],[-0.022866,51.521545],[-0.023231,51.521566],[-0.023573,51.521591],[-0.023759,51.521623],[-0.024016,51.5217],[-0.024241,51.521784],[-0.024511,51.521909],[-0.024714,51.522003],[-0.024883,51.522074],[-0.025282,51.522109],[-0.025446,51.5221],[-0.025579,51.522034],[-0.02583,51.521863],[-0.026115,51.521666],[-0.026544,51.521372],[-0.027064,51.521015],[-0.026942,51.520955],[-0.027084,51.520858],[-0.027239,51.52075],[-0.02712,51.520706],[-0.026761,51.520562],[-0.026483,51.520452],[-0.026251,51.520351],[-0.025712,51.520118],[-0.025171,51.519928],[-0.024465,51.519678],[-0.024143,51.51953],[-0.023817,51.519306],[-0.023567,51.519102],[-0.02339,51.518963],[-0.023274,51.518814],[-0.023189,51.518655],[-0.023112,51.518516],[-0.023034,51.518362],[-0.022922,51.518146],[-0.022809,51.51793],[-0.022631,51.517642],[-0.022489,51.517401],[-0.022373,51.517259],[-0.022229,51.517066],[-0.021994,51.516843],[-0.021787,51.516688],[-0.021507,51.516478],[-0.021261,51.516327],[-0.021039,51.516171],[-0.020839,51.516036],[-0.020611,51.515852],[-0.020369,51.515629],[-0.020118,51.515425],[-0.019941,51.515288],[-0.019744,51.515085],[-0.019629,51.514917],[-0.01956,51.514768],[-0.019511,51.514645],[-0.019312,51.514646],[-0.019052,51.514676],[-0.018844,51.514691],[-0.018664,51.514682],[-0.018503,51.514643],[-0.018352,51.514524],[-0.018149,51.514362],[-0.017817,51.514077],[-0.017704,51.513947],[-0.017639,51.513832],[-0.017577,51.513724],[-0.016883,51.513777],[-0.016154,51.513832],[-0.016068,51.513502],[-0.015969,51.513125],[-0.015797,51.51253],[-0.015651,51.5119],[-0.015468,51.511082],[-0.014847,51.511109],[-0.013595,51.511161],[-0.012681,51.509148],[-0.012552,51.508788],[-0.012286,51.508177],[-0.011904,51.50732],[-0.009854,51.507468],[-0.008674,51.507563],[-0.007592,51.507638],[-0.007561,51.507547],[-0.007523,51.507332],[-0.007463,51.506566],[-0.007394,51.506231],[-0.00727,51.505618],[-0.007185,51.505241],[-0.007287,51.504795],[-0.007352,51.504623],[-0.007396,51.504313],[-0.007423,51.504128],[-0.006569,51.503926],[-0.00558,51.504809],[-0.005376,51.505043],[-0.004571,51.505574],[-0.004303,51.505799],[-0.004091,51.505938],[-0.003933,51.506064],[-0.003707,51.506241],[-0.00341,51.506435],[-0.003111,51.506627],[-0.002848,51.506788],[-0.00263,51.506897],[-0.00242,51.507018],[-0.002275,51.50712],[-0.002114,51.5072],[-0.001976,51.50728],[-0.001816,51.507401],[-0.001583,51.507461],[-0.001308,51.507505],[-0.001019,51.507558],[-0.000542,51.507652],[-0.000112,51.507732],[0.000211,51.507793],[0.000644,51.507868],[0.000996,51.507934],[0.00137,51.508007],[0.001851,51.508043],[0.001945,51.508026],[0.002087,51.508034],[0.002667,51.508089],[0.003361,51.508001],[0.004665,51.507907],[0.00588,51.507785],[0.00639,51.507732],[0.006665,51.507683],[0.006853,51.507648],[0.007121,51.507555],[0.008376,51.507182],[0.009191,51.50696]]]]}}
]}
