{"type":"FeatureCollection","meta":{
 "source": "London Datastore: London Views Management Framework (LVMF)  – Extended background vistas (Greater London Authority)",
 "dataset": "2r4o4",
 "page": "https://data.london.gov.uk/dataset/london-views-management-framework-lvmf-extended-background-vista-2r4o4",
 "resources": [
  {
   "resource": "34bd1965-6fca-4a37-898a-5ff08c9b586f",
   "file": "Protected_Vistas_ExtensionCLIPPED_region.zip",
   "url": "https://data.london.gov.uk/download/2r4o4/34bd1965-6fca-4a37-898a-5ff08c9b586f/Protected_Vistas_ExtensionCLIPPED_region.zip",
   "size": 30634,
   "resource_date": "2018-01-12",
   "fetched": "2026-10-04",
   "entries": 4
  }
 ],
 "licence": "Creative Commons Attribution",
 "licence_url": "https://creativecommons.org/licenses/by/4.0/",
 "attribution": "Greater London Authority, Creative Commons Attribution. The GLA cannot warrant the quality or accuracy of the data (London Datastore terms).",
 "dataset_modified": "2020-03-10",
 "update_frequency": "Annually",
 "geo": "Point Location",
 "theme": "buildings-places",
 "layers": [
  {
   "table": "Protected_Vistas_ExtensionCLIPPED_region",
   "srs": 27700
  }
 ],
 "crs_source": "EPSG:27700",
 "crs_output": "EPSG:4326 (WGS84), 6 decimal places; BNG to WGS84 through the OS OSTN15 grid (lib.mjs bngProjector)",
 "method": "lds-harvest-auto.mjs run 2r4o4: resources chosen by the written rules (harvest-log.json meta.rules: formats, dedupe, caps); every feature read (GeoPackage, GeoJSON, shapefile, or table rows with coordinate columns as points, the CRS judged per row by value); a feature is kept when it meets the zone (the 3D model box, BNG E 532400-539900, N 176700-182300): a vertex inside, an edge crossing or the box inside a polygon; whole geometries kept, whole_in_zone and in_cw added; WGS84 6 decimals through OSTN15; contact fields dropped.",
 "counts": {
  "source_features": 57,
  "no_geometry": 0,
  "in_zone": 24,
  "in_cw": 0
 },
 "attributes_in_source": "yes",
 "fields_dropped": [],
 "harvest_rules": "tools/lds-harvest-auto.mjs AUTO_RULES (feeds/london-datastore/harvest-log.json meta.rules)",
 "selection_notes": []
},
"features":[
{"type":"Feature","properties":{"VIEW":"1A.2","DESCRIPTIO":"Alexandra Palace viewing terrace to St Paul's Cathedral","TYPE":"EXT","HEIGHT":0,"SOURCE":null,"UPDATED":null,"COMMENTS":null,"in_cw":false,"whole_in_zone":false},"geometry":{"type":"Polygon","coordinates":[[[-0.046941,51.391984],[-0.025444,51.338526],[-0.025471,51.338519],[-0.025958,51.33856],[-0.026181,51.33853],[-0.02644,51.338479],[-0.026868,51.338405],[-0.027432,51.338322],[-0.027701,51.338266],[-0.027965,51.338207],[-0.028453,51.338073],[-0.02879,51.337947],[-0.02897,51.337881],[-0.029115,51.337832],[-0.0293,51.337794],[-0.029476,51.337758],[-0.030185,51.337657],[-0.030363,51.337593],[-0.030486,51.337557],[-0.030681,51.337515],[-0.030867,51.337492],[-0.03101,51.337483],[-0.031819,51.33747],[-0.032076,51.337472],[-0.032299,51.337466],[-0.032771,51.337438],[-0.03333,51.337514],[-0.033675,51.337605],[-0.034279,51.337998],[-0.034495,51.338083],[-0.034629,51.338059],[-0.034867,51.338071],[-0.035349,51.338184],[-0.035806,51.338303],[-0.036275,51.33832],[-0.036822,51.338497],[-0.036946,51.338521],[-0.037071,51.338543],[-0.037372,51.338585],[-0.037643,51.338597],[-0.037893,51.338704],[-0.037967,51.338644],[-0.03835,51.338413],[-0.038477,51.338337],[-0.039208,51.337841],[-0.041255,51.343735],[-0.053638,51.379352],[-0.060526,51.399139],[-0.060589,51.39932],[-0.060945,51.400341],[-0.069879,51.425982],[-0.072141,51.432466],[-0.072664,51.433968],[-0.080138,51.455387],[-0.092758,51.49151],[-0.090922,51.491779],[-0.087414,51.492293],[-0.086919,51.49107],[-0.066911,51.441531],[-0.064788,51.436271],[-0.059794,51.423885],[-0.055573,51.413414],[-0.046941,51.391984]]]}},
{"type":"Feature","properties":{"VIEW":"1A.2","DESCRIPTIO":"Alexandra Palace viewing terrace to St Paul's Cathedral","TYPE":"WSCA","HEIGHT":0,"SOURCE":"London View Management Framework SPG July 2010","UPDATED":"July 2010","COMMENTS":"This dataset presents the location of the viewing corridors only, not their height. They have been digitised using the coordinates provided in the LVMF SPG 2010","in_cw":false,"whole_in_zone":false},"geometry":{"type":"Polygon","coordinates":[[[-0.090922,51.491779],[-0.092758,51.49151],[-0.092978,51.492143],[-0.094198,51.495639],[-0.099089,51.509657],[-0.100051,51.512412],[-0.100094,51.512536],[-0.100162,51.51273],[-0.100222,51.512902],[-0.100222,51.512903],[-0.100249,51.512981],[-0.10025,51.512982],[-0.100321,51.513186],[-0.100338,51.513234],[-0.100344,51.513252],[-0.100416,51.513457],[-0.100421,51.513472],[-0.100336,51.513485],[-0.100023,51.513531],[-0.099875,51.513552],[-0.099826,51.51356],[-0.099661,51.513584],[-0.09832,51.513781],[-0.098319,51.513781],[-0.098319,51.513781],[-0.098319,51.513781],[-0.098319,51.513781],[-0.098319,51.513781],[-0.098318,51.513781],[-0.097585,51.513888],[-0.09686,51.513995],[-0.09661,51.514031],[-0.096214,51.514089],[-0.096116,51.513845],[-0.096089,51.51378],[-0.095797,51.513056],[-0.095297,51.511819],[-0.09513,51.511405],[-0.094994,51.511068],[-0.094994,51.511067],[-0.094798,51.510583],[-0.094794,51.510573],[-0.09413,51.508929],[-0.093781,51.508065],[-0.093273,51.506807],[-0.08845,51.494862],[-0.087414,51.492293],[-0.090922,51.491779]]]}},
{"type":"Feature","properties":{"VIEW":"6A.1","DESCRIPTIO":"Blackheath Point to St Paul's Cathedral","TYPE":"WSCA","HEIGHT":0,"SOURCE":"London View Management Framework SPG July 2010","UPDATED":"July 2010","COMMENTS":"This dataset presents the location of the viewing corridors only, not their height. They have been digitised using the coordinates provided in the LVMF SPG 2010","in_cw":false,"whole_in_zone":false},"geometry":{"type":"Polygon","coordinates":[[[-0.019163,51.477195],[-0.01095,51.47349],[-0.019246,51.477165],[-0.026398,51.480332],[-0.046345,51.489159],[-0.048549,51.490135],[-0.08475,51.506137],[-0.088496,51.507792],[-0.089038,51.508031],[-0.094794,51.510573],[-0.099438,51.512624],[-0.099475,51.51264],[-0.099483,51.512643],[-0.099602,51.512696],[-0.099442,51.51283],[-0.099144,51.513083],[-0.099089,51.51313],[-0.099046,51.513166],[-0.099046,51.513166],[-0.098996,51.513143],[-0.098995,51.513143],[-0.098985,51.513138],[-0.098942,51.513119],[-0.098942,51.513119],[-0.098872,51.513088],[-0.098534,51.512936],[-0.09513,51.511405],[-0.092198,51.510087],[-0.092191,51.510084],[-0.09011,51.509148],[-0.087223,51.507849],[-0.087016,51.507756],[-0.069759,51.499991],[-0.0481,51.490238],[-0.04543,51.489035],[-0.026734,51.480609],[-0.025938,51.48025],[-0.019163,51.477195]]]}},
{"type":"Feature","properties":{"VIEW":"6A.1","DESCRIPTIO":"Blackheath Point to St Paul's Cathedral","TYPE":"WSCA","HEIGHT":0,"SOURCE":"London View Management Framework SPG July 2010","UPDATED":"July 2010","COMMENTS":"This dataset presents the location of the viewing corridors only, not their height. They have been digitised using the coordinates provided in the LVMF SPG 2010","in_cw":false,"whole_in_zone":false},"geometry":{"type":"Polygon","coordinates":[[[-0.01484,51.475363],[-0.01095,51.47349],[-0.017,51.476316],[-0.019083,51.477288],[-0.025112,51.480103],[-0.043769,51.48881],[-0.04739,51.490499],[-0.069093,51.500618],[-0.08091,51.506123],[-0.080914,51.506125],[-0.083796,51.507468],[-0.085983,51.508486],[-0.091884,51.511234],[-0.093477,51.511975],[-0.095797,51.513056],[-0.096814,51.51353],[-0.097345,51.513776],[-0.097585,51.513888],[-0.097586,51.513889],[-0.097806,51.513991],[-0.097826,51.514],[-0.097826,51.514001],[-0.097864,51.514018],[-0.097864,51.514018],[-0.097904,51.514037],[-0.097923,51.514046],[-0.097976,51.51407],[-0.097967,51.514078],[-0.097959,51.514085],[-0.097871,51.51416],[-0.097588,51.514399],[-0.09705,51.514854],[-0.097035,51.514866],[-0.09703,51.514864],[-0.096834,51.51477],[-0.096763,51.514736],[-0.096406,51.514564],[-0.096014,51.514376],[-0.095323,51.514045],[-0.090541,51.51175],[-0.080568,51.506962],[-0.077778,51.505622],[-0.077566,51.505521],[-0.077177,51.505334],[-0.075926,51.504733],[-0.075925,51.504733],[-0.073137,51.503394],[-0.073134,51.503392],[-0.068507,51.50117],[-0.046712,51.490696],[-0.046541,51.490613],[-0.04567,51.490195],[-0.042405,51.488625],[-0.024442,51.479984],[-0.019046,51.477387],[-0.01484,51.475363]]]}},
{"type":"Feature","properties":{"VIEW":"6A.1","DESCRIPTIO":"Blackheath Point to St Paul's Cathedral","TYPE":"VC","HEIGHT":0,"SOURCE":"London View Management Framework SPG July 2010","UPDATED":"July 2010","COMMENTS":"This dataset presents the location of the viewing corridors only, not their height. They have been digitised using the coordinates provided in the LVMF SPG 2010","in_cw":false,"whole_in_zone":false},"geometry":{"type":"Polygon","coordinates":[[[-0.017,51.476316],[-0.01095,51.47349],[-0.019163,51.477195],[-0.025938,51.48025],[-0.026734,51.480609],[-0.04543,51.489035],[-0.0481,51.490238],[-0.069759,51.499991],[-0.087016,51.507756],[-0.087223,51.507849],[-0.09011,51.509148],[-0.092191,51.510084],[-0.092198,51.510087],[-0.09513,51.511405],[-0.098534,51.512936],[-0.098872,51.513088],[-0.098942,51.513119],[-0.098942,51.513119],[-0.098985,51.513138],[-0.098995,51.513143],[-0.098996,51.513143],[-0.099046,51.513166],[-0.099046,51.513166],[-0.098319,51.513781],[-0.098319,51.513781],[-0.098319,51.513781],[-0.098318,51.513781],[-0.098318,51.513781],[-0.098317,51.513782],[-0.098087,51.513977],[-0.097976,51.51407],[-0.097923,51.514046],[-0.097904,51.514037],[-0.097864,51.514018],[-0.097864,51.514018],[-0.097826,51.514001],[-0.097826,51.514],[-0.097806,51.513991],[-0.097586,51.513889],[-0.097585,51.513888],[-0.097345,51.513776],[-0.096814,51.51353],[-0.095797,51.513056],[-0.093477,51.511975],[-0.091884,51.511234],[-0.085983,51.508486],[-0.083796,51.507468],[-0.080914,51.506125],[-0.08091,51.506123],[-0.069093,51.500618],[-0.04739,51.490499],[-0.043769,51.48881],[-0.025112,51.480103],[-0.019083,51.477288],[-0.017,51.476316]]]}},
{"type":"Feature","properties":{"VIEW":"25A.1","DESCRIPTIO":"City Hall to the White Tower","TYPE":"WSCA","HEIGHT":0,"SOURCE":"London View Management Framework SPG July 2010","UPDATED":"July 2010","COMMENTS":"This dataset presents the location of the viewing corridors only, not their height. They have been digitised using the coordinates provided in the LVMF SPG 2010","in_cw":false,"whole_in_zone":false},"geometry":{"type":"Polygon","coordinates":[[[-0.073298,51.510109],[-0.075486,51.507756],[-0.076681,51.508071],[-0.075759,51.510129],[-0.07386,51.514367],[-0.070106,51.522745],[-0.069165,51.524844],[-0.068249,51.526887],[-0.067123,51.529397],[-0.066903,51.52989],[-0.066388,51.529755],[-0.063545,51.529006],[-0.060006,51.528073],[-0.05725,51.527347],[-0.057483,51.527097],[-0.07273,51.510719],[-0.073298,51.510109]]]}},
{"type":"Feature","properties":{"VIEW":"25A.1","DESCRIPTIO":"City Hall to the White Tower","TYPE":"VC","HEIGHT":0,"SOURCE":"London View Management Framework SPG July 2010","UPDATED":"July 2010","COMMENTS":"This dataset presents the location of the viewing corridors only, not their height. They have been digitised using the coordinates provided in the LVMF SPG 2010","in_cw":false,"whole_in_zone":true},"geometry":{"type":"Polygon","coordinates":[[[-0.077967,51.50509],[-0.078061,51.504988],[-0.078009,51.505105],[-0.078009,51.505105],[-0.077806,51.505559],[-0.077778,51.505622],[-0.07755,51.50613],[-0.077269,51.506758],[-0.0771,51.507136],[-0.077062,51.50722],[-0.077062,51.50722],[-0.076681,51.508071],[-0.075486,51.507756],[-0.076268,51.506916],[-0.076269,51.506916],[-0.076338,51.506841],[-0.076636,51.50652],[-0.077113,51.506008],[-0.077566,51.505521],[-0.077599,51.505485],[-0.077967,51.50509],[-0.077967,51.50509]]]}},
{"type":"Feature","properties":{"VIEW":"5A.2","DESCRIPTIO":"Greenwich Park Wolfe statue to St Paul's Cathedral","TYPE":"WSCA","HEIGHT":50.6,"SOURCE":"London View Management Framework SPG July 2010","UPDATED":"July 2010","COMMENTS":"This dataset presents the location of the viewing corridors only, not their height. They have been digitised using the coordinates provided in the LVMF SPG 2010","in_cw":false,"whole_in_zone":false},"geometry":{"type":"Polygon","coordinates":[[[-0.016196,51.483475],[-0.000707,51.477915],[-0.013331,51.482361],[-0.024041,51.486131],[-0.024183,51.486181],[-0.040625,51.491966],[-0.068045,51.501605],[-0.073137,51.503394],[-0.07618,51.504462],[-0.077967,51.50509],[-0.078009,51.505105],[-0.080914,51.506125],[-0.085437,51.507713],[-0.088423,51.508762],[-0.090531,51.509502],[-0.092198,51.510087],[-0.094994,51.511068],[-0.099413,51.512619],[-0.099394,51.512639],[-0.099046,51.513009],[-0.098942,51.513119],[-0.09894,51.513122],[-0.098939,51.513122],[-0.09886,51.513093],[-0.098476,51.512956],[-0.095297,51.511819],[-0.091801,51.510568],[-0.090099,51.509959],[-0.085983,51.508486],[-0.082711,51.507315],[-0.077806,51.505559],[-0.077599,51.505485],[-0.077177,51.505334],[-0.075818,51.504847],[-0.075818,51.504847],[-0.067692,51.501937],[-0.040236,51.492099],[-0.024044,51.486291],[-0.023327,51.486034],[-0.016196,51.483475]]]}},
{"type":"Feature","properties":{"VIEW":"5A.2","DESCRIPTIO":"Greenwich Park Wolfe statue to St Paul's Cathedral","TYPE":"WSCA","HEIGHT":50.6,"SOURCE":"London View Management Framework SPG July 2010","UPDATED":"July 2010","COMMENTS":"This dataset presents the location of the viewing corridors only, not their height. They have been digitised using the coordinates provided in the LVMF SPG 2010","in_cw":false,"whole_in_zone":false},"geometry":{"type":"Polygon","coordinates":[[[-0.021024,51.485721],[-0.000707,51.477915],[-0.02162,51.485802],[-0.02368,51.486579],[-0.039944,51.492708],[-0.040302,51.492843],[-0.066375,51.50266],[-0.066768,51.502807],[-0.074868,51.505855],[-0.074868,51.505855],[-0.076636,51.50652],[-0.077269,51.506758],[-0.079646,51.507653],[-0.090541,51.51175],[-0.0949,51.513389],[-0.095369,51.513565],[-0.096012,51.513807],[-0.096116,51.513845],[-0.09661,51.514031],[-0.096611,51.514031],[-0.096702,51.514066],[-0.097232,51.514265],[-0.097232,51.514265],[-0.097323,51.514299],[-0.097588,51.514399],[-0.097641,51.514419],[-0.097641,51.514419],[-0.097697,51.51444],[-0.097525,51.514623],[-0.097225,51.514942],[-0.097224,51.514943],[-0.097223,51.514943],[-0.097125,51.514905],[-0.097083,51.514889],[-0.09703,51.514869],[-0.097024,51.514867],[-0.096907,51.514822],[-0.096831,51.514793],[-0.096438,51.514642],[-0.09589,51.514432],[-0.095089,51.514125],[-0.079162,51.508024],[-0.077062,51.50722],[-0.076269,51.506916],[-0.074506,51.50624],[-0.063683,51.502091],[-0.039877,51.492959],[-0.023542,51.486688],[-0.021024,51.485721]]]}},
{"type":"Feature","properties":{"VIEW":"5A.2","DESCRIPTIO":"Greenwich Park Wolfe statue to St Paul's Cathedral","TYPE":"VC","HEIGHT":50.6,"SOURCE":"London View Management Framework SPG July 2010","UPDATED":"July 2010","COMMENTS":"This dataset presents the location of the viewing corridors only, not their height. They have been digitised using the coordinates provided in the LVMF SPG 2010","in_cw":false,"whole_in_zone":false},"geometry":{"type":"Polygon","coordinates":[[[-0.02162,51.485802],[-0.000707,51.477915],[-0.016196,51.483475],[-0.023327,51.486034],[-0.024044,51.486291],[-0.040236,51.492099],[-0.067692,51.501937],[-0.075818,51.504847],[-0.075818,51.504847],[-0.077177,51.505334],[-0.077599,51.505485],[-0.077806,51.505559],[-0.082711,51.507315],[-0.085983,51.508486],[-0.090099,51.509959],[-0.091801,51.510568],[-0.095297,51.511819],[-0.098476,51.512956],[-0.09886,51.513093],[-0.098939,51.513122],[-0.09894,51.513122],[-0.098895,51.513169],[-0.098319,51.513781],[-0.098319,51.513781],[-0.098319,51.513781],[-0.098318,51.513781],[-0.098318,51.513781],[-0.098318,51.513781],[-0.098026,51.514091],[-0.098009,51.514109],[-0.098,51.514119],[-0.097897,51.514228],[-0.097697,51.51444],[-0.097641,51.514419],[-0.097641,51.514419],[-0.097588,51.514399],[-0.097323,51.514299],[-0.097232,51.514265],[-0.097232,51.514265],[-0.096702,51.514066],[-0.096611,51.514031],[-0.09661,51.514031],[-0.096116,51.513845],[-0.096012,51.513807],[-0.095369,51.513565],[-0.0949,51.513389],[-0.090541,51.51175],[-0.079646,51.507653],[-0.077269,51.506758],[-0.076636,51.50652],[-0.074868,51.505855],[-0.074868,51.505855],[-0.066768,51.502807],[-0.066375,51.50266],[-0.040302,51.492843],[-0.039944,51.492708],[-0.02368,51.486579],[-0.02162,51.485802]]]}},
{"type":"Feature","properties":{"VIEW":"5A.2","DESCRIPTIO":"Greenwich Park Wolfe statue to Tower Bridge","TYPE":"EXT","HEIGHT":0,"SOURCE":null,"UPDATED":null,"COMMENTS":null,"in_cw":false,"whole_in_zone":false},"geometry":{"type":"Polygon","coordinates":[[[-0.371483,51.619403],[-0.282266,51.585543],[-0.252049,51.57405],[-0.246296,51.57186],[-0.221293,51.562337],[-0.203742,51.555646],[-0.16162,51.539571],[-0.160274,51.539056],[-0.160185,51.539022],[-0.155442,51.537211],[-0.155188,51.537114],[-0.153917,51.536628],[-0.153513,51.536474],[-0.152004,51.535897],[-0.147423,51.534147],[-0.145218,51.533304],[-0.143883,51.532793],[-0.141358,51.531829],[-0.140226,51.531396],[-0.140182,51.531379],[-0.139446,51.531097],[-0.110825,51.52015],[-0.107682,51.518947],[-0.106077,51.518333],[-0.106043,51.51832],[-0.105849,51.518245],[-0.104453,51.517711],[-0.101508,51.516583],[-0.101201,51.516466],[-0.100686,51.516269],[-0.100328,51.516132],[-0.098335,51.515369],[-0.097222,51.514943],[-0.097125,51.514905],[-0.097085,51.51489],[-0.097082,51.514889],[-0.097024,51.514867],[-0.096907,51.514822],[-0.096831,51.514793],[-0.096438,51.514642],[-0.09589,51.514432],[-0.095088,51.514126],[-0.079162,51.508025],[-0.077062,51.50722],[-0.076268,51.506916],[-0.074506,51.50624],[-0.074506,51.50624],[-0.074582,51.506159],[-0.074868,51.505855],[-0.075239,51.505461],[-0.075302,51.505395],[-0.075818,51.504847],[-0.075925,51.504733],[-0.07618,51.504462],[-0.07618,51.504462],[-0.077967,51.50509],[-0.078009,51.505105],[-0.08091,51.506123],[-0.085439,51.507713],[-0.088422,51.508761],[-0.09053,51.509501],[-0.092191,51.510084],[-0.094994,51.511067],[-0.099434,51.512625],[-0.099473,51.512639],[-0.099475,51.51264],[-0.099694,51.512717],[-0.099745,51.512734],[-0.099816,51.512759],[-0.099945,51.512805],[-0.100222,51.512902],[-0.100711,51.513073],[-0.101109,51.513213],[-0.101617,51.513391],[-0.113255,51.517474],[-0.13664,51.525671],[-0.138874,51.526453],[-0.140473,51.527014],[-0.14206,51.527569],[-0.14943,51.530151],[-0.152813,51.531335],[-0.154241,51.531835],[-0.172371,51.538181],[-0.174035,51.538763],[-0.176655,51.53968],[-0.207608,51.550501],[-0.308887,51.585814],[-0.39312,51.615079],[-0.393054,51.615094],[-0.392679,51.615182],[-0.3916,51.615276],[-0.39079,51.615336],[-0.389873,51.615378],[-0.389534,51.615408],[-0.389203,51.615439],[-0.388962,51.615531],[-0.388436,51.615525],[-0.387844,51.6155],[-0.387294,51.615548],[-0.38711,51.615569],[-0.386887,51.615601],[-0.386664,51.615638],[-0.386376,51.615697],[-0.385872,51.61582],[-0.385229,51.615978],[-0.384577,51.616168],[-0.383938,51.616355],[-0.383503,51.616507],[-0.383209,51.616654],[-0.382089,51.617396],[-0.382026,51.617423],[-0.381991,51.617432],[-0.38175,51.617467],[-0.381503,51.617483],[-0.380952,51.617482],[-0.380447,51.617466],[-0.379969,51.617542],[-0.379084,51.617709],[-0.378511,51.61778],[-0.378263,51.617809],[-0.377565,51.617807],[-0.376966,51.617944],[-0.376546,51.618057],[-0.376021,51.618166],[-0.37584,51.618188],[-0.375388,51.618303],[-0.374899,51.618451],[-0.374076,51.618762],[-0.373235,51.618958],[-0.37284,51.619024],[-0.37247,51.619117],[-0.371613,51.619353],[-0.37149,51.6194],[-0.371483,51.619403]]]}},
{"type":"Feature","properties":{"VIEW":"5A.2","DESCRIPTIO":"Greenwich Park Wolfe statue to Tower Bridge","TYPE":"WSCA","HEIGHT":30,"SOURCE":"London View Management Framework SPG July 2010","UPDATED":"July 2010","COMMENTS":"This dataset presents the location of the viewing corridors only, not their height. They have been digitised using the coordinates provided in the LVMF SPG 2010","in_cw":false,"whole_in_zone":true},"geometry":{"type":"Polygon","coordinates":[[[-0.021024,51.485721],[-0.000707,51.477915],[-0.02162,51.485802],[-0.02368,51.486579],[-0.03994,51.492706],[-0.040302,51.492843],[-0.066376,51.50266],[-0.066768,51.502807],[-0.074868,51.505855],[-0.074868,51.505855],[-0.074582,51.506159],[-0.074506,51.50624],[-0.074506,51.50624],[-0.063682,51.502091],[-0.039877,51.492959],[-0.023542,51.486688],[-0.021024,51.485721]]]}},
{"type":"Feature","properties":{"VIEW":"5A.2","DESCRIPTIO":"Greenwich Park Wolfe statue to Tower Bridge","TYPE":"VC","HEIGHT":30,"SOURCE":"London View Management Framework SPG July 2010","UPDATED":"July 2010","COMMENTS":"This dataset presents the location of the viewing corridors only, not their height. They have been digitised using the coordinates provided in the LVMF SPG 2010","in_cw":false,"whole_in_zone":true},"geometry":{"type":"Polygon","coordinates":[[[-0.02162,51.485802],[-0.000707,51.477915],[-0.016196,51.483475],[-0.023327,51.486034],[-0.024044,51.486291],[-0.040236,51.492099],[-0.067692,51.501937],[-0.075818,51.504847],[-0.075818,51.504847],[-0.075302,51.505395],[-0.075239,51.505461],[-0.074868,51.505855],[-0.066768,51.502807],[-0.066376,51.50266],[-0.040302,51.492843],[-0.03994,51.492706],[-0.02368,51.486579],[-0.02162,51.485802]]]}},
{"type":"Feature","properties":{"VIEW":"5A.2","DESCRIPTIO":"Greenwich Park Wolfe statue to Tower Bridge","TYPE":"WSCA","HEIGHT":30,"SOURCE":"London View Management Framework SPG July 2010","UPDATED":"July 2010","COMMENTS":"This dataset presents the location of the viewing corridors only, not their height. They have been digitised using the coordinates provided in the LVMF SPG 2010","in_cw":false,"whole_in_zone":true},"geometry":{"type":"Polygon","coordinates":[[[-0.016196,51.483475],[-0.000707,51.477915],[-0.013329,51.48236],[-0.024041,51.486131],[-0.024183,51.486181],[-0.040626,51.491966],[-0.068045,51.501605],[-0.073134,51.503392],[-0.07618,51.504462],[-0.07618,51.504462],[-0.075926,51.504733],[-0.075818,51.504847],[-0.075818,51.504847],[-0.067692,51.501937],[-0.040236,51.492099],[-0.024044,51.486291],[-0.023327,51.486034],[-0.016196,51.483475]]]}},
{"type":"Feature","properties":{"VIEW":"3A.1","DESCRIPTIO":"Kenwood viewing gazebo to St Paul's Cathedral","TYPE":"EXT","HEIGHT":0,"SOURCE":null,"UPDATED":null,"COMMENTS":null,"in_cw":false,"whole_in_zone":false},"geometry":{"type":"Polygon","coordinates":[[[0.117806,51.330013],[0.117852,51.329754],[0.117892,51.32969],[0.117904,51.329663],[0.117363,51.329481],[0.117,51.329715],[0.116642,51.330003],[0.115743,51.329507],[0.115181,51.328823],[0.114211,51.327398],[0.114034,51.327395],[0.113664,51.327455],[0.113017,51.32756],[0.113027,51.327588],[0.111656,51.327747],[0.111286,51.327812],[0.110672,51.328034],[0.110392,51.328039],[0.110154,51.328036],[0.110131,51.328007],[0.110113,51.327956],[0.110017,51.327525],[0.109926,51.327304],[0.109827,51.327143],[0.109759,51.326684],[0.10924,51.326793],[0.108596,51.327069],[0.107984,51.327232],[0.107371,51.327452],[0.107238,51.327524],[0.106997,51.327465],[0.106845,51.327428],[0.106561,51.327381],[0.106257,51.327379],[0.105832,51.327425],[0.105185,51.327454],[0.105074,51.327449],[0.104902,51.327413],[0.104771,51.327341],[0.104714,51.327271],[0.10439,51.326888],[0.104316,51.326804],[0.104219,51.326707],[0.104109,51.326617],[0.103997,51.326535],[0.10394,51.326498],[0.004312,51.417802],[-0.04565,51.463424],[-0.047589,51.465193],[-0.048277,51.46582],[-0.048513,51.466035],[-0.05213,51.469334],[-0.073343,51.488665],[-0.076047,51.491128],[-0.0787,51.493544],[-0.079706,51.49446],[-0.077607,51.495395],[-0.076296,51.495979],[-0.075083,51.49652],[-0.07017,51.492389],[-0.063712,51.486957],[-0.054123,51.478889],[-0.053389,51.478271],[-0.052683,51.477677],[-0.02115,51.451119],[0.011424,51.423644],[0.119853,51.33189],[0.119719,51.331809],[0.119445,51.331639],[0.11901,51.331372],[0.118784,51.331237],[0.1187,51.331189],[0.118566,51.33111],[0.118433,51.331028],[0.118402,51.331009],[0.118339,51.330967],[0.118275,51.330926],[0.118213,51.330884],[0.118152,51.33084],[0.118107,51.330806],[0.118051,51.330761],[0.117995,51.330716],[0.117943,51.330669],[0.117892,51.330621],[0.117892,51.330619],[0.117876,51.330598],[0.117861,51.330576],[0.117849,51.330553],[0.117836,51.33053],[0.117834,51.330525],[0.117823,51.330504],[0.117815,51.330482],[0.117807,51.33046],[0.1178,51.330438],[0.117793,51.330416],[0.117789,51.330391],[0.117784,51.330343],[0.117785,51.330296],[0.117786,51.330246],[0.117788,51.330199],[0.117792,51.330166],[0.117806,51.330013]]]}},
{"type":"Feature","properties":{"VIEW":"3A.1","DESCRIPTIO":"Kenwood viewing gazebo to St Paul's Cathedral","TYPE":"WSCA","HEIGHT":0,"SOURCE":"London View Management Framework SPG July 2010","UPDATED":"July 2010","COMMENTS":"This dataset presents the location of the viewing corridors only, not their height. They have been digitised using the coordinates provided in the LVMF SPG 2010","in_cw":false,"whole_in_zone":false},"geometry":{"type":"Polygon","coordinates":[[[-0.077607,51.495395],[-0.079706,51.49446],[-0.093273,51.506807],[-0.096061,51.509344],[-0.099604,51.512566],[-0.099744,51.512694],[-0.099816,51.512759],[-0.099817,51.512761],[-0.099881,51.512819],[-0.099882,51.512819],[-0.099888,51.512825],[-0.10006,51.512981],[-0.100078,51.512997],[-0.099493,51.513258],[-0.099491,51.513259],[-0.099441,51.513281],[-0.098609,51.513652],[-0.098321,51.51378],[-0.098319,51.513781],[-0.098319,51.513781],[-0.098319,51.513781],[-0.098319,51.513781],[-0.098318,51.513781],[-0.098318,51.513781],[-0.098318,51.513781],[-0.098318,51.513781],[-0.097826,51.514],[-0.097812,51.514006],[-0.097232,51.514265],[-0.096559,51.514564],[-0.096328,51.51437],[-0.096223,51.514282],[-0.09576,51.513894],[-0.095369,51.513565],[-0.093477,51.511975],[-0.091801,51.510568],[-0.090531,51.509502],[-0.09053,51.509501],[-0.09011,51.509148],[-0.088745,51.508001],[-0.088544,51.507832],[-0.088496,51.507792],[-0.07515,51.496576],[-0.075083,51.49652],[-0.076296,51.495979],[-0.077607,51.495395]]]}},
{"type":"Feature","properties":{"VIEW":"9A.1","DESCRIPTIO":"King Henry's Mound to St Paul's Cathedral","TYPE":"WSCA","HEIGHT":0,"SOURCE":"London View Management Framework SPG July 2010","UPDATED":"July 2010","COMMENTS":"This dataset presents the location of the viewing corridors only, not their height. They have been digitised using the coordinates provided in the LVMF SPG 2010","in_cw":false,"whole_in_zone":false},"geometry":{"type":"Polygon","coordinates":[[[-0.096814,51.51353],[-0.097791,51.513192],[-0.098035,51.513465],[-0.098318,51.513781],[-0.098319,51.513781],[-0.098319,51.513781],[-0.098319,51.513781],[-0.098319,51.513781],[-0.0986,51.514095],[-0.098603,51.514099],[-0.098846,51.51437],[-0.098774,51.514395],[-0.098518,51.514485],[-0.098451,51.514509],[-0.098058,51.514648],[-0.097225,51.514942],[-0.097223,51.514943],[-0.097222,51.514943],[-0.097221,51.514943],[-0.097207,51.514948],[-0.097125,51.514977],[-0.097073,51.514996],[-0.096642,51.515148],[-0.095925,51.515401],[-0.086238,51.51882],[-0.086181,51.51884],[-0.085855,51.518956],[-0.083365,51.519834],[-0.082755,51.520049],[-0.078568,51.521527],[-0.078397,51.521587],[-0.07667,51.522197],[-0.076038,51.522419],[-0.069165,51.524844],[-0.060006,51.528073],[-0.054944,51.529858],[-0.054929,51.529841],[-0.053654,51.528417],[-0.057483,51.527097],[-0.070106,51.522745],[-0.079094,51.519645],[-0.095088,51.514126],[-0.095089,51.514125],[-0.095101,51.514121],[-0.095323,51.514045],[-0.095657,51.513929],[-0.09576,51.513894],[-0.096012,51.513807],[-0.096089,51.51378],[-0.096814,51.51353]]]}},
{"type":"Feature","properties":{"VIEW":"2A.1","DESCRIPTIO":"Parliament Hill summit to St Paul's Cathedral","TYPE":"EXT","HEIGHT":0,"SOURCE":null,"UPDATED":null,"COMMENTS":null,"in_cw":false,"whole_in_zone":false},"geometry":{"type":"Polygon","coordinates":[[[0.137498,51.346062],[0.137196,51.345872],[0.137181,51.345879],[0.13715,51.345893],[0.137119,51.345907],[0.137086,51.345921],[0.13706,51.345931],[0.137043,51.345938],[0.137026,51.345944],[0.137008,51.345951],[0.136991,51.345957],[0.136972,51.345963],[0.136954,51.345969],[0.136935,51.345974],[0.136917,51.345978],[0.136897,51.345982],[0.136887,51.345984],[0.136874,51.345986],[0.136861,51.345988],[0.13685,51.34599],[0.136837,51.345991],[0.136824,51.345993],[0.136811,51.345994],[0.136798,51.345995],[0.136786,51.345995],[0.136773,51.345996],[0.13676,51.345996],[0.136747,51.345995],[0.136734,51.345994],[0.136721,51.345992],[0.136709,51.34599],[0.136696,51.345988],[0.136685,51.345985],[0.136673,51.345982],[0.136661,51.345979],[0.136651,51.345975],[0.136639,51.345972],[0.136629,51.345968],[0.136619,51.345963],[0.136609,51.345958],[0.136603,51.345955],[0.136592,51.345949],[0.136584,51.345944],[0.136576,51.345938],[0.136567,51.345932],[0.13656,51.345926],[0.136554,51.345919],[0.136546,51.345912],[0.1362,51.345937],[0.136196,51.345926],[0.13619,51.345908],[0.136186,51.345889],[0.136181,51.345871],[0.136179,51.345852],[0.136176,51.345833],[0.136175,51.345814],[0.136176,51.345795],[0.136177,51.345776],[0.13618,51.345757],[0.136182,51.345739],[0.136187,51.34572],[0.136192,51.345701],[0.136196,51.345689],[0.136199,51.345677],[0.136203,51.345665],[0.136208,51.345653],[0.136212,51.345642],[0.136217,51.345631],[0.136224,51.345619],[0.13623,51.345608],[0.136237,51.345597],[0.136245,51.345586],[0.136253,51.345575],[0.136263,51.345565],[0.13628,51.34555],[0.136388,51.34548],[0.136392,51.345476],[0.136497,51.345402],[0.136513,51.345393],[0.136551,51.345373],[0.136588,51.345351],[0.136622,51.345329],[0.136657,51.345307],[0.136691,51.345284],[0.136723,51.34526],[0.136752,51.345237],[0.136793,51.3452],[0.136833,51.345162],[0.13687,51.345123],[0.136906,51.345084],[0.13694,51.345044],[0.136972,51.345004],[0.136982,51.34499],[0.137011,51.344953],[0.137026,51.344935],[0.13704,51.344916],[0.137053,51.344898],[0.137067,51.344879],[0.137079,51.344859],[0.137089,51.34484],[0.1371,51.344821],[0.137109,51.344801],[0.137115,51.344781],[0.137118,51.344777],[0.137124,51.344753],[0.137129,51.344729],[0.137132,51.344705],[0.137134,51.34468],[0.137134,51.344656],[0.137133,51.344632],[0.13713,51.344609],[0.137126,51.344584],[0.137126,51.344577],[0.137122,51.34456],[0.13712,51.344547],[0.137115,51.344523],[0.137107,51.3445],[0.137098,51.344476],[0.137089,51.344453],[0.137079,51.34443],[0.137066,51.344406],[0.137017,51.344276],[0.136958,51.344175],[0.136683,51.344274],[0.136551,51.344321],[0.136271,51.344416],[0.135988,51.344506],[0.135983,51.344507],[0.13577,51.34457],[0.135555,51.344631],[0.135338,51.344688],[0.135319,51.344692],[0.134829,51.344842],[0.134761,51.344862],[0.134681,51.344887],[0.134529,51.34493],[0.134427,51.344957],[0.134274,51.344996],[0.134119,51.345033],[0.133962,51.345067],[0.133904,51.34508],[0.133664,51.345131],[0.13342,51.345179],[0.133342,51.345193],[0.132451,51.345366],[0.132178,51.34542],[0.131777,51.345507],[0.131669,51.345194],[0.131463,51.345216],[0.131141,51.345253],[0.131146,51.345275],[0.130452,51.345363],[0.129761,51.345436],[0.129466,51.345465],[0.129465,51.345446],[0.128905,51.34551],[0.127682,51.345618],[0.127273,51.345619],[0.12729,51.345675],[0.127136,51.345693],[0.126966,51.345709],[0.12694,51.345712],[0.126721,51.345729],[0.126502,51.345743],[0.126312,51.345752],[0.126089,51.345761],[0.125762,51.345784],[0.125733,51.345786],[0.125704,51.345786],[0.125646,51.345788],[0.125617,51.34579],[0.125588,51.345791],[0.125558,51.345792],[0.125531,51.345796],[0.125503,51.3458],[0.125491,51.345801],[0.125474,51.345804],[0.125455,51.345808],[0.125437,51.345811],[0.12542,51.345816],[0.12541,51.345818],[0.125393,51.345823],[0.125376,51.345828],[0.125359,51.345834],[0.125344,51.34584],[0.125213,51.345868],[0.125132,51.345864],[0.12467,51.345748],[0.124009,51.345513],[0.123852,51.345469],[0.123701,51.345416],[0.123596,51.345373],[0.123533,51.34534],[0.123549,51.345129],[0.123051,51.344949],[0.12267,51.344812],[0.122239,51.344657],[0.12179,51.344547],[0.12131,51.344442],[0.120618,51.344341],[0.11997,51.344244],[0.119925,51.344334],[0.119831,51.344323],[0.119211,51.344259],[0.118608,51.344208],[0.118456,51.344148],[0.118081,51.343856],[0.117691,51.343475],[0.117597,51.343485],[0.117591,51.343285],[0.117586,51.343129],[0.117421,51.343146],[0.117232,51.343164],[0.11707,51.342669],[0.116971,51.342331],[0.012806,51.424437],[-0.02115,51.451119],[-0.052724,51.475895],[-0.067751,51.487673],[-0.074522,51.492978],[-0.077531,51.495336],[-0.076296,51.495979],[-0.07515,51.496576],[-0.072965,51.497713],[-0.06444,51.491613],[-0.056034,51.485595],[-0.05295,51.483387],[0.023853,51.428299],[0.137562,51.346409],[0.137562,51.346408],[0.137548,51.346397],[0.137536,51.346386],[0.137524,51.346375],[0.137512,51.346363],[0.137502,51.346352],[0.137491,51.346339],[0.137482,51.346327],[0.137474,51.346315],[0.137466,51.346302],[0.137465,51.346299],[0.137461,51.346289],[0.137456,51.346279],[0.137452,51.346268],[0.137448,51.346257],[0.137445,51.346248],[0.137442,51.346237],[0.13744,51.346226],[0.137438,51.346216],[0.137436,51.346206],[0.137435,51.346195],[0.137436,51.346184],[0.137437,51.346173],[0.137438,51.346163],[0.137442,51.346152],[0.137444,51.346142],[0.137446,51.34614],[0.13745,51.34613],[0.137455,51.34612],[0.13746,51.34611],[0.137467,51.3461],[0.137473,51.34609],[0.137482,51.346081],[0.13749,51.346071],[0.137498,51.346062]]]}},
{"type":"Feature","properties":{"VIEW":"2A.1","DESCRIPTIO":"Parliament Hill summit to St Paul's Cathedral","TYPE":"WSCA","HEIGHT":0,"SOURCE":"London View Management Framework SPG July 2010","UPDATED":"July 2010","COMMENTS":"This dataset presents the location of the viewing corridors only, not their height. They have been digitised using the coordinates provided in the LVMF SPG 2010","in_cw":false,"whole_in_zone":false},"geometry":{"type":"Polygon","coordinates":[[[-0.076296,51.495979],[-0.077531,51.495336],[-0.077607,51.495395],[-0.093781,51.508065],[-0.0952,51.509177],[-0.099553,51.512584],[-0.099712,51.512709],[-0.099745,51.512734],[-0.099746,51.512736],[-0.099815,51.512789],[-0.099816,51.51279],[-0.099869,51.512832],[-0.099977,51.512917],[-0.099352,51.513243],[-0.098319,51.513781],[-0.098319,51.513781],[-0.098319,51.513781],[-0.098318,51.513781],[-0.098318,51.513781],[-0.098318,51.513781],[-0.098315,51.513783],[-0.09794,51.513978],[-0.097877,51.514011],[-0.097875,51.514012],[-0.097864,51.514018],[-0.097824,51.514038],[-0.097323,51.514299],[-0.09666,51.514645],[-0.096631,51.514625],[-0.096349,51.514424],[-0.096179,51.514302],[-0.095657,51.513929],[-0.0949,51.513389],[-0.091884,51.511234],[-0.090099,51.509959],[-0.088423,51.508762],[-0.088422,51.508761],[-0.087138,51.507843],[-0.087016,51.507756],[-0.084845,51.506205],[-0.08475,51.506137],[-0.072965,51.497713],[-0.07515,51.496576],[-0.076296,51.495979]]]}},
{"type":"Feature","properties":{"VIEW":"4A.1","DESCRIPTIO":"Primrose Hill summit to St Paul's Cathedral","TYPE":"EXT","HEIGHT":0,"SOURCE":null,"UPDATED":null,"COMMENTS":null,"in_cw":false,"whole_in_zone":false},"geometry":{"type":"Polygon","coordinates":[[[0.086991,51.443263],[0.152338,51.417713],[0.152324,51.417714],[0.152136,51.417712],[0.151947,51.417706],[0.151782,51.417692],[0.151301,51.417634],[0.151055,51.417616],[0.15108,51.417433],[0.151137,51.416718],[0.151136,51.416708],[0.151121,51.415734],[0.15117,51.415487],[0.151183,51.415251],[0.151176,51.415156],[0.151154,51.415063],[0.151097,51.414922],[0.150775,51.414373],[0.150624,51.414189],[0.150562,51.414143],[0.150526,51.414131],[0.150477,51.414122],[0.150329,51.414117],[0.150261,51.414108],[0.150202,51.414092],[0.150158,51.414072],[0.150124,51.414047],[0.149997,51.413907],[0.14996,51.413855],[0.14996,51.413852],[0.149882,51.413695],[0.149793,51.41342],[0.149692,51.412983],[0.149659,51.41289],[0.149613,51.412809],[0.149551,51.412736],[0.149489,51.412681],[0.149278,51.412528],[0.14916,51.412435],[0.149506,51.411967],[0.149752,51.411658],[0.15163,51.411442],[0.152501,51.411356],[0.15377,51.411265],[0.153623,51.411077],[0.153566,51.410988],[0.15351,51.410879],[0.153446,51.410729],[0.153388,51.410572],[0.15336,51.410489],[0.153283,51.410196],[0.153059,51.409232],[0.152932,51.408708],[0.152062,51.40867],[0.151595,51.408677],[0.151179,51.408736],[0.150724,51.408805],[0.150067,51.408946],[0.149312,51.409141],[0.14899,51.408623],[0.148903,51.408483],[0.148769,51.408267],[0.148692,51.408131],[0.149257,51.407879],[0.149692,51.407693],[0.150134,51.407448],[0.15036,51.407238],[0.15039,51.407206],[0.150443,51.407149],[0.1505,51.407093],[0.150557,51.407037],[0.150571,51.407025],[0.150615,51.406986],[0.15066,51.406947],[0.150705,51.406908],[0.150751,51.406871],[0.1508,51.406835],[0.150848,51.406799],[0.1509,51.406764],[0.150921,51.40675],[0.150964,51.406722],[0.151009,51.406695],[0.151053,51.406668],[0.1511,51.406642],[0.151147,51.406617],[0.151195,51.406592],[0.151244,51.406569],[0.151295,51.406546],[0.151346,51.406523],[0.151348,51.406523],[0.151402,51.406502],[0.151457,51.406482],[0.151513,51.406463],[0.151569,51.406445],[0.151626,51.406427],[0.151683,51.406411],[0.151742,51.406396],[0.151801,51.406381],[0.15186,51.406368],[0.151922,51.406356],[0.151982,51.406345],[0.151999,51.406342],[0.152056,51.406331],[0.152084,51.406326],[0.152113,51.406321],[0.152141,51.406317],[0.15217,51.406312],[0.152198,51.406308],[0.152228,51.406305],[0.152257,51.406302],[0.152286,51.406298],[0.152314,51.406296],[0.152344,51.406296],[0.152373,51.406294],[0.152402,51.406295],[0.152432,51.406296],[0.152441,51.406297],[0.15247,51.406299],[0.152499,51.406302],[0.152528,51.406305],[0.152556,51.406309],[0.152585,51.406314],[0.152613,51.406319],[0.152709,51.406346],[0.152822,51.406273],[0.152812,51.406265],[0.152801,51.406256],[0.152791,51.406247],[0.152782,51.406237],[0.152774,51.406228],[0.152765,51.406218],[0.15276,51.406212],[0.152756,51.406205],[0.152751,51.406198],[0.152747,51.406192],[0.152742,51.406185],[0.152739,51.406179],[0.152735,51.406172],[0.152734,51.406164],[0.152732,51.406157],[0.152732,51.40615],[0.152731,51.406139],[0.152732,51.406128],[0.152734,51.406118],[0.152738,51.406107],[0.152741,51.406096],[0.152743,51.406089],[0.152744,51.406088],[0.152748,51.406077],[0.152754,51.406067],[0.15276,51.406056],[0.153214,51.405611],[0.153233,51.405611],[0.15326,51.40561],[0.153287,51.405607],[0.153314,51.405604],[0.15334,51.405601],[0.153348,51.4056],[0.153361,51.405598],[0.153374,51.405597],[0.153387,51.405595],[0.1534,51.405593],[0.153413,51.40559],[0.153426,51.405587],[0.153438,51.405584],[0.153448,51.40558],[0.153461,51.405575],[0.153474,51.405571],[0.153486,51.405565],[0.153498,51.405559],[0.153509,51.405553],[0.15352,51.405546],[0.153524,51.405544],[0.153534,51.405537],[0.153544,51.40553],[0.153786,51.40534],[0.153997,51.405168],[0.154299,51.404936],[0.154653,51.404598],[0.155148,51.404029],[0.155249,51.403971],[0.155141,51.403875],[0.154967,51.403659],[0.155128,51.403621],[0.155129,51.403621],[0.155301,51.403589],[0.155514,51.403575],[0.155831,51.40318],[0.155965,51.403014],[0.156216,51.402697],[0.156435,51.402494],[0.156503,51.402393],[0.156536,51.402319],[0.156626,51.402093],[0.156754,51.401827],[0.156934,51.401621],[0.157098,51.401398],[0.157222,51.401136],[0.157301,51.400951],[0.157361,51.400783],[0.157372,51.400544],[0.157422,51.400318],[0.157525,51.400062],[0.157664,51.399588],[0.157786,51.399227],[0.157707,51.399005],[0.157707,51.398993],[0.123415,51.414211],[0.075668,51.435367],[0.009013,51.464835],[-0.008893,51.472739],[-0.01484,51.475363],[-0.017,51.476316],[-0.019101,51.477243],[-0.025908,51.480245],[-0.026734,51.480609],[-0.046038,51.489118],[-0.048416,51.490165],[-0.070067,51.499701],[-0.069759,51.499991],[-0.069093,51.500618],[-0.068507,51.50117],[-0.068045,51.501605],[-0.068045,51.501605],[-0.067692,51.501937],[-0.066809,51.502768],[-0.066768,51.502807],[-0.066768,51.502807],[-0.066529,51.503033],[-0.064428,51.502217],[-0.040296,51.492844],[-0.039944,51.492708],[-0.03994,51.492706],[-0.023844,51.486449],[-0.022479,51.485919],[-0.016196,51.483475],[-0.013331,51.482361],[-0.013329,51.48236],[0.00728,51.47434],[0.010689,51.473013],[0.015653,51.47108],[0.086991,51.443263]]]}},
{"type":"Feature","properties":{"VIEW":"4A.1","DESCRIPTIO":"Primrose Hill summit to St Paul's Cathedral","TYPE":"WSCA","HEIGHT":0,"SOURCE":"London View Management Framework SPG July 2010","UPDATED":"July 2010","COMMENTS":"This dataset presents the location of the viewing corridors only, not their height. They have been digitised using the coordinates provided in the LVMF SPG 2010","in_cw":false,"whole_in_zone":false},"geometry":{"type":"Polygon","coordinates":[[[-0.069759,51.499991],[-0.070067,51.499701],[-0.084845,51.506205],[-0.088544,51.507832],[-0.088979,51.508023],[-0.094798,51.510583],[-0.099438,51.512624],[-0.099473,51.512639],[-0.099481,51.512643],[-0.099513,51.512656],[-0.099223,51.51293],[-0.099035,51.513107],[-0.09901,51.513129],[-0.098996,51.513143],[-0.098319,51.513781],[-0.098319,51.513781],[-0.098319,51.513781],[-0.098319,51.513781],[-0.098318,51.513781],[-0.098318,51.513781],[-0.098208,51.513885],[-0.097987,51.514093],[-0.097979,51.514101],[-0.097883,51.514191],[-0.097641,51.514419],[-0.097317,51.514724],[-0.097125,51.514905],[-0.097125,51.514905],[-0.097124,51.514905],[-0.097086,51.51489],[-0.097082,51.514889],[-0.09703,51.514869],[-0.097024,51.514866],[-0.096905,51.51482],[-0.096829,51.514791],[-0.096436,51.514639],[-0.095897,51.514429],[-0.095101,51.514121],[-0.079194,51.507949],[-0.0771,51.507136],[-0.076338,51.506841],[-0.074582,51.506159],[-0.074582,51.506159],[-0.066529,51.503033],[-0.066768,51.502807],[-0.066768,51.502807],[-0.066809,51.502768],[-0.067692,51.501937],[-0.068045,51.501605],[-0.068045,51.501605],[-0.068507,51.50117],[-0.069093,51.500618],[-0.069759,51.499991]]]}},
{"type":"Feature","properties":{"VIEW":"23A.1","DESCRIPTIO":"Centre of Bridge over the Serpentine to the Palace of Westminster","TYPE":"EXT","HEIGHT":0,"SOURCE":null,"UPDATED":null,"COMMENTS":null,"in_cw":false,"whole_in_zone":false},"geometry":{"type":"Polygon","coordinates":[[[0.20294,51.454211],[0.202803,51.453975],[0.202721,51.453933],[0.202501,51.453879],[0.202454,51.453878],[0.202364,51.453905],[0.202039,51.454103],[0.202028,51.454105],[0.201965,51.454095],[0.201935,51.454083],[0.201897,51.454049],[0.201885,51.453915],[0.201853,51.453882],[0.201387,51.453851],[0.201077,51.453634],[0.201021,51.453581],[0.201005,51.453543],[0.201003,51.453514],[0.201011,51.453493],[0.201046,51.453454],[0.201158,51.453379],[0.201169,51.453369],[0.201189,51.453304],[0.201129,51.453263],[0.201012,51.45325],[0.200863,51.453224],[0.200719,51.453209],[0.200699,51.453199],[0.200642,51.453154],[0.200615,51.453103],[0.20062,51.453055],[0.200672,51.453007],[0.200726,51.452898],[0.200651,51.452859],[0.200416,51.452859],[0.200328,51.452848],[0.200281,51.45281],[0.200271,51.452741],[0.200283,51.452659],[0.200234,51.452596],[0.200133,51.452622],[0.19992,51.452711],[0.199868,51.452722],[0.199818,51.452726],[0.199769,51.452723],[0.199721,51.452715],[0.199676,51.452697],[0.199631,51.452667],[0.199603,51.45263],[0.199592,51.452597],[0.199586,51.452545],[0.199559,51.452505],[0.199515,51.452466],[0.199459,51.452436],[0.199393,51.452415],[0.199326,51.452405],[0.199169,51.452404],[0.199114,51.45239],[0.199067,51.452367],[0.199043,51.452346],[0.199027,51.452305],[0.199028,51.452283],[0.199046,51.452253],[0.199073,51.452225],[0.199108,51.452204],[0.199136,51.452139],[0.198802,51.452104],[0.19862,51.452052],[0.198419,51.452054],[0.198341,51.452029],[0.198204,51.451967],[0.198145,51.451935],[0.198102,51.451885],[0.198061,51.451859],[0.198015,51.451842],[0.197964,51.451831],[0.197914,51.45183],[0.197865,51.451836],[0.197817,51.45185],[0.197776,51.451871],[0.197746,51.451895],[0.197698,51.451979],[0.197639,51.452005],[0.197575,51.45193],[0.19754,51.451859],[0.197457,51.451784],[0.197276,51.451798],[0.1972,51.451797],[0.197099,51.451786],[0.197002,51.451769],[0.196894,51.451742],[0.196719,51.451814],[0.19662,51.451769],[0.196554,51.451748],[0.196489,51.451729],[0.19645,51.451727],[0.196411,51.451728],[0.19626,51.451773],[0.196179,51.451786],[0.196099,51.451793],[0.195986,51.451784],[0.195961,51.451802],[0.195923,51.451848],[0.195904,51.451901],[0.195905,51.45195],[0.195924,51.451993],[0.195962,51.452036],[0.196026,51.45208],[0.196135,51.45213],[0.196162,51.452153],[0.196173,51.452171],[0.196178,51.452196],[0.196171,51.452229],[0.196135,51.45227],[0.195987,51.452351],[0.195923,51.452369],[0.19589,51.452371],[0.195846,51.452369],[0.195801,51.45236],[0.195764,51.452346],[0.195734,51.452326],[0.195702,51.452294],[0.19569,51.452271],[0.195659,51.452138],[0.195632,51.452085],[0.195577,51.452041],[0.195509,51.452016],[0.195438,51.452006],[0.195374,51.452012],[0.195266,51.452076],[0.195247,51.452103],[0.195207,51.452131],[0.195171,51.452143],[0.195128,51.452149],[0.195091,51.452147],[0.195054,51.452138],[0.195022,51.452118],[0.194999,51.452086],[0.194994,51.45206],[0.195028,51.451893],[0.19502,51.451868],[0.195003,51.451847],[0.194976,51.451829],[0.194948,51.451816],[0.19489,51.451808],[0.194852,51.451815],[0.194815,51.451827],[0.194793,51.451841],[0.194759,51.451881],[0.194661,51.451888],[0.194632,51.451885],[0.194565,51.451871],[0.194483,51.451843],[0.194423,51.451815],[0.194348,51.451759],[0.19428,51.45169],[0.194252,51.451675],[0.194181,51.451664],[0.19415,51.451676],[0.194095,51.451708],[0.194073,51.451728],[0.194049,51.4518],[0.194056,51.451841],[0.194048,51.45187],[0.194034,51.451894],[0.194009,51.451915],[0.193978,51.451933],[0.193938,51.451945],[0.193892,51.45195],[0.193846,51.451948],[0.193782,51.451933],[0.193716,51.451912],[0.193668,51.451889],[0.193628,51.451863],[0.193595,51.451831],[0.19357,51.451793],[0.193547,51.451734],[0.193483,51.4517],[0.19302,51.451702],[0.192908,51.451622],[0.192901,51.45156],[0.192886,51.451522],[0.192861,51.451486],[0.192832,51.451456],[0.192758,51.45141],[0.192676,51.451377],[0.192642,51.451359],[0.192481,51.451248],[0.192412,51.451184],[0.192155,51.450897],[0.192006,51.450783],[0.191942,51.450726],[0.191914,51.450696],[0.191774,51.450689],[0.191747,51.450679],[0.191012,51.448788],[0.188851,51.44913],[0.188824,51.449119],[0.188435,51.448616],[0.188404,51.44861],[0.187673,51.448703],[0.187644,51.448698],[0.187401,51.448309],[0.187377,51.448207],[0.187308,51.447289],[0.187361,51.447087],[0.187438,51.446949],[0.187467,51.446896],[0.187465,51.446875],[0.187082,51.446611],[0.186528,51.446207],[0.185777,51.445708],[0.185115,51.445255],[0.184277,51.444655],[0.184247,51.444649],[0.184065,51.4447],[0.183689,51.444806],[0.183656,51.444804],[0.183228,51.444537],[0.183199,51.444531],[0.183076,51.44458],[0.183045,51.444581],[0.182776,51.444417],[0.182663,51.444387],[0.182558,51.444362],[0.18219,51.444305],[0.181445,51.444222],[0.181084,51.444182],[0.181066,51.444166],[0.181056,51.44411],[0.181003,51.443678],[0.181003,51.443676],[0.180887,51.443523],[0.18086,51.443512],[0.180558,51.443464],[0.180469,51.443445],[0.180271,51.443389],[0.082261,51.460961],[0.014997,51.472966],[0.013163,51.473293],[0.00728,51.47434],[-0.019082,51.479031],[-0.022698,51.479674],[-0.023054,51.479737],[-0.024442,51.479984],[-0.025112,51.480103],[-0.025908,51.480245],[-0.025938,51.48025],[-0.026398,51.480332],[-0.053055,51.485066],[-0.056034,51.485595],[-0.063712,51.486957],[-0.067751,51.487673],[-0.073343,51.488665],[-0.076729,51.489265],[-0.076047,51.491128],[-0.075328,51.493088],[-0.074522,51.492978],[-0.07017,51.492389],[-0.06444,51.491613],[-0.05044,51.489715],[-0.046345,51.489159],[-0.046038,51.489118],[-0.04543,51.489035],[-0.043769,51.48881],[-0.042405,51.488625],[-0.024216,51.486155],[-0.024041,51.486131],[-0.024041,51.486131],[-0.023327,51.486034],[-0.022479,51.485919],[-0.02162,51.485802],[-0.02162,51.485802],[-0.021024,51.485721],[-0.021024,51.485721],[-0.020836,51.485695],[-0.012445,51.484555],[0.089462,51.470649],[0.203305,51.455001],[0.203285,51.454981],[0.203263,51.454941],[0.203261,51.454914],[0.203272,51.454885],[0.203325,51.454831],[0.203338,51.454795],[0.203399,51.454561],[0.2034,51.454386],[0.20338,51.454356],[0.203353,51.454328],[0.203059,51.454277],[0.202991,51.454252],[0.202958,51.454231],[0.20294,51.454211]]]}},
{"type":"Feature","properties":{"VIEW":"23A.1","DESCRIPTIO":"Centre of Bridge over the Serpentine to the Palace of Westminster","TYPE":"WSCA","HEIGHT":0,"SOURCE":"London View Management Framework SPG July 2010","UPDATED":"July 2010","COMMENTS":"This dataset presents the location of the viewing corridors only, not their height. They have been digitised using the coordinates provided in the LVMF SPG 2010","in_cw":false,"whole_in_zone":false},"geometry":{"type":"Polygon","coordinates":[[[-0.076047,51.491128],[-0.076729,51.489265],[-0.086919,51.49107],[-0.090922,51.491779],[-0.092978,51.492143],[-0.109815,51.495123],[-0.119817,51.496891],[-0.121967,51.497271],[-0.122344,51.497338],[-0.123053,51.497463],[-0.125288,51.497858],[-0.124727,51.499391],[-0.124727,51.499391],[-0.124727,51.499392],[-0.124599,51.499742],[-0.124378,51.499712],[-0.123966,51.499657],[-0.123596,51.499607],[-0.123141,51.499545],[-0.122241,51.499424],[-0.122052,51.499399],[-0.109815,51.497748],[-0.094198,51.495639],[-0.08845,51.494862],[-0.0787,51.493544],[-0.075328,51.493088],[-0.076047,51.491128]]]}},
{"type":"Feature","properties":{"VIEW":"8A.1","DESCRIPTIO":"Westminster Pier to St Paul's Cathedral","TYPE":"WSCA","HEIGHT":0,"SOURCE":"London View Management Framework SPG July 2010","UPDATED":"July 2010","COMMENTS":"This dataset presents the location of the viewing corridors only, not their height. They have been digitised using the coordinates provided in the LVMF SPG 2010","in_cw":false,"whole_in_zone":false},"geometry":{"type":"Polygon","coordinates":[[[-0.097345,51.513776],[-0.097973,51.513493],[-0.098318,51.513781],[-0.098319,51.513781],[-0.098319,51.513781],[-0.098319,51.513781],[-0.098319,51.513781],[-0.098319,51.513781],[-0.098664,51.514069],[-0.09864,51.514081],[-0.098603,51.514099],[-0.098603,51.514099],[-0.098349,51.514222],[-0.098236,51.514277],[-0.098202,51.514294],[-0.097966,51.514408],[-0.097526,51.514622],[-0.097525,51.514623],[-0.097318,51.514724],[-0.097317,51.514724],[-0.09705,51.514854],[-0.09703,51.514864],[-0.097024,51.514866],[-0.097024,51.514867],[-0.097024,51.514867],[-0.096991,51.514882],[-0.096957,51.514899],[-0.09661,51.515068],[-0.095925,51.515401],[-0.087856,51.519324],[-0.085007,51.520709],[-0.07648,51.524852],[-0.067123,51.529397],[-0.066388,51.529755],[-0.058868,51.533406],[-0.057077,51.531917],[-0.063545,51.529006],[-0.068249,51.526887],[-0.075697,51.523532],[-0.079799,51.521685],[-0.08167,51.520842],[-0.083701,51.519926],[-0.085855,51.518956],[-0.09589,51.514432],[-0.09589,51.514432],[-0.095897,51.514429],[-0.096014,51.514376],[-0.096179,51.514302],[-0.096223,51.514282],[-0.096282,51.514256],[-0.096702,51.514066],[-0.09686,51.513995],[-0.09686,51.513995],[-0.097345,51.513776]]]}}
]}
