{"type":"FeatureCollection","meta":{
 "source": "London Datastore: Sub-regions (London Plan Consolidated with Alterations since 2004) (Greater London Authority)",
 "dataset": "238g1",
 "page": "https://data.london.gov.uk/dataset/sub-regions-london-plan-consolidated-with-alterations-since-2004-238g1",
 "resources": [
  {
   "resource": "eb24423c-d9bf-4fa7-bf5b-d48d6a376a8c",
   "file": "lp_08_cwas04_Subregions.zip",
   "url": "https://data.london.gov.uk/download/238g1/eb24423c-d9bf-4fa7-bf5b-d48d6a376a8c/lp_08_cwas04_Subregions.zip",
   "size": 176045,
   "resource_date": "2018-11-15",
   "fetched": "2026-10-04",
   "entries": 7
  }
 ],
 "licence": "Open Government Licence v2",
 "licence_url": "https://www.nationalarchives.gov.uk/doc/open-government-licence/version/2/",
 "attribution": "Contains public sector information licensed under the Open Government Licence v2 (Greater London Authority). The GLA cannot warrant the quality or accuracy of the data (London Datastore terms).",
 "dataset_modified": "2014-07-04",
 "update_frequency": null,
 "geo": "Custom Polygons",
 "theme": "buildings-places",
 "layers": [
  {
   "table": "lp_08_cwas04_Subregions",
   "srs": 27700
  }
 ],
 "crs_source": "EPSG:27700",
 "crs_output": "EPSG:4326 (WGS84), 6 decimal places; BNG to WGS84 through the OS OSTN15 grid (lib.mjs bngProjector)",
 "method": "lds-harvest-auto.mjs run 238g1: resources chosen by the written rules (harvest-log.json meta.rules: formats, dedupe, caps); every feature read (GeoPackage, GeoJSON, shapefile, or table rows with coordinate columns as points, the CRS judged per row by value); a feature is kept when it meets the zone (the 3D model box, BNG E 532400-539900, N 176700-182300): a vertex inside, an edge crossing or the box inside a polygon; whole geometries kept, whole_in_zone and in_cw added; WGS84 6 decimals through OSTN15; contact fields dropped.",
 "counts": {
  "source_features": 5,
  "no_geometry": 0,
  "in_zone": 3,
  "in_cw": 2
 },
 "attributes_in_source": "yes",
 "fields_dropped": [],
 "harvest_rules": "tools/lds-harvest-auto.mjs AUTO_RULES (feeds/london-datastore/harvest-log.json meta.rules)",
 "selection_notes": [
  "lp_08_cwas04_Subregions.zip: 4 polygons with over 1000 vertices cut to the zone box plus 500 m (clipped_to_zone)"
 ]
},
"features":[
{"type":"Feature","properties":{"Name":"South East","Source":"London Plan consolidated with alterations since 2004","Hectares":33010.0243072,"Shape_Leng":107145.78234,"Shape_Area":330100243.002,"clipped_to_zone":true,"in_cw":true,"whole_in_zone":false},"geometry":{"type":"Polygon","coordinates":[[[-0.100711,51.509758],[-0.100185,51.509728],[-0.099926,51.509714],[-0.099291,51.509674],[-0.09852,51.509607],[-0.097707,51.509535],[-0.096824,51.509448],[-0.09599,51.509334],[-0.095704,51.509286],[-0.095279,51.509196],[-0.094923,51.509109],[-0.093988,51.508897],[-0.093145,51.508657],[-0.092798,51.508556],[-0.092625,51.508512],[-0.092335,51.508447],[-0.091902,51.508359],[-0.091079,51.508263],[-0.090301,51.508161],[-0.089477,51.508086],[-0.089038,51.508031],[-0.088944,51.508019],[-0.088598,51.507987],[-0.088073,51.507927],[-0.087725,51.507884],[-0.087634,51.507878],[-0.086742,51.507816],[-0.086076,51.507755],[-0.085751,51.507737],[-0.08565,51.50773],[-0.085162,51.507692],[-0.084865,51.507647],[-0.084181,51.507532],[-0.08391,51.507481],[-0.083441,51.507426],[-0.082643,51.507304],[-0.081895,51.507195],[-0.081372,51.507109],[-0.081034,51.507052],[-0.080751,51.507001],[-0.080269,51.506899],[-0.080164,51.506871],[-0.079959,51.506806],[-0.079796,51.506752],[-0.079231,51.50658],[-0.078924,51.506511],[-0.078481,51.506393],[-0.078225,51.506316],[-0.078193,51.506308],[-0.078079,51.506275],[-0.077219,51.506039],[-0.076312,51.505775],[-0.075215,51.505454],[-0.07403,51.505188],[-0.073733,51.505114],[-0.073175,51.504953],[-0.072692,51.504785],[-0.071821,51.504407],[-0.071251,51.504148],[-0.070895,51.503977],[-0.070454,51.503797],[-0.070192,51.503702],[-0.070074,51.503659],[-0.069839,51.503586],[-0.069112,51.503367],[-0.068181,51.503116],[-0.067882,51.503032],[-0.067692,51.503009],[-0.067691,51.503009],[-0.066929,51.502796],[-0.066501,51.502697],[-0.066155,51.502595],[-0.065892,51.502525],[-0.064636,51.502259],[-0.064206,51.502172],[-0.063584,51.502076],[-0.063081,51.502005],[-0.062366,51.501915],[-0.060877,51.501714],[-0.06042,51.501695],[-0.060179,51.501671],[-0.060039,51.501665],[-0.059866,51.501666],[-0.059501,51.501716],[-0.058795,51.501814],[-0.058273,51.501895],[-0.057678,51.501992],[-0.057199,51.502083],[-0.056941,51.502153],[-0.056354,51.502303],[-0.056352,51.502304],[-0.055954,51.502392],[-0.055553,51.502518],[-0.05514,51.502676],[-0.054848,51.502796],[-0.054847,51.502796],[-0.053626,51.503441],[-0.052763,51.503953],[-0.052389,51.504167],[-0.052226,51.504249],[-0.051802,51.504465],[-0.051408,51.504674],[-0.049426,51.505836],[-0.04862,51.506298],[-0.04812,51.506584],[-0.046928,51.507225],[-0.046541,51.507411],[-0.046369,51.507498],[-0.045954,51.507709],[-0.045469,51.507935],[-0.045125,51.508054],[-0.0443,51.508274],[-0.043905,51.508372],[-0.043585,51.508437],[-0.043322,51.508481],[-0.042689,51.508543],[-0.042077,51.50859],[-0.041312,51.508626],[-0.040903,51.508636],[-0.040556,51.508637],[-0.040208,51.508629],[-0.039591,51.508626],[-0.038824,51.508601],[-0.038167,51.508558],[-0.037845,51.508499],[-0.037458,51.508432],[-0.03722,51.50837],[-0.03668,51.508225],[-0.035934,51.508074],[-0.035559,51.507942],[-0.03494,51.507724],[-0.034312,51.507524],[-0.033516,51.507272],[-0.033022,51.507161],[-0.032743,51.507081],[-0.032404,51.507001],[-0.032177,51.506882],[-0.031781,51.506664],[-0.031715,51.506628],[-0.031628,51.506547],[-0.031525,51.506468],[-0.031398,51.506389],[-0.031258,51.506308],[-0.031025,51.506245],[-0.030813,51.506151],[-0.030732,51.506104],[-0.030632,51.506021],[-0.030586,51.505968],[-0.030566,51.505944],[-0.030475,51.505837],[-0.030291,51.505671],[-0.030055,51.505404],[-0.029972,51.505224],[-0.029882,51.505098],[-0.029811,51.504912],[-0.029688,51.50464],[-0.029575,51.5044],[-0.02956,51.504371],[-0.029567,51.504356],[-0.02961,51.504253],[-0.029635,51.504061],[-0.02958,51.503818],[-0.029524,51.503496],[-0.029428,51.50303],[-0.029357,51.502735],[-0.029346,51.502691],[-0.029362,51.502629],[-0.029395,51.502487],[-0.029405,51.50235],[-0.029429,51.502095],[-0.029536,51.501119],[-0.029669,51.500145],[-0.029826,51.499545],[-0.029864,51.49927],[-0.029912,51.498946],[-0.029996,51.498409],[-0.030004,51.498055],[-0.030016,51.497549],[-0.030084,51.497146],[-0.030097,51.497063],[-0.030178,51.496068],[-0.030192,51.495741],[-0.030188,51.495488],[-0.030181,51.495334],[-0.030116,51.494672],[-0.02999,51.493985],[-0.029921,51.493564],[-0.029789,51.493031],[-0.029743,51.492925],[-0.029603,51.492686],[-0.029307,51.492182],[-0.028981,51.491627],[-0.028361,51.490806],[-0.028143,51.490502],[-0.02782,51.490056],[-0.027491,51.489704],[-0.027259,51.489435],[-0.027078,51.489295],[-0.026771,51.489017],[-0.026572,51.488854],[-0.025955,51.488396],[-0.025096,51.487785],[-0.024817,51.487597],[-0.024667,51.487485],[-0.024373,51.487321],[-0.024117,51.487172],[-0.023798,51.486982],[-0.023528,51.48684],[-0.023491,51.486823],[-0.023418,51.486786],[-0.022992,51.486576],[-0.021858,51.486092],[-0.021365,51.485894],[-0.021055,51.485775],[-0.019994,51.485388],[-0.019447,51.485224],[-0.018943,51.485087],[-0.018788,51.485045],[-0.018005,51.484823],[-0.017624,51.484773],[-0.017425,51.484779],[-0.017402,51.484779],[-0.01676,51.484696],[-0.01656,51.484669],[-0.01652,51.484664],[-0.016336,51.48464],[-0.015907,51.484617],[-0.015636,51.484586],[-0.015448,51.48458],[-0.015108,51.484569],[-0.014776,51.484553],[-0.014531,51.484555],[-0.013776,51.484522],[-0.013167,51.484504],[-0.012861,51.484508],[-0.012759,51.484527],[-0.011032,51.484679],[-0.010806,51.484705],[-0.01058,51.484733],[-0.007932,51.485209],[-0.007439,51.48536],[-0.006941,51.485512],[-0.00671,51.485583],[-0.006218,51.485697],[-0.005901,51.485782],[-0.005624,51.485872],[-0.005529,51.485906],[-0.005355,51.48597],[-0.005117,51.486081],[-0.004719,51.486257],[-0.004529,51.486324],[-0.003384,51.486903],[-0.002927,51.487145],[-0.002149,51.487643],[-0.001719,51.488016],[-0.00145,51.488307],[-0.001152,51.488713],[-0.000915,51.489112],[-0.000678,51.489534],[-0.000555,51.489844],[-0.000484,51.490078],[-0.000449,51.490306],[-0.000421,51.490663],[-0.000423,51.490914],[-0.000389,51.49139],[-0.000651,51.492161],[-0.000776,51.492556],[-0.000998,51.493075],[-0.001055,51.493315],[-0.001187,51.49349],[-0.001415,51.493859],[-0.001575,51.49409],[-0.001994,51.494553],[-0.002085,51.494661],[-0.002116,51.494692],[-0.002184,51.494777],[-0.002282,51.4949],[-0.002443,51.495108],[-0.002798,51.495669],[-0.003632,51.497123],[-0.003979,51.497616],[-0.004137,51.497925],[-0.004305,51.498272],[-0.00435,51.498379],[-0.00445,51.498636],[-0.004577,51.499003],[-0.00492,51.500139],[-0.004968,51.500371],[-0.005056,51.500727],[-0.005153,51.500886],[-0.005151,51.50095],[-0.005151,51.501023],[-0.00515,51.501073],[-0.005149,51.501244],[-0.00511,51.501461],[-0.005054,51.501574],[-0.005009,51.501678],[-0.004911,51.50183],[-0.004836,51.501961],[-0.004795,51.502112],[-0.004641,51.502512],[-0.004535,51.50281],[-0.004484,51.502942],[-0.004299,51.503239],[-0.004007,51.503617],[-0.00369,51.503916],[-0.003528,51.504112],[-0.003336,51.504306],[-0.003202,51.504483],[-0.003022,51.504659],[-0.002848,51.50482],[-0.002636,51.504967],[-0.002427,51.505152],[-0.001973,51.505452],[-0.001291,51.50587],[-0.000892,51.506059],[-0.00013,51.506319],[0.000171,51.506396],[0.000674,51.506512],[0.000981,51.506575],[0.001392,51.506668],[0.002209,51.506739],[0.002725,51.506741],[0.003183,51.506752],[0.003637,51.506769],[0.003898,51.506754],[0.003982,51.506746],[0.004173,51.506712],[0.005201,51.506429],[0.005992,51.506163],[0.007348,51.505631],[0.007625,51.505511],[0.008224,51.505232],[0.008607,51.505014],[0.00885,51.504865],[0.009166,51.504652],[0.009675,51.504282],[0.009951,51.504079],[0.010266,51.503812],[0.010587,51.503539],[0.011248,51.50291],[0.012446,51.501871],[0.012843,51.50154],[0.013388,51.501084],[0.014152,51.500442],[0.015015,51.499686],[0.015366,51.499392],[0.015631,51.499189],[0.016242,51.498806],[0.017574,51.498084],[0.018433,51.49767],[0.019217,51.497357],[0.019829,51.497156],[0.020712,51.49689],[0.021208,51.496742],[0.019909,51.467359],[-0.092343,51.46924],[-0.092697,51.469767],[-0.092723,51.469822],[-0.092762,51.469921],[-0.092825,51.470138],[-0.092915,51.470751],[-0.092926,51.470823],[-0.092935,51.470949],[-0.093006,51.472011],[-0.093059,51.47212],[-0.093472,51.471902],[-0.093607,51.47176],[-0.093715,51.4716],[-0.093975,51.470876],[-0.094051,51.470778],[-0.094082,51.470734],[-0.094185,51.470673],[-0.094304,51.470594],[-0.094775,51.47035],[-0.094863,51.470306],[-0.095055,51.470192],[-0.095975,51.469874],[-0.097122,51.470693],[-0.097527,51.470979],[-0.098032,51.47132],[-0.098899,51.471927],[-0.099162,51.472183],[-0.099231,51.472265],[-0.09936,51.472618],[-0.099529,51.473053],[-0.099759,51.473416],[-0.100354,51.473992],[-0.100561,51.474211],[-0.100642,51.474339],[-0.100666,51.474456],[-0.100566,51.474778],[-0.100413,51.475684],[-0.100317,51.476276],[-0.100158,51.476642],[-0.100096,51.476731],[-0.099975,51.476873],[-0.101489,51.477527],[-0.102041,51.477749],[-0.100711,51.509758]]]}},
{"type":"Feature","properties":{"Name":"North","Source":"London Plan consolidated with alterations since 2004","Hectares":25719.567045,"Shape_Leng":91107.5881956,"Shape_Area":257195670.544,"clipped_to_zone":true,"in_cw":false,"whole_in_zone":false},"geometry":{"type":"Polygon","coordinates":[[[-0.099922,51.528715],[-0.093106,51.528604],[-0.091681,51.52824],[-0.09161,51.52822],[-0.089584,51.527702],[-0.089029,51.52754],[-0.088759,51.527437],[-0.088646,51.52739],[-0.088575,51.527353],[-0.088533,51.527316],[-0.088465,51.527234],[-0.088284,51.527069],[-0.088107,51.526814],[-0.088055,51.526688],[-0.087815,51.526234],[-0.087805,51.526201],[-0.087785,51.526179],[-0.087742,51.526146],[-0.087721,51.52613],[-0.087674,51.526102],[-0.087624,51.52608],[-0.087572,51.52606],[-0.087489,51.526021],[-0.08747,51.526011],[-0.087445,51.525999],[-0.087431,51.525991],[-0.087333,51.525957],[-0.08731,51.525949],[-0.087277,51.525937],[-0.087171,51.525903],[-0.087151,51.525894],[-0.087131,51.525888],[-0.087119,51.525883],[-0.087102,51.525877],[-0.087088,51.525872],[-0.087055,51.525849],[-0.087022,51.525816],[-0.087013,51.525804],[-0.087001,51.525792],[-0.086988,51.525773],[-0.086977,51.525757],[-0.086432,51.525861],[-0.085573,51.526063],[-0.084956,51.526054],[-0.084735,51.52541],[-0.085018,51.525199],[-0.085249,51.524843],[-0.085389,51.524594],[-0.085422,51.524504],[-0.085094,51.524427],[-0.085115,51.523924],[-0.08451,51.523896],[-0.084208,51.5239],[-0.084292,51.523596],[-0.084425,51.522492],[-0.0845,51.522079],[-0.084679,51.521606],[-0.084892,51.520989],[-0.085051,51.520632],[-0.08519,51.520349],[-0.085206,51.520318],[-0.08535,51.52013],[-0.08553,51.519833],[-0.085788,51.519429],[-0.085879,51.519291],[-0.086201,51.51881],[-0.086331,51.518846],[-0.086367,51.518856],[-0.086435,51.518884],[-0.086898,51.519019],[-0.087247,51.519121],[-0.087667,51.519269],[-0.087703,51.519272],[-0.087796,51.519302],[-0.088103,51.519412],[-0.088136,51.519423],[-0.088151,51.519436],[-0.088313,51.519491],[-0.088485,51.519549],[-0.088708,51.519619],[-0.088824,51.519658],[-0.089059,51.519725],[-0.089169,51.519751],[-0.089396,51.519827],[-0.089469,51.519845],[-0.089693,51.519907],[-0.089812,51.519937],[-0.089973,51.519984],[-0.089763,51.520488],[-0.089762,51.52049],[-0.089761,51.520494],[-0.089679,51.520691],[-0.089668,51.520717],[-0.090024,51.52077],[-0.090122,51.520788],[-0.090214,51.52081],[-0.0903,51.520826],[-0.090449,51.520846],[-0.090555,51.520856],[-0.09071,51.520872],[-0.090802,51.520883],[-0.090929,51.520899],[-0.091128,51.52092],[-0.091282,51.520933],[-0.091324,51.520938],[-0.091346,51.520941],[-0.091371,51.520943],[-0.091517,51.52096],[-0.09159,51.520973],[-0.091661,51.520973],[-0.091724,51.520976],[-0.091795,51.520982],[-0.09215,51.521016],[-0.092343,51.521029],[-0.092381,51.521139],[-0.092398,51.52119],[-0.092491,51.521488],[-0.093271,51.521336],[-0.093355,51.521536],[-0.093445,51.521518],[-0.093462,51.521565],[-0.09358,51.521548],[-0.093589,51.521587],[-0.093849,51.521541],[-0.094319,51.521485],[-0.094384,51.521747],[-0.094597,51.522315],[-0.095063,51.523139],[-0.095361,51.523063],[-0.095754,51.52298],[-0.095964,51.522925],[-0.095991,51.522966],[-0.096338,51.522854],[-0.096403,51.522835],[-0.096464,51.522923],[-0.096527,51.523015],[-0.096598,51.523178],[-0.096635,51.523172],[-0.09674,51.523325],[-0.096757,51.523318],[-0.09676,51.523323],[-0.097947,51.522879],[-0.097935,51.522869],[-0.097946,51.522865],[-0.097889,51.522814],[-0.097808,51.522729],[-0.097724,51.522632],[-0.097705,51.522609],[-0.097695,51.522591],[-0.09768,51.522572],[-0.097666,51.522548],[-0.097652,51.522525],[-0.097641,51.522506],[-0.097622,51.522476],[-0.097588,51.522409],[-0.097575,51.522379],[-0.097561,51.52235],[-0.097541,51.522312],[-0.097519,51.522268],[-0.0975,51.522217],[-0.097478,51.522178],[-0.097466,51.522149],[-0.097449,51.522108],[-0.097429,51.522052],[-0.097402,51.52198],[-0.097387,51.521926],[-0.097372,51.521874],[-0.097359,51.521832],[-0.097355,51.521819],[-0.097352,51.521772],[-0.097352,51.521769],[-0.097357,51.521749],[-0.097356,51.521725],[-0.097357,51.521699],[-0.097356,51.52169],[-0.097367,51.52163],[-0.097377,51.521595],[-0.097491,51.521605],[-0.097542,51.521305],[-0.097598,51.521034],[-0.097644,51.520724],[-0.098425,51.520588],[-0.098876,51.520499],[-0.099323,51.52037],[-0.099629,51.520285],[-0.099727,51.520254],[-0.100228,51.520137],[-0.100232,51.520137],[-0.10028,51.520129],[-0.099922,51.528715]]]}},
{"type":"Feature","properties":{"Name":"East","Source":"London Plan consolidated with alterations since 2004","Hectares":33000.5157563,"Shape_Leng":113539.377398,"Shape_Area":330005157.748,"clipped_to_zone":true,"in_cw":true,"whole_in_zone":false},"geometry":{"type":"Polygon","coordinates":[[[-0.10028,51.520125],[-0.100236,51.520135],[-0.099644,51.520274],[-0.098612,51.520546],[-0.098528,51.520565],[-0.098504,51.520536],[-0.097617,51.52071],[-0.09752,51.52132],[-0.097451,51.52158],[-0.097345,51.521578],[-0.097343,51.521583],[-0.097347,51.521606],[-0.097352,51.521649],[-0.097355,51.521676],[-0.097357,51.521699],[-0.097356,51.521725],[-0.097357,51.521749],[-0.097352,51.521769],[-0.09735,51.52179],[-0.097352,51.521808],[-0.097359,51.521832],[-0.097372,51.521874],[-0.097387,51.521926],[-0.097402,51.52198],[-0.097429,51.522052],[-0.097449,51.522108],[-0.097466,51.522149],[-0.097478,51.522178],[-0.0975,51.522217],[-0.097519,51.522268],[-0.097541,51.522312],[-0.097561,51.52235],[-0.097575,51.522379],[-0.097588,51.522409],[-0.097622,51.522476],[-0.097641,51.522506],[-0.097652,51.522525],[-0.097666,51.522548],[-0.09768,51.522572],[-0.097695,51.522591],[-0.097705,51.522609],[-0.097724,51.522632],[-0.097808,51.522729],[-0.097889,51.522814],[-0.097946,51.522865],[-0.097935,51.522869],[-0.09674,51.523325],[-0.096444,51.522895],[-0.096403,51.522835],[-0.096402,51.522834],[-0.096338,51.522854],[-0.096338,51.522854],[-0.095991,51.522966],[-0.095964,51.522925],[-0.095754,51.52298],[-0.095361,51.523063],[-0.095123,51.523113],[-0.095099,51.523118],[-0.094942,51.522847],[-0.094807,51.522656],[-0.094561,51.522167],[-0.094471,51.521964],[-0.094389,51.521746],[-0.094315,51.521448],[-0.09372,51.521528],[-0.09358,51.521548],[-0.093462,51.521565],[-0.093445,51.521518],[-0.093355,51.521536],[-0.093271,51.521336],[-0.093254,51.521295],[-0.093153,51.521315],[-0.093017,51.521341],[-0.092852,51.521377],[-0.092686,51.521411],[-0.092552,51.521437],[-0.092487,51.521448],[-0.092398,51.52119],[-0.092398,51.52119],[-0.092381,51.521139],[-0.092378,51.521129],[-0.092337,51.52101],[-0.092195,51.521005],[-0.091985,51.52099],[-0.091812,51.520979],[-0.091661,51.520973],[-0.09159,51.520973],[-0.091517,51.52096],[-0.091324,51.520938],[-0.091324,51.520938],[-0.091282,51.520933],[-0.091128,51.52092],[-0.090929,51.520899],[-0.090802,51.520883],[-0.09071,51.520872],[-0.090555,51.520856],[-0.090449,51.520846],[-0.0903,51.520826],[-0.090214,51.52081],[-0.090122,51.520788],[-0.089943,51.520754],[-0.089777,51.520732],[-0.089684,51.520719],[-0.089709,51.520622],[-0.089737,51.52057],[-0.089762,51.52049],[-0.089763,51.520488],[-0.089813,51.520409],[-0.089842,51.520324],[-0.08988,51.520252],[-0.089905,51.520176],[-0.08996,51.520075],[-0.09,51.519991],[-0.089812,51.519937],[-0.089693,51.519907],[-0.089469,51.519845],[-0.089396,51.519827],[-0.089169,51.519751],[-0.089059,51.519725],[-0.088824,51.519658],[-0.088708,51.519619],[-0.088485,51.519549],[-0.088313,51.519491],[-0.088151,51.519436],[-0.088136,51.519423],[-0.088115,51.519405],[-0.087703,51.519272],[-0.087667,51.519269],[-0.087247,51.519121],[-0.086898,51.519019],[-0.086435,51.518884],[-0.086204,51.518791],[-0.086156,51.518779],[-0.086152,51.518797],[-0.085735,51.519438],[-0.085303,51.520123],[-0.08519,51.520349],[-0.085051,51.520632],[-0.084892,51.520989],[-0.084679,51.521606],[-0.0845,51.522079],[-0.084425,51.522492],[-0.084292,51.523596],[-0.084208,51.5239],[-0.08451,51.523896],[-0.085115,51.523924],[-0.085094,51.524427],[-0.085422,51.524504],[-0.085389,51.524594],[-0.085249,51.524843],[-0.085018,51.525199],[-0.084735,51.52541],[-0.084956,51.526054],[-0.085005,51.526197],[-0.085573,51.526063],[-0.086432,51.525861],[-0.086977,51.525757],[-0.086988,51.525773],[-0.087001,51.525792],[-0.087013,51.525804],[-0.087022,51.525816],[-0.087055,51.525849],[-0.087088,51.525872],[-0.087102,51.525877],[-0.087119,51.525883],[-0.087131,51.525888],[-0.087151,51.525894],[-0.087171,51.525903],[-0.087277,51.525937],[-0.08731,51.525949],[-0.087333,51.525957],[-0.087431,51.525991],[-0.087445,51.525999],[-0.08747,51.526011],[-0.087489,51.526021],[-0.087572,51.52606],[-0.087624,51.52608],[-0.087674,51.526102],[-0.087721,51.52613],[-0.087742,51.526146],[-0.087785,51.526179],[-0.087805,51.526201],[-0.087815,51.526234],[-0.088055,51.526688],[-0.088107,51.526814],[-0.088284,51.527069],[-0.088465,51.527234],[-0.088533,51.527316],[-0.088575,51.527353],[-0.088646,51.52739],[-0.088759,51.527437],[-0.089029,51.52754],[-0.089584,51.527702],[-0.09161,51.52822],[-0.091681,51.52824],[-0.093106,51.528604],[0.022534,51.526667],[0.021208,51.496742],[0.020712,51.49689],[0.019829,51.497156],[0.019217,51.497357],[0.018433,51.49767],[0.017574,51.498084],[0.016242,51.498806],[0.015631,51.499189],[0.015366,51.499392],[0.015015,51.499686],[0.014152,51.500442],[0.013388,51.501084],[0.012843,51.50154],[0.012446,51.501871],[0.011248,51.50291],[0.010587,51.503539],[0.010266,51.503812],[0.009951,51.504079],[0.009675,51.504282],[0.009166,51.504652],[0.00885,51.504865],[0.008607,51.505014],[0.008224,51.505232],[0.007625,51.505511],[0.007348,51.505631],[0.005992,51.506163],[0.005201,51.506429],[0.004173,51.506712],[0.003982,51.506746],[0.003898,51.506754],[0.003637,51.506769],[0.003183,51.506752],[0.002725,51.506741],[0.002209,51.506739],[0.001392,51.506668],[0.000981,51.506575],[0.000674,51.506512],[0.000171,51.506396],[-0.00013,51.506319],[-0.000892,51.506059],[-0.001291,51.50587],[-0.001973,51.505452],[-0.002427,51.505152],[-0.002636,51.504967],[-0.002848,51.50482],[-0.003022,51.504659],[-0.003202,51.504483],[-0.003336,51.504306],[-0.003528,51.504112],[-0.00369,51.503916],[-0.004007,51.503617],[-0.004299,51.503239],[-0.004484,51.502942],[-0.004535,51.50281],[-0.004641,51.502512],[-0.004795,51.502112],[-0.004836,51.501961],[-0.004911,51.50183],[-0.005009,51.501678],[-0.005054,51.501574],[-0.00511,51.501461],[-0.005149,51.501244],[-0.00515,51.501073],[-0.005151,51.501023],[-0.005151,51.50095],[-0.005153,51.500886],[-0.005056,51.500727],[-0.004968,51.500371],[-0.00492,51.500139],[-0.004577,51.499003],[-0.00445,51.498636],[-0.00435,51.498379],[-0.004305,51.498272],[-0.004137,51.497925],[-0.003979,51.497616],[-0.003632,51.497123],[-0.002798,51.495669],[-0.002443,51.495108],[-0.002282,51.4949],[-0.002184,51.494777],[-0.002116,51.494692],[-0.002085,51.494661],[-0.001994,51.494553],[-0.001575,51.49409],[-0.001415,51.493859],[-0.001187,51.49349],[-0.001055,51.493315],[-0.000998,51.493075],[-0.000776,51.492556],[-0.000651,51.492161],[-0.000389,51.49139],[-0.000423,51.490914],[-0.000421,51.490663],[-0.000449,51.490306],[-0.000484,51.490078],[-0.000555,51.489844],[-0.000678,51.489534],[-0.000915,51.489112],[-0.001152,51.488713],[-0.00145,51.488307],[-0.001719,51.488016],[-0.002149,51.487643],[-0.002927,51.487145],[-0.003384,51.486903],[-0.004529,51.486324],[-0.004719,51.486257],[-0.005117,51.486081],[-0.005355,51.48597],[-0.005529,51.485906],[-0.005624,51.485872],[-0.005901,51.485782],[-0.006218,51.485697],[-0.00671,51.485583],[-0.006941,51.485512],[-0.007439,51.48536],[-0.007932,51.485209],[-0.01058,51.484733],[-0.010806,51.484705],[-0.011032,51.484679],[-0.012759,51.484527],[-0.012861,51.484508],[-0.013167,51.484504],[-0.013776,51.484522],[-0.014531,51.484555],[-0.014776,51.484553],[-0.015108,51.484569],[-0.015448,51.48458],[-0.015636,51.484586],[-0.015907,51.484617],[-0.016336,51.48464],[-0.01652,51.484664],[-0.01656,51.484669],[-0.01676,51.484696],[-0.017402,51.484779],[-0.017425,51.484779],[-0.017624,51.484773],[-0.018005,51.484823],[-0.018788,51.485045],[-0.018943,51.485087],[-0.019447,51.485224],[-0.019994,51.485388],[-0.021055,51.485775],[-0.021365,51.485894],[-0.021858,51.486092],[-0.022992,51.486576],[-0.023418,51.486786],[-0.023491,51.486823],[-0.023528,51.48684],[-0.023798,51.486982],[-0.024117,51.487172],[-0.024373,51.487321],[-0.024667,51.487485],[-0.024817,51.487597],[-0.025096,51.487785],[-0.025955,51.488396],[-0.026572,51.488854],[-0.026771,51.489017],[-0.027078,51.489295],[-0.027259,51.489435],[-0.027491,51.489704],[-0.02782,51.490056],[-0.028143,51.490502],[-0.028361,51.490806],[-0.028981,51.491627],[-0.029307,51.492182],[-0.029603,51.492686],[-0.029743,51.492925],[-0.029789,51.493031],[-0.029921,51.493564],[-0.02999,51.493985],[-0.030116,51.494672],[-0.030181,51.495334],[-0.030188,51.495488],[-0.030192,51.495741],[-0.030178,51.496068],[-0.030097,51.497063],[-0.030084,51.497146],[-0.030016,51.497549],[-0.030004,51.498055],[-0.029996,51.498409],[-0.029912,51.498946],[-0.029864,51.49927],[-0.029826,51.499545],[-0.029669,51.500145],[-0.029536,51.501119],[-0.029429,51.502095],[-0.029405,51.50235],[-0.029395,51.502487],[-0.029362,51.502629],[-0.029346,51.502691],[-0.029357,51.502735],[-0.029428,51.50303],[-0.029524,51.503496],[-0.02958,51.503818],[-0.029635,51.504061],[-0.02961,51.504253],[-0.029567,51.504356],[-0.02956,51.504371],[-0.029575,51.5044],[-0.029688,51.50464],[-0.029811,51.504912],[-0.029882,51.505098],[-0.029972,51.505224],[-0.030055,51.505404],[-0.030291,51.505671],[-0.030475,51.505837],[-0.030566,51.505944],[-0.030586,51.505968],[-0.030632,51.506021],[-0.030732,51.506104],[-0.030813,51.506151],[-0.031025,51.506245],[-0.031258,51.506308],[-0.031398,51.506389],[-0.031525,51.506468],[-0.031628,51.506547],[-0.031715,51.506628],[-0.031781,51.506664],[-0.032177,51.506882],[-0.032404,51.507001],[-0.032743,51.507081],[-0.033022,51.507161],[-0.033516,51.507272],[-0.034312,51.507524],[-0.03494,51.507724],[-0.035559,51.507942],[-0.035934,51.508074],[-0.03668,51.508225],[-0.03722,51.50837],[-0.037458,51.508432],[-0.037845,51.508499],[-0.038167,51.508558],[-0.038824,51.508601],[-0.039591,51.508626],[-0.040208,51.508629],[-0.040556,51.508637],[-0.040903,51.508636],[-0.041312,51.508626],[-0.042077,51.50859],[-0.042689,51.508543],[-0.043322,51.508481],[-0.043585,51.508437],[-0.043905,51.508372],[-0.0443,51.508274],[-0.045125,51.508054],[-0.045469,51.507935],[-0.045954,51.507709],[-0.046369,51.507498],[-0.046541,51.507411],[-0.046928,51.507225],[-0.04812,51.506584],[-0.04862,51.506298],[-0.049426,51.505836],[-0.051408,51.504674],[-0.051802,51.504465],[-0.052226,51.504249],[-0.052389,51.504167],[-0.052763,51.503953],[-0.053626,51.503441],[-0.054847,51.502796],[-0.054848,51.502796],[-0.05514,51.502676],[-0.055553,51.502518],[-0.055954,51.502392],[-0.056352,51.502304],[-0.056354,51.502303],[-0.056941,51.502153],[-0.057199,51.502083],[-0.057678,51.501992],[-0.058273,51.501895],[-0.058795,51.501814],[-0.059501,51.501716],[-0.059866,51.501666],[-0.060039,51.501665],[-0.060179,51.501671],[-0.06042,51.501695],[-0.060877,51.501714],[-0.062366,51.501915],[-0.063081,51.502005],[-0.063584,51.502076],[-0.064206,51.502172],[-0.064636,51.502259],[-0.065892,51.502525],[-0.066155,51.502595],[-0.066501,51.502697],[-0.066929,51.502796],[-0.067691,51.503009],[-0.067692,51.503009],[-0.067882,51.503032],[-0.068181,51.503116],[-0.069112,51.503367],[-0.069839,51.503586],[-0.070074,51.503659],[-0.070192,51.503702],[-0.070454,51.503797],[-0.070895,51.503977],[-0.071251,51.504148],[-0.071821,51.504407],[-0.072692,51.504785],[-0.073175,51.504953],[-0.073733,51.505114],[-0.07403,51.505188],[-0.075215,51.505454],[-0.076312,51.505775],[-0.077219,51.506039],[-0.078079,51.506275],[-0.078193,51.506308],[-0.078225,51.506316],[-0.078481,51.506393],[-0.078924,51.506511],[-0.079231,51.50658],[-0.079796,51.506752],[-0.079959,51.506806],[-0.080164,51.506871],[-0.080269,51.506899],[-0.080751,51.507001],[-0.081034,51.507052],[-0.081372,51.507109],[-0.081895,51.507195],[-0.082643,51.507304],[-0.083441,51.507426],[-0.08391,51.507481],[-0.084181,51.507532],[-0.084865,51.507647],[-0.085162,51.507692],[-0.08565,51.50773],[-0.085751,51.507737],[-0.086076,51.507755],[-0.086742,51.507816],[-0.087634,51.507878],[-0.087725,51.507884],[-0.088073,51.507927],[-0.088598,51.507987],[-0.088944,51.508019],[-0.089038,51.508031],[-0.089477,51.508086],[-0.090301,51.508161],[-0.091079,51.508263],[-0.091902,51.508359],[-0.092335,51.508447],[-0.092625,51.508512],[-0.092798,51.508556],[-0.093145,51.508657],[-0.093988,51.508897],[-0.094923,51.509109],[-0.095279,51.509196],[-0.095704,51.509286],[-0.09599,51.509334],[-0.096824,51.509448],[-0.097707,51.509535],[-0.09852,51.509607],[-0.099291,51.509674],[-0.099926,51.509714],[-0.100185,51.509728],[-0.100711,51.509758],[-0.10028,51.520125]]]}}
]}
