{"type":"FeatureCollection","meta":{
 "source": "London Datastore: Approved Food Establishments  (Food Standards Agency)",
 "dataset": "2zwwy",
 "page": "https://data.london.gov.uk/dataset/approved-food-establishments-2zwwy",
 "resources": [
  {
   "resource": "df50beb4-6fcd-4acd-8752-19e37f1a59d0",
   "file": "Food_Establishment_London.csv",
   "url": "https://data.london.gov.uk/download/2zwwy/df50beb4-6fcd-4acd-8752-19e37f1a59d0/Food_Establishment_London.csv",
   "size": 275573,
   "resource_date": "2020-06-01",
   "fetched": "2026-10-04"
  }
 ],
 "licence": "Open Government Licence v3",
 "licence_url": "https://www.nationalarchives.gov.uk/doc/open-government-licence/version/3/",
 "attribution": "Contains public sector information licensed under the Open Government Licence v3 (Food Standards Agency). The GLA cannot warrant the quality or accuracy of the data (London Datastore terms).",
 "dataset_modified": "2020-06-01",
 "update_frequency": null,
 "geo": null,
 "theme": "occupants-organisations",
 "layers": [
  {
   "table": "Food_Establishment_London.csv",
   "srs": "per row",
   "columns": [
    "X",
    "Y"
   ],
   "rows_read": 581
  }
 ],
 "crs_source": "EPSG:per row",
 "crs_output": "EPSG:4326 (WGS84), 6 decimal places; BNG to WGS84 through the OS OSTN15 grid (lib.mjs bngProjector)",
 "method": "lds-harvest-auto.mjs run 2zwwy: resources chosen by the written rules (harvest-log.json meta.rules: formats, dedupe, caps); every feature read (GeoPackage, GeoJSON, shapefile, or table rows with coordinate columns as points, the CRS judged per row by value); a feature is kept when it meets the zone (the 3D model box, BNG E 532400-539900, N 176700-182300): a vertex inside, an edge crossing or the box inside a polygon; whole geometries kept, whole_in_zone and in_cw added; WGS84 6 decimals through OSTN15; contact fields dropped.",
 "counts": {
  "source_features": 12,
  "no_geometry": 0,
  "in_zone": 12,
  "in_cw": 0,
  "table_rows_read": 581,
  "note": "features made from table rows: source_features counts the zone rows only; table_rows_read counts every row read"
 },
 "attributes_in_source": "yes",
 "fields_dropped": [],
 "harvest_rules": "tools/lds-harvest-auto.mjs AUTO_RULES (feeds/london-datastore/harvest-log.json meta.rules)",
 "selection_notes": []
},
"features":[
{"type":"Feature","properties":{"AppNo":"LM 015","TradingName":"Hong Wan's Food Supplies","Address1":"Enterprise Industrial Estate","Address2":"Bolina Road","Address3":null,"Town":"London","Postcode":"SE163LF","Country":"England","All_Activities":"Meat Preparation Establishment","Part_A__Section_0__General_activity_establishment":null,"Part_A__Section_I__Meat_of_domestic_ungulates":null,"Part_A__Section_II__Meat_from_poultry_and_lagomorphs":null,"Part_A__Section_III__Meat_of_farmed_game":null,"Part_A__Section_IV__Wild_game_meat":null,"Part_A__Section_V__Minced_meat__meat_preparations_and_mechanically_separated_meat":"MP (Meat Preparation Establishment)","Part_A__Section_VI__Meat_products":null,"Part_A__Section_VII__Live_bivalve_molluscs":null,"Part_A__Section_VIII__Fishery_products":null,"Part_A__Section_IX__Raw_milk_and_dairy_products":null,"Part_A__Section_X__Eggs_and_egg_products":null,"Part_A__Section_XI__Frog_s_legs_and_snails":null,"Part_A__Section_XII__Rendered_animal_fats_and_greaves":null,"Part_A__Section_XIII__Treated_stomachs__bladders_and_intestines":null,"Part_A__Section_XIV__Gelatine":null,"Part_A__Section_XV__Collagen":null,"Part_A__Section_XVI__Highly_Refined_Product":null,"Part_B__Section_I__Sprouts":null,"Part_A__All_sections_":"Section: V (MP)","Part_B__All_sections_":null,"Species":null,"Remarks":null,"TSE_Feed_ban_registrations_authorisations":null,"Poultry":null,"Bovine":null,"Caprine":null,"Lagomorphs":null,"Ovine":null,"Porcine":null,"Solipeds":null,"Ratite":null,"Wild_Birds":null,"Wild_Lagomorphs":null,"Wild_Ungulates":null,"Wild_Land_mammals_other_than_Wild_Ungulates_and_Wild_Lagomorphs":null,"Auction_Hall":null,"Collection_Centre":null,"Cutting_Plant":null,"Cold_Store":null,"Dispatch_Centre":null,"Packing_Centre":null,"Fresh_Fishery_Products_Plant":null,"Factory_Vessel":null,"Game_Handling_Establishment":null,"Liquid_Egg_Plant":null,"Mince_Meat_Establishment":null,"Meat_Preparation_Establishment":"Yes","Mechanically_Separated_Meat_Establishment":null,"Purification_Centre":null,"Producing_plant":null,"Processing_Plant":null,"reefer_vessel":null,"Re_Wrappingand_repackaging_establishment":null,"Slaughterhouse":null,"Tannery":null,"Wholesale_Market":null,"Freezer_Vessel":null,"CompetentAuthority":"Lewisham (London Borough)","GeographicLocalAuthority":"Lewisham (London Borough)","X":535295,"Y":178225,"AddressWithheld":null,"rgn":"E12000007","in_cw":false,"whole_in_zone":true},"geometry":{"type":"Point","coordinates":[-0.052764,51.486799]}},
{"type":"Feature","properties":{"AppNo":"LM 016","TradingName":"My Foods Ltd","Address1":"Enterprise Industrial Estate","Address2":"Bolina Road","Address3":null,"Town":"London","Postcode":"SE163LF","Country":"England","All_Activities":"Processing Plant (Fish)","Part_A__Section_0__General_activity_establishment":null,"Part_A__Section_I__Meat_of_domestic_ungulates":null,"Part_A__Section_II__Meat_from_poultry_and_lagomorphs":null,"Part_A__Section_III__Meat_of_farmed_game":null,"Part_A__Section_IV__Wild_game_meat":null,"Part_A__Section_V__Minced_meat__meat_preparations_and_mechanically_separated_meat":null,"Part_A__Section_VI__Meat_products":null,"Part_A__Section_VII__Live_bivalve_molluscs":null,"Part_A__Section_VIII__Fishery_products":"PP (Processing Plant)","Part_A__Section_IX__Raw_milk_and_dairy_products":null,"Part_A__Section_X__Eggs_and_egg_products":null,"Part_A__Section_XI__Frog_s_legs_and_snails":null,"Part_A__Section_XII__Rendered_animal_fats_and_greaves":null,"Part_A__Section_XIII__Treated_stomachs__bladders_and_intestines":null,"Part_A__Section_XIV__Gelatine":null,"Part_A__Section_XV__Collagen":null,"Part_A__Section_XVI__Highly_Refined_Product":null,"Part_B__Section_I__Sprouts":null,"Part_A__All_sections_":"Section: VIII (PP)","Part_B__All_sections_":null,"Species":null,"Remarks":null,"TSE_Feed_ban_registrations_authorisations":null,"Poultry":null,"Bovine":null,"Caprine":null,"Lagomorphs":null,"Ovine":null,"Porcine":null,"Solipeds":null,"Ratite":null,"Wild_Birds":null,"Wild_Lagomorphs":null,"Wild_Ungulates":null,"Wild_Land_mammals_other_than_Wild_Ungulates_and_Wild_Lagomorphs":null,"Auction_Hall":null,"Collection_Centre":null,"Cutting_Plant":null,"Cold_Store":null,"Dispatch_Centre":null,"Packing_Centre":null,"Fresh_Fishery_Products_Plant":null,"Factory_Vessel":null,"Game_Handling_Establishment":null,"Liquid_Egg_Plant":null,"Mince_Meat_Establishment":null,"Meat_Preparation_Establishment":null,"Mechanically_Separated_Meat_Establishment":null,"Purification_Centre":null,"Producing_plant":null,"Processing_Plant":"Yes","reefer_vessel":null,"Re_Wrappingand_repackaging_establishment":null,"Slaughterhouse":null,"Tannery":null,"Wholesale_Market":null,"Freezer_Vessel":null,"CompetentAuthority":"Lewisham (London Borough)","GeographicLocalAuthority":"Lewisham (London Borough)","X":535295,"Y":178225,"AddressWithheld":null,"rgn":"E12000007","in_cw":false,"whole_in_zone":true},"geometry":{"type":"Point","coordinates":[-0.052764,51.486799]}},
{"type":"Feature","properties":{"AppNo":"SW 022","TradingName":"Direct Seafoods London","Address1":"Unit 26 Kent Park Industrial Estate","Address2":"Ruby Street","Address3":"Southwark","Town":"London","Postcode":"SE151LR","Country":"England","All_Activities":"Processing Plant (Fish)","Part_A__Section_0__General_activity_establishment":null,"Part_A__Section_I__Meat_of_domestic_ungulates":null,"Part_A__Section_II__Meat_from_poultry_and_lagomorphs":null,"Part_A__Section_III__Meat_of_farmed_game":null,"Part_A__Section_IV__Wild_game_meat":null,"Part_A__Section_V__Minced_meat__meat_preparations_and_mechanically_separated_meat":null,"Part_A__Section_VI__Meat_products":null,"Part_A__Section_VII__Live_bivalve_molluscs":null,"Part_A__Section_VIII__Fishery_products":"PP (Processing Plant)","Part_A__Section_IX__Raw_milk_and_dairy_products":null,"Part_A__Section_X__Eggs_and_egg_products":null,"Part_A__Section_XI__Frog_s_legs_and_snails":null,"Part_A__Section_XII__Rendered_animal_fats_and_greaves":null,"Part_A__Section_XIII__Treated_stomachs__bladders_and_intestines":null,"Part_A__Section_XIV__Gelatine":null,"Part_A__Section_XV__Collagen":null,"Part_A__Section_XVI__Highly_Refined_Product":null,"Part_B__Section_I__Sprouts":null,"Part_A__All_sections_":"Section: VIII (PP)","Part_B__All_sections_":null,"Species":null,"Remarks":null,"TSE_Feed_ban_registrations_authorisations":null,"Poultry":null,"Bovine":null,"Caprine":null,"Lagomorphs":null,"Ovine":null,"Porcine":null,"Solipeds":null,"Ratite":null,"Wild_Birds":null,"Wild_Lagomorphs":null,"Wild_Ungulates":null,"Wild_Land_mammals_other_than_Wild_Ungulates_and_Wild_Lagomorphs":null,"Auction_Hall":null,"Collection_Centre":null,"Cutting_Plant":null,"Cold_Store":null,"Dispatch_Centre":null,"Packing_Centre":null,"Fresh_Fishery_Products_Plant":null,"Factory_Vessel":null,"Game_Handling_Establishment":null,"Liquid_Egg_Plant":null,"Mince_Meat_Establishment":null,"Meat_Preparation_Establishment":null,"Mechanically_Separated_Meat_Establishment":null,"Purification_Centre":null,"Producing_plant":null,"Processing_Plant":"Yes","reefer_vessel":null,"Re_Wrappingand_repackaging_establishment":null,"Slaughterhouse":null,"Tannery":null,"Wholesale_Market":null,"Freezer_Vessel":null,"CompetentAuthority":"Southwark (London Borough)","GeographicLocalAuthority":"Southwark (London Borough)","X":534720,"Y":177842,"AddressWithheld":null,"rgn":"E12000007","in_cw":false,"whole_in_zone":true},"geometry":{"type":"Point","coordinates":[-0.061187,51.483495]}},
{"type":"Feature","properties":{"AppNo":"SW 027","TradingName":"Southbank Fresh Fish Limited","Address1":"Unit 26 Kent Park Industrial Estate","Address2":"Ruby Street","Address3":"Southwark","Town":"London","Postcode":"SE151LR","Country":"England","All_Activities":"Processing Plant (Fish)","Part_A__Section_0__General_activity_establishment":null,"Part_A__Section_I__Meat_of_domestic_ungulates":null,"Part_A__Section_II__Meat_from_poultry_and_lagomorphs":null,"Part_A__Section_III__Meat_of_farmed_game":null,"Part_A__Section_IV__Wild_game_meat":null,"Part_A__Section_V__Minced_meat__meat_preparations_and_mechanically_separated_meat":null,"Part_A__Section_VI__Meat_products":null,"Part_A__Section_VII__Live_bivalve_molluscs":null,"Part_A__Section_VIII__Fishery_products":"PP (Processing Plant)","Part_A__Section_IX__Raw_milk_and_dairy_products":null,"Part_A__Section_X__Eggs_and_egg_products":null,"Part_A__Section_XI__Frog_s_legs_and_snails":null,"Part_A__Section_XII__Rendered_animal_fats_and_greaves":null,"Part_A__Section_XIII__Treated_stomachs__bladders_and_intestines":null,"Part_A__Section_XIV__Gelatine":null,"Part_A__Section_XV__Collagen":null,"Part_A__Section_XVI__Highly_Refined_Product":null,"Part_B__Section_I__Sprouts":null,"Part_A__All_sections_":"Section: VIII (PP)","Part_B__All_sections_":null,"Species":null,"Remarks":null,"TSE_Feed_ban_registrations_authorisations":null,"Poultry":null,"Bovine":null,"Caprine":null,"Lagomorphs":null,"Ovine":null,"Porcine":null,"Solipeds":null,"Ratite":null,"Wild_Birds":null,"Wild_Lagomorphs":null,"Wild_Ungulates":null,"Wild_Land_mammals_other_than_Wild_Ungulates_and_Wild_Lagomorphs":null,"Auction_Hall":null,"Collection_Centre":null,"Cutting_Plant":null,"Cold_Store":null,"Dispatch_Centre":null,"Packing_Centre":null,"Fresh_Fishery_Products_Plant":null,"Factory_Vessel":null,"Game_Handling_Establishment":null,"Liquid_Egg_Plant":null,"Mince_Meat_Establishment":null,"Meat_Preparation_Establishment":null,"Mechanically_Separated_Meat_Establishment":null,"Purification_Centre":null,"Producing_plant":null,"Processing_Plant":"Yes","reefer_vessel":null,"Re_Wrappingand_repackaging_establishment":null,"Slaughterhouse":null,"Tannery":null,"Wholesale_Market":null,"Freezer_Vessel":null,"CompetentAuthority":"Southwark (London Borough)","GeographicLocalAuthority":"Southwark (London Borough)","X":534720,"Y":177842,"AddressWithheld":null,"rgn":"E12000007","in_cw":false,"whole_in_zone":true},"geometry":{"type":"Point","coordinates":[-0.061187,51.483495]}},
{"type":"Feature","properties":{"AppNo":"SW 044","TradingName":"Mons Cheesemongers","Address1":"Unit 2-4 Voyager Business","Address2":null,"Address3":"Spa Road","Town":"London","Postcode":"SE164RP","Country":"England","All_Activities":"Processing Plant (Dairy)","Part_A__Section_0__General_activity_establishment":null,"Part_A__Section_I__Meat_of_domestic_ungulates":null,"Part_A__Section_II__Meat_from_poultry_and_lagomorphs":null,"Part_A__Section_III__Meat_of_farmed_game":null,"Part_A__Section_IV__Wild_game_meat":null,"Part_A__Section_V__Minced_meat__meat_preparations_and_mechanically_separated_meat":null,"Part_A__Section_VI__Meat_products":null,"Part_A__Section_VII__Live_bivalve_molluscs":null,"Part_A__Section_VIII__Fishery_products":null,"Part_A__Section_IX__Raw_milk_and_dairy_products":"PP (Processing Plant)","Part_A__Section_X__Eggs_and_egg_products":null,"Part_A__Section_XI__Frog_s_legs_and_snails":null,"Part_A__Section_XII__Rendered_animal_fats_and_greaves":null,"Part_A__Section_XIII__Treated_stomachs__bladders_and_intestines":null,"Part_A__Section_XIV__Gelatine":null,"Part_A__Section_XV__Collagen":null,"Part_A__Section_XVI__Highly_Refined_Product":null,"Part_B__Section_I__Sprouts":null,"Part_A__All_sections_":"Section: IX (PP)","Part_B__All_sections_":null,"Species":null,"Remarks":null,"TSE_Feed_ban_registrations_authorisations":null,"Poultry":null,"Bovine":null,"Caprine":null,"Lagomorphs":null,"Ovine":null,"Porcine":null,"Solipeds":null,"Ratite":null,"Wild_Birds":null,"Wild_Lagomorphs":null,"Wild_Ungulates":null,"Wild_Land_mammals_other_than_Wild_Ungulates_and_Wild_Lagomorphs":null,"Auction_Hall":null,"Collection_Centre":null,"Cutting_Plant":null,"Cold_Store":null,"Dispatch_Centre":null,"Packing_Centre":null,"Fresh_Fishery_Products_Plant":null,"Factory_Vessel":null,"Game_Handling_Establishment":null,"Liquid_Egg_Plant":null,"Mince_Meat_Establishment":null,"Meat_Preparation_Establishment":null,"Mechanically_Separated_Meat_Establishment":null,"Purification_Centre":null,"Producing_plant":null,"Processing_Plant":"Yes","reefer_vessel":null,"Re_Wrappingand_repackaging_establishment":null,"Slaughterhouse":null,"Tannery":null,"Wholesale_Market":null,"Freezer_Vessel":null,"CompetentAuthority":"Southwark (London Borough)","GeographicLocalAuthority":"Southwark (London Borough)","X":534143,"Y":179283,"AddressWithheld":"No","rgn":"E12000007","in_cw":false,"whole_in_zone":true},"geometry":{"type":"Point","coordinates":[-0.068944,51.496581]}},
{"type":"Feature","properties":{"AppNo":"SW 045","TradingName":"Gringa Dairy","Address1":"Arch 77","Address2":"878 Old Kent Road","Address3":null,"Town":"London","Postcode":"SE151NQ","Country":"England","All_Activities":"Processing Plant (Dairy)","Part_A__Section_0__General_activity_establishment":null,"Part_A__Section_I__Meat_of_domestic_ungulates":null,"Part_A__Section_II__Meat_from_poultry_and_lagomorphs":null,"Part_A__Section_III__Meat_of_farmed_game":null,"Part_A__Section_IV__Wild_game_meat":null,"Part_A__Section_V__Minced_meat__meat_preparations_and_mechanically_separated_meat":null,"Part_A__Section_VI__Meat_products":null,"Part_A__Section_VII__Live_bivalve_molluscs":null,"Part_A__Section_VIII__Fishery_products":null,"Part_A__Section_IX__Raw_milk_and_dairy_products":"PP (Processing Plant)","Part_A__Section_X__Eggs_and_egg_products":null,"Part_A__Section_XI__Frog_s_legs_and_snails":null,"Part_A__Section_XII__Rendered_animal_fats_and_greaves":null,"Part_A__Section_XIII__Treated_stomachs__bladders_and_intestines":null,"Part_A__Section_XIV__Gelatine":null,"Part_A__Section_XV__Collagen":null,"Part_A__Section_XVI__Highly_Refined_Product":null,"Part_B__Section_I__Sprouts":null,"Part_A__All_sections_":"Section: IX (PP)","Part_B__All_sections_":null,"Species":null,"Remarks":null,"TSE_Feed_ban_registrations_authorisations":null,"Poultry":null,"Bovine":null,"Caprine":null,"Lagomorphs":null,"Ovine":null,"Porcine":null,"Solipeds":null,"Ratite":null,"Wild_Birds":null,"Wild_Lagomorphs":null,"Wild_Ungulates":null,"Wild_Land_mammals_other_than_Wild_Ungulates_and_Wild_Lagomorphs":null,"Auction_Hall":null,"Collection_Centre":null,"Cutting_Plant":null,"Cold_Store":null,"Dispatch_Centre":null,"Packing_Centre":null,"Fresh_Fishery_Products_Plant":null,"Factory_Vessel":null,"Game_Handling_Establishment":null,"Liquid_Egg_Plant":null,"Mince_Meat_Establishment":null,"Meat_Preparation_Establishment":null,"Mechanically_Separated_Meat_Establishment":null,"Purification_Centre":null,"Producing_plant":null,"Processing_Plant":"Yes","reefer_vessel":null,"Re_Wrappingand_repackaging_establishment":null,"Slaughterhouse":null,"Tannery":null,"Wholesale_Market":null,"Freezer_Vessel":null,"CompetentAuthority":"Southwark (London Borough)","GeographicLocalAuthority":"Southwark (London Borough)","X":535226,"Y":177282,"AddressWithheld":null,"rgn":"E12000007","in_cw":false,"whole_in_zone":true},"geometry":{"type":"Point","coordinates":[-0.054118,51.478342]}},
{"type":"Feature","properties":{"AppNo":"SW 050","TradingName":"Kappacasein Ltd","Address1":"Unit 1 Voyager Business Estate","Address2":"Spa Road","Address3":null,"Town":"London","Postcode":"SE164RP","Country":"England","All_Activities":"Processing Plant (Dairy)","Part_A__Section_0__General_activity_establishment":null,"Part_A__Section_I__Meat_of_domestic_ungulates":null,"Part_A__Section_II__Meat_from_poultry_and_lagomorphs":null,"Part_A__Section_III__Meat_of_farmed_game":null,"Part_A__Section_IV__Wild_game_meat":null,"Part_A__Section_V__Minced_meat__meat_preparations_and_mechanically_separated_meat":null,"Part_A__Section_VI__Meat_products":null,"Part_A__Section_VII__Live_bivalve_molluscs":null,"Part_A__Section_VIII__Fishery_products":null,"Part_A__Section_IX__Raw_milk_and_dairy_products":"PP (Processing Plant)","Part_A__Section_X__Eggs_and_egg_products":null,"Part_A__Section_XI__Frog_s_legs_and_snails":null,"Part_A__Section_XII__Rendered_animal_fats_and_greaves":null,"Part_A__Section_XIII__Treated_stomachs__bladders_and_intestines":null,"Part_A__Section_XIV__Gelatine":null,"Part_A__Section_XV__Collagen":null,"Part_A__Section_XVI__Highly_Refined_Product":null,"Part_B__Section_I__Sprouts":null,"Part_A__All_sections_":"Section: IX (PP)","Part_B__All_sections_":null,"Species":null,"Remarks":null,"TSE_Feed_ban_registrations_authorisations":null,"Poultry":null,"Bovine":null,"Caprine":null,"Lagomorphs":null,"Ovine":null,"Porcine":null,"Solipeds":null,"Ratite":null,"Wild_Birds":null,"Wild_Lagomorphs":null,"Wild_Ungulates":null,"Wild_Land_mammals_other_than_Wild_Ungulates_and_Wild_Lagomorphs":null,"Auction_Hall":null,"Collection_Centre":null,"Cutting_Plant":null,"Cold_Store":null,"Dispatch_Centre":null,"Packing_Centre":null,"Fresh_Fishery_Products_Plant":null,"Factory_Vessel":null,"Game_Handling_Establishment":null,"Liquid_Egg_Plant":null,"Mince_Meat_Establishment":null,"Meat_Preparation_Establishment":null,"Mechanically_Separated_Meat_Establishment":null,"Purification_Centre":null,"Producing_plant":null,"Processing_Plant":"Yes","reefer_vessel":null,"Re_Wrappingand_repackaging_establishment":null,"Slaughterhouse":null,"Tannery":null,"Wholesale_Market":null,"Freezer_Vessel":null,"CompetentAuthority":"Southwark (London Borough)","GeographicLocalAuthority":"Southwark (London Borough)","X":534143,"Y":179283,"AddressWithheld":null,"rgn":"E12000007","in_cw":false,"whole_in_zone":true},"geometry":{"type":"Point","coordinates":[-0.068944,51.496581]}},
{"type":"Feature","properties":{"AppNo":"SW 051","TradingName":"805 Restaurants Ltd","Address1":"Unit 6 Rich Industrial Estate","Address2":"25-39 Devon Street","Address3":null,"Town":"London","Postcode":"SE151JR","Country":"England","All_Activities":"Processing Plant (Meat) Processing Plant (Fish)","Part_A__Section_0__General_activity_establishment":null,"Part_A__Section_I__Meat_of_domestic_ungulates":null,"Part_A__Section_II__Meat_from_poultry_and_lagomorphs":null,"Part_A__Section_III__Meat_of_farmed_game":null,"Part_A__Section_IV__Wild_game_meat":null,"Part_A__Section_V__Minced_meat__meat_preparations_and_mechanically_separated_meat":null,"Part_A__Section_VI__Meat_products":"PP (Processing Plant)","Part_A__Section_VII__Live_bivalve_molluscs":null,"Part_A__Section_VIII__Fishery_products":"PP (Processing Plant)","Part_A__Section_IX__Raw_milk_and_dairy_products":null,"Part_A__Section_X__Eggs_and_egg_products":null,"Part_A__Section_XI__Frog_s_legs_and_snails":null,"Part_A__Section_XII__Rendered_animal_fats_and_greaves":null,"Part_A__Section_XIII__Treated_stomachs__bladders_and_intestines":null,"Part_A__Section_XIV__Gelatine":null,"Part_A__Section_XV__Collagen":null,"Part_A__Section_XVI__Highly_Refined_Product":null,"Part_B__Section_I__Sprouts":null,"Part_A__All_sections_":"Section: VI (PP) Section: VIII (PP)","Part_B__All_sections_":null,"Species":null,"Remarks":null,"TSE_Feed_ban_registrations_authorisations":null,"Poultry":null,"Bovine":null,"Caprine":null,"Lagomorphs":null,"Ovine":null,"Porcine":null,"Solipeds":null,"Ratite":null,"Wild_Birds":null,"Wild_Lagomorphs":null,"Wild_Ungulates":null,"Wild_Land_mammals_other_than_Wild_Ungulates_and_Wild_Lagomorphs":null,"Auction_Hall":null,"Collection_Centre":null,"Cutting_Plant":null,"Cold_Store":null,"Dispatch_Centre":null,"Packing_Centre":null,"Fresh_Fishery_Products_Plant":null,"Factory_Vessel":null,"Game_Handling_Establishment":null,"Liquid_Egg_Plant":null,"Mince_Meat_Establishment":null,"Meat_Preparation_Establishment":null,"Mechanically_Separated_Meat_Establishment":null,"Purification_Centre":null,"Producing_plant":null,"Processing_Plant":"Yes","reefer_vessel":null,"Re_Wrappingand_repackaging_establishment":null,"Slaughterhouse":null,"Tannery":null,"Wholesale_Market":null,"Freezer_Vessel":null,"CompetentAuthority":"Southwark (London Borough)","GeographicLocalAuthority":"Southwark (London Borough)","X":534840,"Y":177648,"AddressWithheld":"No","rgn":"E12000007","in_cw":false,"whole_in_zone":true},"geometry":{"type":"Point","coordinates":[-0.059534,51.481723]}},
{"type":"Feature","properties":{"AppNo":"SW 053","TradingName":"Natoora Ltd","Address1":"Unit 8","Address2":"Discovery Business Park","Address3":"St James’s Road","Town":"London","Postcode":"SE164RA","Country":"England","All_Activities":"Re-Wrappingand repackaging establishment Cold Store","Part_A__Section_0__General_activity_establishment":"CS (Cold Store) RW (Re-Wrappingand repackaging establishment)(General)","Part_A__Section_I__Meat_of_domestic_ungulates":null,"Part_A__Section_II__Meat_from_poultry_and_lagomorphs":null,"Part_A__Section_III__Meat_of_farmed_game":null,"Part_A__Section_IV__Wild_game_meat":null,"Part_A__Section_V__Minced_meat__meat_preparations_and_mechanically_separated_meat":null,"Part_A__Section_VI__Meat_products":null,"Part_A__Section_VII__Live_bivalve_molluscs":null,"Part_A__Section_VIII__Fishery_products":null,"Part_A__Section_IX__Raw_milk_and_dairy_products":null,"Part_A__Section_X__Eggs_and_egg_products":null,"Part_A__Section_XI__Frog_s_legs_and_snails":null,"Part_A__Section_XII__Rendered_animal_fats_and_greaves":null,"Part_A__Section_XIII__Treated_stomachs__bladders_and_intestines":null,"Part_A__Section_XIV__Gelatine":null,"Part_A__Section_XV__Collagen":null,"Part_A__Section_XVI__Highly_Refined_Product":null,"Part_B__Section_I__Sprouts":null,"Part_A__All_sections_":"Section: 0 (RW) Section: 0 (CS)","Part_B__All_sections_":null,"Species":null,"Remarks":null,"TSE_Feed_ban_registrations_authorisations":null,"Poultry":null,"Bovine":null,"Caprine":null,"Lagomorphs":null,"Ovine":null,"Porcine":null,"Solipeds":null,"Ratite":null,"Wild_Birds":null,"Wild_Lagomorphs":null,"Wild_Ungulates":null,"Wild_Land_mammals_other_than_Wild_Ungulates_and_Wild_Lagomorphs":null,"Auction_Hall":null,"Collection_Centre":null,"Cutting_Plant":null,"Cold_Store":"Yes","Dispatch_Centre":null,"Packing_Centre":null,"Fresh_Fishery_Products_Plant":null,"Factory_Vessel":null,"Game_Handling_Establishment":null,"Liquid_Egg_Plant":null,"Mince_Meat_Establishment":null,"Meat_Preparation_Establishment":null,"Mechanically_Separated_Meat_Establishment":null,"Purification_Centre":null,"Producing_plant":null,"Processing_Plant":null,"reefer_vessel":null,"Re_Wrappingand_repackaging_establishment":"Yes","Slaughterhouse":null,"Tannery":null,"Wholesale_Market":null,"Freezer_Vessel":null,"CompetentAuthority":"Southwark (London Borough)","GeographicLocalAuthority":"Southwark (London Borough)","X":534342,"Y":179189,"AddressWithheld":"No","rgn":"E12000007","in_cw":false,"whole_in_zone":true},"geometry":{"type":"Point","coordinates":[-0.066115,51.49569]}},
{"type":"Feature","properties":{"AppNo":"SW 057","TradingName":"Bay Dining Ltd","Address1":"Unit 4 Canterbury Industrial Estate","Address2":"297 Ilderton Road","Address3":null,"Town":"London","Postcode":"SE151NP","Country":"England","All_Activities":"Processing Plant (Meat)","Part_A__Section_0__General_activity_establishment":null,"Part_A__Section_I__Meat_of_domestic_ungulates":null,"Part_A__Section_II__Meat_from_poultry_and_lagomorphs":null,"Part_A__Section_III__Meat_of_farmed_game":null,"Part_A__Section_IV__Wild_game_meat":null,"Part_A__Section_V__Minced_meat__meat_preparations_and_mechanically_separated_meat":null,"Part_A__Section_VI__Meat_products":"PP (Processing Plant)","Part_A__Section_VII__Live_bivalve_molluscs":null,"Part_A__Section_VIII__Fishery_products":null,"Part_A__Section_IX__Raw_milk_and_dairy_products":null,"Part_A__Section_X__Eggs_and_egg_products":null,"Part_A__Section_XI__Frog_s_legs_and_snails":null,"Part_A__Section_XII__Rendered_animal_fats_and_greaves":null,"Part_A__Section_XIII__Treated_stomachs__bladders_and_intestines":null,"Part_A__Section_XIV__Gelatine":null,"Part_A__Section_XV__Collagen":null,"Part_A__Section_XVI__Highly_Refined_Product":null,"Part_B__Section_I__Sprouts":null,"Part_A__All_sections_":"Section: VI (PP)","Part_B__All_sections_":null,"Species":null,"Remarks":null,"TSE_Feed_ban_registrations_authorisations":null,"Poultry":null,"Bovine":null,"Caprine":null,"Lagomorphs":null,"Ovine":null,"Porcine":null,"Solipeds":null,"Ratite":null,"Wild_Birds":null,"Wild_Lagomorphs":null,"Wild_Ungulates":null,"Wild_Land_mammals_other_than_Wild_Ungulates_and_Wild_Lagomorphs":null,"Auction_Hall":null,"Collection_Centre":null,"Cutting_Plant":null,"Cold_Store":null,"Dispatch_Centre":null,"Packing_Centre":null,"Fresh_Fishery_Products_Plant":null,"Factory_Vessel":null,"Game_Handling_Establishment":null,"Liquid_Egg_Plant":null,"Mince_Meat_Establishment":null,"Meat_Preparation_Establishment":null,"Mechanically_Separated_Meat_Establishment":null,"Purification_Centre":null,"Producing_plant":null,"Processing_Plant":"Yes","reefer_vessel":null,"Re_Wrappingand_repackaging_establishment":null,"Slaughterhouse":null,"Tannery":null,"Wholesale_Market":null,"Freezer_Vessel":null,"CompetentAuthority":"Southwark (London Borough)","GeographicLocalAuthority":"Southwark (London Borough)","X":535255,"Y":177644,"AddressWithheld":"No","rgn":"E12000007","in_cw":false,"whole_in_zone":true},"geometry":{"type":"Point","coordinates":[-0.053562,51.481588]}},
{"type":"Feature","properties":{"AppNo":"SW 059","TradingName":"W J Arment Ltd","Address1":"7 Westmoreland Road","Address2":null,"Address3":null,"Town":"London","Postcode":"SE172AX","Country":"England","All_Activities":"Processing Plant (Meat)","Part_A__Section_0__General_activity_establishment":null,"Part_A__Section_I__Meat_of_domestic_ungulates":null,"Part_A__Section_II__Meat_from_poultry_and_lagomorphs":null,"Part_A__Section_III__Meat_of_farmed_game":null,"Part_A__Section_IV__Wild_game_meat":null,"Part_A__Section_V__Minced_meat__meat_preparations_and_mechanically_separated_meat":null,"Part_A__Section_VI__Meat_products":"PP (Processing Plant)","Part_A__Section_VII__Live_bivalve_molluscs":null,"Part_A__Section_VIII__Fishery_products":null,"Part_A__Section_IX__Raw_milk_and_dairy_products":null,"Part_A__Section_X__Eggs_and_egg_products":null,"Part_A__Section_XI__Frog_s_legs_and_snails":null,"Part_A__Section_XII__Rendered_animal_fats_and_greaves":null,"Part_A__Section_XIII__Treated_stomachs__bladders_and_intestines":null,"Part_A__Section_XIV__Gelatine":null,"Part_A__Section_XV__Collagen":null,"Part_A__Section_XVI__Highly_Refined_Product":null,"Part_B__Section_I__Sprouts":null,"Part_A__All_sections_":"Section: VI (PP)","Part_B__All_sections_":null,"Species":null,"Remarks":"Meat Products","TSE_Feed_ban_registrations_authorisations":null,"Poultry":null,"Bovine":null,"Caprine":null,"Lagomorphs":null,"Ovine":null,"Porcine":null,"Solipeds":null,"Ratite":null,"Wild_Birds":null,"Wild_Lagomorphs":null,"Wild_Ungulates":null,"Wild_Land_mammals_other_than_Wild_Ungulates_and_Wild_Lagomorphs":null,"Auction_Hall":null,"Collection_Centre":null,"Cutting_Plant":null,"Cold_Store":null,"Dispatch_Centre":null,"Packing_Centre":null,"Fresh_Fishery_Products_Plant":null,"Factory_Vessel":null,"Game_Handling_Establishment":null,"Liquid_Egg_Plant":null,"Mince_Meat_Establishment":null,"Meat_Preparation_Establishment":null,"Mechanically_Separated_Meat_Establishment":null,"Purification_Centre":null,"Producing_plant":null,"Processing_Plant":"Yes","reefer_vessel":null,"Re_Wrappingand_repackaging_establishment":null,"Slaughterhouse":null,"Tannery":null,"Wholesale_Market":null,"Freezer_Vessel":null,"CompetentAuthority":"Southwark (London Borough)","GeographicLocalAuthority":"Southwark (London Borough)","X":532537,"Y":177878,"AddressWithheld":"No","rgn":"E12000007","in_cw":false,"whole_in_zone":true},"geometry":{"type":"Point","coordinates":[-0.092593,51.484334]}},
{"type":"Feature","properties":{"AppNo":"SW 063","TradingName":"Bamboo Basket","Address1":"43-47 Glengall Road","Address2":null,"Address3":null,"Town":"London","Postcode":"SE156NF","Country":"England","All_Activities":"Processing Plant (Meat) Processing Plant (Egg) Meat Preparation Establishment Processing Plant (Fish)","Part_A__Section_0__General_activity_establishment":null,"Part_A__Section_I__Meat_of_domestic_ungulates":null,"Part_A__Section_II__Meat_from_poultry_and_lagomorphs":null,"Part_A__Section_III__Meat_of_farmed_game":null,"Part_A__Section_IV__Wild_game_meat":null,"Part_A__Section_V__Minced_meat__meat_preparations_and_mechanically_separated_meat":"MP (Meat Preparation Establishment)","Part_A__Section_VI__Meat_products":"PP (Processing Plant)","Part_A__Section_VII__Live_bivalve_molluscs":null,"Part_A__Section_VIII__Fishery_products":"PP (Processing Plant)","Part_A__Section_IX__Raw_milk_and_dairy_products":null,"Part_A__Section_X__Eggs_and_egg_products":"PP (Processing Plant)","Part_A__Section_XI__Frog_s_legs_and_snails":null,"Part_A__Section_XII__Rendered_animal_fats_and_greaves":null,"Part_A__Section_XIII__Treated_stomachs__bladders_and_intestines":null,"Part_A__Section_XIV__Gelatine":null,"Part_A__Section_XV__Collagen":null,"Part_A__Section_XVI__Highly_Refined_Product":null,"Part_B__Section_I__Sprouts":null,"Part_A__All_sections_":"Section: VI (PP) Section: X (PP) Section: V (MP) Section: VIII (PP)","Part_B__All_sections_":null,"Species":null,"Remarks":"Meat Products","TSE_Feed_ban_registrations_authorisations":null,"Poultry":null,"Bovine":null,"Caprine":null,"Lagomorphs":null,"Ovine":null,"Porcine":null,"Solipeds":null,"Ratite":null,"Wild_Birds":null,"Wild_Lagomorphs":null,"Wild_Ungulates":null,"Wild_Land_mammals_other_than_Wild_Ungulates_and_Wild_Lagomorphs":null,"Auction_Hall":null,"Collection_Centre":null,"Cutting_Plant":null,"Cold_Store":null,"Dispatch_Centre":null,"Packing_Centre":null,"Fresh_Fishery_Products_Plant":null,"Factory_Vessel":null,"Game_Handling_Establishment":null,"Liquid_Egg_Plant":null,"Mince_Meat_Establishment":null,"Meat_Preparation_Establishment":"Yes","Mechanically_Separated_Meat_Establishment":null,"Purification_Centre":null,"Producing_plant":null,"Processing_Plant":"Yes","reefer_vessel":null,"Re_Wrappingand_repackaging_establishment":null,"Slaughterhouse":null,"Tannery":null,"Wholesale_Market":null,"Freezer_Vessel":null,"CompetentAuthority":"Southwark (London Borough)","GeographicLocalAuthority":"Southwark (London Borough)","X":533961,"Y":177809,"AddressWithheld":"No","rgn":"E12000007","in_cw":false,"whole_in_zone":true},"geometry":{"type":"Point","coordinates":[-0.072123,51.483378]}}
]}
