{"type":"FeatureCollection","meta":{
 "source": "City of London INSPIRE map service: Protected Squares",
 "borough": "City of London",
 "page": "https://www.mapping.cityoflondon.gov.uk/arcgis/rest/services/INSPIRE/MapServer/134",
 "api": "https://www.mapping.cityoflondon.gov.uk/arcgis/rest/services/INSPIRE/MapServer/134/query?where=1=1&geometry=<zone box>&geometryType=esriGeometryEnvelope&inSR=4326&spatialRel=esriSpatialRelIntersects&outFields=*&outSR=4326&f=geojson&resultOffset=<n>",
 "fetched": "2026-10-04",
 "licence": "Open Government Licence v3.0",
 "licence_evidence": "the City's INSPIRE record on data.gov.uk (protected-squares3): [\"http://www.nationalarchives.gov.uk/doc/open-government-licence/version/3/\"] | [\"https://inspire.ec.europa.eu/metadata-codelist/LimitationsOnPublicAccess\", \"License\"]",
 "licence_url": "https://www.nationalarchives.gov.uk/doc/open-government-licence/version/3/",
 "attribution": "Contains public sector information licensed under the Open Government Licence v3.0 (City of London Corporation)",
 "zone": "the 3D model box, BNG E 532400-539900, N 176700-182300 (WGS84 -0.095, 51.474 to 0.015, 51.522)",
 "method": "walk-portals.mjs boroughs harvest city-protected-squares: features that meet the zone box, WGS84 rounded to 6 decimals, whole geometries; whole_in_zone, in_cw; empty fields and ArcGIS shape measures left out; fields matching /e-?mail|phone|tel(ephone)?$|^tel|contact|^fax|mobile|^owner_?name|person|officer|case_?officer|agent_?name|applicant/i dropped",
 "counts": {
  "features": 1,
  "zone_count_at_walk": 1,
  "in_cw": 0
 },
 "fields_dropped": []
},
"features":[
{"type":"Feature","geometry":{"type":"Polygon","coordinates":[[[-0.0869,51.518208],[-0.086935,51.518202],[-0.086962,51.518196],[-0.086988,51.518189],[-0.087015,51.518182],[-0.087042,51.518173],[-0.087053,51.51817],[-0.087064,51.518166],[-0.087082,51.518157],[-0.087095,51.518151],[-0.087106,51.518145],[-0.087107,51.518144],[-0.087132,51.518128],[-0.087157,51.518112],[-0.08718,51.518094],[-0.087202,51.518076],[-0.08722,51.518057],[-0.087238,51.518038],[-0.08725,51.518024],[-0.08727,51.517995],[-0.087272,51.517991],[-0.087281,51.517974],[-0.087287,51.517961],[-0.087289,51.517955],[-0.087295,51.517936],[-0.087299,51.517922],[-0.087302,51.517908],[-0.087302,51.517894],[-0.087301,51.51788],[-0.087298,51.517864],[-0.087292,51.517849],[-0.087285,51.51783],[-0.087275,51.517812],[-0.087265,51.517794],[-0.087253,51.517777],[-0.087226,51.517743],[-0.087218,51.517736],[-0.087196,51.517715],[-0.087171,51.517694],[-0.087141,51.517671],[-0.087107,51.517648],[-0.087072,51.517628],[-0.087035,51.517609],[-0.087017,51.5176],[-0.086978,51.517583],[-0.086937,51.517568],[-0.086891,51.517551],[-0.086843,51.517535],[-0.086802,51.517522],[-0.086762,51.51751],[-0.086723,51.517501],[-0.086683,51.517492],[-0.086655,51.517488],[-0.086648,51.517487],[-0.086615,51.517481],[-0.086604,51.51748],[-0.086592,51.517478],[-0.086553,51.517475],[-0.086513,51.517473],[-0.086461,51.517471],[-0.086407,51.51747],[-0.086361,51.51747],[-0.086313,51.517471],[-0.08628,51.517474],[-0.086246,51.517477],[-0.086194,51.517483],[-0.086141,51.517489],[-0.086107,51.517494],[-0.086074,51.5175],[-0.086042,51.517506],[-0.086011,51.517514],[-0.086006,51.517516],[-0.085973,51.517525],[-0.085942,51.517536],[-0.085914,51.517547],[-0.085887,51.51756],[-0.085875,51.517565],[-0.085849,51.51758],[-0.085825,51.517595],[-0.085803,51.51761],[-0.085783,51.517626],[-0.085765,51.517643],[-0.085748,51.51766],[-0.085738,51.517672],[-0.085724,51.51769],[-0.085714,51.51771],[-0.085713,51.517712],[-0.085712,51.517714],[-0.085706,51.517729],[-0.085699,51.517748],[-0.085698,51.517751],[-0.085696,51.517759],[-0.085693,51.517769],[-0.08569,51.517791],[-0.085689,51.517812],[-0.085691,51.517834],[-0.085692,51.517839],[-0.085696,51.517858],[-0.085703,51.517877],[-0.085712,51.517895],[-0.085723,51.517912],[-0.085736,51.517931],[-0.08575,51.517949],[-0.085766,51.517966],[-0.085784,51.517982],[-0.085801,51.517998],[-0.085819,51.518013],[-0.085838,51.518028],[-0.085857,51.518042],[-0.085868,51.518049],[-0.085893,51.518063],[-0.085918,51.518077],[-0.085937,51.518087],[-0.085957,51.518097],[-0.085995,51.518114],[-0.086033,51.518128],[-0.086071,51.518142],[-0.086108,51.518154],[-0.086144,51.518166],[-0.086175,51.518174],[-0.086205,51.518182],[-0.086242,51.51819],[-0.086278,51.518199],[-0.086305,51.518204],[-0.086332,51.518209],[-0.086339,51.51821],[-0.086346,51.518211],[-0.08636,51.518214],[-0.086368,51.518215],[-0.086383,51.518217],[-0.086406,51.51822],[-0.086441,51.518225],[-0.086475,51.518228],[-0.086506,51.51823],[-0.086537,51.518232],[-0.086568,51.518233],[-0.0866,51.518234],[-0.086633,51.518235],[-0.086666,51.518235],[-0.086683,51.518234],[-0.086701,51.518234],[-0.086718,51.518232],[-0.086735,51.518231],[-0.086763,51.518228],[-0.086792,51.518224],[-0.086828,51.51822],[-0.086865,51.518214],[-0.0869,51.518208]]]},"properties":{"OBJECTID":1,"NAME":"Finsbury Circus","NOTES":"Listed in the London Squares Preservation Act 1931 (amended 1960).  Also listed in the Historic Parks and Gardens designation.","whole_in_zone":true,"in_cw":false}}
]}
