{"type":"FeatureCollection","meta":{
 "source": "City of London INSPIRE map service: LVMF Protected Vistas",
 "borough": "City of London",
 "page": "https://www.mapping.cityoflondon.gov.uk/arcgis/rest/services/INSPIRE/MapServer/116",
 "api": "https://www.mapping.cityoflondon.gov.uk/arcgis/rest/services/INSPIRE/MapServer/116/query?where=1=1&geometry=<zone box>&geometryType=esriGeometryEnvelope&inSR=4326&spatialRel=esriSpatialRelIntersects&outFields=*&outSR=4326&f=geojson&resultOffset=<n>",
 "fetched": "2026-10-04",
 "licence": "Open Government Licence v3.0",
 "licence_evidence": "the City's INSPIRE record on data.gov.uk (lvmf-protected-vistas2): [\"http://www.nationalarchives.gov.uk/doc/open-government-licence/version/3/\"] | [\"https://inspire.ec.europa.eu/metadata-codelist/LimitationsOnPublicAccess\", \"License\"]",
 "licence_url": "https://www.nationalarchives.gov.uk/doc/open-government-licence/version/3/",
 "attribution": "Contains public sector information licensed under the Open Government Licence v3.0 (City of London Corporation)",
 "zone": "the 3D model box, BNG E 532400-539900, N 176700-182300 (WGS84 -0.095, 51.474 to 0.015, 51.522)",
 "method": "walk-portals.mjs boroughs harvest city-lvmf-protected-vistas: features that meet the zone box, WGS84 rounded to 6 decimals, whole geometries; whole_in_zone, in_cw; empty fields and ArcGIS shape measures left out; fields matching /e-?mail|phone|tel(ephone)?$|^tel|contact|^fax|mobile|^owner_?name|person|officer|case_?officer|agent_?name|applicant/i dropped",
 "counts": {
  "features": 18,
  "zone_count_at_walk": 18,
  "in_cw": 0
 },
 "fields_dropped": []
},
"features":[
{"type":"Feature","geometry":{"type":"Polygon","coordinates":[[[-0.100448,51.513471],[-0.092783,51.491509],[-0.087439,51.492292],[-0.09624,51.514088],[-0.100448,51.513471]]]},"properties":{"OBJECTID":1,"VIEW_TYPE":"London Panorama","DESIGNATED_VIEW":"Alexandra Palace","ASSESSMENT_POINT":"1A.2","VIEW_COMPONENT":"Background Wider Setting Consultation Area","whole_in_zone":false,"in_cw":false}},
{"type":"Feature","geometry":{"type":"Polygon","coordinates":[[[-0.010976,51.47349],[-0.097061,51.514865],[-0.098002,51.514069],[-0.010976,51.47349]]]},"properties":{"OBJECTID":6,"VIEW_TYPE":"London Panorama","DESIGNATED_VIEW":"Blackheath Point","ASSESSMENT_POINT":"6A.1","VIEW_COMPONENT":"Wider Setting Consultation Area","whole_in_zone":false,"in_cw":false}},
{"type":"Feature","geometry":{"type":"Polygon","coordinates":[[[-0.010976,51.47349],[-0.099072,51.513164],[-0.099627,51.512694],[-0.010976,51.47349]]]},"properties":{"OBJECTID":7,"VIEW_TYPE":"London Panorama","DESIGNATED_VIEW":"Blackheath Point","ASSESSMENT_POINT":"6A.1","VIEW_COMPONENT":"Wider Setting Consultation Area","whole_in_zone":false,"in_cw":false}},
{"type":"Feature","geometry":{"type":"Polygon","coordinates":[[[-0.010976,51.47349],[-0.098002,51.514069],[-0.099072,51.513164],[-0.010976,51.47349]]]},"properties":{"OBJECTID":8,"VIEW_TYPE":"London Panorama","DESIGNATED_VIEW":"Blackheath Point","ASSESSMENT_POINT":"6A.1","VIEW_COMPONENT":"Landmark Viewing Corridor","whole_in_zone":false,"in_cw":false}},
{"type":"Feature","geometry":{"type":"Polygon","coordinates":[[[-0.000733,51.477915],[-0.074895,51.505854],[-0.075844,51.504846],[-0.000733,51.477915]]]},"properties":{"OBJECTID":9,"VIEW_TYPE":"London Panorama","DESIGNATED_VIEW":"Greenwich Park","ASSESSMENT_POINT":"5A.2","VIEW_COMPONENT":"Landmark Viewing Corridor","whole_in_zone":true,"in_cw":false}},
{"type":"Feature","geometry":{"type":"Polygon","coordinates":[[[-0.000733,51.477915],[-0.074532,51.506239],[-0.074895,51.505854],[-0.000733,51.477915]]]},"properties":{"OBJECTID":11,"VIEW_TYPE":"London Panorama","DESIGNATED_VIEW":"Greenwich Park","ASSESSMENT_POINT":"5A.2","VIEW_COMPONENT":"Wider Setting Consultation Area","whole_in_zone":true,"in_cw":false}},
{"type":"Feature","geometry":{"type":"Polygon","coordinates":[[[-0.000733,51.477915],[-0.075844,51.504846],[-0.076206,51.504461],[-0.000733,51.477915]]]},"properties":{"OBJECTID":12,"VIEW_TYPE":"London Panorama","DESIGNATED_VIEW":"Greenwich Park","ASSESSMENT_POINT":"5A.2","VIEW_COMPONENT":"Wider Setting Consultation Area","whole_in_zone":true,"in_cw":false}},
{"type":"Feature","geometry":{"type":"Polygon","coordinates":[[[-0.096585,51.514563],[-0.100103,51.512996],[-0.079732,51.494459],[-0.075108,51.496519],[-0.096585,51.514563]]]},"properties":{"OBJECTID":14,"VIEW_TYPE":"London Panorama","DESIGNATED_VIEW":"Kenwood","ASSESSMENT_POINT":"3A.1","VIEW_COMPONENT":"Background Wider Setting Consultation Area","whole_in_zone":false,"in_cw":false}},
{"type":"Feature","geometry":{"type":"Polygon","coordinates":[[[-0.096685,51.514644],[-0.100003,51.512915],[-0.077557,51.495335],[-0.072991,51.497712],[-0.096685,51.514644]]]},"properties":{"OBJECTID":17,"VIEW_TYPE":"London Panorama","DESIGNATED_VIEW":"Parliament Hill","ASSESSMENT_POINT":"2A.1","VIEW_COMPONENT":"Background Wider Setting Consultation Area","whole_in_zone":false,"in_cw":false}},
{"type":"Feature","geometry":{"type":"Polygon","coordinates":[[[-0.09715,51.514904],[-0.099538,51.512655],[-0.070093,51.4997],[-0.066555,51.503031],[-0.09715,51.514904]]]},"properties":{"OBJECTID":20,"VIEW_TYPE":"London Panorama","DESIGNATED_VIEW":"Primrose Hill","ASSESSMENT_POINT":"4A.1","VIEW_COMPONENT":"Background Wider Setting Consultation Area","whole_in_zone":false,"in_cw":false}},
{"type":"Feature","geometry":{"type":"Polygon","coordinates":[[[-0.098872,51.514368],[-0.097817,51.513191],[-0.053681,51.528416],[-0.054971,51.529856],[-0.098872,51.514368]]]},"properties":{"OBJECTID":24,"VIEW_TYPE":"Linear View","DESIGNATED_VIEW":"King Henry VIII's Mound","ASSESSMENT_POINT":"9A.1","VIEW_COMPONENT":"Background Wider Setting Consultation Area","whole_in_zone":false,"in_cw":false}},
{"type":"Feature","geometry":{"type":"Polygon","coordinates":[[[-0.09869,51.514067],[-0.097999,51.513491],[-0.057104,51.531916],[-0.058895,51.533405],[-0.09869,51.514067]]]},"properties":{"OBJECTID":26,"VIEW_TYPE":"Linear View","DESIGNATED_VIEW":"Westminster Pier","ASSESSMENT_POINT":"8A.1","VIEW_COMPONENT":"Background Wider Setting Consultation Area","whole_in_zone":false,"in_cw":false}},
{"type":"Feature","geometry":{"type":"Polygon","coordinates":[[[-0.075512,51.507755],[-0.076707,51.50807],[-0.078087,51.504987],[-0.075512,51.507755]]]},"properties":{"OBJECTID":27,"VIEW_TYPE":"Townscape View","DESIGNATED_VIEW":"The Queen's Walk","ASSESSMENT_POINT":"25A.1","VIEW_COMPONENT":"Landmark Viewing Corridor","whole_in_zone":true,"in_cw":false}},
{"type":"Feature","geometry":{"type":"Polygon","coordinates":[[[-0.076707,51.50807],[-0.075512,51.507755],[-0.057277,51.527346],[-0.066929,51.529889],[-0.076707,51.50807]]]},"properties":{"OBJECTID":28,"VIEW_TYPE":"Townscape View","DESIGNATED_VIEW":"The Queen's Walk","ASSESSMENT_POINT":"25A.1","VIEW_COMPONENT":"Background Wider Setting Consultation Area","whole_in_zone":false,"in_cw":false}},
{"type":"Feature","geometry":{"type":"Polygon","coordinates":[[[-0.075844,51.504846],[-0.074895,51.505854],[-0.097723,51.514438],[-0.098965,51.51312],[-0.075844,51.504846]]]},"properties":{"OBJECTID":33,"VIEW_TYPE":"London Panorama","DESIGNATED_VIEW":"Greenwich Park","ASSESSMENT_POINT":"5A.2","VIEW_COMPONENT":"Landmark Viewing Corridor","whole_in_zone":false,"in_cw":false}},
{"type":"Feature","geometry":{"type":"Polygon","coordinates":[[[-0.075844,51.504846],[-0.098965,51.51312],[-0.099439,51.512617],[-0.076206,51.504461],[-0.075844,51.504846]]]},"properties":{"OBJECTID":34,"VIEW_TYPE":"London Panorama","DESIGNATED_VIEW":"Greenwich Park","ASSESSMENT_POINT":"5A.2","VIEW_COMPONENT":"Wider Setting Consultation Area","whole_in_zone":false,"in_cw":false}},
{"type":"Feature","geometry":{"type":"Polygon","coordinates":[[[-0.074895,51.505854],[-0.074532,51.506239],[-0.097249,51.514941],[-0.097723,51.514438],[-0.074895,51.505854]]]},"properties":{"OBJECTID":35,"VIEW_TYPE":"London Panorama","DESIGNATED_VIEW":"Greenwich Park","ASSESSMENT_POINT":"5A.2","VIEW_COMPONENT":"Wider Setting Consultation Area","whole_in_zone":false,"in_cw":false}},
{"type":"Feature","geometry":{"type":"Polygon","coordinates":[[[-0.125313,51.497857],[-0.076755,51.489264],[-0.075354,51.493086],[-0.124624,51.499741],[-0.125313,51.497857]]]},"properties":{"OBJECTID":43,"VIEW_TYPE":"Townscape View","DESIGNATED_VIEW":"Serpentine Bridge","ASSESSMENT_POINT":"23A.1","VIEW_COMPONENT":"Background Wider Setting Consultation Area","whole_in_zone":false,"in_cw":false}}
]}
