{"type":"FeatureCollection","crs":{"type":"name","properties":{"name":"EPSG:4326"}},"features":[{"type":"Feature","geometry":{"type":"Polygon","coordinates":[[[-0.0316296350880543,51.5065281562572],[-0.0312050514317605,51.5067773250999],[-0.0309803363203929,51.506907280483],[-0.0308393025219329,51.5069921902014],[-0.0306563930513579,51.5071033426137],[-0.0304085466470955,51.5072452656664],[-0.0304012290883039,51.5072496373729],[-0.0300641319168715,51.5074454466422],[-0.0300626689525496,51.507446321349],[-0.0299896996834602,51.5075017342138],[-0.0298768851438956,51.5076104194553],[-0.0298496061149614,51.5076423255218],[-0.0298034902587347,51.507675713641],[-0.0297550659943322,51.5076964774379],[-0.0296666092679652,51.5077418303772],[-0.0296174882133956,51.5077787641869],[-0.0295902476551003,51.5078097724697],[-0.0295271235992875,51.507901311258],[-0.0293829091771094,51.5079033831535],[-0.029381572165286,51.5078682983713],[-0.0292287696201401,51.5078711241222],[-0.0290902534919979,51.5078732914277],[-0.0290869204060535,51.5078183941417],[-0.02875330511115,51.5078343625144],[-0.0285581265989711,51.5078499606852],[-0.0279320276316577,51.5078978696546],[-0.0278134262211741,51.5079093596976],[-0.0276054965950942,51.5079175502329],[-0.0274254611726095,51.5079154199964],[-0.0272673454975485,51.507906466651],[-0.0272200997831255,51.5080648910663],[-0.0272002434999337,51.5081256907302],[-0.0271670802754031,51.5082249260891],[-0.0271187704807721,51.5083419760414],[-0.0270453836869975,51.5084728991727],[-0.0269615899636498,51.5086109296288],[-0.026886090376878,51.5087247351422],[-0.0267747975239153,51.508866707534],[-0.0266520572003488,51.5090040825024],[-0.026548092933917,51.5091084186695],[-0.0263643601086966,51.5092933142978],[-0.0262754212030728,51.5093826197249],[-0.0262067585950545,51.5094372048184],[-0.0261710800228222,51.5094626756448],[-0.0258958774202319,51.5095947867738],[-0.0254904733157021,51.5097372008637],[-0.0250709696424886,51.5094090912007],[-0.0247326559008944,51.5092011106213],[-0.0244765875501666,51.5090915194518],[-0.024248316647984,51.5090040635839],[-0.0241630063026886,51.5089765538519],[-0.0237927852668293,51.5089073825954],[-0.0233607088759962,51.5088343805264],[-0.0231030309225288,51.5087949740367],[-0.0229297429167153,51.5087686779756],[-0.0227798404129754,51.5087373810913],[-0.0224861639823036,51.5086650005001],[-0.0217563762537985,51.5085114517058],[-0.021153438883184,51.5084248602561],[-0.0211477926484291,51.508387903644],[-0.0209778476855847,51.5083859347928],[-0.0208514343512536,51.5083775078729],[-0.0206637431505185,51.5083518635575],[-0.0205351009691557,51.5083263173808],[-0.0203958000458971,51.5082835089202],[-0.0198862516715868,51.5081039969011],[-0.0196119270390687,51.5080157533208],[-0.0194087370000789,51.5079475896485],[-0.0192422456090749,51.5078989263634],[-0.0190698224583573,51.5078555566083],[-0.0189342967754738,51.5078244073877],[-0.0186554878557063,51.5077738445293],[-0.0184994634709977,51.5077496309159],[-0.0182671719163597,51.5077223303499],[-0.0179830382370445,51.5076932516782],[-0.0174281056886575,51.5076317232122],[-0.016786895515096,51.5075624391376],[-0.0159328830286011,51.5074850542793],[-0.0153761621000275,51.5074620541632],[-0.015144637401808,51.5074500430783],[-0.0148007581259018,51.5074397242266],[-0.0143967182861407,51.5074193950001],[-0.0142484257635963,51.5074141859881],[-0.0140165520621881,51.5074129547913],[-0.0130153612063075,51.5074031808281],[-0.0126576788822462,51.5074097039651],[-0.0125379259516455,51.5074148662686],[-0.0124151660764111,51.5074208758682],[-0.012258923080145,51.5074344994238],[-0.0120129711273405,51.5074564011146],[-0.0117930991637053,51.5074769460334],[-0.0107022003817238,51.507576212635],[-0.0106443987539201,51.5073485830484],[-0.010601092146356,51.5071509564629],[-0.010578214124703,51.5070488866828],[-0.0105207638503449,51.5068132600712],[-0.01049163133855,51.5066202805705],[-0.010499612580291,51.5065053375938],[-0.0105157158152318,51.5064003330699],[-0.0105281173065871,51.506344802037],[-0.0105649079584816,51.5062285511974],[-0.0105957797607457,51.5061499589397],[-0.0106418827150452,51.5060490589485],[-0.0106902428743112,51.5059644701384],[-0.010752407122953,51.5058630342021],[-0.0108030329890263,51.5057918798175],[-0.0109032988719879,51.5056722104026],[-0.0109623132238298,51.50560758065],[-0.0110345420702622,51.5055368826664],[-0.0111214545429965,51.505461849132],[-0.0112247417419611,51.5053736964335],[-0.0114082561310164,51.5052302656906],[-0.0115542726769426,51.5051184736699],[-0.0116778182106532,51.5050288674239],[-0.0118428219707075,51.5049120930296],[-0.0120327572637978,51.504787559376],[-0.0121945197569714,51.5046797198598],[-0.012442092114541,51.5045193032188],[-0.0125693600799039,51.5044423449168],[-0.0126783965807294,51.5043884529703],[-0.0127360373851819,51.5043552665746],[-0.0128723562756259,51.5043351013061],[-0.0130249733184001,51.5043035248095],[-0.0131744693142571,51.5042780986073],[-0.0132492474382609,51.5042496971534],[-0.0138214605902492,51.504311628543],[-0.0143391061876265,51.5043716444355],[-0.0143633741313312,51.5043081330775],[-0.014480978156598,51.5042238172962],[-0.014720298140225,51.5041217836597],[-0.0149175900727458,51.5040900620461],[-0.0154326968025927,51.5041401404893],[-0.0154497174077978,51.5040792931541],[-0.0155246020086758,51.5038161515489],[-0.0155397295697958,51.5037660610865],[-0.0156113729374456,51.5035118557779],[-0.0156129922750703,51.503507387577],[-0.0156146116123547,51.5035029193761],[-0.015617656375678,51.5034984762057],[-0.0156222447115989,51.5034940582673],[-0.0156266744680556,51.5034905369469],[-0.0156325687195278,51.5034861420152],[-0.0156413524286428,51.5034835937052],[-0.0156442409882099,51.5034827433025],[-0.0156559141553351,51.5034820416132],[-0.0156674677743648,51.5034813387981],[-0.0156759772146615,51.5034823812552],[-0.0156965910986441,51.5034072103628],[-0.0156964584054741,51.5033774501852],[-0.0157532012260271,51.5031653371164],[-0.0157857048169371,51.5030462242945],[-0.0158056724160729,51.5030186920043],[-0.0158225763167062,51.5029605396456],[-0.0158355561567874,51.5029625579666],[-0.0160669394104118,51.5021463650532],[-0.0161011410066181,51.5020236845646],[-0.0161231764629332,51.501945840642],[-0.0160287603850669,51.5015323896966],[-0.0159596207381515,51.5012344440076],[-0.0161413659497286,51.5002671840792],[-0.0162060348066811,51.4999408509927],[-0.0165114831027305,51.499973081412],[-0.0166441916220941,51.498676674687],[-0.0169540641781982,51.4962521023001],[-0.0173279255127327,51.4935155653209],[-0.0175835923792789,51.4935333732772],[-0.0188704554678715,51.4936234584437],[-0.0218071461370341,51.4938080199535],[-0.0237581523653334,51.4939308452485],[-0.0249932357857368,51.493985833031],[-0.0255084927952513,51.4939972138564],[-0.0262310321710409,51.4940138828642],[-0.0274731405160294,51.4940410929111],[-0.0300080397836051,51.4940882337937],[-0.0300960135493797,51.4944237144105],[-0.0301154207913806,51.494671892987],[-0.0301804603564803,51.4953339552026],[-0.0301881923033207,51.4954879095466],[-0.0302026729300145,51.4956126658983],[-0.0301914201457499,51.4957183842448],[-0.0301917441891198,51.4957414960345],[-0.0301800454195046,51.4960126680349],[-0.0301797306800372,51.4961044514114],[-0.0301753949028232,51.4961644105836],[-0.0301751470825351,51.4962410843242],[-0.0301745498972419,51.4962694864325],[-0.03016895998519,51.4963398805569],[-0.0301620217835372,51.4964122394436],[-0.0301439459599987,51.4965783211767],[-0.0301144032501054,51.4968500924484],[-0.0300971997457095,51.4970628322661],[-0.0300692422259816,51.4973362488805],[-0.0300346653191408,51.497578749942],[-0.0300286578891899,51.4976253526288],[-0.0300156087714412,51.4977551821496],[-0.0300094923099937,51.4978192696791],[-0.0300013360285859,51.4978853867822],[-0.0300054334790335,51.4979942750514],[-0.0300096378697998,51.4980882638957],[-0.030012058107423,51.4981473042462],[-0.030007843275871,51.4982449852119],[-0.0299966281603807,51.4983809876981],[-0.0299903841112462,51.4984168425935],[-0.0299821749013814,51.4984976387951],[-0.0299672827121957,51.4985930404025],[-0.0299370870481859,51.498847760856],[-0.0299234533576157,51.4989332581601],[-0.0299070062378302,51.4990551707318],[-0.0298994115317464,51.4991159437922],[-0.0298802250733115,51.4992149242958],[-0.0298674321743732,51.4993097460651],[-0.0298426728730988,51.4994230079969],[-0.029840898730287,51.4994359072448],[-0.0298052571886694,51.4995822805734],[-0.0297936617226807,51.4996297515205],[-0.0297770111889096,51.4997022105454],[-0.0297575042535253,51.4997899750992],[-0.0297333286770975,51.4998984787882],[-0.0297317966692024,51.4999043307808],[-0.0297258773732053,51.4999367234591],[-0.0297202318986035,51.499965609018],[-0.0297150712874527,51.499994610644],[-0.0297049286554446,51.5000545179946],[-0.0296947952205842,51.5001141781941],[-0.0296813914804822,51.5002035741458],[-0.0296555672490957,51.500373935555],[-0.0296428909364933,51.5004876685952],[-0.0295611372399445,51.5009351968979],[-0.0295360724305397,51.5011190881031],[-0.0294569423584736,51.5018407805989],[-0.0294214794347418,51.5022349168819],[-0.0294123659618516,51.5023722989519],[-0.0294011720055451,51.5024602418564],[-0.0293935749894489,51.5025182665766],[-0.0293894134084763,51.5025498146695],[-0.0293734311697636,51.5026251751624],[-0.0293615628449827,51.5026830084596],[-0.0293825125498905,51.5027781951246],[-0.0293921017339406,51.5028204205501],[-0.0294098860746866,51.502883559113],[-0.0294238450746688,51.502948961609],[-0.0294477937983463,51.5030420736476],[-0.0294531832052611,51.5030828210627],[-0.0295019445800374,51.5033030481991],[-0.0295121032263699,51.5033601924618],[-0.0295221036209995,51.5034209698811],[-0.0295480871244153,51.503538989468],[-0.029584782008385,51.5037462860237],[-0.0296218368011295,51.5040029351923],[-0.0296288872630497,51.5041094250307],[-0.0296307415939944,51.5041664782212],[-0.029621990137692,51.5042027090876],[-0.0296095221103929,51.5042624810776],[-0.029591813954722,51.5042958329451],[-0.0295882781061577,51.5043042052273],[-0.0295795821237293,51.5043368128977],[-0.029572833732853,51.5043633921092],[-0.0295737283963097,51.5043662668827],[-0.029603068414998,51.5044296778317],[-0.0296317084340271,51.5044916480331],[-0.0296680305544014,51.5045702708554],[-0.0297020551498269,51.5046431355721],[-0.029745323811026,51.5047377637191],[-0.0297550430879361,51.5047662087634],[-0.0298253632819941,51.504921601325],[-0.0298464589431781,51.5049737889859],[-0.029874952214186,51.5050336657695],[-0.0298933710990988,51.5050794324823],[-0.0299876035658871,51.5052381413306],[-0.030073606217742,51.5053940336849],[-0.0301294308803736,51.5054888491902],[-0.0301816783556069,51.5055479900997],[-0.0302837238632829,51.5056436019209],[-0.0303479696770386,51.5057077150384],[-0.0304163546624156,51.5057740559359],[-0.0304536947165361,51.5058178885731],[-0.0304751312420058,51.5058371562022],[-0.0305210989538412,51.5058914368753],[-0.0306350225894154,51.5060101310621],[-0.0307979331902142,51.5061424780452],[-0.0308414011671017,51.5061790617817],[-0.0309508027713333,51.5062120145675],[-0.0310094118768964,51.5062243110316],[-0.0312096886548276,51.5062870713825],[-0.0312452043672483,51.5063003962788],[-0.0312818692289583,51.5063149760775],[-0.031351156113234,51.5063514382881],[-0.0313736366756196,51.5063634534219],[-0.0314637472959536,51.5064089199342],[-0.0315347072361665,51.506452538738],[-0.0315958849059349,51.5064978107042],[-0.0316296350880543,51.5065281562572]]]},"properties":{"WD26CD":"E05009323","WD26NM":"Canary Wharf"}}]}