{"type":"FeatureCollection","name":"indoor-floor--4.0.geojson","features":[{"type":"Feature","id":"indoor:1002099384287","properties":{"layer":"indoor","closed":false,"geom_id":25825,"geom_type":"LINESTRING","category":"barrier","class":"circulation","type":"stairs","local_rank":1,"is_label_shown":false,"indoor":true,"oneway":0,"offset_id":"0.0","is_geojson":false,"floor_id":8,"floor_level":"-4.0","floor_name":"Level -4","location_name":"Canary Wharf","landmark":false,"lm_id":"4f0edb68a7e164ca4b07a838ed0d4372","uid":1002099384287,"zoom_used":17,"whole":true},"geometry":{"type":"LineString","coordinates":[[-0.0174773,51.5044678],[-0.0174806,51.5044536],[-0.0174847,51.5044402],[-0.0174518,51.5044365],[-0.0174478,51.5044498],[-0.0174806,51.5044536]]}},{"type":"Feature","id":"indoor:1003867354049","properties":{"layer":"indoor","geom_id":25433,"geom_type":"POLYGON","category":"room","class":"building","type":"floor","local_rank":1,"is_label_shown":false,"indoor":true,"is_geojson":false,"floor_id":8,"floor_level":"-4.0","floor_name":"Level -4","location_name":"Canary Wharf","landmark":false,"area_highlight":false,"lm_id":"8ab032902a71c976cb51f41b36a1fb01","uid":1003867354049,"zoom_used":15,"whole":true},"geometry":{"type":"Polygon","coordinates":[[[-0.019269,51.5064336],[-0.0191778,51.5064236],[-0.0191697,51.5064236],[-0.0186548,51.5063668],[-0.0184536,51.5063451],[-0.0182042,51.5062967],[-0.0167048,51.5061348],[-0.0164527,51.5061298],[-0.016222,51.5061031],[-0.0157285,51.5060496],[-0.015707,51.506048],[-0.0156292,51.5060396],[-0.0157043,51.5057625],[-0.0158063,51.5057742],[-0.0162917,51.5058276],[-0.0165305,51.5058526],[-0.0167692,51.5059011],[-0.0182712,51.506063],[-0.0185314,51.5060697],[-0.0187647,51.5060947],[-0.0190464,51.5061248],[-0.0191349,51.5061348],[-0.0192475,51.5061465],[-0.0192556,51.5061481],[-0.0193468,51.5061582],[-0.019269,51.5064336]]]}},{"type":"Feature","id":"indoor:1010019802734","properties":{"layer":"indoor","closed":false,"geom_id":25450,"geom_type":"POLYGON","category":"unit","class":"facility","type":"parking","local_rank":1,"is_label_shown":false,"indoor":true,"is_geojson":false,"floor_id":8,"floor_level":"-4.0","floor_name":"Level -4","location_name":"Cabot Place","landmark":false,"area_highlight":false,"lm_id":"72154c730ad30e8bc8567fe46e0692b9","uid":1010019802734,"zoom_used":13,"whole":true},"geometry":{"type":"Polygon","coordinates":[[[-0.0233245,51.5055772],[-0.0221121,51.5054503],[-0.0221336,51.5053835],[-0.0219083,51.5053568],[-0.0218976,51.5053902],[-0.0213397,51.5053301],[-0.0214469,51.5049361],[-0.0222087,51.5050162],[-0.0224555,51.5050095],[-0.0233459,51.505103],[-0.0232816,51.5053434],[-0.0233459,51.5053501],[-0.0233459,51.5053702],[-0.0233781,51.5053702],[-0.0233245,51.5055772]],[[-0.0223589,51.5053702],[-0.0224018,51.5052433],[-0.0222731,51.5052299],[-0.022316,51.5050964],[-0.0221872,51.505083],[-0.0217152,51.5050296],[-0.0216937,51.5050897],[-0.0216722,51.5052032],[-0.022155,51.50525],[-0.0221336,51.5053101],[-0.0222409,51.5053568],[-0.0223589,51.5053702]]]}},{"type":"Feature","id":"indoor:101888590473","properties":{"layer":"indoor","closed":false,"geom_id":25427,"geom_type":"POLYGON","category":"room","class":"building","type":"back_of_house","local_rank":1,"is_label_shown":false,"indoor":true,"is_geojson":false,"floor_id":8,"floor_level":"-4.0","floor_name":"Level -4","location_name":"Cabot Place","landmark":false,"area_highlight":false,"lm_id":"b906d26c77cc9e7b0921377db62ed636","uid":101888590473,"zoom_used":15,"whole":true},"geometry":{"type":"Polygon","coordinates":[[[-0.019269,51.5064336],[-0.0191778,51.5064236],[-0.0191697,51.5064236],[-0.0186548,51.5063668],[-0.0184536,51.5063451],[-0.0182042,51.5062967],[-0.0167048,51.5061348],[-0.0164527,51.5061298],[-0.016222,51.5061031],[-0.0157285,51.5060496],[-0.015707,51.506048],[-0.0156292,51.5060396],[-0.0157043,51.5057625],[-0.0158063,51.5057742],[-0.0162917,51.5058276],[-0.0165305,51.5058526],[-0.0167692,51.5059011],[-0.0182712,51.506063],[-0.0185314,51.5060697],[-0.0187647,51.5060947],[-0.0190464,51.5061248],[-0.0191349,51.5061348],[-0.0192475,51.5061465],[-0.0192556,51.5061481],[-0.0193468,51.5061582],[-0.019269,51.5064336]]]}},{"type":"Feature","id":"indoor:1022805719022","properties":{"layer":"indoor","geom_id":25434,"geom_type":"POLYGON","category":"unit","class":"circulation","type":"lift","local_rank":1,"is_label_shown":false,"indoor":true,"is_geojson":false,"floor_id":8,"floor_level":"-4.0","floor_name":"Level -4","location_name":"Cabot Place","landmark":false,"area_highlight":false,"lm_id":"e63931c676d07113bc308010fce43644","uid":1022805719022,"zoom_used":13,"whole":true},"geometry":{"type":"Polygon","coordinates":[[[-0.0220048,51.5051297],[-0.0219619,51.5051231],[-0.0219727,51.5050964],[-0.0220156,51.505103],[-0.0220048,51.5051297]]]}},{"type":"Feature","id":"indoor:1024904043373","properties":{"layer":"indoor","closed":false,"geom_id":25382,"geom_type":"POINT","category":"amenity","class":"circulation","type":"lift","local_rank":1,"is_label_shown":false,"icon_id":"lift","indoor":true,"is_geojson":false,"floor_id":8,"floor_level":"-4.0","floor_name":"Level -4","location_name":"Cabot Place","landmark":false,"lm_id":"aa977f1613b70764d26c04fa58d41a1e","uid":1024904043373,"zoom_used":19,"whole":true},"geometry":{"type":"Point","coordinates":[-0.0219145,51.5050912]}},{"type":"Feature","id":"indoor:1038169056602","properties":{"layer":"indoor","closed":false,"geom_id":25815,"geom_type":"LINESTRING","category":"barrier","class":"building","type":"threshold","local_rank":1,"is_label_shown":false,"indoor":true,"oneway":0,"offset_id":"0.0","is_geojson":false,"floor_id":8,"floor_level":"-4.0","floor_name":"Level -4","location_name":"Canary Wharf","landmark":false,"lm_id":"7f09daa9bc5039ba4233ae121c52d1d5","uid":1038169056602,"zoom_used":15,"whole":true},"geometry":{"type":"LineString","coordinates":[[-0.0176033,51.5044386],[-0.0175738,51.5044352],[-0.0175095,51.5044285],[-0.0174826,51.5044252],[-0.0174719,51.5044252],[-0.0174665,51.5044235],[-0.0174612,51.5044235],[-0.0174558,51.5044219],[-0.017429,51.5044202],[-0.017319,51.5044085],[-0.0168791,51.5043601],[-0.0166458,51.504335],[-0.0163078,51.5042983],[-0.0157928,51.5042416],[-0.0157633,51.5043451],[-0.0157097,51.5045354],[-0.0159189,51.5049244],[-0.0160557,51.5049394],[-0.0165331,51.5049912],[-0.0168309,51.5050229]]}},{"type":"Feature","id":"indoor:1057077262236","properties":{"layer":"indoor","closed":false,"geom_id":25383,"geom_type":"POINT","category":"amenity","class":"circulation","type":"lift","local_rank":1,"is_label_shown":false,"icon_id":"lift","indoor":true,"is_geojson":false,"floor_id":8,"floor_level":"-4.0","floor_name":"Level -4","location_name":"Cabot Place","landmark":false,"lm_id":"d75035c7f4f66680c20ec18a6c668efc","uid":1057077262236,"zoom_used":19,"whole":true},"geometry":{"type":"Point","coordinates":[-0.0219933,51.5050998]}},{"type":"Feature","id":"indoor:1067406720074","properties":{"layer":"indoor","closed":false,"geom_id":25808,"geom_type":"LINESTRING","category":"barrier","class":"building","type":"wall","local_rank":1,"is_label_shown":false,"indoor":true,"oneway":0,"offset_id":"0.0","is_geojson":false,"floor_id":8,"floor_level":"-4.0","floor_name":"Level -4","location_name":"Canary Wharf","landmark":false,"lm_id":"b80f3cdf461c7a0a66eccc07b11fadb8","uid":1067406720074,"zoom_used":17,"whole":true},"geometry":{"type":"LineString","coordinates":[[-0.016851,51.504464],[-0.016849,51.5044711]]}},{"type":"Feature","id":"indoor:1094806295616","properties":{"layer":"indoor","closed":false,"geom_id":25407,"geom_type":"LINESTRING","category":"barrier","class":"building","type":"threshold","local_rank":1,"is_label_shown":false,"indoor":true,"oneway":0,"offset_id":"0.0","is_geojson":false,"floor_id":8,"floor_level":"-4.0","floor_name":"Level -4","location_name":"Canary Wharf","landmark":false,"lm_id":"c9e49f0be3e56e63578808dfd40b35f2","uid":1094806295616,"zoom_used":15,"whole":true},"geometry":{"type":"LineString","coordinates":[[-0.0167692,51.5059011],[-0.0182712,51.506063],[-0.0185314,51.5060697],[-0.0193468,51.5061582],[-0.019269,51.5064336],[-0.0184536,51.5063451],[-0.0182042,51.5062967],[-0.0167048,51.5061348],[-0.0164527,51.5061298],[-0.0156292,51.5060396],[-0.0157043,51.5057625],[-0.0165305,51.5058526],[-0.0167692,51.5059011]]}},{"type":"Feature","id":"indoor:114552842427","properties":{"layer":"indoor","closed":false,"geom_id":25990,"geom_type":"POLYGON","category":"unit","class":"facility","type":"car_rental","local_rank":2,"name":"SIXT","popup_header":"SIXT","popup_subheader":"Transport - Canada Place","popup_body":"SIXT make car rental quick and easy. With millions of customers worldwide, they provide top-notch support and a wide range of benefits when you travel with them. Their drivers enjoy unlimited miles on most models, a wide selection of compact, eco and luxury cars, cheap car hire rates, and more.","url":"https://www.sixt.co.uk/car-hire/united-kingdom/london/canary-wharf/","street_address":"-4 Level, Canada Place\n(Entrance on 0 Street level)","opening_times":"mon: 08:00 - 16:00, tue: 08:00 - 16:00, wed: 08:00 - 16:00, thu: 08:00 - 16:00, fri: 08:00 - 18:00, sat: 08:00 - 12:00","is_label_shown":false,"indoor":true,"is_geojson":false,"floor_id":8,"floor_level":"-4.0","floor_name":"Level -4","location_name":"Canary Wharf","main_entrance_lm_id":"faab27f08021af96a0dae95775354d20","landmark":false,"area_highlight":false,"lm_id":"96ed3d8f0abf8228c40091e97e14cba5","uid":114552842427,"zoom_used":17,"whole":true},"geometry":{"type":"Polygon","coordinates":[[[-0.0169053,51.5045058],[-0.0168919,51.5045045],[-0.0168416,51.5044987],[-0.0168436,51.5044899],[-0.016849,51.5044711],[-0.016851,51.504464],[-0.0168744,51.5043818],[-0.0168805,51.5043601],[-0.0169925,51.5043722],[-0.0169589,51.5044845],[-0.0169569,51.5044891],[-0.0169529,51.5044916],[-0.0169489,51.5044937],[-0.0169395,51.5044978],[-0.0169341,51.5044999],[-0.0169268,51.5045024],[-0.0169221,51.5045037],[-0.016916,51.5045049],[-0.01691,51.5045058],[-0.0169053,51.5045058]]]}},{"type":"Feature","id":"indoor:138580462165","properties":{"layer":"indoor","closed":false,"geom_id":25801,"geom_type":"POINT","category":"amenity","class":"circulation","type":"arrow","local_rank":1,"is_label_shown":true,"icon_id":"arrow_main_entrance","indoor":true,"rotation":9.87,"is_geojson":false,"floor_id":8,"floor_level":"-4.0","floor_name":"Level -4","location_name":"Canary Wharf","landmark":false,"lm_id":"7490c3169438f4d4a44e112f7d6b3127","uid":138580462165,"zoom_used":19,"whole":true},"geometry":{"type":"Point","coordinates":[-0.0186181,51.5050186]}},{"type":"Feature","id":"indoor:155009904110","properties":{"layer":"indoor","closed":false,"geom_id":25831,"geom_type":"POLYGON","category":"unit","class":"facility","type":"parking","local_rank":2,"name":"Canada Square Car Park","popup_header":"Level P4 – Canada Square","popup_subheader":"Parking","street_address":"-4 level, Canada Place\n(entrance on 0 Street level)","opening_times":"mon: 00:00 - 24:00, tue: 00:00 - 24:00, wed: 00:00 - 24:00, thu: 00:00 - 24:00, fri: 00:00 - 24:00, sat: 00:00 - 24:00, sun: 00:00 - 24:00","is_label_shown":false,"indoor":true,"is_geojson":false,"floor_id":8,"floor_level":"-4.0","floor_name":"Level -4","location_name":"Canary Wharf","main_entrance_lm_id":"72229c181d02aea07757449fd3a6488e","landmark":false,"area_highlight":false,"lm_id":"1b009628de29f96380dc1e2a9909cb3d","uid":155009904110,"zoom_used":15,"whole":true},"geometry":{"type":"Polygon","coordinates":[[[-0.0190088,51.5051748],[-0.0186038,51.5051314],[-0.0186172,51.505083],[-0.0183409,51.5050529],[-0.0183275,51.5051014],[-0.0180969,51.5050763],[-0.0180808,51.5051364],[-0.0168684,51.5050045],[-0.0168362,51.5050012],[-0.0168175,51.5049995],[-0.0168443,51.5049094],[-0.0167316,51.5048977],[-0.0167638,51.5047808],[-0.0166968,51.5047741],[-0.0166726,51.5047708],[-0.0166029,51.5047624],[-0.0165921,51.5047992],[-0.016517,51.5047908],[-0.0164875,51.5048943],[-0.0165573,51.5049027],[-0.0165331,51.5049912],[-0.0160557,51.5049394],[-0.0160772,51.5048693],[-0.0160986,51.504871],[-0.0161147,51.5048125],[-0.0161576,51.5048175],[-0.0161764,51.5047524],[-0.0160477,51.5047374],[-0.0160557,51.504704],[-0.0159967,51.5046973],[-0.015986,51.5047307],[-0.0158036,51.5047107],[-0.0157097,51.5045354],[-0.0157633,51.5043451],[-0.015927,51.5043618],[-0.0159323,51.5043367],[-0.015994,51.5043434],[-0.015986,51.5043684],[-0.0162274,51.5043951],[-0.0162408,51.5043434],[-0.0162944,51.5043484],[-0.0163078,51.5042983],[-0.0166458,51.504335],[-0.0166163,51.5044386],[-0.0167048,51.5044486],[-0.0166968,51.5044836],[-0.0168416,51.5044987],[-0.0168926,51.5045037],[-0.016906,51.5045053],[-0.0169167,51.5045053],[-0.0169274,51.504502],[-0.0169355,51.5045003],[-0.0169408,51.5044987],[-0.0169435,51.5044953],[-0.0169489,51.5044937],[-0.0169569,51.5044886],[-0.0169596,51.5044853],[-0.0169918,51.5043718],[-0.017319,51.5044085],[-0.0173083,51.5044486],[-0.0174183,51.5044619],[-0.0174451,51.5044636],[-0.0174505,51.5044653],[-0.0174612,51.5044653],[-0.0174665,51.5044669],[-0.0174719,51.5044669],[-0.017539,51.5044736],[-0.0175577,51.504477],[-0.0175631,51.504477],[-0.0175953,51.5044803],[-0.0176087,51.5044386],[-0.0178957,51.5044703],[-0.017885,51.504512],[-0.0181291,51.5045387],[-0.0181398,51.504497],[-0.0182658,51.5045103],[-0.0184831,51.5045337],[-0.0184724,51.5045755],[-0.018746,51.5046055],[-0.0187567,51.5045638],[-0.0190759,51.5045988],[-0.0191429,51.5046055],[-0.0191671,51.5046089],[-0.0190088,51.5051748]],[[-0.0179574,51.505073],[-0.0179762,51.5050663],[-0.0179896,51.5050145],[-0.0177509,51.5049895],[-0.0177348,51.5050379],[-0.0174344,51.5050062],[-0.0174478,51.5049561],[-0.0171742,51.5049261],[-0.0171608,51.5049762],[-0.0170481,51.5049645],[-0.0170696,51.5049762],[-0.0171286,51.5049828],[-0.0171474,51.5049845],[-0.0179574,51.505073]],[[-0.0187111,51.5050296],[-0.0187325,51.5049611],[-0.0186923,51.5049561],[-0.0186548,51.5049528],[-0.0186494,51.5049528],[-0.0186253,51.5049494],[-0.0186092,51.5049478],[-0.0185877,51.5050162],[-0.0186065,51.5050179],[-0.0186306,51.5050196],[-0.018636,51.5050212],[-0.0186735,51.5050246],[-0.0187111,51.5050296]]]}},{"type":"Feature","id":"indoor:158839942501","properties":{"layer":"indoor","closed":false,"geom_id":25835,"geom_type":"POLYGON","category":"unit","class":"circulation","type":"lift","local_rank":1,"is_label_shown":false,"indoor":true,"is_geojson":false,"floor_id":8,"floor_level":"-4.0","floor_name":"Level -4","location_name":"Canary Wharf","landmark":false,"area_highlight":false,"lm_id":"14476d6ea5cc39188dc707bdca05f37b","uid":158839942501,"zoom_used":19,"whole":true},"geometry":{"type":"Polygon","coordinates":[[[-0.0175693,51.5044548],[-0.017521,51.5044496],[-0.0175264,51.5044303],[-0.0175747,51.5044355],[-0.0175693,51.5044548]]]}},{"type":"Feature","id":"indoor:160453804172","properties":{"layer":"indoor","closed":false,"geom_id":25425,"geom_type":"POLYGON","category":"room","class":"building","type":"back_of_house","local_rank":1,"is_label_shown":false,"indoor":true,"is_geojson":false,"floor_id":8,"floor_level":"-4.0","floor_name":"Level -4","location_name":"Cabot Place","landmark":false,"area_highlight":false,"lm_id":"e4ab6e9e111e46dcbf36b9c42bb7b9db","uid":160453804172,"zoom_used":15,"whole":true},"geometry":{"type":"Polygon","coordinates":[[[-0.0165519,51.505689],[-0.0164822,51.5056807],[-0.0164902,51.5056556],[-0.0165921,51.50529],[-0.0152698,51.5051464],[-0.0152564,51.5051448],[-0.0152457,51.5051448],[-0.0152242,51.5052199],[-0.0151491,51.5052116],[-0.0151411,51.5052099],[-0.0147441,51.5051665],[-0.0147521,51.5051348],[-0.0147548,51.5051214],[-0.0147924,51.5049928],[-0.0146851,51.5049812],[-0.0146931,51.5049578],[-0.0146583,51.5049528],[-0.0146636,51.5049327],[-0.0146744,51.5049327],[-0.0146985,51.5049361],[-0.0147012,51.5049277],[-0.0147307,51.5049311],[-0.0147414,51.5048977],[-0.0147092,51.5048543],[-0.0147226,51.5048042],[-0.0140226,51.5047274],[-0.0141272,51.5043501],[-0.0140843,51.5043467],[-0.0140709,51.5043284],[-0.014087,51.5042783],[-0.014028,51.5042733],[-0.0140655,51.5041347],[-0.0141647,51.5041447],[-0.0141138,51.50433],[-0.0141326,51.5043317],[-0.0142345,51.5039728],[-0.0147119,51.5040245],[-0.014728,51.5039611],[-0.0147361,51.503931],[-0.0148568,51.5039444],[-0.0148675,51.503906],[-0.0148675,51.5039026],[-0.0148702,51.503901],[-0.0148702,51.5038993],[-0.0148728,51.5038976],[-0.0148728,51.503896],[-0.0148755,51.5038943],[-0.0148755,51.5038926],[-0.0148782,51.5038926],[-0.0148782,51.5038909],[-0.0148809,51.5038909],[-0.0148809,51.5038893],[-0.0148836,51.5038893],[-0.0148836,51.5038876],[-0.0148863,51.5038876],[-0.0148863,51.5038859],[-0.0148889,51.5038859],[-0.0148916,51.5038843],[-0.0148943,51.5038843],[-0.014897,51.5038826],[-0.014905,51.5038826],[-0.014905,51.5038809],[-0.0149238,51.5038809],[-0.0150982,51.503901],[-0.0151491,51.5037173],[-0.0151277,51.5037156],[-0.0151518,51.5036305],[-0.0151733,51.5036322],[-0.0151679,51.5036539],[-0.015184,51.5036555],[-0.0151867,51.5036438],[-0.0152054,51.5036472],[-0.0152028,51.5036589],[-0.0152162,51.5036589],[-0.0152108,51.5036756],[-0.0152484,51.5036789],[-0.0156534,51.503724],[-0.0156668,51.5036839],[-0.015699,51.5035637],[-0.0157017,51.5035503],[-0.0158089,51.503562],[-0.0158331,51.5034836],[-0.0157928,51.5034786],[-0.0158116,51.5034151],[-0.0167665,51.5035186],[-0.0167772,51.5034802],[-0.0171688,51.503522],[-0.0171715,51.5035103],[-0.0165412,51.5034418],[-0.0166351,51.5031112],[-0.0189337,51.50336],[-0.0189552,51.5032815],[-0.0189579,51.5032749],[-0.0189579,51.5032699],[-0.0189552,51.5032682],[-0.0189552,51.5032665],[-0.0189525,51.5032665],[-0.0189525,51.5032648],[-0.0189498,51.5032648],[-0.0189498,51.5032632],[-0.0189444,51.5032632],[-0.0189444,51.5032615],[-0.0189418,51.5032615],[-0.0173056,51.5030845],[-0.0174907,51.50242],[-0.018416,51.5025185],[-0.0184697,51.5023282],[-0.0190517,51.50239],[-0.018982,51.5026371],[-0.0197706,51.5027239],[-0.0198403,51.5024735],[-0.0204411,51.5025386],[-0.0203419,51.5028875],[-0.0201917,51.5028708],[-0.0200924,51.5032264],[-0.0205806,51.5032799],[-0.0205833,51.5032782],[-0.0205886,51.5032782],[-0.0205886,51.5032765],[-0.0205994,51.5032765],[-0.0205994,51.5032749],[-0.0206262,51.5032749],[-0.0206289,51.5032765],[-0.0206369,51.5032765],[-0.0206369,51.5032782],[-0.020645,51.5032782],[-0.020645,51.5032799],[-0.0206503,51.5032799],[-0.0206503,51.5032815],[-0.020653,51.5032815],[-0.0206557,51.5032832],[-0.0206584,51.5032832],[-0.0206584,51.5032849],[-0.0206611,51.5032849],[-0.0206611,51.5032866],[-0.0206637,51.5032866],[-0.0206664,51.5032882],[-0.0211519,51.50334],[-0.0211653,51.5032849],[-0.0213397,51.5033032],[-0.0213343,51.5033199],[-0.0215596,51.503345],[-0.0215489,51.5033851],[-0.0215033,51.5033817],[-0.0214845,51.5034569],[-0.0214255,51.5034502],[-0.0214282,51.5034385],[-0.0211921,51.5034118],[-0.0211895,51.5034235],[-0.0211304,51.5034185],[-0.020645,51.503365],[-0.0206423,51.5033667],[-0.0206369,51.5033667],[-0.0206369,51.5033684],[-0.0206262,51.5033684],[-0.0206235,51.50337],[-0.020602,51.50337],[-0.020602,51.5033684],[-0.0205913,51.5033684],[-0.0205913,51.5033667],[-0.0205833,51.5033667],[-0.0205833,51.503365],[-0.0205779,51.503365],[-0.0205779,51.5033634],[-0.0205725,51.5033634],[-0.0205725,51.5033617],[-0.0205699,51.5033617],[-0.0205672,51.50336],[-0.0205645,51.50336],[-0.0205645,51.5033583],[-0.0205618,51.5033583],[-0.0205618,51.5033567],[-0.0205591,51.5033567],[-0.0198269,51.5032765],[-0.0198054,51.503355],[-0.0190759,51.5032765],[-0.019049,51.5033717],[-0.019446,51.5034151],[-0.0194594,51.50337],[-0.0197062,51.5033967],[-0.0195694,51.5038843],[-0.0184241,51.5037607],[-0.0183919,51.5038726],[-0.0184214,51.5038759],[-0.0182685,51.5044235],[-0.01829,51.5044252],[-0.0182658,51.5045103],[-0.0181398,51.504497],[-0.0181291,51.5045387],[-0.017885,51.504512],[-0.0178957,51.5044703],[-0.0181344,51.504497],[-0.0181586,51.5044118],[-0.0181773,51.5044135],[-0.0182471,51.5041681],[-0.0181371,51.5041564],[-0.0182229,51.5038492],[-0.0181639,51.5037991],[-0.0181827,51.503734],[-0.0182685,51.503744],[-0.0182873,51.5036839],[-0.0181559,51.5036689],[-0.0181666,51.5036305],[-0.0185099,51.5036672],[-0.0185126,51.5036555],[-0.0174102,51.5035353],[-0.0174049,51.503547],[-0.0173566,51.503542],[-0.0173351,51.5036221],[-0.0171876,51.5036071],[-0.0169811,51.5043467],[-0.0176087,51.5044152],[-0.0176033,51.5044386],[-0.0176087,51.5044386],[-0.0175953,51.5044803],[-0.0175631,51.504477],[-0.0175685,51.5044553],[-0.0175738,51.5044352],[-0.0175256,51.5044302],[-0.0175202,51.5044502],[-0.0175041,51.5044469],[-0.0175095,51.5044285],[-0.017429,51.5044202],[-0.0174183,51.5044619],[-0.0173083,51.5044486],[-0.017319,51.5044085],[-0.0168791,51.5043601],[-0.0168523,51.5044636],[-0.0167853,51.5044569],[-0.0167933,51.5044302],[-0.0167128,51.5044202],[-0.0167048,51.5044486],[-0.0166163,51.5044386],[-0.0166458,51.504335],[-0.0163078,51.5042983],[-0.0162944,51.5043484],[-0.0162408,51.5043434],[-0.0162274,51.5043951],[-0.015986,51.5043684],[-0.015994,51.5043434],[-0.0159323,51.5043367],[-0.015927,51.5043618],[-0.0157633,51.5043451],[-0.0157097,51.5045354],[-0.0158036,51.5047107],[-0.015986,51.5047307],[-0.0159967,51.5046973],[-0.0160557,51.504704],[-0.0160477,51.5047374],[-0.0161764,51.5047524],[-0.0161576,51.5048175],[-0.0161147,51.5048125],[-0.0160986,51.504871],[-0.0160772,51.5048693],[-0.0160557,51.5049394],[-0.0165331,51.5049912],[-0.0165573,51.5049027],[-0.0164875,51.5048943],[-0.016517,51.5047908],[-0.0166082,51.5048008],[-0.0166002,51.5048276],[-0.0166807,51.5048376],[-0.0166968,51.5047741],[-0.0167638,51.5047808],[-0.0167316,51.5048977],[-0.0168443,51.5049094],[-0.0168175,51.5049995],[-0.0168362,51.5050012],[-0.0168684,51.5050045],[-0.0166807,51.5056757],[-0.0166136,51.505669],[-0.016568,51.505664],[-0.01656,51.5056623],[-0.0165519,51.505689]],[[-0.0151545,51.5051648],[-0.0152081,51.5049711],[-0.0152215,51.5049711],[-0.0152618,51.5049762],[-0.0152645,51.5049645],[-0.0152832,51.5049661],[-0.0152805,51.5049778],[-0.015302,51.5049812],[-0.0154281,51.5045287],[-0.0153959,51.5045254],[-0.0154173,51.5044536],[-0.0154495,51.5044569],[-0.0155541,51.5040846],[-0.0167719,51.5042165],[-0.0169408,51.5036038],[-0.0162891,51.503532],[-0.01623,51.5037457],[-0.0157714,51.5036956],[-0.0157499,51.5036939],[-0.0157258,51.5037791],[-0.0152349,51.5037257],[-0.0151706,51.5039561],[-0.015133,51.5039527],[-0.015125,51.5039527],[-0.0150847,51.5039477],[-0.0150901,51.503931],[-0.0149345,51.5039143],[-0.0149131,51.5039227],[-0.014897,51.5039794],[-0.0148004,51.5039694],[-0.0147843,51.5040329],[-0.0150123,51.5040579],[-0.0147897,51.5048526],[-0.0148299,51.5048576],[-0.0148058,51.5049394],[-0.014846,51.5049428],[-0.0147951,51.5051247],[-0.0151545,51.5051648]]]}},{"type":"Feature","id":"indoor:164389599652","properties":{"layer":"indoor","geom_id":25432,"geom_type":"POLYGON","category":"room","class":"building","type":"floor","local_rank":1,"is_label_shown":false,"indoor":true,"is_geojson":false,"floor_id":8,"floor_level":"-4.0","floor_name":"Level -4","location_name":"Canary Wharf","landmark":false,"area_highlight":false,"lm_id":"5dc24dea5777e4b09dc373ce73205371","uid":164389599652,"zoom_used":13,"whole":true},"geometry":{"type":"Polygon","coordinates":[[[-0.0191295,51.5061315],[-0.0190437,51.5061248],[-0.019269,51.5053434],[-0.0190866,51.5053234],[-0.0190973,51.5052833],[-0.0193977,51.5053167],[-0.0194299,51.5053034],[-0.0194514,51.5052299],[-0.0190437,51.5051832],[-0.0189793,51.5051765],[-0.0189686,51.5052299],[-0.0168657,51.5050029],[-0.0166833,51.5056773],[-0.0166082,51.5056707],[-0.0165653,51.505664],[-0.0165546,51.505664],[-0.0165546,51.5056907],[-0.0164795,51.505684],[-0.0164902,51.5056573],[-0.0165868,51.50529],[-0.0152671,51.5051498],[-0.0152564,51.5051431],[-0.0152457,51.5051431],[-0.0152242,51.5052166],[-0.0151491,51.5052099],[-0.0151384,51.5052099],[-0.0147414,51.5051698],[-0.0147521,51.5051364],[-0.0147521,51.5051231],[-0.0147951,51.5049962],[-0.0146878,51.5049828],[-0.0146878,51.5049561],[-0.0146556,51.5049561],[-0.0146663,51.5049294],[-0.014677,51.5049361],[-0.0146985,51.5049361],[-0.0146985,51.5049294],[-0.0147307,51.5049294],[-0.0147414,51.504896],[-0.0147092,51.5048559],[-0.01472,51.5048025],[-0.0140226,51.5047291],[-0.0141299,51.5043484],[-0.014087,51.5043484],[-0.0140762,51.5043284],[-0.014087,51.5042816],[-0.0140333,51.5042749],[-0.0140655,51.5041347],[-0.0141621,51.5041481],[-0.0141084,51.5043284],[-0.0141299,51.504335],[-0.0142372,51.5039744],[-0.0147092,51.5040278],[-0.0147307,51.5039611],[-0.0147414,51.5039344],[-0.0148594,51.503941],[-0.0148702,51.5039076],[-0.0148702,51.5038943],[-0.0148809,51.5038943],[-0.0148809,51.5038876],[-0.0148916,51.5038876],[-0.0148916,51.5038809],[-0.0149238,51.5038809],[-0.0150955,51.503901],[-0.0151491,51.5037206],[-0.0151277,51.503714],[-0.0151491,51.5036271],[-0.0151706,51.5036338],[-0.0151706,51.5036539],[-0.0151813,51.5036539],[-0.015192,51.5036472],[-0.0152028,51.5036472],[-0.0152028,51.5036605],[-0.0152135,51.5036605],[-0.0152135,51.5036739],[-0.0152457,51.5036806],[-0.0156534,51.5037206],[-0.0156641,51.5036873],[-0.0156963,51.503567],[-0.015707,51.503547],[-0.0158143,51.5035604],[-0.0158358,51.5034802],[-0.0157928,51.5034802],[-0.0158143,51.5034134],[-0.0167692,51.5035203],[-0.0167799,51.5034802],[-0.0171661,51.5035203],[-0.0171661,51.5035069],[-0.0165439,51.5034402],[-0.0166297,51.5031129],[-0.0172412,51.5031797],[-0.0172842,51.5031797],[-0.0189364,51.50336],[-0.0189579,51.5032799],[-0.0189579,51.5032665],[-0.0189471,51.5032665],[-0.0189471,51.5032598],[-0.0173056,51.5030862],[-0.0174665,51.5025052],[-0.017488,51.5024184],[-0.0184214,51.5025185],[-0.0184751,51.5023249],[-0.0190544,51.5023916],[-0.0189793,51.5026387],[-0.0197732,51.5027256],[-0.0198376,51.5024718],[-0.0204384,51.5025386],[-0.0203419,51.5028858],[-0.0201917,51.5028725],[-0.0201166,51.5031329],[-0.0200951,51.5032264],[-0.0205779,51.5032799],[-0.0205886,51.5032799],[-0.0205886,51.5032732],[-0.0206316,51.5032732],[-0.0206316,51.5032799],[-0.020653,51.5032799],[-0.020653,51.5032866],[-0.0206637,51.5032866],[-0.0211465,51.50334],[-0.021168,51.5032866],[-0.0212109,51.5032866],[-0.0212216,51.5032932],[-0.0213397,51.5033066],[-0.0213397,51.5033199],[-0.0215113,51.50334],[-0.021565,51.5033467],[-0.0215435,51.5033867],[-0.0215006,51.50338],[-0.0214899,51.5034468],[-0.0214791,51.5034535],[-0.0214255,51.5034535],[-0.0214255,51.5034402],[-0.0211895,51.5034134],[-0.0211895,51.5034268],[-0.0211251,51.5034201],[-0.0206423,51.5033667],[-0.0205779,51.5033667],[-0.0205779,51.50336],[-0.0205564,51.50336],[-0.0205564,51.5033533],[-0.0198269,51.5032799],[-0.0198054,51.5033533],[-0.0195909,51.5033333],[-0.0193334,51.5033066],[-0.0190759,51.5032732],[-0.0190759,51.5032932],[-0.0190544,51.5033734],[-0.0194514,51.5034134],[-0.0194621,51.5033734],[-0.0195909,51.5033867],[-0.0197089,51.5034001],[-0.0196981,51.5034402],[-0.0195694,51.5038876],[-0.0189364,51.5038141],[-0.0189149,51.5038141],[-0.0187969,51.5038008],[-0.0187433,51.5037941],[-0.0184214,51.5037607],[-0.0183892,51.5038742],[-0.0184214,51.5038742],[-0.0182712,51.5044219],[-0.0182927,51.5044285],[-0.0182605,51.5045087],[-0.0190759,51.5045955],[-0.0191402,51.5046089],[-0.019151,51.5045955],[-0.0195909,51.5046489],[-0.0196552,51.5044018],[-0.0197732,51.5044152],[-0.0197089,51.5046623],[-0.0200522,51.5046957],[-0.0214684,51.5048493],[-0.023464,51.5050696],[-0.0233781,51.5053702],[-0.0233245,51.5055772],[-0.023303,51.505644],[-0.0220907,51.5055171],[-0.0212324,51.5054236],[-0.0211787,51.5054169],[-0.0212002,51.5053568],[-0.0212538,51.5053635],[-0.0212538,51.5053434],[-0.0210392,51.5053234],[-0.0210285,51.5053702],[-0.0207818,51.5053434],[-0.0208032,51.5052967],[-0.0205779,51.50527],[-0.0205779,51.50529],[-0.0206208,51.5052967],[-0.0206101,51.5053568],[-0.0205564,51.5053501],[-0.0199234,51.5052833],[-0.0195158,51.5052366],[-0.0194943,51.5053101],[-0.0195158,51.5053301],[-0.0197732,51.5053568],[-0.0197625,51.5053969],[-0.0193548,51.5053501],[-0.0191295,51.5061315]],[[-0.0151491,51.5051631],[-0.0152028,51.5049695],[-0.0152242,51.5049695],[-0.0152564,51.5049762],[-0.0152671,51.5049628],[-0.0152779,51.5049695],[-0.0152779,51.5049762],[-0.0152993,51.5049828],[-0.0154281,51.5045287],[-0.0153959,51.5045287],[-0.0154173,51.5044553],[-0.0154495,51.5044553],[-0.0155568,51.5040813],[-0.0167692,51.5042148],[-0.0169408,51.5036004],[-0.0167477,51.5035804],[-0.0162864,51.5035337],[-0.0162327,51.5037474],[-0.0157714,51.5036939],[-0.0157499,51.5036939],[-0.0157285,51.5037807],[-0.0152349,51.5037273],[-0.0151706,51.5039544],[-0.0151277,51.5039544],[-0.0150847,51.5039477],[-0.0150955,51.5039277],[-0.0149345,51.5039143],[-0.0149131,51.503921],[-0.0149024,51.5039811],[-0.0148058,51.5039677],[-0.0147843,51.5040345],[-0.0150096,51.5040546],[-0.0147951,51.5048559],[-0.0148273,51.5048559],[-0.0148058,51.5049361],[-0.0148487,51.5049428],[-0.0147951,51.5051231],[-0.0151491,51.5051631]],[[-0.0181317,51.5044953],[-0.0181532,51.5044085],[-0.0181746,51.5044152],[-0.0182498,51.5041681],[-0.0181317,51.5041547],[-0.0182176,51.5038475],[-0.0181639,51.5038008],[-0.0181854,51.503734],[-0.0182712,51.5037407],[-0.0182819,51.5036806],[-0.0181532,51.5036672],[-0.0181639,51.5036271],[-0.0182819,51.5036405],[-0.0185072,51.5036672],[-0.018518,51.5036539],[-0.0174129,51.5035337],[-0.0174022,51.503547],[-0.0173593,51.5035403],[-0.0173378,51.5036205],[-0.0171876,51.5036071],[-0.0170159,51.5042416],[-0.0169837,51.5043484],[-0.017606,51.5044152],[-0.017606,51.5044419],[-0.0181317,51.5044953]]]}},{"type":"Feature","id":"indoor:168638504923","properties":{"layer":"indoor","closed":false,"geom_id":25446,"geom_type":"POLYGON","category":"unit","class":"leisure","type":"karting","local_rank":3,"name":"K1 Speed","popup_header":"K1 Speed","popup_subheader":"See and Do","popup_body":"Go karting in Central London just got better now that K1 Speed is open! Get ready for an adrenaline-pumping experience like never before!\n\nThrill-seekers, racing enthusiasts, and families alike, brace yourselves for the most exhilarating racing adventure you’ve ever encountered. With state-of-the-art electric go-karts, K1 Speed offers an eco-friendly and high-performance driving experience that will leave you breathless. Feel the rush of speed as you navigate through challenging twists and turns on our professionally designed indoor tracks, ensuring maximum excitement and safety for all.\n\nWhether you’re a seasoned racer or a first-time driver, K1 Speed caters to all skill levels. Our cutting-edge timing system accurately measures your lap times, allowing you to compete against friends and family or challenge your personal best. Want to take it to the next level? Join our competitive leagues and unleash your inner racer as you vie for victory and claim the title of the fastest driver in London.\n\nBe prepared to make unforgettable memories with your loved ones or colleagues, as K1 Speed is the ideal venue for birthday parties, corporate events, team building, and group gatherings.\n\nGet your heart racing at K1 Speed Canary Wharf in Central London! Experience the ultimate racing adventure that will leave you craving for more.","url":"https://www.k1speed.com","tel_number":"02071004412","street_address":"Level -4, Cabot Place","opening_times":"mon: 09:00 - 22:00, tue: 09:00 - 22:00, wed: 09:00 - 22:00, thu: 09:00 - 22:00, fri: 09:00 - 22:00, sat: 09:00 - 22:00, sun: 09:00 - 22:00","is_label_shown":false,"indoor":true,"is_geojson":false,"floor_id":8,"floor_level":"-4.0","floor_name":"Level -4","location_name":"Cabot Place","main_entrance_lm_id":"2275cbba387ecdf928597d84b09d76d3","landmark":false,"area_highlight":false,"lm_id":"c1e0f6aba84be376c24e5b49df49a6e8","uid":168638504923,"zoom_used":13,"whole":true},"geometry":{"type":"Polygon","coordinates":[[[-0.0223589,51.5053702],[-0.0222409,51.5053568],[-0.0221336,51.5053101],[-0.022155,51.50525],[-0.0216722,51.5052032],[-0.0216937,51.5050897],[-0.0218868,51.5051164],[-0.0219297,51.5051164],[-0.021919,51.5051565],[-0.0219512,51.5051631],[-0.0219619,51.5051231],[-0.0220048,51.5051297],[-0.0220907,51.5051364],[-0.0220907,51.5051297],[-0.0221336,51.5051364],[-0.0221443,51.5051164],[-0.0221765,51.5051231],[-0.0221872,51.505083],[-0.022316,51.5050964],[-0.0222731,51.5052299],[-0.0224018,51.5052433],[-0.0223589,51.5053702]]]}},{"type":"Feature","id":"indoor:223398334511","properties":{"layer":"indoor","closed":false,"geom_id":25813,"geom_type":"LINESTRING","category":"barrier","class":"building","type":"threshold","local_rank":1,"is_label_shown":false,"indoor":true,"oneway":0,"offset_id":"0.0","is_geojson":false,"floor_id":8,"floor_level":"-4.0","floor_name":"Level -4","location_name":"Canary Wharf","landmark":false,"lm_id":"676f9aa566355adf95a2a95133792020","uid":223398334511,"zoom_used":17,"whole":true},"geometry":{"type":"LineString","coordinates":[[-0.0175577,51.5044765],[-0.0175631,51.504477],[-0.0175691,51.5044548],[-0.0175745,51.5044356]]}},{"type":"Feature","id":"indoor:247570110518","properties":{"layer":"indoor","geom_id":25422,"geom_type":"POLYGON","category":"area","class":"building","type":"section","local_rank":1,"is_label_shown":false,"indoor":true,"is_geojson":false,"floor_id":8,"floor_level":"-4.0","floor_name":"Level -4","location_name":"Canary Wharf","landmark":false,"area_highlight":false,"lm_id":"bf3c0c77b39199ba518c56b9c7ae090a","uid":247570110518,"zoom_used":17,"whole":true},"geometry":{"type":"Polygon","coordinates":[[[-0.0182652,51.5045103],[-0.0181337,51.5044962],[-0.0181572,51.5044114],[-0.0181787,51.5044139],[-0.0182471,51.5041677],[-0.0181371,51.504156],[-0.0182223,51.5038496],[-0.0181653,51.5037987],[-0.0181834,51.5037344],[-0.0182692,51.5037436],[-0.018286,51.5036831],[-0.0181559,51.5036689],[-0.0181666,51.5036301],[-0.0185099,51.5036672],[-0.0184824,51.503767],[-0.0184241,51.5037607],[-0.0183926,51.5038722],[-0.0184214,51.5038755],[-0.0182679,51.5044235],[-0.0182893,51.5044256],[-0.0182652,51.5045103]]]}},{"type":"Feature","id":"indoor:256417804913","properties":{"layer":"indoor","closed":false,"geom_id":25817,"geom_type":"LINESTRING","category":"barrier","class":"building","type":"threshold","local_rank":1,"is_label_shown":false,"indoor":true,"oneway":0,"offset_id":"0.0","is_geojson":false,"floor_id":8,"floor_level":"-4.0","floor_name":"Level -4","location_name":"Canary Wharf","landmark":false,"lm_id":"448171196800673717f7455f96601aed","uid":256417804913,"zoom_used":18,"whole":true},"geometry":{"type":"LineString","coordinates":[[-0.0190058,51.5051817],[-0.0190078,51.5051752],[-0.0191667,51.504608],[-0.0191439,51.5046057]]}},{"type":"Feature","id":"indoor:319185593179","properties":{"layer":"indoor","geom_id":25415,"geom_type":"DISPLAY_POINT","category":"area","class":"building","type":"section","local_rank":1,"name":"Jubilee Line","popup_header":"Jubilee Line","is_label_shown":true,"indoor":true,"is_geojson":false,"floor_id":8,"floor_level":"-4.0","floor_name":"Level -4","location_name":"Canary Wharf","landmark":false,"area_highlight":false,"lm_id":"b9df687e3f35c5c6b16f61852c83133e","uid":319185593179,"zoom_used":19,"whole":true},"geometry":{"type":"Point","coordinates":[-0.0182157,51.5034777]}},{"type":"Feature","id":"indoor:32176075218","properties":{"layer":"indoor","closed":false,"geom_id":25810,"geom_type":"LINESTRING","category":"barrier","class":"building","type":"wall","local_rank":1,"is_label_shown":false,"indoor":true,"oneway":0,"offset_id":"0.0","is_geojson":false,"floor_id":8,"floor_level":"-4.0","floor_name":"Level -4","location_name":"Canary Wharf","landmark":false,"lm_id":"94898c0b6271c1060265121b0404c8d4","uid":32176075218,"zoom_used":19,"whole":true},"geometry":{"type":"LineString","coordinates":[[-0.0186065,51.5050174],[-0.018589,51.5050155],[-0.018608,51.5049476],[-0.0186206,51.5049489],[-0.0186256,51.5049494]]}},{"type":"Feature","id":"indoor:324084841304","properties":{"layer":"indoor","closed":false,"geom_id":25809,"geom_type":"LINESTRING","category":"barrier","class":"building","type":"wall","local_rank":1,"is_label_shown":false,"indoor":true,"oneway":0,"offset_id":"0.0","is_geojson":false,"floor_id":8,"floor_level":"-4.0","floor_name":"Level -4","location_name":"Canary Wharf","landmark":false,"lm_id":"5b4ab1d0815538492e99467c323183d6","uid":324084841304,"zoom_used":19,"whole":true},"geometry":{"type":"LineString","coordinates":[[-0.0186538,51.5049526],[-0.0186487,51.504952]]}},{"type":"Feature","id":"indoor:339106117990","properties":{"layer":"indoor","closed":false,"geom_id":25811,"geom_type":"LINESTRING","category":"barrier","class":"building","type":"wall","local_rank":1,"is_label_shown":false,"indoor":true,"oneway":0,"offset_id":"0.0","is_geojson":false,"floor_id":8,"floor_level":"-4.0","floor_name":"Level -4","location_name":"Canary Wharf","landmark":false,"lm_id":"e809d53e55e056f52bf04a851d439d62","uid":339106117990,"zoom_used":19,"whole":true},"geometry":{"type":"LineString","coordinates":[[-0.0186348,51.5050204],[-0.0186296,51.5050199]]}},{"type":"Feature","id":"indoor:34542518166","properties":{"layer":"indoor","geom_id":25418,"geom_type":"DISPLAY_POINT","category":"area","class":"building","type":"section","local_rank":1,"name":"Canada Place","popup_header":"Canada Place","is_label_shown":true,"indoor":true,"is_geojson":false,"floor_id":8,"floor_level":"-4.0","floor_name":"Level -4","location_name":"Canary Wharf","landmark":false,"area_highlight":false,"lm_id":"7b36e6056fb1f5a4e01235238107da33","uid":34542518166,"zoom_used":19,"whole":true},"geometry":{"type":"Point","coordinates":[-0.0162272,51.5045539]}},{"type":"Feature","id":"indoor:359159648856","properties":{"layer":"indoor","closed":false,"geom_id":25827,"geom_type":"LINESTRING","category":"barrier","class":"circulation","type":"stairs","local_rank":1,"is_label_shown":false,"indoor":true,"oneway":0,"offset_id":"0.0","is_geojson":false,"floor_id":8,"floor_level":"-4.0","floor_name":"Level -4","location_name":"Canary Wharf","landmark":false,"lm_id":"f18904fff7a7f336db95b28c0532c651","uid":359159648856,"zoom_used":19,"whole":true},"geometry":{"type":"LineString","coordinates":[[-0.0174722,51.5044245],[-0.0174684,51.5044385]]}},{"type":"Feature","id":"indoor:383039074910","properties":{"layer":"indoor","closed":false,"geom_id":25836,"geom_type":"POLYGON","category":"unit","class":"circulation","type":"lift","local_rank":1,"is_label_shown":false,"indoor":true,"is_geojson":false,"floor_id":8,"floor_level":"-4.0","floor_name":"Level -4","location_name":"Canary Wharf","landmark":false,"area_highlight":false,"lm_id":"2c85d89b8dde344284e489474d8c2463","uid":383039074910,"zoom_used":19,"whole":true},"geometry":{"type":"Polygon","coordinates":[[[-0.0186735,51.5050247],[-0.0186348,51.5050204],[-0.0186538,51.5049526],[-0.0186925,51.5049567],[-0.0186735,51.5050247]]]}},{"type":"Feature","id":"indoor:394540321989","properties":{"layer":"indoor","closed":false,"geom_id":25807,"geom_type":"LINESTRING","category":"barrier","class":"building","type":"wall","local_rank":1,"is_label_shown":false,"indoor":true,"oneway":0,"offset_id":"0.0","is_geojson":false,"floor_id":8,"floor_level":"-4.0","floor_name":"Level -4","location_name":"Canary Wharf","landmark":false,"lm_id":"867b307d00bc70db6dfd91923600790d","uid":394540321989,"zoom_used":17,"whole":true},"geometry":{"type":"LineString","coordinates":[[-0.0167061,51.5044482],[-0.0166961,51.5044828],[-0.0168416,51.5044987],[-0.0168436,51.5044899]]}},{"type":"Feature","id":"indoor:399448787104","properties":{"layer":"indoor","closed":false,"geom_id":25837,"geom_type":"POLYGON","category":"room","class":"building","type":"back_of_house","local_rank":1,"is_label_shown":false,"indoor":true,"is_geojson":false,"floor_id":8,"floor_level":"-4.0","floor_name":"Level -4","location_name":"Canary Wharf","landmark":false,"area_highlight":false,"lm_id":"5b48fd2dc9df8e5ea0c9c39b36e85443","uid":399448787104,"zoom_used":18,"whole":true},"geometry":{"type":"Polygon","coordinates":[[[-0.018745,51.5046053],[-0.0184724,51.5045757],[-0.0184838,51.5045341],[-0.0187567,51.5045636],[-0.018745,51.5046053]]]}},{"type":"Feature","id":"indoor:411957224946","properties":{"layer":"indoor","closed":false,"geom_id":25829,"geom_type":"LINESTRING","category":"barrier","class":"circulation","type":"stairs","local_rank":1,"is_label_shown":false,"indoor":true,"oneway":0,"offset_id":"0.0","is_geojson":false,"floor_id":8,"floor_level":"-4.0","floor_name":"Level -4","location_name":"Canary Wharf","landmark":false,"lm_id":"1a2bf4e914d962a84c0ca82e3989e211","uid":411957224946,"zoom_used":19,"whole":true},"geometry":{"type":"LineString","coordinates":[[-0.0174836,51.5044256],[-0.0174796,51.5044396]]}},{"type":"Feature","id":"indoor:415908207432","properties":{"layer":"indoor","closed":false,"geom_id":25405,"geom_type":"LINESTRING","category":"barrier","class":"building","type":"threshold","local_rank":1,"is_label_shown":false,"indoor":true,"oneway":0,"offset_id":"0.0","is_geojson":false,"floor_id":8,"floor_level":"-4.0","floor_name":"Level -4","location_name":"Canary Wharf","landmark":false,"lm_id":"63e0c4fdf4007765391e8bd6dbdd97c2","uid":415908207432,"zoom_used":16,"whole":true},"geometry":{"type":"LineString","coordinates":[[-0.0173338,51.503623],[-0.0173566,51.503542],[-0.0174062,51.5035478],[-0.0174089,51.5035362],[-0.0185139,51.5036555],[-0.0185099,51.5036672],[-0.0182806,51.5036422],[-0.0181666,51.5036297],[-0.0181559,51.5036689],[-0.018286,51.5036831],[-0.0182685,51.503744],[-0.0181827,51.5037348],[-0.0181653,51.5037991],[-0.0182229,51.50385],[-0.0181371,51.5041556],[-0.0182471,51.5041681],[-0.0181787,51.5044135],[-0.0181572,51.5044118],[-0.0181344,51.5044962],[-0.0176033,51.5044386],[-0.01761,51.5044152],[-0.0169824,51.5043467],[-0.0170106,51.5042424],[-0.0171889,51.5036071],[-0.0173338,51.503623]]}},{"type":"Feature","id":"indoor:416489282801","properties":{"layer":"indoor","closed":false,"geom_id":25832,"geom_type":"POLYGON","category":"room","class":"building","type":"vista","local_rank":1,"is_label_shown":false,"indoor":true,"is_geojson":false,"floor_id":8,"floor_level":"-4.0","floor_name":"Level -4","location_name":"Canary Wharf","landmark":false,"area_highlight":false,"lm_id":"a185f7e5d29c2fec7ac59b8c0297ea9a","uid":416489282801,"zoom_used":17,"whole":true},"geometry":{"type":"Polygon","coordinates":[[[-0.0174773,51.5044678],[-0.0174437,51.504464],[-0.0174478,51.5044498],[-0.0174531,51.5044507],[-0.0174806,51.5044536],[-0.0174773,51.5044678]]]}},{"type":"Feature","id":"indoor:435764807352","properties":{"layer":"indoor","closed":false,"geom_id":25413,"geom_type":"LINESTRING","category":"barrier","class":"building","type":"threshold","local_rank":1,"is_label_shown":false,"indoor":true,"oneway":0,"offset_id":"0.0","is_geojson":false,"floor_id":8,"floor_level":"-4.0","floor_name":"Level -4","location_name":"Canary Wharf","landmark":false,"lm_id":"a7b720ec4ee5c46e5a2a29796168552c","uid":435764807352,"zoom_used":13,"whole":true},"geometry":{"type":"LineString","coordinates":[[-0.0233781,51.5053702],[-0.0233459,51.5053702],[-0.0233459,51.5053501],[-0.0232816,51.5053434],[-0.0233459,51.505103],[-0.0224555,51.5050095],[-0.0222087,51.5050162],[-0.0214469,51.5049361],[-0.0213397,51.5053301],[-0.0218976,51.5053902],[-0.0219083,51.5053568],[-0.0221336,51.5053835],[-0.0221121,51.5054503],[-0.0233245,51.5055772]]}},{"type":"Feature","id":"indoor:472770102046","properties":{"layer":"indoor","closed":false,"geom_id":25804,"geom_type":"POINT","category":"amenity","class":"circulation","type":"lift","local_rank":1,"is_label_shown":false,"icon_id":"lift","indoor":true,"is_geojson":false,"floor_id":8,"floor_level":"-4.0","floor_name":"Level -4","location_name":"Canary Wharf","landmark":false,"lm_id":"5dd250d5432a38d9ba652bbe01f2fb88","uid":472770102046,"zoom_used":19,"whole":true},"geometry":{"type":"Point","coordinates":[-0.0166436,51.5048188]}},{"type":"Feature","id":"indoor:498286894625","properties":{"layer":"indoor","closed":false,"geom_id":25818,"geom_type":"LINESTRING","category":"barrier","class":"circulation","type":"stairs","local_rank":1,"is_label_shown":false,"indoor":true,"oneway":0,"offset_id":"0.0","is_geojson":false,"floor_id":8,"floor_level":"-4.0","floor_name":"Level -4","location_name":"Canary Wharf","landmark":false,"lm_id":"6c9a4c5bc963a4190687a2f2c0679057","uid":498286894625,"zoom_used":19,"whole":true},"geometry":{"type":"LineString","coordinates":[[-0.0174555,51.5044226],[-0.0174515,51.5044366]]}},{"type":"Feature","id":"indoor:520254377986","properties":{"layer":"indoor","closed":false,"geom_id":25819,"geom_type":"LINESTRING","category":"barrier","class":"circulation","type":"stairs","local_rank":1,"is_label_shown":false,"indoor":true,"oneway":0,"offset_id":"0.0","is_geojson":false,"floor_id":8,"floor_level":"-4.0","floor_name":"Level -4","location_name":"Canary Wharf","landmark":false,"lm_id":"622de32e5c8a3da4e3b89d916a705895","uid":520254377986,"zoom_used":19,"whole":true},"geometry":{"type":"LineString","coordinates":[[-0.017461,51.5044232],[-0.0174572,51.5044372]]}},{"type":"Feature","id":"indoor:524672175682","properties":{"layer":"indoor","geom_id":25414,"geom_type":"POLYGON","category":"area","class":"building","type":"section","local_rank":1,"name":"Churchill Place","popup_header":"Churchill Place","is_label_shown":false,"indoor":true,"is_geojson":false,"floor_id":8,"floor_level":"-4.0","floor_name":"Level -4","location_name":"Canary Wharf","landmark":false,"area_highlight":false,"lm_id":"1f686c48e9aa6d444f7afa64d4b35eea","uid":524672175682,"zoom_used":17,"whole":true},"geometry":{"type":"Polygon","coordinates":[[[-0.0147931,51.5049933],[-0.0147166,51.5049849],[-0.0146851,51.5049816],[-0.0146918,51.5049574],[-0.0146576,51.5049536],[-0.0146636,51.5049319],[-0.0146978,51.5049357],[-0.0147005,51.5049273],[-0.0147314,51.5049307],[-0.0147408,51.5048973],[-0.0147086,51.5048551],[-0.0147226,51.5048038],[-0.0140226,51.5047282],[-0.0141279,51.5043505],[-0.0140856,51.5043459],[-0.0140722,51.5043279],[-0.0140863,51.5042787],[-0.014028,51.5042724],[-0.0140668,51.5041347],[-0.0141647,51.5041456],[-0.0141259,51.5042833],[-0.0141131,51.5043296],[-0.0141332,51.5043321],[-0.0142338,51.5039732],[-0.0147112,51.5040249],[-0.0147287,51.5039611],[-0.0147374,51.5039314],[-0.0148568,51.503944],[-0.0148668,51.5039068],[-0.0148675,51.5039047],[-0.0148682,51.5039035],[-0.0148688,51.5039026],[-0.0148688,51.5039018],[-0.0148695,51.503901],[-0.0148702,51.5038997],[-0.0148735,51.5038955],[-0.0148749,51.5038947],[-0.0148762,51.503893],[-0.0148796,51.5038909],[-0.0148802,51.5038901],[-0.0148816,51.5038897],[-0.0148849,51.5038876],[-0.0148863,51.5038872],[-0.0148876,51.5038864],[-0.014901,51.5038822],[-0.014903,51.5038822],[-0.0149057,51.5038813],[-0.0149091,51.5038813],[-0.0149104,51.5038809],[-0.0149218,51.5038809],[-0.0149231,51.5038813],[-0.0149245,51.5038813],[-0.0149902,51.5038884],[-0.0150988,51.5039001],[-0.0151491,51.503719],[-0.015129,51.5037152],[-0.0151525,51.5036297],[-0.0151733,51.5036322],[-0.0151672,51.5036543],[-0.015184,51.5036564],[-0.0151873,51.5036447],[-0.0152061,51.5036463],[-0.0152028,51.503658],[-0.0152148,51.5036597],[-0.0152108,51.5036756],[-0.015249,51.5036797],[-0.0152363,51.5037261],[-0.0152209,51.5037816],[-0.0151719,51.5039569],[-0.0150854,51.5039477],[-0.0150901,51.5039306],[-0.0149345,51.5039139],[-0.0149131,51.5039235],[-0.0149057,51.5039502],[-0.0148977,51.503979],[-0.0148011,51.503969],[-0.0147837,51.5040329],[-0.0150123,51.5040575],[-0.0148011,51.5048125],[-0.0147897,51.504853],[-0.0148306,51.5048576],[-0.0147931,51.5049933]]]}},{"type":"Feature","id":"indoor:533473192909","properties":{"layer":"indoor","geom_id":25419,"geom_type":"POLYGON","category":"area","class":"building","type":"section","local_rank":1,"is_label_shown":false,"indoor":true,"is_geojson":false,"floor_id":8,"floor_level":"-4.0","floor_name":"Level -4","location_name":"Canary Wharf","landmark":false,"area_highlight":false,"lm_id":"2ffc3b5f6a58c0559b2a85f6cd434bd2","uid":533473192909,"zoom_used":15,"whole":true},"geometry":{"type":"Polygon","coordinates":[[[-0.0197572,51.5053969],[-0.0193521,51.5053535],[-0.0192663,51.5053434],[-0.0190866,51.5053234],[-0.0190973,51.5052867],[-0.0194031,51.5053184],[-0.0194326,51.5053067],[-0.0194514,51.5052299],[-0.0195184,51.5052366],[-0.019497,51.5053134],[-0.0195184,51.5053318],[-0.0197679,51.5053585],[-0.0197572,51.5053969]]]}},{"type":"Feature","id":"indoor:546555972634","properties":{"layer":"indoor","geom_id":25420,"geom_type":"POLYGON","category":"area","class":"building","type":"section","local_rank":1,"name":"Cabot Place","popup_header":"Cabot Place","is_label_shown":false,"indoor":true,"is_geojson":false,"floor_id":8,"floor_level":"-4.0","floor_name":"Level -4","location_name":"Canary Wharf","landmark":false,"area_highlight":false,"lm_id":"fbde947eea1da0fba678a97785f770e1","uid":546555972634,"zoom_used":13,"whole":true},"geometry":{"type":"Polygon","coordinates":[[[-0.023303,51.505644],[-0.0220692,51.5055104],[-0.0216079,51.5054637],[-0.0212109,51.5054236],[-0.0211787,51.5054169],[-0.0212002,51.5053568],[-0.0212538,51.5053635],[-0.0212538,51.5053434],[-0.0210392,51.5053234],[-0.0210285,51.5053702],[-0.0207818,51.5053434],[-0.0208032,51.5052967],[-0.0205779,51.50527],[-0.0205779,51.50529],[-0.0206208,51.5052967],[-0.0206101,51.5053568],[-0.0205779,51.5053501],[-0.020138,51.5053034],[-0.0199234,51.5052833],[-0.0195158,51.5052366],[-0.0194514,51.5052299],[-0.0190437,51.5051832],[-0.0190008,51.5051832],[-0.0189793,51.5051765],[-0.0189686,51.5052299],[-0.0168657,51.5050029],[-0.0168765,51.5049628],[-0.0168121,51.5049561],[-0.0168228,51.5049294],[-0.016973,51.5043684],[-0.0169837,51.5043484],[-0.017606,51.5044152],[-0.017606,51.5044419],[-0.0181317,51.5044953],[-0.0182605,51.5045087],[-0.0189793,51.5045888],[-0.0190759,51.5045955],[-0.0191402,51.5046089],[-0.019151,51.5045955],[-0.0195909,51.5046489],[-0.0196552,51.5044018],[-0.0197732,51.5044152],[-0.0197089,51.5046623],[-0.0200522,51.5046957],[-0.0200951,51.5047023],[-0.0203419,51.5047291],[-0.0214684,51.5048493],[-0.023464,51.5050696],[-0.0233781,51.5053702],[-0.0233245,51.5055772],[-0.023303,51.505644]]]}},{"type":"Feature","id":"indoor:575919722849","properties":{"layer":"indoor","geom_id":25436,"geom_type":"POLYGON","category":"unit","class":"circulation","type":"lift","local_rank":1,"is_label_shown":false,"indoor":true,"is_geojson":false,"floor_id":8,"floor_level":"-4.0","floor_name":"Level -4","location_name":"Cabot Place","landmark":false,"area_highlight":false,"lm_id":"0fd3c39438b2e90c1a878e6fb8aa90a7","uid":575919722849,"zoom_used":19,"whole":true},"geometry":{"type":"Polygon","coordinates":[[[-0.0219266,51.5051185],[-0.0218883,51.5051143],[-0.0218954,51.5050892],[-0.0219336,51.5050933],[-0.0219266,51.5051185]]]}},{"type":"Feature","id":"indoor:590531500132","properties":{"layer":"indoor","closed":false,"geom_id":25838,"geom_type":"POLYGON","category":"room","class":"building","type":"back_of_house","local_rank":1,"is_label_shown":false,"indoor":true,"is_geojson":false,"floor_id":8,"floor_level":"-4.0","floor_name":"Level -4","location_name":"Canary Wharf","landmark":false,"area_highlight":false,"lm_id":"38ad0436bfe9d2af2d6fd42bb585dfa4","uid":590531500132,"zoom_used":17,"whole":true},"geometry":{"type":"Polygon","coordinates":[[[-0.0179581,51.505073],[-0.0170709,51.5049766],[-0.0170488,51.504964],[-0.0171608,51.5049762],[-0.0171749,51.5049265],[-0.0173593,51.5049465],[-0.0174149,51.5049528],[-0.0174484,51.5049565],[-0.017435,51.5050054],[-0.0177361,51.5050383],[-0.0177495,51.5049891],[-0.0179902,51.505015],[-0.0179755,51.5050659],[-0.0179581,51.505073]]]}},{"type":"Feature","id":"indoor:617937471368","properties":{"layer":"indoor","closed":false,"geom_id":25812,"geom_type":"LINESTRING","category":"barrier","class":"building","type":"threshold","local_rank":1,"is_label_shown":false,"indoor":true,"oneway":0,"offset_id":"0.0","is_geojson":false,"floor_id":8,"floor_level":"-4.0","floor_name":"Level -4","location_name":"Canary Wharf","landmark":false,"lm_id":"52f4fb65931d51ef63bb8d1b58bb94b2","uid":617937471368,"zoom_used":17,"whole":true},"geometry":{"type":"LineString","coordinates":[[-0.017539,51.5044745],[-0.0174719,51.5044669],[-0.0174665,51.5044665],[-0.0174605,51.5044657],[-0.0174551,51.5044653],[-0.0174498,51.5044644],[-0.0174437,51.504464],[-0.0174183,51.5044611],[-0.0174297,51.5044198],[-0.0174551,51.5044227],[-0.0174612,51.5044231],[-0.0174665,51.5044239],[-0.0174726,51.5044244],[-0.0174779,51.5044252],[-0.0174833,51.5044256],[-0.0175095,51.5044285]]}},{"type":"Feature","id":"indoor:634550717840","properties":{"layer":"indoor","geom_id":25417,"geom_type":"POLYGON","category":"area","class":"building","type":"section","local_rank":1,"is_label_shown":false,"indoor":true,"is_geojson":false,"floor_id":8,"floor_level":"-4.0","floor_name":"Level -4","location_name":"Canary Wharf","landmark":false,"area_highlight":false,"lm_id":"6c063ffca24e9da8f1b4a842dbb1e6af","uid":634550717840,"zoom_used":16,"whole":true},"geometry":{"type":"Polygon","coordinates":[[[-0.0191349,51.5061348],[-0.0190477,51.5061248],[-0.0192663,51.5053434],[-0.0193535,51.5053526],[-0.0191349,51.5061348]]]}},{"type":"Feature","id":"indoor:644765978137","properties":{"layer":"indoor","closed":false,"geom_id":25802,"geom_type":"POINT","category":"amenity","class":"circulation","type":"lift","local_rank":1,"is_label_shown":false,"icon_id":"lift","indoor":true,"is_geojson":false,"floor_id":8,"floor_level":"-4.0","floor_name":"Level -4","location_name":"Canary Wharf","landmark":false,"lm_id":"8ea1ba4d4efe287bee7634c1959fa41e","uid":644765978137,"zoom_used":19,"whole":true},"geometry":{"type":"Point","coordinates":[-0.0186636,51.5049886]}},{"type":"Feature","id":"indoor:645939958020","properties":{"layer":"indoor","closed":false,"geom_id":25800,"geom_type":"POINT","category":"amenity","class":"circulation","type":"arrow","local_rank":1,"is_label_shown":true,"icon_id":"arrow_main_entrance","indoor":true,"rotation":189.87,"is_geojson":false,"floor_id":8,"floor_level":"-4.0","floor_name":"Level -4","location_name":"Canary Wharf","landmark":false,"lm_id":"83d40bfdf578a2d0442f49a53aa20d44","uid":645939958020,"zoom_used":19,"whole":true},"geometry":{"type":"Point","coordinates":[-0.0186372,51.5049507]}},{"type":"Feature","id":"indoor:646753460807","properties":{"layer":"indoor","closed":false,"geom_id":25400,"geom_type":"POINT","category":"amenity","class":"circulation","type":"arrow","local_rank":1,"is_label_shown":false,"icon_id":"arrow_retail","indoor":true,"rotation":369.87,"is_geojson":false,"floor_id":8,"floor_level":"-4.0","floor_name":"Level -4","location_name":"Cabot Place","landmark":false,"lm_id":"2275cbba387ecdf928597d84b09d76d3","uid":646753460807,"zoom_used":19,"whole":true},"geometry":{"type":"Point","coordinates":[-0.0219358,51.5051603]}},{"type":"Feature","id":"indoor:671177234547","properties":{"layer":"indoor","closed":false,"geom_id":25803,"geom_type":"POINT","category":"amenity","class":"circulation","type":"lift","local_rank":1,"is_label_shown":false,"icon_id":"lift","indoor":true,"is_geojson":false,"floor_id":8,"floor_level":"-4.0","floor_name":"Level -4","location_name":"Canary Wharf","landmark":false,"lm_id":"b09cf04f46e7c9a819a50ef2a76d40c9","uid":671177234547,"zoom_used":19,"whole":true},"geometry":{"type":"Point","coordinates":[-0.0175478,51.5044425]}},{"type":"Feature","id":"indoor:680363842339","properties":{"layer":"indoor","closed":false,"geom_id":25834,"geom_type":"POLYGON","category":"unit","class":"circulation","type":"lift","local_rank":1,"is_label_shown":false,"indoor":true,"is_geojson":false,"floor_id":8,"floor_level":"-4.0","floor_name":"Level -4","location_name":"Canary Wharf","landmark":false,"area_highlight":false,"lm_id":"c63ff53d1edfc142b933630799c8f6c4","uid":680363842339,"zoom_used":19,"whole":true},"geometry":{"type":"Polygon","coordinates":[[[-0.0167861,51.5044568],[-0.0167058,51.5044482],[-0.0167133,51.5044209],[-0.0167936,51.5044297],[-0.0167861,51.5044568]]]}},{"type":"Feature","id":"indoor:697548422554","properties":{"layer":"indoor","closed":false,"geom_id":25831,"geom_type":"DISPLAY_POINT","category":"unit","class":"facility","type":"parking","local_rank":2,"name":"Canada Square Car Park","popup_header":"Level P4 – Canada Square","popup_subheader":"Parking","street_address":"-4 level, Canada Place\n(entrance on 0 Street level)","opening_times":"mon: 00:00 - 24:00, tue: 00:00 - 24:00, wed: 00:00 - 24:00, thu: 00:00 - 24:00, fri: 00:00 - 24:00, sat: 00:00 - 24:00, sun: 00:00 - 24:00","is_label_shown":true,"icon_id":"parking","indoor":true,"is_geojson":true,"floor_id":8,"floor_level":"-4.0","floor_name":"Level -4","location_name":"Canary Wharf","landmark":false,"area_highlight":false,"lm_id":"1b009628de29f96380dc1e2a9909cb3d","uid":697548422554,"zoom_used":19,"whole":true},"geometry":{"type":"Point","coordinates":[-0.0174131,51.5047406]}},{"type":"Feature","id":"indoor:701528872412","properties":{"layer":"indoor","geom_id":25421,"geom_type":"DISPLAY_POINT","category":"area","class":"building","type":"section","local_rank":1,"name":"Crossrail Place","popup_header":"Crossrail Place","is_label_shown":true,"indoor":true,"is_geojson":false,"floor_id":8,"floor_level":"-4.0","floor_name":"Level -4","location_name":"Canary Wharf","landmark":false,"area_highlight":false,"lm_id":"9851794b39446c5aa0ef9aec2c02c68d","uid":701528872412,"zoom_used":19,"whole":true},"geometry":{"type":"Point","coordinates":[-0.0174872,51.5060986]}},{"type":"Feature","id":"indoor:735119804755","properties":{"layer":"indoor","geom_id":25421,"geom_type":"POLYGON","category":"area","class":"building","type":"section","local_rank":1,"name":"Crossrail Place","popup_header":"Crossrail Place","is_label_shown":false,"indoor":true,"is_geojson":false,"floor_id":8,"floor_level":"-4.0","floor_name":"Level -4","location_name":"Canary Wharf","landmark":false,"area_highlight":false,"lm_id":"9851794b39446c5aa0ef9aec2c02c68d","uid":735119804755,"zoom_used":15,"whole":true},"geometry":{"type":"Polygon","coordinates":[[[-0.019269,51.5064336],[-0.0184536,51.5063451],[-0.0182042,51.5062967],[-0.0167048,51.5061348],[-0.0164527,51.5061298],[-0.0156292,51.5060396],[-0.0157043,51.5057625],[-0.0165305,51.5058526],[-0.0167692,51.5059011],[-0.0182712,51.506063],[-0.0185314,51.5060697],[-0.0193468,51.5061582],[-0.019269,51.5064336]]]}},{"type":"Feature","id":"indoor:736139040978","properties":{"layer":"indoor","closed":false,"geom_id":25798,"geom_type":"POINT","category":"amenity","class":"circulation","type":"arrow","local_rank":1,"is_label_shown":true,"icon_id":"arrow_retail","indoor":true,"rotation":279.87,"is_geojson":false,"floor_id":8,"floor_level":"-4.0","floor_name":"Level -4","location_name":"Canary Wharf","landmark":false,"lm_id":"faab27f08021af96a0dae95775354d20","uid":736139040978,"zoom_used":19,"whole":true},"geometry":{"type":"Point","coordinates":[-0.0168465,51.5044804]}},{"type":"Feature","id":"indoor:762588233055","properties":{"layer":"indoor","closed":false,"geom_id":25833,"geom_type":"POLYGON","category":"unit","class":"circulation","type":"lift","local_rank":1,"is_label_shown":false,"indoor":true,"is_geojson":false,"floor_id":8,"floor_level":"-4.0","floor_name":"Level -4","location_name":"Canary Wharf","landmark":false,"area_highlight":false,"lm_id":"39e5a785ef90e03873c885ecc87bef12","uid":762588233055,"zoom_used":19,"whole":true},"geometry":{"type":"Polygon","coordinates":[[[-0.0166798,51.5048367],[-0.0165997,51.5048281],[-0.0166072,51.5048008],[-0.0166875,51.5048095],[-0.0166798,51.5048367]]]}},{"type":"Feature","id":"indoor:771185063084","properties":{"layer":"indoor","closed":false,"geom_id":25828,"geom_type":"LINESTRING","category":"barrier","class":"circulation","type":"stairs","local_rank":1,"is_label_shown":false,"indoor":true,"oneway":0,"offset_id":"0.0","is_geojson":false,"floor_id":8,"floor_level":"-4.0","floor_name":"Level -4","location_name":"Canary Wharf","landmark":false,"lm_id":"283ec987027d8a299482943706b9013c","uid":771185063084,"zoom_used":19,"whole":true},"geometry":{"type":"LineString","coordinates":[[-0.0174779,51.504425],[-0.0174741,51.5044391]]}},{"type":"Feature","id":"indoor:784959692322","properties":{"layer":"indoor","closed":false,"geom_id":25840,"geom_type":"POLYGON","category":"room","class":"building","type":"back_of_house","local_rank":1,"is_label_shown":false,"indoor":true,"is_geojson":false,"floor_id":8,"floor_level":"-4.0","floor_name":"Level -4","location_name":"Canary Wharf","landmark":false,"area_highlight":false,"lm_id":"63a2c3f45531cee53fd9b78b1946f8a2","uid":784959692322,"zoom_used":19,"whole":true},"geometry":{"type":"Polygon","coordinates":[[[-0.0187124,51.5050288],[-0.0186735,51.5050247],[-0.0186925,51.5049567],[-0.0187314,51.504961],[-0.0187124,51.5050288]]]}},{"type":"Feature","id":"indoor:794850515659","properties":{"layer":"indoor","closed":false,"geom_id":25404,"geom_type":"LINESTRING","category":"barrier","class":"building","type":"threshold","local_rank":1,"is_label_shown":false,"indoor":true,"oneway":0,"offset_id":"0.0","is_geojson":false,"floor_id":8,"floor_level":"-4.0","floor_name":"Level -4","location_name":"Canary Wharf","landmark":false,"lm_id":"4d03bdddd07b2007e61a7ba73c7e4d30","uid":794850515659,"zoom_used":13,"whole":true},"geometry":{"type":"LineString","coordinates":[[-0.0191295,51.5061315],[-0.0193548,51.5053501],[-0.0197625,51.5053969],[-0.0197732,51.5053568],[-0.0195158,51.5053301],[-0.0194943,51.5053101],[-0.0195158,51.5052366],[-0.0199234,51.5052833],[-0.0205564,51.5053501],[-0.0206101,51.5053568],[-0.0206208,51.5052967],[-0.0205779,51.50529],[-0.0205779,51.50527],[-0.0208032,51.5052967],[-0.0207818,51.5053434],[-0.0210285,51.5053702],[-0.0210392,51.5053234],[-0.0212538,51.5053434],[-0.0212538,51.5053635],[-0.0212002,51.5053568],[-0.0211787,51.5054169],[-0.0212324,51.5054236],[-0.0220692,51.5055104],[-0.023303,51.505644],[-0.0233245,51.5055772],[-0.0233352,51.5055371],[-0.0233781,51.5053702],[-0.023464,51.5050696],[-0.0214684,51.5048493],[-0.0203419,51.5047291],[-0.0200951,51.5047023],[-0.0200522,51.5046957],[-0.0197089,51.5046623],[-0.0197732,51.5044152],[-0.0196552,51.5044018],[-0.0195909,51.5046489],[-0.019151,51.5045955],[-0.0191402,51.5046089],[-0.0190759,51.5045955],[-0.0182605,51.5045087],[-0.0182927,51.5044285],[-0.0182712,51.5044219],[-0.0184214,51.5038742],[-0.0183892,51.5038742],[-0.0184214,51.5037607],[-0.0187433,51.5037941],[-0.0187969,51.5038008],[-0.0189149,51.5038141],[-0.0189364,51.5038141],[-0.0195694,51.5038876],[-0.0196981,51.5034402],[-0.0197089,51.5034001],[-0.0195909,51.5033867],[-0.0194621,51.5033734],[-0.0194514,51.5034134],[-0.0190544,51.5033734],[-0.0190759,51.5032932],[-0.0190759,51.5032732],[-0.0193334,51.5033066],[-0.0195909,51.5033333],[-0.0198054,51.5033533],[-0.0198269,51.5032799],[-0.0205564,51.5033533],[-0.0205564,51.50336],[-0.0205779,51.50336],[-0.0205779,51.5033667],[-0.0206423,51.5033667],[-0.0211251,51.5034201],[-0.0211895,51.5034268],[-0.0211895,51.5034134],[-0.0214255,51.5034402],[-0.0214255,51.5034535],[-0.0214791,51.5034535],[-0.0214899,51.5034468],[-0.0215006,51.50338],[-0.0215435,51.5033867],[-0.021565,51.5033467],[-0.0215113,51.50334],[-0.0213397,51.5033199],[-0.0213397,51.5033066],[-0.0212216,51.5032932],[-0.0212109,51.5032866],[-0.021168,51.5032866],[-0.0211465,51.50334],[-0.0206637,51.5032866],[-0.020653,51.5032866],[-0.020653,51.5032799],[-0.0206316,51.5032799],[-0.0206316,51.5032732],[-0.0205886,51.5032732],[-0.0205886,51.5032799],[-0.0205779,51.5032799],[-0.0200951,51.5032264],[-0.0201166,51.5031329],[-0.0201917,51.5028725],[-0.0203419,51.5028858],[-0.0204384,51.5025386],[-0.0198376,51.5024718],[-0.0197732,51.5027256],[-0.0189793,51.5026387],[-0.0190544,51.5023916],[-0.0184751,51.5023249],[-0.0184214,51.5025185],[-0.017488,51.5024184],[-0.0174665,51.5025052],[-0.0173056,51.5030862],[-0.0189471,51.5032598],[-0.0189471,51.5032665],[-0.0189579,51.5032665],[-0.0189579,51.5032799],[-0.0189364,51.50336],[-0.0172842,51.5031797],[-0.0172412,51.5031797],[-0.0166297,51.5031129],[-0.0165439,51.5034402],[-0.0171661,51.5035069],[-0.0171661,51.5035203],[-0.0167799,51.5034802],[-0.0167692,51.5035203],[-0.0158143,51.5034134],[-0.0157928,51.5034802],[-0.0158358,51.5034802],[-0.0158143,51.5035604],[-0.015707,51.503547],[-0.0156963,51.503567],[-0.0156641,51.5036873],[-0.0156534,51.5037206],[-0.0152457,51.5036806],[-0.0152135,51.5036739],[-0.0152135,51.5036605],[-0.0152028,51.5036605],[-0.0152028,51.5036472],[-0.015192,51.5036472],[-0.0151813,51.5036539],[-0.0151706,51.5036539],[-0.0151706,51.5036338],[-0.0151491,51.5036271],[-0.0151277,51.503714],[-0.0151491,51.5037206],[-0.0150955,51.503901],[-0.0149238,51.5038809],[-0.0148916,51.5038809],[-0.0148916,51.5038876],[-0.0148809,51.5038876],[-0.0148809,51.5038943],[-0.0148702,51.5038943],[-0.0148702,51.5039076],[-0.0148594,51.503941],[-0.0147414,51.5039344],[-0.0147307,51.5039611],[-0.0147092,51.5040278],[-0.0142372,51.5039744],[-0.0141299,51.504335],[-0.0141084,51.5043284],[-0.0141621,51.5041481],[-0.0140655,51.5041347],[-0.0140333,51.5042749],[-0.014087,51.5042816],[-0.0140762,51.5043284],[-0.014087,51.5043484],[-0.0141299,51.5043484],[-0.0140226,51.5047291],[-0.01472,51.5048025],[-0.0147092,51.5048559],[-0.0147414,51.504896],[-0.0147307,51.5049294],[-0.0146985,51.5049294],[-0.0146985,51.5049361],[-0.014677,51.5049361],[-0.0146663,51.5049294],[-0.0146556,51.5049561],[-0.0146878,51.5049561],[-0.0146878,51.5049828],[-0.0147951,51.5049962],[-0.0147521,51.5051231],[-0.0147521,51.5051364],[-0.0147414,51.5051698],[-0.0151384,51.5052099],[-0.0151491,51.5052099],[-0.0152242,51.5052166],[-0.0152457,51.5051431],[-0.0152564,51.5051431],[-0.0152671,51.5051498],[-0.0165868,51.50529],[-0.0164902,51.5056573],[-0.0164795,51.505684],[-0.0165546,51.5056907],[-0.0165546,51.505664],[-0.0165653,51.505664],[-0.0166082,51.5056707],[-0.0166833,51.5056773],[-0.0168657,51.5050029],[-0.0189686,51.5052299],[-0.0189793,51.5051765],[-0.0190437,51.5051832],[-0.0194514,51.5052299],[-0.0194299,51.5053034],[-0.0193977,51.5053167],[-0.0190973,51.5052833],[-0.0190866,51.5053234],[-0.019269,51.5053434],[-0.0190437,51.5061248]]}},{"type":"Feature","id":"indoor:802161031256","properties":{"layer":"indoor","closed":false,"geom_id":25990,"geom_type":"DISPLAY_POINT","category":"unit","class":"facility","type":"car_rental","local_rank":2,"name":"SIXT","popup_header":"SIXT","popup_subheader":"Transport - Canada Place","popup_body":"SIXT make car rental quick and easy. With millions of customers worldwide, they provide top-notch support and a wide range of benefits when you travel with them. Their drivers enjoy unlimited miles on most models, a wide selection of compact, eco and luxury cars, cheap car hire rates, and more.","url":"https://www.sixt.co.uk/car-hire/united-kingdom/london/canary-wharf/","street_address":"-4 Level, Canada Place\n(Entrance on 0 Street level)","opening_times":"mon: 08:00 - 16:00, tue: 08:00 - 16:00, wed: 08:00 - 16:00, thu: 08:00 - 16:00, fri: 08:00 - 18:00, sat: 08:00 - 12:00","is_label_shown":true,"icon_id":"car_rental","indoor":true,"is_geojson":true,"floor_id":8,"floor_level":"-4.0","floor_name":"Level -4","location_name":"Canary Wharf","landmark":false,"area_highlight":false,"lm_id":"96ed3d8f0abf8228c40091e97e14cba5","uid":802161031256,"zoom_used":19,"whole":true},"geometry":{"type":"Point","coordinates":[-0.0169165,51.5044353]}},{"type":"Feature","id":"indoor:818359421548","properties":{"layer":"indoor","geom_id":25414,"geom_type":"DISPLAY_POINT","category":"area","class":"building","type":"section","local_rank":1,"name":"Churchill Place","popup_header":"Churchill Place","is_label_shown":true,"indoor":true,"is_geojson":false,"floor_id":8,"floor_level":"-4.0","floor_name":"Level -4","location_name":"Canary Wharf","landmark":false,"area_highlight":false,"lm_id":"1f686c48e9aa6d444f7afa64d4b35eea","uid":818359421548,"zoom_used":19,"whole":true},"geometry":{"type":"Point","coordinates":[-0.014549,51.504366]}},{"type":"Feature","id":"indoor:81959362178","properties":{"layer":"indoor","closed":false,"geom_id":25406,"geom_type":"LINESTRING","category":"barrier","class":"building","type":"threshold","local_rank":1,"is_label_shown":false,"indoor":true,"oneway":0,"offset_id":"0.0","is_geojson":false,"floor_id":8,"floor_level":"-4.0","floor_name":"Level -4","location_name":"Canary Wharf","landmark":false,"lm_id":"1aa622813fa75862f307edc6eaebd30d","uid":81959362178,"zoom_used":15,"whole":true},"geometry":{"type":"LineString","coordinates":[[-0.015302,51.5049812],[-0.0152805,51.5049778],[-0.0152832,51.5049661],[-0.0152645,51.5049645],[-0.0152618,51.5049762],[-0.0152215,51.5049711],[-0.0152081,51.5049711],[-0.0151545,51.5051648],[-0.0147951,51.5051247],[-0.014846,51.5049428],[-0.0148058,51.5049394],[-0.0148299,51.5048576],[-0.0147897,51.5048526],[-0.0150123,51.5040579],[-0.0147843,51.5040329],[-0.0148004,51.5039694],[-0.014897,51.5039794],[-0.0149131,51.5039227],[-0.0149345,51.5039143],[-0.0150901,51.503931],[-0.0150847,51.5039477],[-0.015125,51.5039527],[-0.015133,51.5039527],[-0.0151706,51.5039561],[-0.0152349,51.5037257],[-0.0157258,51.5037791],[-0.0157499,51.5036939],[-0.0157714,51.5036956],[-0.01623,51.5037457],[-0.0162891,51.503532],[-0.0167504,51.5035821],[-0.0169408,51.5036038],[-0.0167719,51.5042165],[-0.0155541,51.5040846],[-0.0154495,51.5044569],[-0.0154173,51.5044536],[-0.0153959,51.5045254],[-0.0154281,51.5045287],[-0.015302,51.5049812]]}},{"type":"Feature","id":"indoor:83914076833","properties":{"layer":"indoor","geom_id":25420,"geom_type":"DISPLAY_POINT","category":"area","class":"building","type":"section","local_rank":1,"name":"Cabot Place","popup_header":"Cabot Place","is_label_shown":true,"indoor":true,"is_geojson":false,"floor_id":8,"floor_level":"-4.0","floor_name":"Level -4","location_name":"Canary Wharf","landmark":false,"area_highlight":false,"lm_id":"fbde947eea1da0fba678a97785f770e1","uid":83914076833,"zoom_used":19,"whole":true},"geometry":{"type":"Point","coordinates":[-0.019363,51.5049359]}},{"type":"Feature","id":"indoor:842571781725","properties":{"layer":"indoor","closed":false,"geom_id":25797,"geom_type":"POINT","category":"amenity","class":"circulation","type":"arrow","local_rank":1,"is_label_shown":true,"icon_id":"arrow_main_entrance","indoor":true,"rotation":189.87,"is_geojson":false,"floor_id":8,"floor_level":"-4.0","floor_name":"Level -4","location_name":"Canary Wharf","landmark":false,"lm_id":"2dd468c42afd788294782c9a0ddd80c9","uid":842571781725,"zoom_used":19,"whole":true},"geometry":{"type":"Point","coordinates":[-0.0166847,51.5047719]}},{"type":"Feature","id":"indoor:855519431008","properties":{"layer":"indoor","closed":false,"geom_id":25814,"geom_type":"LINESTRING","category":"barrier","class":"building","type":"threshold","local_rank":1,"is_label_shown":false,"indoor":true,"oneway":0,"offset_id":"0.0","is_geojson":false,"floor_id":8,"floor_level":"-4.0","floor_name":"Level -4","location_name":"Canary Wharf","landmark":false,"lm_id":"7c2471d2002a207746785905f1fa3223","uid":855519431008,"zoom_used":19,"whole":true},"geometry":{"type":"LineString","coordinates":[[-0.0168295,51.5050236],[-0.0168359,51.5050011],[-0.0168677,51.5050045]]}},{"type":"Feature","id":"indoor:859414925366","properties":{"layer":"indoor","closed":false,"geom_id":25816,"geom_type":"LINESTRING","category":"barrier","class":"building","type":"threshold","local_rank":1,"is_label_shown":false,"indoor":true,"oneway":0,"offset_id":"0.0","is_geojson":false,"floor_id":8,"floor_level":"-4.0","floor_name":"Level -4","location_name":"Canary Wharf","landmark":false,"lm_id":"a799b81487e9859c9d7f614041150c1a","uid":859414925366,"zoom_used":19,"whole":true},"geometry":{"type":"LineString","coordinates":[[-0.0182653,51.5045105],[-0.0181398,51.5044969],[-0.0181337,51.5044963]]}},{"type":"Feature","id":"indoor:902159685819","properties":{"layer":"indoor","closed":false,"geom_id":25806,"geom_type":"LINESTRING","category":"barrier","class":"building","type":"wall","local_rank":1,"is_label_shown":false,"indoor":true,"oneway":0,"offset_id":"0.0","is_geojson":false,"floor_id":8,"floor_level":"-4.0","floor_name":"Level -4","location_name":"Canary Wharf","landmark":false,"lm_id":"4e9bd447885324281a113b846e7c0d19","uid":902159685819,"zoom_used":19,"whole":true},"geometry":{"type":"LineString","coordinates":[[-0.0166716,51.5047706],[-0.0166025,51.5047631],[-0.0165925,51.5047993],[-0.0166072,51.5048008]]}},{"type":"Feature","id":"indoor:908439847466","properties":{"layer":"indoor","closed":false,"geom_id":25805,"geom_type":"POINT","category":"amenity","class":"circulation","type":"lift","local_rank":1,"is_label_shown":false,"icon_id":"lift","indoor":true,"is_geojson":false,"floor_id":8,"floor_level":"-4.0","floor_name":"Level -4","location_name":"Canary Wharf","landmark":false,"lm_id":"b61a0c7544f817b0f108f2879491af3a","uid":908439847466,"zoom_used":19,"whole":true},"geometry":{"type":"Point","coordinates":[-0.0167497,51.5044389]}},{"type":"Feature","id":"indoor:910273442314","properties":{"layer":"indoor","geom_id":25418,"geom_type":"POLYGON","category":"area","class":"building","type":"section","local_rank":1,"name":"Canada Place","popup_header":"Canada Place","is_label_shown":false,"indoor":true,"is_geojson":false,"floor_id":8,"floor_level":"-4.0","floor_name":"Level -4","location_name":"Canary Wharf","landmark":false,"area_highlight":false,"lm_id":"7b36e6056fb1f5a4e01235238107da33","uid":910273442314,"zoom_used":15,"whole":true},"geometry":{"type":"Polygon","coordinates":[[[-0.0165519,51.505689],[-0.0164822,51.5056807],[-0.0165921,51.50529],[-0.0151625,51.5051348],[-0.0152081,51.5049711],[-0.0152618,51.5049762],[-0.0152645,51.5049645],[-0.0152832,51.5049661],[-0.0152805,51.5049778],[-0.015302,51.5049812],[-0.0154281,51.5045287],[-0.0153959,51.5045254],[-0.0154173,51.5044536],[-0.0154495,51.5044569],[-0.0155541,51.5040846],[-0.0167719,51.5042165],[-0.0169408,51.5036038],[-0.0162891,51.503532],[-0.01623,51.5037457],[-0.0157419,51.5036923],[-0.0157231,51.5036906],[-0.0156668,51.5036839],[-0.0157017,51.5035503],[-0.0158089,51.503562],[-0.0158331,51.5034836],[-0.0157928,51.5034786],[-0.0158116,51.5034151],[-0.0167665,51.5035186],[-0.0167772,51.5034802],[-0.0171688,51.503522],[-0.0171554,51.5035654],[-0.0171983,51.5035704],[-0.0171956,51.5035837],[-0.0171903,51.5035971],[-0.0168121,51.5049544],[-0.0168791,51.5049611],[-0.0166807,51.5056757],[-0.01656,51.5056623],[-0.0165519,51.505689]]]}},{"type":"Feature","id":"indoor:949069441704","properties":{"layer":"indoor","geom_id":25435,"geom_type":"POLYGON","category":"unit","class":"circulation","type":"lift","local_rank":1,"is_label_shown":false,"indoor":true,"is_geojson":false,"floor_id":8,"floor_level":"-4.0","floor_name":"Level -4","location_name":"Cabot Place","landmark":false,"area_highlight":false,"lm_id":"25a8c505ab759ce4f416e3647c58121e","uid":949069441704,"zoom_used":19,"whole":true},"geometry":{"type":"Polygon","coordinates":[[[-0.0220127,51.5051019],[-0.021974,51.5050977],[-0.021981,51.5050726],[-0.0220198,51.5050767],[-0.0220127,51.5051019]]]}},{"type":"Feature","id":"indoor:950579117085","properties":{"layer":"indoor","geom_id":25416,"geom_type":"DISPLAY_POINT","category":"area","class":"building","type":"section","local_rank":1,"name":"Jubilee Place","popup_header":"Jubilee Place","is_label_shown":true,"indoor":true,"is_geojson":false,"floor_id":8,"floor_level":"-4.0","floor_name":"Level -4","location_name":"Canary Wharf","landmark":false,"area_highlight":false,"lm_id":"8bea9c2111bab3be054f380b585ae756","uid":950579117085,"zoom_used":19,"whole":true},"geometry":{"type":"Point","coordinates":[-0.0188841,51.5029296]}},{"type":"Feature","id":"indoor:960217914315","properties":{"layer":"indoor","closed":false,"geom_id":25799,"geom_type":"POINT","category":"amenity","class":"circulation","type":"arrow","local_rank":1,"is_label_shown":true,"icon_id":"arrow_main_entrance","indoor":true,"rotation":9.87,"is_geojson":false,"floor_id":8,"floor_level":"-4.0","floor_name":"Level -4","location_name":"Canary Wharf","landmark":false,"lm_id":"72229c181d02aea07757449fd3a6488e","uid":960217914315,"zoom_used":19,"whole":true},"geometry":{"type":"Point","coordinates":[-0.0175485,51.5044754]}},{"type":"Feature","id":"indoor:960229708843","properties":{"layer":"indoor","geom_id":25415,"geom_type":"POLYGON","category":"area","class":"building","type":"section","local_rank":1,"name":"Jubilee Line","popup_header":"Jubilee Line","is_label_shown":false,"indoor":true,"is_geojson":false,"floor_id":8,"floor_level":"-4.0","floor_name":"Level -4","location_name":"Canary Wharf","landmark":false,"area_highlight":false,"lm_id":"b9df687e3f35c5c6b16f61852c83133e","uid":960229708843,"zoom_used":16,"whole":true},"geometry":{"type":"Polygon","coordinates":[[[-0.0195694,51.5038851],[-0.0184818,51.5037666],[-0.0185139,51.5036555],[-0.0174089,51.5035362],[-0.0174062,51.5035478],[-0.0173566,51.503542],[-0.0173338,51.503623],[-0.0171889,51.5036071],[-0.0171997,51.5035695],[-0.0171554,51.5035645],[-0.0171715,51.5035103],[-0.0165425,51.5034418],[-0.0166351,51.5031112],[-0.0194474,51.5034159],[-0.0194594,51.50337],[-0.0195855,51.5033842],[-0.0197062,51.5033967],[-0.0196928,51.5034427],[-0.0195694,51.5038851]]]}},{"type":"Feature","id":"indoor:965064667180","properties":{"layer":"indoor","geom_id":25416,"geom_type":"POLYGON","category":"area","class":"building","type":"section","local_rank":1,"name":"Jubilee Place","popup_header":"Jubilee Place","is_label_shown":false,"indoor":true,"is_geojson":false,"floor_id":8,"floor_level":"-4.0","floor_name":"Level -4","location_name":"Canary Wharf","landmark":false,"area_highlight":false,"lm_id":"8bea9c2111bab3be054f380b585ae756","uid":965064667180,"zoom_used":16,"whole":true},"geometry":{"type":"Polygon","coordinates":[[[-0.0214832,51.5034569],[-0.0214255,51.5034502],[-0.0214282,51.5034385],[-0.0213061,51.5034251],[-0.0211921,51.5034126],[-0.0211881,51.5034243],[-0.0211291,51.5034176],[-0.020645,51.503365],[-0.0206436,51.5033659],[-0.0206423,51.5033659],[-0.0206423,51.5033667],[-0.0206383,51.5033667],[-0.0206369,51.5033675],[-0.0206342,51.5033675],[-0.0206329,51.5033684],[-0.0206289,51.5033684],[-0.0206275,51.5033692],[-0.0206195,51.5033692],[-0.0206181,51.50337],[-0.0206101,51.50337],[-0.0206088,51.5033692],[-0.0206007,51.5033692],[-0.020598,51.5033684],[-0.0205927,51.5033684],[-0.0205927,51.5033675],[-0.02059,51.5033675],[-0.0205886,51.5033667],[-0.0205846,51.5033667],[-0.0205846,51.5033659],[-0.0205819,51.5033659],[-0.0205819,51.503365],[-0.0205792,51.503365],[-0.0205779,51.5033642],[-0.0205766,51.5033642],[-0.0205766,51.5033634],[-0.0205739,51.5033634],[-0.0205739,51.5033625],[-0.0205725,51.5033625],[-0.0205699,51.5033608],[-0.0205685,51.5033608],[-0.0205658,51.5033592],[-0.0205645,51.5033592],[-0.0205645,51.5033583],[-0.0205632,51.5033583],[-0.0205632,51.5033575],[-0.0205618,51.5033575],[-0.0205618,51.5033567],[-0.0205605,51.5033567],[-0.0198269,51.5032765],[-0.0198041,51.503355],[-0.0195935,51.5033325],[-0.019336,51.5033049],[-0.0191925,51.5032891],[-0.0190759,51.5032765],[-0.0190718,51.5032932],[-0.019049,51.5033725],[-0.0189337,51.50336],[-0.0189565,51.5032807],[-0.0189579,51.5032757],[-0.0189579,51.5032707],[-0.0189565,51.5032699],[-0.0189565,51.5032682],[-0.0189552,51.5032682],[-0.0189552,51.5032674],[-0.0189538,51.5032665],[-0.0189538,51.5032657],[-0.0189525,51.5032657],[-0.0189525,51.5032648],[-0.0189511,51.5032648],[-0.0189511,51.503264],[-0.0189498,51.503264],[-0.0189485,51.5032632],[-0.0189471,51.5032632],[-0.0189458,51.5032623],[-0.0189431,51.5032623],[-0.0189418,51.5032615],[-0.0173056,51.5030845],[-0.0174317,51.5026354],[-0.0174478,51.5025761],[-0.0174531,51.5025561],[-0.017492,51.5024192],[-0.0184174,51.5025194],[-0.018471,51.5023282],[-0.0190517,51.5023908],[-0.018982,51.5026379],[-0.0197692,51.5027231],[-0.019839,51.5024735],[-0.0204398,51.5025386],[-0.0203419,51.5028867],[-0.0201903,51.50287],[-0.0201179,51.5031313],[-0.0200911,51.5032264],[-0.0205819,51.503279],[-0.0205833,51.503279],[-0.0205846,51.5032782],[-0.0205873,51.5032782],[-0.0205873,51.5032774],[-0.0205913,51.5032774],[-0.0205913,51.5032765],[-0.0205967,51.5032765],[-0.0205967,51.5032757],[-0.0206034,51.5032757],[-0.0206047,51.5032749],[-0.0206222,51.5032749],[-0.0206235,51.5032757],[-0.0206302,51.5032757],[-0.0206316,51.5032765],[-0.0206342,51.5032765],[-0.0206356,51.5032774],[-0.0206396,51.5032774],[-0.0206396,51.5032782],[-0.0206423,51.5032782],[-0.0206436,51.503279],[-0.0206463,51.503279],[-0.0206463,51.5032799],[-0.020649,51.5032799],[-0.020649,51.5032807],[-0.0206503,51.5032807],[-0.0206517,51.5032815],[-0.020653,51.5032815],[-0.0206544,51.5032824],[-0.0206557,51.5032824],[-0.0206557,51.5032832],[-0.020657,51.5032832],[-0.020657,51.503284],[-0.0206584,51.503284],[-0.0206597,51.5032849],[-0.0206611,51.5032849],[-0.0206611,51.5032857],[-0.0206624,51.5032857],[-0.0206664,51.5032882],[-0.0211506,51.5033408],[-0.0211667,51.5032849],[-0.0212082,51.5032891],[-0.0212257,51.5032916],[-0.0213397,51.5033041],[-0.0213356,51.5033208],[-0.02151,51.5033391],[-0.0215153,51.50334],[-0.0215596,51.503345],[-0.0215489,51.5033859],[-0.0215046,51.5033809],[-0.0214872,51.5034443],[-0.0214832,51.5034569]]]}},{"type":"Feature","id":"indoor:967420569221","properties":{"layer":"indoor","geom_id":25424,"geom_type":"POLYGON","category":"area","class":"building","type":"section","local_rank":1,"is_label_shown":false,"indoor":true,"is_geojson":false,"floor_id":8,"floor_level":"-4.0","floor_name":"Level -4","location_name":"Canary Wharf","landmark":false,"area_highlight":false,"lm_id":"77e174da5b30108a07ac38c9c12274fa","uid":967420569221,"zoom_used":19,"whole":true},"geometry":{"type":"Polygon","coordinates":[[[-0.0157266,51.5037791],[-0.0152361,51.5037259],[-0.015249,51.5036796],[-0.0156545,51.5037236],[-0.0156654,51.503684],[-0.0157506,51.5036932],[-0.0157395,51.5037329],[-0.0157266,51.5037791]]]}},{"type":"Feature","id":"indoor:969610597365","properties":{"layer":"indoor","closed":false,"geom_id":25426,"geom_type":"POLYGON","category":"room","class":"building","type":"back_of_house","local_rank":1,"is_label_shown":false,"indoor":true,"is_geojson":false,"floor_id":8,"floor_level":"-4.0","floor_name":"Level -4","location_name":"Cabot Place","landmark":false,"area_highlight":false,"lm_id":"9d8dd827b93df3d8543f34ac42b1d11c","uid":969610597365,"zoom_used":13,"whole":true},"geometry":{"type":"Polygon","coordinates":[[[-0.0220907,51.5051364],[-0.0220048,51.5051297],[-0.0220156,51.505103],[-0.0220156,51.5050763],[-0.0219834,51.5050696],[-0.0219405,51.5050696],[-0.0218976,51.505063],[-0.0218976,51.5050897],[-0.0218868,51.5051164],[-0.0216937,51.5050897],[-0.0217152,51.5050296],[-0.0221872,51.505083],[-0.0221872,51.5050964],[-0.0221765,51.5051231],[-0.0221443,51.5051164],[-0.0221336,51.5051364],[-0.0220907,51.5051297],[-0.0220907,51.5051364]]]}},{"type":"Feature","id":"indoor:970216933406","properties":{"layer":"indoor","closed":false,"geom_id":25446,"geom_type":"DISPLAY_POINT","category":"unit","class":"leisure","type":"karting","local_rank":3,"name":"K1 Speed","popup_header":"K1 Speed","popup_subheader":"See and Do","popup_body":"Go karting in Central London just got better now that K1 Speed is open! Get ready for an adrenaline-pumping experience like never before!\n\nThrill-seekers, racing enthusiasts, and families alike, brace yourselves for the most exhilarating racing adventure you’ve ever encountered. With state-of-the-art electric go-karts, K1 Speed offers an eco-friendly and high-performance driving experience that will leave you breathless. Feel the rush of speed as you navigate through challenging twists and turns on our professionally designed indoor tracks, ensuring maximum excitement and safety for all.\n\nWhether you’re a seasoned racer or a first-time driver, K1 Speed caters to all skill levels. Our cutting-edge timing system accurately measures your lap times, allowing you to compete against friends and family or challenge your personal best. Want to take it to the next level? Join our competitive leagues and unleash your inner racer as you vie for victory and claim the title of the fastest driver in London.\n\nBe prepared to make unforgettable memories with your loved ones or colleagues, as K1 Speed is the ideal venue for birthday parties, corporate events, team building, and group gatherings.\n\nGet your heart racing at K1 Speed Canary Wharf in Central London! Experience the ultimate racing adventure that will leave you craving for more.","url":"https://www.k1speed.com","tel_number":"02071004412","street_address":"Level -4, Cabot Place","opening_times":"mon: 09:00 - 22:00, tue: 09:00 - 22:00, wed: 09:00 - 22:00, thu: 09:00 - 22:00, fri: 09:00 - 22:00, sat: 09:00 - 22:00, sun: 09:00 - 22:00","is_label_shown":true,"indoor":true,"is_geojson":true,"floor_id":8,"floor_level":"-4.0","floor_name":"Level -4","location_name":"Cabot Place","landmark":false,"area_highlight":false,"lm_id":"c1e0f6aba84be376c24e5b49df49a6e8","uid":970216933406,"zoom_used":19,"whole":true},"geometry":{"type":"Point","coordinates":[-0.0220815,51.5052054]}},{"type":"Feature","id":"indoor:979084813323","properties":{"layer":"indoor","geom_id":25423,"geom_type":"POLYGON","category":"area","class":"building","type":"section","local_rank":1,"is_label_shown":false,"indoor":true,"is_geojson":false,"floor_id":8,"floor_level":"-4.0","floor_name":"Level -4","location_name":"Canary Wharf","landmark":false,"area_highlight":false,"lm_id":"c6c40c9dce6cccec32200d0a1083fd13","uid":979084813323,"zoom_used":17,"whole":true},"geometry":{"type":"Polygon","coordinates":[[[-0.0152249,51.5052191],[-0.0147434,51.5051669],[-0.0147562,51.505121],[-0.0148071,51.504939],[-0.014846,51.5049432],[-0.0147951,51.5051252],[-0.0151538,51.5051644],[-0.0151619,51.5051352],[-0.0152457,51.5051444],[-0.0152249,51.5052191]]]}},{"type":"Feature","id":"indoor:98039087741","properties":{"layer":"indoor","geom_id":25437,"geom_type":"POLYGON","category":"unit","class":"circulation","type":"lift","local_rank":1,"is_label_shown":false,"indoor":true,"is_geojson":false,"floor_id":8,"floor_level":"-4.0","floor_name":"Level -4","location_name":"Cabot Place","landmark":false,"area_highlight":false,"lm_id":"23bac567c3856d842a3175c7eb2c828a","uid":98039087741,"zoom_used":19,"whole":true},"geometry":{"type":"Polygon","coordinates":[[[-0.0219336,51.5050933],[-0.0218954,51.5050892],[-0.0219024,51.5050641],[-0.0219406,51.5050682],[-0.0219336,51.5050933]]]}},{"type":"Feature","id":"indoor:980830627572","properties":{"layer":"indoor","closed":false,"geom_id":25826,"geom_type":"LINESTRING","category":"barrier","class":"circulation","type":"stairs","local_rank":1,"is_label_shown":false,"indoor":true,"oneway":0,"offset_id":"0.0","is_geojson":false,"floor_id":8,"floor_level":"-4.0","floor_name":"Level -4","location_name":"Canary Wharf","landmark":false,"lm_id":"93945b96c367c438b58dbd858031b215","uid":980830627572,"zoom_used":19,"whole":true},"geometry":{"type":"LineString","coordinates":[[-0.0174667,51.5044238],[-0.0174629,51.5044378]]}},{"type":"Feature","id":"indoor:999027634519","properties":{"layer":"indoor","closed":false,"geom_id":25839,"geom_type":"POLYGON","category":"room","class":"building","type":"back_of_house","local_rank":1,"is_label_shown":false,"indoor":true,"is_geojson":false,"floor_id":8,"floor_level":"-4.0","floor_name":"Level -4","location_name":"Canary Wharf","landmark":false,"area_highlight":false,"lm_id":"2dbbce8e0476fe563f9458bc8b901883","uid":999027634519,"zoom_used":13,"whole":true},"geometry":{"type":"MultiPolygon","coordinates":[[[[-0.0189793,51.5051765],[-0.0190115,51.5051765],[-0.0191617,51.5046089],[-0.0191402,51.5046089],[-0.019151,51.5045955],[-0.0195909,51.5046489],[-0.0196552,51.5044018],[-0.0197732,51.5044152],[-0.0197089,51.5046623],[-0.0200522,51.5046957],[-0.0200951,51.5047023],[-0.0203419,51.5047291],[-0.0214684,51.5048493],[-0.0233567,51.5050563],[-0.023464,51.5050696],[-0.0233781,51.5053702],[-0.0233459,51.5053702],[-0.0233459,51.5053501],[-0.0232816,51.5053434],[-0.0233352,51.5051565],[-0.0233459,51.505103],[-0.0224555,51.5050095],[-0.0222087,51.5050162],[-0.0214469,51.5049361],[-0.0213397,51.5053301],[-0.0218976,51.5053902],[-0.0219083,51.5053568],[-0.0221336,51.5053835],[-0.0221121,51.5054503],[-0.0233245,51.5055772],[-0.023303,51.505644],[-0.0220907,51.5055171],[-0.0212324,51.5054236],[-0.0211787,51.5054169],[-0.0212002,51.5053568],[-0.0212538,51.5053635],[-0.0212538,51.5053434],[-0.0210392,51.5053234],[-0.0210285,51.5053702],[-0.0207818,51.5053434],[-0.0208032,51.5052967],[-0.0205779,51.50527],[-0.0205779,51.50529],[-0.0206208,51.5052967],[-0.0206101,51.5053568],[-0.0205564,51.5053501],[-0.0199234,51.5052833],[-0.0195158,51.5052366],[-0.0194943,51.5053101],[-0.0195158,51.5053301],[-0.0197732,51.5053568],[-0.0197625,51.5053969],[-0.0193548,51.5053501],[-0.0191295,51.5061315],[-0.0190437,51.5061248],[-0.019269,51.5053434],[-0.0190866,51.5053234],[-0.0190973,51.5052833],[-0.0193977,51.5053167],[-0.0194299,51.5053034],[-0.0194514,51.5052299],[-0.0190437,51.5051832],[-0.0190008,51.5051832],[-0.0189793,51.5051765]]],[[[-0.0189793,51.5051765],[-0.0189686,51.5052299],[-0.0180781,51.5051364],[-0.0180995,51.5050763],[-0.0183249,51.505103],[-0.0183463,51.5050563],[-0.0186145,51.505083],[-0.0186038,51.5051297],[-0.0189793,51.5051765]]]]}}]}
