{"type":"FeatureCollection","name":"indoor-floor-0.5.geojson","features":[{"type":"Feature","id":"indoor:275419532296","properties":{"layer":"indoor","closed":false,"geom_id":27222,"geom_type":"DISPLAY_POINT","category":"unit","class":"tourism","type":"hotel","local_rank":2,"name":"House of Gods: Conference Space","popup_header":"House of Gods: Conference Space","popup_subheader":"Facility","street_address":"12 Bank Street, Canary Wharf, E14 4DD","is_label_shown":true,"icon_id":"hotel","indoor":true,"is_geojson":true,"floor_id":9,"floor_level":"0.5","floor_name":"Level M","location_name":"Canary Wharf","landmark":false,"area_highlight":false,"lm_id":"46aa31e2b17cc754970d2a802a737ff2","uid":275419532296,"zoom_used":19,"whole":true},"geometry":{"type":"Point","coordinates":[-0.0232615,51.5038414]}},{"type":"Feature","id":"indoor:846299360771","properties":{"layer":"indoor","closed":false,"geom_id":27222,"geom_type":"POLYGON","category":"unit","class":"tourism","type":"hotel","local_rank":2,"name":"House of Gods: Conference Space","popup_header":"House of Gods: Conference Space","popup_subheader":"Facility","street_address":"12 Bank Street, Canary Wharf, E14 4DD","is_label_shown":false,"indoor":true,"is_geojson":false,"floor_id":9,"floor_level":"0.5","floor_name":"Level M","location_name":"Canary Wharf","landmark":false,"area_highlight":false,"lm_id":"46aa31e2b17cc754970d2a802a737ff2","uid":846299360771,"zoom_used":17,"whole":true},"geometry":{"type":"Polygon","coordinates":[[[-0.0235344,51.5039894],[-0.0233922,51.5039728],[-0.0234009,51.5039448],[-0.0229678,51.5038934],[-0.0229443,51.5038722],[-0.0229577,51.5038287],[-0.0229094,51.5038233],[-0.0229201,51.5037883],[-0.0228269,51.503777],[-0.0228263,51.5037782],[-0.022786,51.5037737],[-0.0228028,51.5037169],[-0.0228437,51.5037215],[-0.022845,51.5037161],[-0.0236551,51.50381],[-0.0236524,51.5038166],[-0.0237329,51.5038262],[-0.0237161,51.5038822],[-0.0236712,51.5038768],[-0.0236705,51.5038784],[-0.0235706,51.5038667],[-0.0235344,51.5039894]]]}},{"type":"Feature","id":"indoor:874381141807","properties":{"layer":"indoor","closed":false,"geom_id":27218,"geom_type":"POINT","category":"amenity","class":"circulation","type":"lift","local_rank":1,"is_label_shown":false,"icon_id":"lift","indoor":true,"is_geojson":false,"floor_id":9,"floor_level":"0.5","floor_name":"Level M","location_name":"Canary Wharf","landmark":false,"lm_id":"a818e6e71f6d7a6fb51aa476a87016f2","uid":874381141807,"zoom_used":19,"whole":true},"geometry":{"type":"Point","coordinates":[-0.0230846,51.5038324]}}]}
