{"type":"FeatureCollection","meta":{
 "source": "London Datastore: Article 4 directions: office to residential (Planning Constraints Map)",
 "dataset": "2gy3r",
 "page": "https://data.london.gov.uk/dataset/article-4-directions-office-to-residential-2gy3r",
 "resources": [
  {
   "resource": "d7193b38-6a38-472b-a110-36c17a996768",
   "file": "Article_4_Directions_Office_to_Residential.gpkg",
   "url": "https://data.london.gov.uk/download/2gy3r/d7193b38-6a38-472b-a110-36c17a996768/Article_4_Directions_Office_to_Residential.gpkg",
   "size": 1359872,
   "resource_date": "2019-09-19",
   "fetched": "2026-10-04"
  }
 ],
 "licence": "Open Government Licence v3",
 "licence_url": "https://www.nationalarchives.gov.uk/doc/open-government-licence/version/3/",
 "attribution": "Contains public sector information licensed under the Open Government Licence v3 (Planning Constraints Map). The GLA cannot warrant the quality or accuracy of the data (London Datastore terms).",
 "dataset_modified": "2022-07-12",
 "update_frequency": null,
 "geo": "Custom Polygons",
 "theme": "buildings-places",
 "layers": [
  {
   "table": "Article_4_Directions_Office_to_Residential",
   "srs": 27700
  }
 ],
 "crs_source": "EPSG:27700",
 "crs_output": "EPSG:4326 (WGS84), 6 decimal places; BNG to WGS84 through the OS OSTN15 grid (lib.mjs bngProjector)",
 "method": "walk-london-datastore.mjs harvest article4-office-residential: download the newest matching resource (gpkg); read every feature; keep a feature whose geometry meets the zone (the 3D model box, BNG E 532400-539900, N 176700-182300; WGS84 -0.095, 51.474, 0.015, 51.522): a vertex inside, an edge crossing the box or the box inside a polygon. Whole geometries are kept (not cut at the box): whole_in_zone says whether all of it lies inside. in_cw: the geometry meets the Canary Wharf registry box -0.03, 51.498, -0.005, 51.51. Source attributes kept as published except fields matching e-?mail|phone|tel(ephone)?$|^tel|contact|^fax|mobile|website_contact|^owner_?name|person. uprn_suspect: a UPRN field that a spreadsheet rounded (an exponent, or 9+ digits ending in 5+ zeros); not a key (fault F22).",
 "counts": {
  "source_features": 571,
  "no_geometry": 0,
  "in_zone": 9,
  "in_cw": 1,
  "with_uprn": 0,
  "uprn_suspect": 0
 },
 "attributes_in_source": "yes",
 "fields_dropped": []
},
"features":[
{"type":"Feature","properties":{"fid":10,"address":null,"borough":null,"boroughdesignation":null,"classification":null,"designation":"Article 4 Direction","easting":0,"extrainfo1":null,"extrainfo2":null,"extrainfo3":null,"firstaddeddate":null,"hectares":"0","lastupdateddate":null,"layerreference":"OTR00000549","northing":0,"notes":null,"objectid":549,"planningauthority":null,"removeddate":null,"shape":null,"sitename":null,"sitereference":null,"source":null,"status":null,"uprn":null,"runtime":"09/18/2019","in_cw":false,"whole_in_zone":false},"geometry":{"type":"MultiPolygon","coordinates":[[[[-0.095053,51.529921],[-0.097651,51.530441],[-0.097937,51.529875],[-0.10032,51.530508],[-0.101377,51.530798],[-0.101209,51.53108],[-0.103386,51.532],[-0.10379,51.531394],[-0.104732,51.531622],[-0.104292,51.532172],[-0.103556,51.533057],[-0.105146,51.533598],[-0.104884,51.533824],[-0.103369,51.533369],[-0.10248,51.534391],[-0.103066,51.534552],[-0.103687,51.53481],[-0.104115,51.535041],[-0.103448,51.535655],[-0.10222,51.536204],[-0.103382,51.53652],[-0.10426,51.53668],[-0.104872,51.536702],[-0.105309,51.536697],[-0.105412,51.536092],[-0.106997,51.536045],[-0.107107,51.535744],[-0.107166,51.534563],[-0.10883,51.534263],[-0.109307,51.534234],[-0.109902,51.534177],[-0.111515,51.533937],[-0.111437,51.533257],[-0.111378,51.532577],[-0.112274,51.532489],[-0.112138,51.532044],[-0.113141,51.531963],[-0.113007,51.531458],[-0.114169,51.531319],[-0.114461,51.532481],[-0.117105,51.532203],[-0.116956,51.531116],[-0.118222,51.531039],[-0.118343,51.532113],[-0.119502,51.532053],[-0.119304,51.530953],[-0.120543,51.530864],[-0.121019,51.530829],[-0.121012,51.531005],[-0.120976,51.531386],[-0.120821,51.531626],[-0.121647,51.531633],[-0.121665,51.532367],[-0.121567,51.533565],[-0.12043,51.533577],[-0.120444,51.535353],[-0.122157,51.535513],[-0.122228,51.535914],[-0.122235,51.536926],[-0.122461,51.537578],[-0.122629,51.537987],[-0.122841,51.538257],[-0.12292,51.539173],[-0.122806,51.540504],[-0.122569,51.541567],[-0.123726,51.541307],[-0.124996,51.541158],[-0.125057,51.541153],[-0.125048,51.541141],[-0.125043,51.54108],[-0.125027,51.541023],[-0.125012,51.540965],[-0.124996,51.540899],[-0.124986,51.540862],[-0.124984,51.54085],[-0.124978,51.540835],[-0.124978,51.540832],[-0.124846,51.540611],[-0.124063,51.539554],[-0.124028,51.539511],[-0.124009,51.539488],[-0.123989,51.539466],[-0.12398,51.539457],[-0.12397,51.539448],[-0.123943,51.539421],[-0.123923,51.539403],[-0.123875,51.539363],[-0.123847,51.53934],[-0.123578,51.539092],[-0.123433,51.538954],[-0.123404,51.538927],[-0.123374,51.538899],[-0.123327,51.538853],[-0.123283,51.538805],[-0.123265,51.538785],[-0.123081,51.538524],[-0.122816,51.538116],[-0.122795,51.538076],[-0.122776,51.538035],[-0.122756,51.537994],[-0.122737,51.537953],[-0.122715,51.537907],[-0.122693,51.537861],[-0.122672,51.537813],[-0.122652,51.537766],[-0.122629,51.537705],[-0.122606,51.537643],[-0.122591,51.537599],[-0.122576,51.537554],[-0.122527,51.537415],[-0.122497,51.537324],[-0.122465,51.537233],[-0.122434,51.537152],[-0.122405,51.537071],[-0.122388,51.537008],[-0.122374,51.536944],[-0.122373,51.536942],[-0.122367,51.536898],[-0.122363,51.536873],[-0.122356,51.536804],[-0.122277,51.535923],[-0.122276,51.535872],[-0.122276,51.535823],[-0.122274,51.535767],[-0.122271,51.535427],[-0.122271,51.535339],[-0.122267,51.535316],[-0.122293,51.535237],[-0.122297,51.535145],[-0.122296,51.534976],[-0.1223,51.534856],[-0.122302,51.534712],[-0.122308,51.534491],[-0.12232,51.534232],[-0.122333,51.534029],[-0.122349,51.53379],[-0.12235,51.533635],[-0.122362,51.533506],[-0.122416,51.53281],[-0.122505,51.531667],[-0.122524,51.531142],[-0.122544,51.5307],[-0.122512,51.530703],[-0.122491,51.530705],[-0.122343,51.530719],[-0.122331,51.530721],[-0.122061,51.530738],[-0.121847,51.530753],[-0.121676,51.530766],[-0.121635,51.530769],[-0.121526,51.530775],[-0.121366,51.530784],[-0.121205,51.530793],[-0.121128,51.530796],[-0.121099,51.530798],[-0.120341,51.530853],[-0.11982,51.530893],[-0.119819,51.530893],[-0.119382,51.530798],[-0.119043,51.530739],[-0.118888,51.530707],[-0.118737,51.530677],[-0.118593,51.530646],[-0.118446,51.530617],[-0.118418,51.530611],[-0.11839,51.530605],[-0.118366,51.5306],[-0.11834,51.530595],[-0.118293,51.530583],[-0.118152,51.53055],[-0.118073,51.530531],[-0.118013,51.530517],[-0.117955,51.530502],[-0.117894,51.530486],[-0.117832,51.53047],[-0.117772,51.530453],[-0.117139,51.530275],[-0.117074,51.530257],[-0.11706,51.530253],[-0.11703,51.530244],[-0.116998,51.530235],[-0.116924,51.530213],[-0.116906,51.530207],[-0.116852,51.530189],[-0.11677,51.530163],[-0.11669,51.530137],[-0.116632,51.530116],[-0.116438,51.530043],[-0.116387,51.530025],[-0.116337,51.530005],[-0.116277,51.529982],[-0.116217,51.529958],[-0.116172,51.529939],[-0.116125,51.52992],[-0.116116,51.529915],[-0.116071,51.529893],[-0.116063,51.52989],[-0.116015,51.529863],[-0.116008,51.529859],[-0.115984,51.529843],[-0.115957,51.529821],[-0.115929,51.529798],[-0.115902,51.529772],[-0.115878,51.529746],[-0.115865,51.529727],[-0.115855,51.529708],[-0.115847,51.529691],[-0.115841,51.529674],[-0.115835,51.529658],[-0.115835,51.529658],[-0.11583,51.529637],[-0.115826,51.529615],[-0.115822,51.529581],[-0.115817,51.529538],[-0.115804,51.529459],[-0.115791,51.529388],[-0.115787,51.529359],[-0.115782,51.529328],[-0.115776,51.529279],[-0.115768,51.52923],[-0.115712,51.528772],[-0.115703,51.528689],[-0.115695,51.528625],[-0.115686,51.528562],[-0.115674,51.528492],[-0.11566,51.52842],[-0.115651,51.528375],[-0.115641,51.528328],[-0.115631,51.52828],[-0.11562,51.528232],[-0.115615,51.52821],[-0.11561,51.528188],[-0.115591,51.528101],[-0.115585,51.528068],[-0.115577,51.528036],[-0.115563,51.527986],[-0.115557,51.527969],[-0.115549,51.527952],[-0.115544,51.527942],[-0.115539,51.527931],[-0.115527,51.527899],[-0.115511,51.527864],[-0.115497,51.527829],[-0.115469,51.527765],[-0.115462,51.527752],[-0.115443,51.527722],[-0.115422,51.527693],[-0.115416,51.527685],[-0.115387,51.527652],[-0.115355,51.527621],[-0.11535,51.527616],[-0.115318,51.527589],[-0.115286,51.527563],[-0.115237,51.527526],[-0.115186,51.52749],[-0.115159,51.527472],[-0.115131,51.527454],[-0.115103,51.527436],[-0.115075,51.527418],[-0.114963,51.527347],[-0.114843,51.527271],[-0.114525,51.527067],[-0.11441,51.526991],[-0.114299,51.526917],[-0.114228,51.526871],[-0.114163,51.526828],[-0.114121,51.526802],[-0.114078,51.526775],[-0.114054,51.526762],[-0.114032,51.526749],[-0.113958,51.526706],[-0.113919,51.526685],[-0.113842,51.526642],[-0.113802,51.526622],[-0.113748,51.526595],[-0.113722,51.526584],[-0.113695,51.526573],[-0.113651,51.526554],[-0.113634,51.526547],[-0.113615,51.526541],[-0.113585,51.526531],[-0.113529,51.526512],[-0.113464,51.526491],[-0.113445,51.526484],[-0.113425,51.526479],[-0.113367,51.526464],[-0.113345,51.526459],[-0.113322,51.526453],[-0.113267,51.526441],[-0.113215,51.526428],[-0.113197,51.526423],[-0.113166,51.526416],[-0.113143,51.52641],[-0.11312,51.526405],[-0.113104,51.526402],[-0.113088,51.5264],[-0.113055,51.526394],[-0.112998,51.526384],[-0.1129,51.526355],[-0.112975,51.526313],[-0.113091,51.526234],[-0.113854,51.525728],[-0.114221,51.525443],[-0.114208,51.525428],[-0.113619,51.524523],[-0.112648,51.523814],[-0.112597,51.523785],[-0.112543,51.523757],[-0.112477,51.523727],[-0.112442,51.523709],[-0.11233,51.523655],[-0.112265,51.52363],[-0.112209,51.523612],[-0.112141,51.523592],[-0.112084,51.523575],[-0.112,51.523551],[-0.111936,51.523535],[-0.111855,51.523515],[-0.111718,51.523479],[-0.111571,51.523444],[-0.111475,51.52342],[-0.111386,51.523397],[-0.111259,51.523366],[-0.11039,51.523164],[-0.109535,51.523004],[-0.109243,51.522859],[-0.10924,51.522861],[-0.109233,51.522865],[-0.109204,51.522875],[-0.109165,51.522889],[-0.109079,51.522919],[-0.10901,51.522946],[-0.108972,51.522959],[-0.108965,51.522961],[-0.108953,51.522966],[-0.108935,51.522952],[-0.10891,51.522926],[-0.108881,51.52288],[-0.108821,51.522788],[-0.10878,51.522725],[-0.10875,51.52268],[-0.108731,51.522653],[-0.108681,51.522572],[-0.108636,51.522505],[-0.108596,51.522449],[-0.108559,51.522404],[-0.108537,51.522372],[-0.108494,51.522319],[-0.108414,51.522233],[-0.108357,51.522167],[-0.108311,51.522116],[-0.108219,51.522033],[-0.10757,51.522087],[-0.107429,51.522097],[-0.107143,51.522119],[-0.106986,51.522129],[-0.106934,51.522063],[-0.106864,51.521983],[-0.106802,51.521896],[-0.106736,51.521812],[-0.106694,51.52176],[-0.10636,51.521284],[-0.106327,51.52123],[-0.106282,51.521157],[-0.106246,51.521097],[-0.106238,51.521084],[-0.106194,51.521002],[-0.106153,51.52092],[-0.106121,51.520862],[-0.106091,51.520803],[-0.106046,51.520716],[-0.106003,51.520628],[-0.105953,51.520517],[-0.105898,51.520389],[-0.105854,51.520273],[-0.105813,51.520156],[-0.105775,51.520047],[-0.10574,51.519938],[-0.105671,51.519726],[-0.105468,51.519093],[-0.105367,51.518809],[-0.105275,51.518499],[-0.102856,51.51927],[-0.102688,51.519323],[-0.102521,51.519376],[-0.102364,51.519427],[-0.102208,51.519478],[-0.102048,51.51953],[-0.101888,51.519583],[-0.101732,51.519634],[-0.101241,51.51979],[-0.100555,51.520003],[-0.100444,51.520037],[-0.100379,51.520053],[-0.100299,51.520066],[-0.100222,51.520076],[-0.100139,51.520082],[-0.100076,51.520092],[-0.099803,51.520169],[-0.09956,51.520249],[-0.099371,51.520301],[-0.099087,51.52038],[-0.098887,51.520432],[-0.098803,51.520454],[-0.098725,51.520476],[-0.098469,51.52052],[-0.098392,51.520532],[-0.09833,51.520543],[-0.09826,51.520554],[-0.098192,51.520566],[-0.098094,51.520583],[-0.098019,51.520596],[-0.097902,51.520615],[-0.097812,51.52063],[-0.097721,51.520646],[-0.097651,51.520657],[-0.097643,51.520659],[-0.097639,51.520685],[-0.097628,51.520755],[-0.097623,51.520788],[-0.097617,51.520823],[-0.097606,51.520865],[-0.097605,51.52089],[-0.097605,51.520892],[-0.097594,51.520944],[-0.097578,51.521014],[-0.097543,51.521164],[-0.097542,51.521185],[-0.097537,51.521263],[-0.097526,51.521333],[-0.097516,51.52138],[-0.097488,51.521507],[-0.097481,51.521552],[-0.097447,51.521547],[-0.097367,51.521531],[-0.097356,51.52157],[-0.09735,51.521594],[-0.097346,51.521619],[-0.097342,51.521644],[-0.097337,51.521666],[-0.097337,51.521684],[-0.097337,51.5217],[-0.097338,51.521724],[-0.097341,51.521743],[-0.097345,51.521764],[-0.097349,51.521786],[-0.097354,51.521815],[-0.097362,51.521843],[-0.097371,51.521874],[-0.097377,51.521897],[-0.097384,51.521921],[-0.097392,51.521945],[-0.097398,51.521971],[-0.097407,51.521991],[-0.097416,51.522019],[-0.097427,51.522048],[-0.097434,51.522067],[-0.097441,51.522083],[-0.097452,51.52211],[-0.097465,51.522136],[-0.097479,51.522162],[-0.097492,51.522194],[-0.097513,51.522235],[-0.097529,51.522267],[-0.09754,51.52229],[-0.097553,51.522322],[-0.097581,51.522382],[-0.097606,51.522427],[-0.097621,51.522453],[-0.09764,51.522486],[-0.097668,51.522525],[-0.097683,51.522546],[-0.097698,51.522567],[-0.097719,51.522594],[-0.097742,51.522618],[-0.097762,51.522641],[-0.097816,51.522699],[-0.097859,51.52275],[-0.097895,51.52279],[-0.097926,51.52282],[-0.097247,51.523072],[-0.096883,51.523207],[-0.096739,51.52326],[-0.096707,51.523206],[-0.096655,51.523119],[-0.096615,51.523128],[-0.096585,51.523084],[-0.096553,51.523091],[-0.09654,51.523069],[-0.096524,51.523043],[-0.096552,51.523038],[-0.096526,51.522994],[-0.096518,51.522996],[-0.096482,51.522928],[-0.096397,51.522777],[-0.096318,51.522801],[-0.095989,51.522898],[-0.095967,51.52286],[-0.095726,51.522915],[-0.095688,51.522921],[-0.095282,51.523009],[-0.095189,51.523029],[-0.095071,51.523055],[-0.095013,51.522967],[-0.094981,51.522916],[-0.0949,51.522778],[-0.094846,51.522683],[-0.094682,51.522399],[-0.094624,51.522289],[-0.094562,51.522164],[-0.094516,51.522054],[-0.094462,51.521934],[-0.094438,51.521865],[-0.094404,51.52175],[-0.094391,51.521709],[-0.094357,51.521716],[-0.09435,51.521686],[-0.09434,51.521641],[-0.09432,51.521538],[-0.094299,51.521431],[-0.09422,51.521437],[-0.094129,51.521445],[-0.094041,51.521454],[-0.093967,51.521464],[-0.093874,51.521477],[-0.093719,51.521499],[-0.093699,51.521502],[-0.093573,51.521525],[-0.093528,51.521534],[-0.09352,51.521518],[-0.093508,51.52152],[-0.093491,51.521487],[-0.093399,51.521504],[-0.09339,51.521505],[-0.093364,51.521453],[-0.09332,51.52136],[-0.093283,51.521276],[-0.093116,51.521306],[-0.093045,51.52132],[-0.092855,51.521352],[-0.092728,51.521374],[-0.092562,51.521404],[-0.092479,51.521419],[-0.09246,51.521346],[-0.09234,51.520981],[-0.09224,51.520972],[-0.092136,51.520964],[-0.092029,51.520955],[-0.091763,51.52093],[-0.091576,51.520911],[-0.091361,51.520889],[-0.090665,51.520807],[-0.090572,51.520798],[-0.090506,51.520792],[-0.090393,51.520777],[-0.089818,51.520681],[-0.089654,51.520665],[-0.089773,51.520378],[-0.089964,51.519919],[-0.089468,51.519783],[-0.089217,51.519719],[-0.089005,51.519656],[-0.0889,51.519623],[-0.0881,51.519358],[-0.087823,51.519267],[-0.08751,51.519145],[-0.087019,51.519002],[-0.086178,51.518757],[-0.08615,51.518784],[-0.085895,51.519196],[-0.085669,51.519545],[-0.085309,51.52013],[-0.085214,51.520292],[-0.085213,51.520294],[-0.085165,51.520385],[-0.085124,51.520474],[-0.085083,51.520563],[-0.085049,51.520643],[-0.085016,51.520723],[-0.084956,51.520866],[-0.084901,51.52101],[-0.08486,51.521124],[-0.084829,51.521221],[-0.084736,51.521452],[-0.084584,51.521857],[-0.08454,51.522011],[-0.08452,51.522089],[-0.084494,51.522243],[-0.084445,51.522476],[-0.08442,51.522592],[-0.084407,51.522671],[-0.084395,51.52282],[-0.084381,51.523043],[-0.08437,51.523197],[-0.084369,51.523204],[-0.084368,51.52321],[-0.084367,51.523217],[-0.084366,51.523223],[-0.084364,51.523229],[-0.084362,51.523236],[-0.084344,51.523304],[-0.084196,51.523876],[-0.084551,51.523882],[-0.085152,51.52389],[-0.085182,51.52389],[-0.085164,51.524011],[-0.085129,51.524191],[-0.085112,51.524264],[-0.085106,51.524379],[-0.085099,51.524403],[-0.085444,51.524485],[-0.085387,51.524577],[-0.08523,51.524835],[-0.085111,51.525017],[-0.085042,51.525125],[-0.085036,51.525134],[-0.085033,51.525139],[-0.08503,51.525143],[-0.085025,51.525149],[-0.08502,51.525154],[-0.084978,51.525201],[-0.084974,51.525206],[-0.084969,51.525212],[-0.084964,51.525218],[-0.084958,51.525224],[-0.084953,51.52523],[-0.084946,51.525236],[-0.084882,51.525278],[-0.084768,51.525353],[-0.084725,51.525375],[-0.084835,51.525718],[-0.084866,51.525798],[-0.084912,51.52595],[-0.084933,51.526013],[-0.084946,51.526045],[-0.084969,51.526109],[-0.084972,51.526115],[-0.084973,51.526121],[-0.084973,51.526127],[-0.084975,51.526138],[-0.084976,51.526142],[-0.084977,51.526147],[-0.08499,51.526183],[-0.085038,51.526176],[-0.085115,51.526163],[-0.08516,51.526153],[-0.085207,51.526144],[-0.085236,51.526137],[-0.085266,51.526131],[-0.085286,51.526126],[-0.085307,51.526122],[-0.085424,51.526095],[-0.08547,51.526085],[-0.085511,51.526077],[-0.085551,51.526068],[-0.085621,51.52605],[-0.085654,51.526041],[-0.085687,51.526033],[-0.085835,51.525996],[-0.085989,51.525956],[-0.086062,51.525938],[-0.086105,51.525927],[-0.08615,51.525916],[-0.086186,51.525908],[-0.086222,51.5259],[-0.086381,51.525864],[-0.08642,51.525855],[-0.08645,51.525849],[-0.086479,51.525842],[-0.086494,51.525837],[-0.08651,51.525832],[-0.086532,51.525826],[-0.086555,51.525819],[-0.086647,51.525792],[-0.086734,51.525765],[-0.086807,51.52575],[-0.08694,51.525718],[-0.086955,51.525714],[-0.086959,51.525723],[-0.086964,51.52573],[-0.086983,51.525754],[-0.08699,51.525762],[-0.086997,51.525769],[-0.087014,51.525781],[-0.087024,51.525787],[-0.08704,51.525797],[-0.087116,51.525835],[-0.087411,51.525958],[-0.087445,51.525963],[-0.0875,51.526003],[-0.087575,51.526042],[-0.087622,51.526068],[-0.087685,51.5261],[-0.087732,51.526129],[-0.087812,51.526187],[-0.08799,51.526587],[-0.088045,51.526685],[-0.08824,51.526967],[-0.088278,51.527017],[-0.088313,51.527064],[-0.088321,51.527075],[-0.088329,51.527086],[-0.088334,51.527094],[-0.088341,51.527101],[-0.088352,51.527111],[-0.088363,51.527121],[-0.088384,51.527142],[-0.088428,51.527185],[-0.088445,51.527201],[-0.08848,51.527234],[-0.088518,51.527266],[-0.08855,51.527291],[-0.088583,51.527316],[-0.088605,51.527331],[-0.088626,51.527346],[-0.088653,51.527364],[-0.088679,51.527381],[-0.088714,51.527399],[-0.088737,51.527409],[-0.088761,51.52742],[-0.088798,51.527435],[-0.088836,51.52745],[-0.088846,51.527453],[-0.08891,51.527475],[-0.088973,51.527495],[-0.089058,51.527522],[-0.089097,51.527533],[-0.089137,51.527544],[-0.089189,51.527559],[-0.089241,51.527574],[-0.08929,51.527587],[-0.089337,51.5276],[-0.089477,51.527634],[-0.08964,51.52768],[-0.08975,51.527712],[-0.089797,51.527725],[-0.089816,51.527731],[-0.089836,51.527737],[-0.089854,51.527741],[-0.089872,51.527746],[-0.089891,51.52775],[-0.089911,51.527755],[-0.089998,51.527775],[-0.090055,51.527791],[-0.09015,51.527813],[-0.090203,51.527826],[-0.090262,51.527841],[-0.09044,51.52789],[-0.090621,51.52794],[-0.090736,51.527968],[-0.090844,51.527996],[-0.09087,51.528003],[-0.090895,51.528009],[-0.090905,51.528012],[-0.090915,51.528014],[-0.090933,51.528018],[-0.090944,51.52802],[-0.090956,51.528022],[-0.090968,51.528025],[-0.090983,51.528029],[-0.091136,51.528069],[-0.091275,51.528105],[-0.092048,51.528305],[-0.093263,51.528618],[-0.093708,51.528731],[-0.09408,51.528826],[-0.094452,51.528921],[-0.095354,51.529151],[-0.09536,51.529147],[-0.095355,51.529151],[-0.095078,51.529622],[-0.095064,51.529661],[-0.095053,51.529703],[-0.095048,51.529728],[-0.095042,51.529758],[-0.095043,51.52979],[-0.095045,51.529831],[-0.095051,51.529866],[-0.095052,51.529899],[-0.095053,51.529921]]]]}},
{"type":"Feature","properties":{"fid":47,"address":null,"borough":"Southwark","boroughdesignation":null,"classification":"Office to Resi","designation":"Article 4 Direction","easting":0,"extrainfo1":null,"extrainfo2":null,"extrainfo3":null,"firstaddeddate":null,"hectares":"2991.34","lastupdateddate":null,"layerreference":"OTR00000022","northing":0,"notes":null,"objectid":22,"planningauthority":null,"removeddate":null,"shape":null,"sitename":null,"sitereference":null,"source":null,"status":null,"uprn":null,"runtime":"09/18/2019","in_cw":false,"whole_in_zone":false},"geometry":{"type":"MultiPolygon","coordinates":[[[[-0.105563,51.509888],[-0.106487,51.509908],[-0.106961,51.50991],[-0.107335,51.509905],[-0.107897,51.509903],[-0.10847,51.509887],[-0.109163,51.509872],[-0.109154,51.509826],[-0.109116,51.509633],[-0.1089,51.508441],[-0.108897,51.508417],[-0.108837,51.508072],[-0.108775,51.507706],[-0.108568,51.507754],[-0.108481,51.507759],[-0.1084,51.507476],[-0.108381,51.507425],[-0.108266,51.507116],[-0.10822,51.507008],[-0.108151,51.50691],[-0.107339,51.507065],[-0.106572,51.505295],[-0.106568,51.505291],[-0.106441,51.504983],[-0.10641,51.50483],[-0.10641,51.504689],[-0.106442,51.504496],[-0.106521,51.504306],[-0.106542,51.504255],[-0.106575,51.504048],[-0.106495,51.503641],[-0.106494,51.503641],[-0.106371,51.503372],[-0.107433,51.503013],[-0.106727,51.502223],[-0.106112,51.502523],[-0.106056,51.502415],[-0.106026,51.502274],[-0.10604,51.502206],[-0.106062,51.502164],[-0.106091,51.502134],[-0.105923,51.502046],[-0.105962,51.502011],[-0.106503,51.501585],[-0.106679,51.501666],[-0.106801,51.501579],[-0.107822,51.500799],[-0.108164,51.500535],[-0.108203,51.500494],[-0.108329,51.500349],[-0.109096,51.499107],[-0.109446,51.498498],[-0.109495,51.498377],[-0.109492,51.498366],[-0.110271,51.496876],[-0.110279,51.496844],[-0.11027,51.496778],[-0.111175,51.496518],[-0.111418,51.496448],[-0.110948,51.495577],[-0.110933,51.4955],[-0.110789,51.495423],[-0.110749,51.495419],[-0.110685,51.495412],[-0.110685,51.495412],[-0.11064,51.495408],[-0.11064,51.495408],[-0.11056,51.495393],[-0.110483,51.495373],[-0.109375,51.494956],[-0.107649,51.494345],[-0.107648,51.494345],[-0.107436,51.49427],[-0.107134,51.494163],[-0.10687,51.494076],[-0.106316,51.493893],[-0.106316,51.493893],[-0.105717,51.493696],[-0.105313,51.493614],[-0.104872,51.493528],[-0.104862,51.493509],[-0.104842,51.493506],[-0.104809,51.493504],[-0.104756,51.493326],[-0.104674,51.493072],[-0.104674,51.493071],[-0.104674,51.493071],[-0.104494,51.492931],[-0.104376,51.492731],[-0.104376,51.492731],[-0.104233,51.492503],[-0.104222,51.492484],[-0.10418,51.492414],[-0.104165,51.49239],[-0.10409,51.492265],[-0.10408,51.492249],[-0.10408,51.492248],[-0.103859,51.491969],[-0.103859,51.491969],[-0.103707,51.492014],[-0.103687,51.491998],[-0.103687,51.491998],[-0.103558,51.491884],[-0.103381,51.491781],[-0.103381,51.49178],[-0.103313,51.491748],[-0.103349,51.491713],[-0.103047,51.491522],[-0.103371,51.491321],[-0.103135,51.49118],[-0.103223,51.49107],[-0.103241,51.491022],[-0.103314,51.490946],[-0.103314,51.490946],[-0.103368,51.490872],[-0.103779,51.490461],[-0.103246,51.490196],[-0.102603,51.489866],[-0.102177,51.489661],[-0.101526,51.489306],[-0.101325,51.489478],[-0.10069,51.489661],[-0.100084,51.48985],[-0.099496,51.490039],[-0.099127,51.489635],[-0.098841,51.489311],[-0.09862,51.489054],[-0.098315,51.488724],[-0.097763,51.488992],[-0.097213,51.489231],[-0.096467,51.489508],[-0.093434,51.490477],[-0.092487,51.490721],[-0.090738,51.491217],[-0.09062,51.491269],[-0.090337,51.491108],[-0.090152,51.491141],[-0.090103,51.491158],[-0.090028,51.491338],[-0.089977,51.491409],[-0.089239,51.491277],[-0.089153,51.491468],[-0.08892,51.491513],[-0.089035,51.491756],[-0.088606,51.491857],[-0.088232,51.492032],[-0.087261,51.49239],[-0.086607,51.492777],[-0.085289,51.493581],[-0.084894,51.493804],[-0.085168,51.493941],[-0.085239,51.494013],[-0.085143,51.494136],[-0.085081,51.494237],[-0.085016,51.49437],[-0.084824,51.494686],[-0.084235,51.495035],[-0.083844,51.495284],[-0.083657,51.495408],[-0.083448,51.495545],[-0.083074,51.495843],[-0.082933,51.495961],[-0.082757,51.496124],[-0.082581,51.496273],[-0.082406,51.496386],[-0.082214,51.4965],[-0.082006,51.496606],[-0.081794,51.496694],[-0.080855,51.497125],[-0.080457,51.497305],[-0.08036,51.497349],[-0.080211,51.497422],[-0.080016,51.49751],[-0.08001,51.497514],[-0.079952,51.49754],[-0.079866,51.497623],[-0.079852,51.497638],[-0.079766,51.497704],[-0.07929,51.498709],[-0.078939,51.499463],[-0.07857,51.500217],[-0.078332,51.500815],[-0.078125,51.501231],[-0.07607,51.500157],[-0.076052,51.500163],[-0.07473,51.50052],[-0.07345,51.500291],[-0.07345,51.500291],[-0.073041,51.500225],[-0.072766,51.500182],[-0.072766,51.500182],[-0.072766,51.500182],[-0.072771,51.500184],[-0.072458,51.500476],[-0.071722,51.500864],[-0.071552,51.501012],[-0.070656,51.501743],[-0.0704,51.502034],[-0.070402,51.502038],[-0.069228,51.503401],[-0.06984,51.503586],[-0.070075,51.503659],[-0.070192,51.503701],[-0.070455,51.503796],[-0.07052,51.503823],[-0.070896,51.503976],[-0.071251,51.504148],[-0.071821,51.504406],[-0.072693,51.504785],[-0.073176,51.504953],[-0.073734,51.505114],[-0.07403,51.505187],[-0.075215,51.505454],[-0.076313,51.505774],[-0.077219,51.506039],[-0.07808,51.506274],[-0.078194,51.506307],[-0.078225,51.506315],[-0.078481,51.506392],[-0.078925,51.50651],[-0.079231,51.50658],[-0.079796,51.506751],[-0.07996,51.506806],[-0.080165,51.50687],[-0.08027,51.506898],[-0.080751,51.507],[-0.081035,51.507051],[-0.081102,51.507063],[-0.081372,51.507109],[-0.081896,51.507194],[-0.082644,51.507304],[-0.083441,51.507426],[-0.08391,51.50748],[-0.084182,51.507531],[-0.084866,51.507647],[-0.085162,51.507691],[-0.085651,51.507729],[-0.085712,51.507733],[-0.085751,51.507736],[-0.086076,51.507755],[-0.086742,51.507815],[-0.087634,51.507877],[-0.087725,51.507883],[-0.087732,51.507884],[-0.088073,51.507927],[-0.088598,51.507987],[-0.088944,51.508018],[-0.089039,51.508031],[-0.089478,51.508085],[-0.090302,51.50816],[-0.090485,51.508185],[-0.09108,51.508263],[-0.091903,51.508359],[-0.092336,51.508447],[-0.092626,51.508512],[-0.092798,51.508555],[-0.093146,51.508657],[-0.093989,51.508896],[-0.094924,51.509108],[-0.095279,51.509195],[-0.095705,51.509286],[-0.095991,51.509333],[-0.096825,51.509448],[-0.097708,51.509535],[-0.09852,51.509606],[-0.098958,51.509644],[-0.099291,51.509674],[-0.099927,51.509713],[-0.100186,51.509727],[-0.101563,51.509808],[-0.103276,51.509818],[-0.103589,51.509853],[-0.104155,51.509854],[-0.104158,51.509671],[-0.104012,51.509642],[-0.104033,51.50963],[-0.104179,51.50958],[-0.104172,51.509139],[-0.104064,51.509088],[-0.104188,51.509046],[-0.104198,51.508805],[-0.10421,51.508622],[-0.104181,51.508498],[-0.10418,51.508425],[-0.104663,51.50841],[-0.104709,51.508475],[-0.104717,51.50857],[-0.104677,51.508624],[-0.104659,51.509017],[-0.104658,51.509062],[-0.104718,51.509095],[-0.104739,51.509107],[-0.104664,51.509118],[-0.104632,51.509464],[-0.104635,51.509606],[-0.104718,51.509611],[-0.104725,51.509619],[-0.104747,51.509644],[-0.104637,51.509671],[-0.104632,51.509672],[-0.104615,51.509875],[-0.105154,51.509876],[-0.105563,51.509888]]]]}},
{"type":"Feature","properties":{"fid":48,"address":null,"borough":"Greenwich","boroughdesignation":null,"classification":"Office to Resi","designation":"Article 4 Direction","easting":0,"extrainfo1":null,"extrainfo2":null,"extrainfo3":null,"firstaddeddate":null,"hectares":"5044.19","lastupdateddate":null,"layerreference":"OTR00000023","northing":0,"notes":null,"objectid":23,"planningauthority":null,"removeddate":null,"shape":null,"sitename":null,"sitereference":null,"source":null,"status":null,"uprn":null,"runtime":"09/18/2019","in_cw":false,"whole_in_zone":true},"geometry":{"type":"MultiPolygon","coordinates":[[[[0.006717,51.501441],[0.006197,51.501098],[0.005681,51.500833],[0.005828,51.500721],[0.0059,51.500748],[0.005937,51.500696],[0.005901,51.500678],[0.006004,51.50055],[0.006592,51.500819],[0.007117,51.501127],[0.006976,51.501227],[0.006927,51.501213],[0.006809,51.501281],[0.006887,51.501341],[0.006717,51.501441]]]]}},
{"type":"Feature","properties":{"fid":49,"address":null,"borough":"Greenwich","boroughdesignation":null,"classification":"Office to Resi","designation":"Article 4 Direction","easting":0,"extrainfo1":null,"extrainfo2":null,"extrainfo3":null,"firstaddeddate":null,"hectares":"5044.19","lastupdateddate":null,"layerreference":"OTR00000024","northing":0,"notes":null,"objectid":24,"planningauthority":null,"removeddate":null,"shape":null,"sitename":null,"sitereference":null,"source":null,"status":null,"uprn":null,"runtime":"09/18/2019","in_cw":false,"whole_in_zone":true},"geometry":{"type":"MultiPolygon","coordinates":[[[[0.007258,51.501007],[0.006382,51.500571],[0.006495,51.500444],[0.006988,51.500673],[0.0074,51.500893],[0.007258,51.501007]]]]}},
{"type":"Feature","properties":{"fid":239,"address":null,"borough":"Tower Hamlets","boroughdesignation":null,"classification":"Office to Resi","designation":"Article 4 Direction","easting":0,"extrainfo1":null,"extrainfo2":null,"extrainfo3":null,"firstaddeddate":null,"hectares":"2157.501","lastupdateddate":null,"layerreference":"OTR00000223","northing":0,"notes":null,"objectid":223,"planningauthority":null,"removeddate":null,"shape":null,"sitename":null,"sitereference":null,"source":null,"status":null,"uprn":null,"runtime":"09/18/2019","in_cw":true,"whole_in_zone":true},"geometry":{"type":"MultiPolygon","coordinates":[[[[-0.025023,51.509255],[-0.025533,51.509601],[-0.028828,51.512086],[-0.029285,51.512485],[-0.0297,51.512209],[-0.03008,51.5119],[-0.030565,51.511502],[-0.031014,51.511075],[-0.031504,51.510557],[-0.031951,51.509969],[-0.032374,51.509307],[-0.032764,51.508564],[-0.033008,51.507796],[-0.033134,51.507203],[-0.032489,51.50702],[-0.032404,51.507],[-0.032177,51.506881],[-0.03183,51.50669],[-0.031782,51.506665],[-0.031775,51.50666],[-0.031716,51.506627],[-0.031628,51.506547],[-0.031529,51.50647],[-0.031216,51.506296],[-0.031168,51.506283],[-0.031083,51.506281],[-0.030878,51.506179],[-0.030814,51.506151],[-0.030767,51.506124],[-0.030751,51.506116],[-0.030748,51.506112],[-0.030732,51.506103],[-0.030632,51.506021],[-0.030587,51.505967],[-0.030566,51.505943],[-0.030506,51.505872],[-0.030416,51.505782],[-0.030291,51.505671],[-0.030207,51.505575],[-0.030083,51.505452],[-0.030065,51.505415],[-0.030055,51.505403],[-0.029972,51.505224],[-0.029882,51.505097],[-0.029811,51.504912],[-0.02975,51.504776],[-0.02956,51.50439],[-0.029563,51.504376],[-0.029561,51.504371],[-0.029567,51.504355],[-0.029568,51.504353],[-0.02963,51.50406],[-0.029593,51.503875],[-0.02958,51.503818],[-0.029567,51.503741],[-0.029517,51.503486],[-0.029362,51.502752],[-0.029358,51.502734],[-0.029347,51.50269],[-0.029362,51.502628],[-0.029396,51.502486],[-0.029406,51.502349],[-0.029426,51.502134],[-0.029434,51.502008],[-0.02951,51.501311],[-0.029632,51.500398],[-0.029187,51.500076],[-0.028651,51.499752],[-0.028258,51.499528],[-0.027611,51.499208],[-0.026929,51.498888],[-0.026064,51.498541],[-0.025287,51.498276],[-0.023737,51.497855],[-0.022556,51.497618],[-0.02159,51.497487],[-0.020275,51.497362],[-0.019634,51.497346],[-0.018944,51.497217],[-0.017521,51.497035],[-0.016095,51.496942],[-0.014766,51.496954],[-0.013277,51.497043],[-0.012549,51.497134],[-0.011165,51.497339],[-0.009673,51.497698],[-0.008447,51.498077],[-0.007365,51.498494],[-0.006392,51.498952],[-0.005519,51.499424],[-0.004842,51.499871],[-0.004852,51.499912],[-0.004921,51.500138],[-0.004952,51.50029],[-0.005074,51.500756],[-0.005153,51.500886],[-0.005152,51.50095],[-0.005152,51.501022],[-0.005151,51.501072],[-0.00515,51.501148],[-0.005157,51.501306],[-0.005127,51.50137],[-0.005111,51.501461],[-0.005054,51.501573],[-0.005009,51.501677],[-0.004925,51.501809],[-0.004811,51.502057],[-0.004796,51.502112],[-0.004665,51.50245],[-0.004492,51.503003],[-0.004115,51.503527],[-0.003424,51.504223],[-0.003313,51.504337],[-0.003202,51.504482],[-0.003023,51.504658],[-0.002849,51.50482],[-0.002829,51.504834],[-0.002732,51.504933],[-0.002474,51.505111],[-0.002428,51.505151],[-0.002111,51.505361],[-0.002001,51.505436],[-0.001916,51.505487],[-0.001291,51.50587],[-0.001175,51.505925],[-0.001032,51.506009],[-0.001034,51.506374],[-0.001118,51.50697],[-0.001375,51.507798],[-0.001568,51.50842],[-0.002046,51.509229],[-0.002461,51.509929],[-0.002846,51.509629],[-0.005016,51.50918],[-0.006372,51.50915],[-0.00689,51.508905],[-0.007329,51.508945],[-0.008996,51.508762],[-0.010535,51.508788],[-0.012022,51.508855],[-0.017688,51.508972],[-0.019472,51.509214],[-0.021311,51.509361],[-0.022269,51.509134],[-0.024244,51.508872],[-0.025023,51.509255]]]]}},
{"type":"Feature","properties":{"fid":243,"address":null,"borough":"Tower Hamlets","boroughdesignation":null,"classification":"Office to Resi","designation":"Article 4 Direction","easting":0,"extrainfo1":null,"extrainfo2":null,"extrainfo3":null,"firstaddeddate":null,"hectares":"2157.501","lastupdateddate":null,"layerreference":"OTR00000224","northing":0,"notes":null,"objectid":224,"planningauthority":null,"removeddate":null,"shape":null,"sitename":null,"sitereference":null,"source":null,"status":null,"uprn":null,"runtime":"09/18/2019","in_cw":false,"whole_in_zone":false},"geometry":{"type":"MultiPolygon","coordinates":[[[[-0.054026,51.53447],[-0.054049,51.534596],[-0.054061,51.534815],[-0.053859,51.534923],[-0.053861,51.535028],[-0.054079,51.53516],[-0.054364,51.535177],[-0.054677,51.535159],[-0.054837,51.535122],[-0.05505,51.535107],[-0.055237,51.535082],[-0.055237,51.535082],[-0.055476,51.535023],[-0.055476,51.535023],[-0.055708,51.534959],[-0.055904,51.534901],[-0.056138,51.534833],[-0.056336,51.534763],[-0.056517,51.534701],[-0.056662,51.53465],[-0.056789,51.534605],[-0.056956,51.534543],[-0.057095,51.534492],[-0.057207,51.534448],[-0.057219,51.534438],[-0.057225,51.534436],[-0.057227,51.534444],[-0.057274,51.534427],[-0.05754,51.534342],[-0.058086,51.534202],[-0.058727,51.534112],[-0.059037,51.534089],[-0.059329,51.534095],[-0.059658,51.534125],[-0.059883,51.534157],[-0.060173,51.534232],[-0.060345,51.53429],[-0.060434,51.534328],[-0.060629,51.534429],[-0.060657,51.534448],[-0.060912,51.53468],[-0.06111,51.534845],[-0.06111,51.534844],[-0.061197,51.534749],[-0.061524,51.534604],[-0.062772,51.534446],[-0.062705,51.534151],[-0.062637,51.533987],[-0.062489,51.533702],[-0.062288,51.53339],[-0.062212,51.533248],[-0.061299,51.532384],[-0.061407,51.532386],[-0.064967,51.53184],[-0.06599,51.5318],[-0.06599,51.531801],[-0.066153,51.531505],[-0.066287,51.531227],[-0.067283,51.531141],[-0.06797,51.531094],[-0.06927,51.531032],[-0.069889,51.531028],[-0.070505,51.531003],[-0.071206,51.530958],[-0.071607,51.530924],[-0.0719,51.530877],[-0.072239,51.530841],[-0.072762,51.530691],[-0.072896,51.530647],[-0.073123,51.53057],[-0.073747,51.530341],[-0.074019,51.530214],[-0.074145,51.530143],[-0.074348,51.530014],[-0.074624,51.529793],[-0.074906,51.529417],[-0.075292,51.528806],[-0.075453,51.5286],[-0.075609,51.528436],[-0.075654,51.528394],[-0.075708,51.528354],[-0.076013,51.528124],[-0.076324,51.527876],[-0.076863,51.527504],[-0.077227,51.527298],[-0.076289,51.527147],[-0.076331,51.526873],[-0.076514,51.526512],[-0.07661,51.526389],[-0.076615,51.526275],[-0.076617,51.526157],[-0.076603,51.525993],[-0.076576,51.525732],[-0.076535,51.525332],[-0.076417,51.524288],[-0.07589,51.524322],[-0.075751,51.523857],[-0.075693,51.523588],[-0.075701,51.523486],[-0.075745,51.523179],[-0.075789,51.52304],[-0.075813,51.52297],[-0.075837,51.522896],[-0.075989,51.522553],[-0.076054,51.522379],[-0.076138,51.522202],[-0.076161,51.522152],[-0.076428,51.522013],[-0.076692,51.522212],[-0.077106,51.522115],[-0.077897,51.521943],[-0.078211,51.521854],[-0.078427,51.521544],[-0.078446,51.521511],[-0.078705,51.52104],[-0.078785,51.52074],[-0.078818,51.520657],[-0.078815,51.520653],[-0.078964,51.520115],[-0.079148,51.519452],[-0.079404,51.518846],[-0.078309,51.518946],[-0.078057,51.518969],[-0.078023,51.518486],[-0.078121,51.51847],[-0.07794,51.518251],[-0.077778,51.518109],[-0.077708,51.518038],[-0.077661,51.517975],[-0.077627,51.51789],[-0.077618,51.517866],[-0.077377,51.517447],[-0.077345,51.517397],[-0.076893,51.516708],[-0.076851,51.516659],[-0.076832,51.516637],[-0.076794,51.516593],[-0.076408,51.516258],[-0.07512,51.515355],[-0.074788,51.5151],[-0.074416,51.514791],[-0.074281,51.514688],[-0.073943,51.514454],[-0.073639,51.514132],[-0.073462,51.513677],[-0.073366,51.513377],[-0.073364,51.513372],[-0.073242,51.512945],[-0.073117,51.512341],[-0.073038,51.511809],[-0.073018,51.511683],[-0.072958,51.511443],[-0.072891,51.511254],[-0.072802,51.511085],[-0.072746,51.510873],[-0.072738,51.510805],[-0.072735,51.510774],[-0.072724,51.510641],[-0.072734,51.510361],[-0.072755,51.510299],[-0.07281,51.510241],[-0.072889,51.510148],[-0.072965,51.510105],[-0.073115,51.510108],[-0.073496,51.510109],[-0.073808,51.510094],[-0.074024,51.510051],[-0.074171,51.510009],[-0.074396,51.509946],[-0.074525,51.509959],[-0.074593,51.509967],[-0.074809,51.509995],[-0.075386,51.509802],[-0.075541,51.509756],[-0.075559,51.509751],[-0.075596,51.509788],[-0.075615,51.509806],[-0.075668,51.509854],[-0.075674,51.509857],[-0.075733,51.509887],[-0.075751,51.510082],[-0.075756,51.510129],[-0.076057,51.510107],[-0.076125,51.510458],[-0.076147,51.510457],[-0.076251,51.510454],[-0.07626,51.510545],[-0.076533,51.510527],[-0.07687,51.510505],[-0.076868,51.510471],[-0.076861,51.51034],[-0.076857,51.51026],[-0.076894,51.510214],[-0.077053,51.510204],[-0.077553,51.510173],[-0.077764,51.510115],[-0.077938,51.510026],[-0.078141,51.509882],[-0.078373,51.509657],[-0.078477,51.509513],[-0.07849,51.509444],[-0.078519,51.509441],[-0.078857,51.509413],[-0.078937,51.509123],[-0.079024,51.509117],[-0.079074,51.509058],[-0.079064,51.509055],[-0.078723,51.508939],[-0.078766,51.508851],[-0.078712,51.508833],[-0.078696,51.508828],[-0.078711,51.50881],[-0.078846,51.508653],[-0.079022,51.508414],[-0.079029,51.508333],[-0.079077,51.508221],[-0.079218,51.507894],[-0.07932,51.507908],[-0.079354,51.507843],[-0.079379,51.507794],[-0.079525,51.507727],[-0.079732,51.5076],[-0.079755,51.507585],[-0.080165,51.50687],[-0.07996,51.506806],[-0.079796,51.506751],[-0.079231,51.50658],[-0.078925,51.50651],[-0.078481,51.506392],[-0.078225,51.506315],[-0.078194,51.506307],[-0.07808,51.506274],[-0.077219,51.506039],[-0.076313,51.505774],[-0.075215,51.505454],[-0.07403,51.505187],[-0.073734,51.505114],[-0.073176,51.504953],[-0.072693,51.504785],[-0.071821,51.504406],[-0.071251,51.504148],[-0.070896,51.503976],[-0.07052,51.503823],[-0.070455,51.503796],[-0.070192,51.503701],[-0.070075,51.503659],[-0.06984,51.503586],[-0.069228,51.503401],[-0.068666,51.504536],[-0.068598,51.50462],[-0.068471,51.504585],[-0.068326,51.504794],[-0.068337,51.504925],[-0.068369,51.505057],[-0.068276,51.505253],[-0.067976,51.505774],[-0.0677,51.506],[-0.067478,51.506187],[-0.06721,51.506416],[-0.066916,51.506547],[-0.066664,51.506616],[-0.066555,51.506886],[-0.066566,51.507547],[-0.066665,51.507909],[-0.066773,51.508095],[-0.066908,51.508274],[-0.06713,51.508427],[-0.067362,51.508554],[-0.067502,51.508756],[-0.067676,51.508972],[-0.066983,51.509165],[-0.066982,51.509178],[-0.067798,51.510818],[-0.066802,51.510908],[-0.066802,51.510908],[-0.066841,51.511375],[-0.067023,51.512814],[-0.067106,51.513119],[-0.067009,51.513341],[-0.066835,51.513574],[-0.066678,51.513832],[-0.066552,51.514073],[-0.066533,51.514278],[-0.065495,51.514255],[-0.065495,51.514255],[-0.065495,51.514255],[-0.06554,51.514789],[-0.064958,51.51478],[-0.064958,51.51478],[-0.065132,51.515485],[-0.065941,51.515408],[-0.066533,51.516563],[-0.066753,51.517112],[-0.066639,51.517263],[-0.065203,51.51768],[-0.065034,51.517402],[-0.064339,51.517498],[-0.064334,51.517624],[-0.064077,51.517688],[-0.063908,51.517734],[-0.063877,51.51807],[-0.063303,51.518206],[-0.063061,51.517572],[-0.062588,51.517718],[-0.062411,51.517255],[-0.059653,51.517521],[-0.057325,51.517664],[-0.056844,51.517663],[-0.057261,51.518854],[-0.056287,51.519151],[-0.056158,51.51876],[-0.055595,51.518822],[-0.055765,51.519325],[-0.056336,51.519701],[-0.056578,51.520068],[-0.055255,51.520333],[-0.055298,51.52049],[-0.055944,51.520508],[-0.056005,51.520583],[-0.05576,51.520635],[-0.055785,51.52095],[-0.056193,51.520933],[-0.056648,51.521076],[-0.057118,51.521088],[-0.057686,51.521008],[-0.058057,51.521755],[-0.059507,51.521554],[-0.058738,51.520542],[-0.059799,51.520212],[-0.06076,51.519962],[-0.061167,51.519803],[-0.062023,51.519476],[-0.0624,51.520477],[-0.06379,51.520348],[-0.06319,51.519142],[-0.063643,51.518989],[-0.063561,51.518802],[-0.063993,51.518671],[-0.064298,51.518753],[-0.064992,51.51842],[-0.065346,51.518181],[-0.066323,51.517637],[-0.066456,51.517779],[-0.066871,51.517548],[-0.067314,51.518072],[-0.067315,51.518072],[-0.068737,51.517639],[-0.069467,51.519621],[-0.069194,51.519977],[-0.068643,51.519865],[-0.068657,51.520423],[-0.068362,51.520482],[-0.068187,51.521766],[-0.068143,51.52255],[-0.068379,51.522992],[-0.068409,51.523251],[-0.068506,51.523611],[-0.069005,51.523625],[-0.069096,51.524181],[-0.069895,51.524087],[-0.07015,51.525348],[-0.070317,51.525821],[-0.070516,51.526225],[-0.071064,51.527031],[-0.070911,51.527098],[-0.071212,51.528196],[-0.071262,51.528301],[-0.070148,51.52882],[-0.06933,51.529316],[-0.068713,51.529739],[-0.064815,51.530096],[-0.064787,51.529985],[-0.062897,51.530299],[-0.06317,51.530689],[-0.060769,51.531191],[-0.061112,51.531866],[-0.059792,51.532078],[-0.059679,51.532032],[-0.059273,51.53199],[-0.058213,51.531765],[-0.057516,51.531432],[-0.057197,51.531212],[-0.057417,51.531829],[-0.057804,51.533488],[-0.057319,51.533868],[-0.056522,51.533912],[-0.056105,51.534003],[-0.055473,51.534137],[-0.054761,51.5343],[-0.054026,51.53447]]]]}},
{"type":"Feature","properties":{"fid":253,"address":null,"borough":"Islington","boroughdesignation":null,"classification":"Office to Resi","designation":"Article 4 Direction","easting":0,"extrainfo1":null,"extrainfo2":null,"extrainfo3":null,"firstaddeddate":null,"hectares":"1485.664","lastupdateddate":null,"layerreference":"OTR00000236","northing":0,"notes":null,"objectid":236,"planningauthority":null,"removeddate":null,"shape":null,"sitename":null,"sitereference":null,"source":null,"status":null,"uprn":null,"runtime":"09/18/2019","in_cw":false,"whole_in_zone":false},"geometry":{"type":"MultiPolygon","coordinates":[[[[-0.121685,51.53242],[-0.121587,51.533618],[-0.12045,51.53363],[-0.120464,51.535406],[-0.122177,51.535566],[-0.122248,51.535967],[-0.122255,51.53698],[-0.122481,51.537631],[-0.122649,51.53804],[-0.122861,51.53831],[-0.122939,51.539226],[-0.122826,51.540557],[-0.122589,51.54162],[-0.123746,51.54136],[-0.125016,51.541211],[-0.125076,51.541206],[-0.125068,51.541194],[-0.125061,51.541117],[-0.124984,51.540859],[-0.124836,51.540595],[-0.124272,51.539815],[-0.124025,51.539516],[-0.123709,51.539239],[-0.123353,51.538893],[-0.123151,51.538644],[-0.12305,51.538499],[-0.122699,51.53792],[-0.122582,51.537621],[-0.122496,51.537363],[-0.122375,51.536886],[-0.122348,51.536571],[-0.122327,51.536311],[-0.122315,51.53607],[-0.122304,51.535823],[-0.122313,51.53552],[-0.122316,51.534588],[-0.122315,51.534568],[-0.122335,51.534044],[-0.12244,51.532738],[-0.122538,51.531109],[-0.122528,51.530831],[-0.122531,51.530727],[-0.12197,51.530791],[-0.121194,51.530849],[-0.119871,51.530939],[-0.118986,51.530747],[-0.118116,51.530559],[-0.117532,51.530408],[-0.117078,51.530283],[-0.116507,51.530096],[-0.116028,51.529874],[-0.115991,51.529844],[-0.115918,51.52977],[-0.115855,51.529692],[-0.115816,51.529627],[-0.115782,51.529545],[-0.115758,51.529456],[-0.115702,51.528726],[-0.115655,51.52832],[-0.115545,51.527958],[-0.115504,51.52787],[-0.115451,51.527782],[-0.115407,51.527723],[-0.115278,51.527597],[-0.11468,51.527203],[-0.11447,51.527072],[-0.1138,51.526679],[-0.113735,51.526634],[-0.1136,51.526588],[-0.113413,51.526524],[-0.112924,51.52641],[-0.113199,51.526237],[-0.11371,51.52588],[-0.114228,51.525518],[-0.114182,51.52546],[-0.114078,51.525282],[-0.113856,51.524906],[-0.113654,51.524611],[-0.113587,51.524536],[-0.113482,51.524432],[-0.113187,51.524238],[-0.112538,51.523795],[-0.112333,51.523701],[-0.112169,51.523651],[-0.11186,51.523562],[-0.111176,51.523398],[-0.110577,51.523272],[-0.10996,51.523142],[-0.109784,51.5231],[-0.109579,51.523072],[-0.109456,51.523016],[-0.109296,51.522944],[-0.109219,51.522929],[-0.108966,51.523021],[-0.108942,51.522986],[-0.108733,51.522693],[-0.108577,51.522461],[-0.108312,51.522148],[-0.108261,51.522097],[-0.108249,51.522091],[-0.106995,51.52219],[-0.106623,51.521691],[-0.106476,51.521495],[-0.106327,51.521267],[-0.10614,51.520921],[-0.106011,51.520685],[-0.105859,51.520285],[-0.105464,51.519138],[-0.105325,51.518542],[-0.105316,51.518545],[-0.104731,51.518749],[-0.103232,51.519208],[-0.102059,51.519576],[-0.101796,51.519667],[-0.10155,51.519751],[-0.101047,51.51991],[-0.100777,51.519988],[-0.100405,51.52011],[-0.100276,51.520129],[-0.100232,51.520136],[-0.100085,51.520143],[-0.099629,51.520284],[-0.099323,51.520369],[-0.098877,51.520498],[-0.098426,51.520588],[-0.097645,51.520723],[-0.097599,51.521033],[-0.097543,51.521305],[-0.097491,51.521604],[-0.097378,51.521594],[-0.097368,51.521629],[-0.097349,51.521729],[-0.097358,51.521855],[-0.097487,51.522233],[-0.097615,51.522483],[-0.097676,51.522576],[-0.097762,51.522688],[-0.097876,51.522812],[-0.097908,51.522844],[-0.097947,51.522879],[-0.096761,51.523322],[-0.096688,51.523194],[-0.096672,51.523164],[-0.096659,51.523167],[-0.096598,51.523178],[-0.096444,51.522823],[-0.095992,51.522956],[-0.095962,51.52291],[-0.095063,51.523138],[-0.094904,51.522855],[-0.094597,51.522314],[-0.094385,51.521746],[-0.094319,51.521484],[-0.09385,51.52154],[-0.09359,51.521587],[-0.093568,51.521496],[-0.093389,51.521526],[-0.093276,51.521334],[-0.092491,51.521487],[-0.092349,51.521029],[-0.092151,51.521015],[-0.091796,51.520982],[-0.091347,51.52094],[-0.090901,51.52088],[-0.090238,51.520801],[-0.089668,51.520716],[-0.089679,51.52069],[-0.089979,51.519971],[-0.089755,51.519911],[-0.089681,51.519891],[-0.089278,51.519782],[-0.088613,51.519572],[-0.088104,51.519412],[-0.087517,51.519201],[-0.086332,51.518845],[-0.086202,51.51881],[-0.085879,51.51929],[-0.085788,51.519428],[-0.085531,51.519832],[-0.085351,51.520129],[-0.085192,51.520335],[-0.085042,51.520631],[-0.084881,51.520994],[-0.084678,51.521608],[-0.084498,51.522072],[-0.084416,51.522491],[-0.084313,51.523402],[-0.08429,51.523602],[-0.084198,51.523902],[-0.084502,51.523899],[-0.085114,51.523926],[-0.085085,51.524428],[-0.085418,51.524513],[-0.085384,51.524594],[-0.085245,51.52485],[-0.085005,51.525206],[-0.084725,51.525417],[-0.084883,51.525878],[-0.084995,51.526204],[-0.086273,51.525903],[-0.086431,51.525866],[-0.08677,51.52579],[-0.087007,51.525851],[-0.087269,51.525921],[-0.087414,51.525959],[-0.087779,51.526109],[-0.087812,51.526233],[-0.088106,51.526818],[-0.088285,51.52707],[-0.088459,51.52724],[-0.088527,51.527317],[-0.088573,51.527355],[-0.088637,51.527392],[-0.088755,51.527444],[-0.089024,51.527548],[-0.089151,51.527584],[-0.089576,51.527705],[-0.09538,51.529195],[-0.095116,51.529668],[-0.095068,51.529793],[-0.095056,51.529861],[-0.095058,51.529927],[-0.095069,51.529974],[-0.095069,51.529974],[-0.097671,51.530494],[-0.097957,51.529929],[-0.10034,51.530561],[-0.101397,51.530851],[-0.101229,51.531133],[-0.103406,51.532053],[-0.10381,51.531447],[-0.104753,51.531675],[-0.104313,51.532225],[-0.103576,51.53311],[-0.105166,51.533651],[-0.105148,51.533667],[-0.105154,51.533669],[-0.10498,51.533828],[-0.104966,51.533823],[-0.104905,51.533877],[-0.103389,51.533422],[-0.102501,51.534444],[-0.103086,51.534605],[-0.103707,51.534863],[-0.104135,51.535094],[-0.103468,51.535708],[-0.102241,51.536258],[-0.103403,51.536573],[-0.10428,51.536733],[-0.104892,51.536755],[-0.10533,51.53675],[-0.105432,51.536145],[-0.107017,51.536098],[-0.107127,51.535797],[-0.107186,51.534617],[-0.10885,51.534316],[-0.109328,51.534288],[-0.109922,51.53423],[-0.111535,51.53399],[-0.111457,51.53331],[-0.111398,51.53263],[-0.112294,51.532542],[-0.112158,51.532097],[-0.113161,51.532016],[-0.113027,51.531511],[-0.114189,51.531373],[-0.114481,51.532535],[-0.117126,51.532256],[-0.116976,51.531169],[-0.118242,51.531092],[-0.118363,51.532167],[-0.119522,51.532106],[-0.119324,51.531007],[-0.120563,51.530917],[-0.121039,51.530883],[-0.121032,51.531058],[-0.120996,51.531439],[-0.120841,51.531679],[-0.121667,51.531686],[-0.121685,51.53242]]]]}},
{"type":"Feature","properties":{"fid":347,"address":null,"borough":"Hackney","boroughdesignation":null,"classification":"Office to Resi","designation":"Article 4 Direction","easting":0,"extrainfo1":null,"extrainfo2":null,"extrainfo3":null,"firstaddeddate":null,"hectares":"1904.902","lastupdateddate":null,"layerreference":"OTR00000336","northing":0,"notes":null,"objectid":336,"planningauthority":null,"removeddate":null,"shape":null,"sitename":null,"sitereference":null,"source":null,"status":null,"uprn":null,"runtime":"09/18/2019","in_cw":false,"whole_in_zone":false},"geometry":{"type":"MultiPolygon","coordinates":[[[[-0.074766,51.550619],[-0.074786,51.550675],[-0.074963,51.550654],[-0.075152,51.550621],[-0.075154,51.550585],[-0.075343,51.550552],[-0.075386,51.550538],[-0.075408,51.55053],[-0.075462,51.550514],[-0.075488,51.550506],[-0.075532,51.550493],[-0.075571,51.550479],[-0.075653,51.550451],[-0.075658,51.550384],[-0.075677,51.55022],[-0.075698,51.549987],[-0.075734,51.549988],[-0.075734,51.549933],[-0.075777,51.549932],[-0.075783,51.549863],[-0.075778,51.54971],[-0.075773,51.549694],[-0.075759,51.549607],[-0.075758,51.549572],[-0.07576,51.549526],[-0.075864,51.549531],[-0.075867,51.549481],[-0.075852,51.54948],[-0.075853,51.549471],[-0.075928,51.549463],[-0.07596,51.549458],[-0.075989,51.549457],[-0.076546,51.549388],[-0.077154,51.549311],[-0.076957,51.549158],[-0.076937,51.548997],[-0.076937,51.548938],[-0.07711,51.548927],[-0.077222,51.548916],[-0.077071,51.548726],[-0.076995,51.548622],[-0.076949,51.548562],[-0.076858,51.548411],[-0.076672,51.548106],[-0.076563,51.547812],[-0.07649,51.547652],[-0.076423,51.547456],[-0.076325,51.547184],[-0.076382,51.547078],[-0.076381,51.547061],[-0.07638,51.547056],[-0.076324,51.546505],[-0.076313,51.546409],[-0.076306,51.546368],[-0.076324,51.546319],[-0.076444,51.546268],[-0.076598,51.546192],[-0.076608,51.546188],[-0.07662,51.546181],[-0.076628,51.546173],[-0.076635,51.546164],[-0.076643,51.546155],[-0.0767,51.546079],[-0.076806,51.546085],[-0.076814,51.546081],[-0.076917,51.546087],[-0.076987,51.546092],[-0.077051,51.546099],[-0.077074,51.5461],[-0.077146,51.546103],[-0.077141,51.54586],[-0.077118,51.545835],[-0.077107,51.545827],[-0.077174,51.545828],[-0.077233,51.545834],[-0.077238,51.545815],[-0.077245,51.545789],[-0.077247,51.545781],[-0.077248,51.545779],[-0.077252,51.545768],[-0.077255,51.545757],[-0.077264,51.545719],[-0.077205,51.545714],[-0.077159,51.545709],[-0.077099,51.545697],[-0.07717,51.54541],[-0.077277,51.545421],[-0.077367,51.54543],[-0.07746,51.54544],[-0.077456,51.545455],[-0.077472,51.545457],[-0.077653,51.545476],[-0.077827,51.545494],[-0.077846,51.545496],[-0.078381,51.545555],[-0.078407,51.545558],[-0.078438,51.545447],[-0.078469,51.545395],[-0.078501,51.545367],[-0.078514,51.545314],[-0.076351,51.545085],[-0.07635,51.545088],[-0.076059,51.545061],[-0.075921,51.54504],[-0.075939,51.544968],[-0.075962,51.544808],[-0.076,51.544583],[-0.07605,51.5442],[-0.07606,51.544143],[-0.076508,51.539353],[-0.076546,51.539355],[-0.076554,51.53886],[-0.076858,51.538901],[-0.076866,51.538909],[-0.077135,51.538923],[-0.077136,51.538918],[-0.078091,51.538974],[-0.07809,51.538978],[-0.078435,51.539],[-0.078618,51.539005],[-0.078637,51.538998],[-0.078704,51.538767],[-0.078812,51.538393],[-0.078999,51.537744],[-0.079021,51.537661],[-0.079075,51.53747],[-0.079161,51.53714],[-0.079711,51.537218],[-0.080423,51.537313],[-0.08092,51.537373],[-0.081113,51.537396],[-0.081353,51.53742],[-0.081379,51.537267],[-0.084904,51.537816],[-0.085233,51.537838],[-0.08514,51.538179],[-0.085124,51.538243],[-0.086044,51.538343],[-0.086361,51.537446],[-0.08635,51.537424],[-0.086575,51.537309],[-0.086592,51.537256],[-0.086668,51.537261],[-0.088385,51.536384],[-0.088442,51.536379],[-0.088792,51.53622],[-0.08884,51.536215],[-0.089091,51.536084],[-0.089085,51.536066],[-0.089377,51.535928],[-0.089392,51.535939],[-0.089421,51.535928],[-0.089452,51.535913],[-0.089453,51.535915],[-0.089457,51.535914],[-0.089659,51.535833],[-0.089658,51.535832],[-0.089696,51.535817],[-0.08972,51.535807],[-0.089721,51.535806],[-0.089742,51.535776],[-0.089738,51.535764],[-0.089737,51.535764],[-0.08972,51.535749],[-0.093307,51.534043],[-0.094086,51.53385],[-0.09419,51.533812],[-0.094189,51.533808],[-0.095781,51.533158],[-0.095782,51.533158],[-0.095796,51.533153],[-0.09581,51.533148],[-0.095823,51.533142],[-0.095981,51.533081],[-0.096044,51.533056],[-0.096049,51.533054],[-0.096051,51.533052],[-0.096061,51.533045],[-0.096063,51.533043],[-0.096066,51.533038],[-0.096067,51.533035],[-0.096068,51.533027],[-0.096073,51.533025],[-0.096066,51.533025],[-0.096016,51.532956],[-0.095725,51.532557],[-0.095608,51.532397],[-0.095828,51.532362],[-0.096372,51.532205],[-0.096454,51.532179],[-0.096236,51.531862],[-0.09587,51.531311],[-0.095499,51.530787],[-0.095292,51.530466],[-0.095088,51.530055],[-0.09507,51.530026],[-0.095022,51.530022],[-0.095,51.530019],[-0.094935,51.530025],[-0.094906,51.530038],[-0.094634,51.530064],[-0.094353,51.530097],[-0.09434,51.530058],[-0.094991,51.529987],[-0.095031,51.529966],[-0.095069,51.529974],[-0.095058,51.529927],[-0.095056,51.529861],[-0.095068,51.529793],[-0.095116,51.529668],[-0.09538,51.529195],[-0.089576,51.527705],[-0.089151,51.527584],[-0.089024,51.527548],[-0.088755,51.527444],[-0.088637,51.527392],[-0.088573,51.527355],[-0.088527,51.527317],[-0.088459,51.52724],[-0.088285,51.52707],[-0.088106,51.526818],[-0.087812,51.526233],[-0.087779,51.526109],[-0.087414,51.525959],[-0.087269,51.525921],[-0.087007,51.525851],[-0.08677,51.52579],[-0.086431,51.525866],[-0.086273,51.525903],[-0.084995,51.526204],[-0.084883,51.525878],[-0.084725,51.525417],[-0.085005,51.525206],[-0.085245,51.52485],[-0.085384,51.524594],[-0.085418,51.524513],[-0.085085,51.524428],[-0.085114,51.523926],[-0.084502,51.523899],[-0.084198,51.523902],[-0.08429,51.523602],[-0.084313,51.523402],[-0.084416,51.522491],[-0.084498,51.522072],[-0.084678,51.521608],[-0.084881,51.520994],[-0.085042,51.520631],[-0.085192,51.520335],[-0.0833,51.519815],[-0.082708,51.520069],[-0.0823,51.520315],[-0.081992,51.520557],[-0.081769,51.520734],[-0.081737,51.520758],[-0.081524,51.521023],[-0.081259,51.521433],[-0.081025,51.521954],[-0.080733,51.52189],[-0.079744,51.521672],[-0.078446,51.521511],[-0.078427,51.521544],[-0.078211,51.521854],[-0.077897,51.521943],[-0.077106,51.522115],[-0.076692,51.522212],[-0.076428,51.522013],[-0.076161,51.522152],[-0.076138,51.522202],[-0.076054,51.522379],[-0.075989,51.522553],[-0.075837,51.522896],[-0.075813,51.52297],[-0.075789,51.52304],[-0.075745,51.523179],[-0.075701,51.523486],[-0.075693,51.523588],[-0.075751,51.523857],[-0.07589,51.524322],[-0.076417,51.524288],[-0.076535,51.525332],[-0.076576,51.525732],[-0.076603,51.525993],[-0.076617,51.526157],[-0.076615,51.526275],[-0.07661,51.526389],[-0.076514,51.526512],[-0.076331,51.526873],[-0.076289,51.527147],[-0.077227,51.527298],[-0.076863,51.527504],[-0.076324,51.527876],[-0.076013,51.528124],[-0.075708,51.528354],[-0.075654,51.528394],[-0.075609,51.528436],[-0.075453,51.5286],[-0.075292,51.528806],[-0.074906,51.529417],[-0.074624,51.529793],[-0.074348,51.530014],[-0.074145,51.530143],[-0.074019,51.530214],[-0.073747,51.530341],[-0.073123,51.53057],[-0.072896,51.530647],[-0.072762,51.530691],[-0.072239,51.530841],[-0.0719,51.530877],[-0.071607,51.530924],[-0.071206,51.530958],[-0.070505,51.531003],[-0.069889,51.531028],[-0.06927,51.531032],[-0.06797,51.531094],[-0.067283,51.531141],[-0.066287,51.531227],[-0.066153,51.531505],[-0.06599,51.531801],[-0.06599,51.531801],[-0.067924,51.531727],[-0.069004,51.531849],[-0.07157,51.531793],[-0.071885,51.531783],[-0.072235,51.531775],[-0.072252,51.531746],[-0.075752,51.53181],[-0.075842,51.534819],[-0.075852,51.53522],[-0.075855,51.535232],[-0.075865,51.535434],[-0.075868,51.535649],[-0.0759,51.536289],[-0.075882,51.536618],[-0.075622,51.536614],[-0.075593,51.5366],[-0.07523,51.536556],[-0.075191,51.5384],[-0.075225,51.538409],[-0.075464,51.538408],[-0.075736,51.538398],[-0.075698,51.538799],[-0.075653,51.539011],[-0.075631,51.539331],[-0.075616,51.539558],[-0.075497,51.539646],[-0.07517,51.544088],[-0.074927,51.544072],[-0.073712,51.544041],[-0.073686,51.544874],[-0.073605,51.544873],[-0.073586,51.545208],[-0.073574,51.545622],[-0.073564,51.545865],[-0.072714,51.545852],[-0.07197,51.545847],[-0.071791,51.545844],[-0.071787,51.545932],[-0.071734,51.545931],[-0.071209,51.545907],[-0.070872,51.545903],[-0.070708,51.545879],[-0.070704,51.545933],[-0.070369,51.545886],[-0.070098,51.545848],[-0.070102,51.545826],[-0.069984,51.545808],[-0.069977,51.545828],[-0.069922,51.545821],[-0.069894,51.545833],[-0.069836,51.545996],[-0.069777,51.546126],[-0.069461,51.546738],[-0.069463,51.546739],[-0.069436,51.54679],[-0.069371,51.546948],[-0.069269,51.547183],[-0.069268,51.547183],[-0.068813,51.548011],[-0.068824,51.548038],[-0.069606,51.548063],[-0.069606,51.548071],[-0.070097,51.548056],[-0.070279,51.548054],[-0.070393,51.548666],[-0.070801,51.548652],[-0.070782,51.548439],[-0.070907,51.548442],[-0.071026,51.54844],[-0.07145,51.548432],[-0.071457,51.548508],[-0.071783,51.548508],[-0.072152,51.548508],[-0.072562,51.548508],[-0.072806,51.548511],[-0.072903,51.548511],[-0.073048,51.548491],[-0.073106,51.548482],[-0.073198,51.548468],[-0.073523,51.548421],[-0.07362,51.548479],[-0.073756,51.54856],[-0.073837,51.548607],[-0.074032,51.548457],[-0.074181,51.548517],[-0.074318,51.548591],[-0.074313,51.548698],[-0.074312,51.548732],[-0.074303,51.548775],[-0.074293,51.548809],[-0.074266,51.548921],[-0.074178,51.549326],[-0.074166,51.549326],[-0.074164,51.549358],[-0.074139,51.549518],[-0.074106,51.549688],[-0.074119,51.549817],[-0.074101,51.550042],[-0.074381,51.550054],[-0.074659,51.550065],[-0.074707,51.550067],[-0.074699,51.550116],[-0.074683,51.550114],[-0.074665,51.550323],[-0.074724,51.550499],[-0.074766,51.550619]],[[-0.086236,51.537441],[-0.086201,51.537446],[-0.086208,51.53744],[-0.086236,51.537441]],[[-0.081726,51.536856],[-0.081774,51.536641],[-0.08173,51.536619],[-0.08118,51.536563],[-0.080521,51.536492],[-0.079887,51.536428],[-0.079654,51.536406],[-0.07951,51.536391],[-0.079515,51.536237],[-0.07952,51.536194],[-0.079522,51.536171],[-0.079521,51.536159],[-0.079519,51.536158],[-0.079519,51.53615],[-0.079519,51.536064],[-0.079519,51.535968],[-0.079063,51.53599],[-0.078604,51.536012],[-0.078085,51.536037],[-0.077549,51.53607],[-0.07755,51.536056],[-0.077021,51.536079],[-0.076774,51.536076],[-0.076785,51.535827],[-0.076668,51.535545],[-0.076793,51.535546],[-0.0768,51.535362],[-0.076792,51.535263],[-0.076802,51.535169],[-0.076822,51.535079],[-0.07685,51.535067],[-0.076854,51.535059],[-0.076873,51.534879],[-0.076838,51.534879],[-0.077057,51.533094],[-0.076947,51.531999],[-0.076989,51.530728],[-0.077065,51.530736],[-0.077081,51.530649],[-0.077296,51.530645],[-0.077294,51.530656],[-0.077517,51.530666],[-0.07771,51.530678],[-0.077714,51.530653],[-0.077828,51.530658],[-0.077938,51.530664],[-0.07859,51.530694],[-0.078929,51.530738],[-0.079512,51.530767],[-0.079703,51.530776],[-0.079828,51.530781],[-0.079841,51.530782],[-0.079917,51.530787],[-0.080065,51.530795],[-0.080089,51.530781],[-0.080094,51.530706],[-0.080095,51.530666],[-0.08011,51.530666],[-0.080146,51.530349],[-0.080168,51.53035],[-0.080179,51.530314],[-0.080137,51.530068],[-0.07995,51.52952],[-0.079989,51.529524],[-0.080124,51.529642],[-0.081225,51.529544],[-0.08131,51.529735],[-0.083014,51.529748],[-0.083474,51.529915],[-0.086411,51.531288],[-0.093217,51.530495],[-0.093436,51.531124],[-0.093422,51.531227],[-0.093545,51.53155],[-0.093838,51.5315],[-0.094203,51.531432],[-0.094249,51.531507],[-0.094592,51.531964],[-0.095368,51.533054],[-0.093784,51.533465],[-0.09291,51.533654],[-0.092444,51.53384],[-0.092007,51.534016],[-0.091981,51.534033],[-0.091945,51.534062],[-0.091838,51.534102],[-0.091823,51.534092],[-0.0916,51.534182],[-0.091438,51.53425],[-0.091276,51.534315],[-0.091153,51.534375],[-0.091137,51.534245],[-0.090939,51.533986],[-0.090691,51.534053],[-0.089524,51.534388],[-0.089614,51.53451],[-0.089986,51.534984],[-0.089362,51.535307],[-0.089284,51.535348],[-0.08928,51.535368],[-0.08906,51.535447],[-0.088452,51.535624],[-0.088461,51.535636],[-0.087956,51.535766],[-0.086599,51.536159],[-0.086448,51.537183],[-0.086412,51.537137],[-0.086338,51.537143],[-0.086308,51.537144],[-0.086278,51.537145],[-0.086268,51.537145],[-0.086246,51.537145],[-0.086169,51.537143],[-0.086152,51.537143],[-0.086127,51.537142],[-0.086061,51.537143],[-0.085962,51.537144],[-0.085131,51.53715],[-0.08489,51.537164],[-0.084665,51.537177],[-0.084594,51.537181],[-0.084561,51.537185],[-0.084519,51.537191],[-0.084473,51.537199],[-0.08425,51.53725],[-0.083944,51.537291],[-0.081664,51.536951],[-0.081688,51.536852],[-0.081726,51.536856]]],[[[-0.061086,51.549033],[-0.060485,51.548156],[-0.060463,51.548124],[-0.060398,51.54803],[-0.060313,51.548059],[-0.060242,51.548084],[-0.060159,51.548112],[-0.060073,51.548142],[-0.060046,51.548075],[-0.060039,51.548077],[-0.060029,51.548055],[-0.060038,51.548051],[-0.059972,51.547881],[-0.059962,51.547868],[-0.059958,51.547843],[-0.059955,51.54783],[-0.059951,51.547801],[-0.059947,51.547783],[-0.059942,51.547763],[-0.059935,51.547743],[-0.059926,51.547723],[-0.059914,51.547704],[-0.05986,51.547625],[-0.059837,51.547589],[-0.059874,51.547579],[-0.059858,51.547556],[-0.059808,51.547485],[-0.059762,51.547417],[-0.059757,51.547418],[-0.059601,51.547188],[-0.059505,51.547046],[-0.05947,51.54699],[-0.058792,51.545631],[-0.058959,51.545641],[-0.058987,51.545643],[-0.059036,51.545646],[-0.059009,51.545591],[-0.058946,51.545464],[-0.058821,51.545238],[-0.058636,51.544915],[-0.058942,51.54484],[-0.059115,51.544788],[-0.059065,51.544676],[-0.05905,51.544678],[-0.058989,51.544533],[-0.058963,51.54447],[-0.058801,51.5443],[-0.058739,51.544234],[-0.058721,51.544234],[-0.058529,51.544293],[-0.058526,51.544294],[-0.058523,51.544295],[-0.058519,51.544295],[-0.058516,51.544296],[-0.058512,51.544296],[-0.058509,51.544296],[-0.058505,51.544297],[-0.058502,51.544297],[-0.058498,51.544297],[-0.058494,51.544297],[-0.058491,51.544297],[-0.058487,51.544296],[-0.058484,51.544296],[-0.05848,51.544296],[-0.058477,51.544295],[-0.058472,51.544294],[-0.058469,51.544294],[-0.058466,51.544293],[-0.058462,51.544292],[-0.058459,51.544291],[-0.058456,51.54429],[-0.058453,51.544289],[-0.05845,51.544288],[-0.058447,51.544286],[-0.058444,51.544285],[-0.058442,51.544284],[-0.058439,51.544282],[-0.058436,51.544281],[-0.058434,51.544279],[-0.058431,51.544277],[-0.058387,51.544183],[-0.058302,51.543924],[-0.058201,51.543926],[-0.058128,51.543742],[-0.058158,51.543859],[-0.058003,51.543256],[-0.05802,51.543206],[-0.058021,51.543201],[-0.058022,51.543176],[-0.058022,51.543171],[-0.058022,51.543162],[-0.058047,51.543043],[-0.058119,51.543052],[-0.058202,51.543062],[-0.058281,51.543071],[-0.058345,51.54308],[-0.058322,51.542997],[-0.058288,51.542992],[-0.058251,51.542987],[-0.058203,51.54298],[-0.058177,51.542976],[-0.058112,51.542967],[-0.058089,51.542964],[-0.058039,51.542957],[-0.058029,51.542936],[-0.057841,51.542564],[-0.05869,51.541147],[-0.058792,51.540893],[-0.058014,51.540918],[-0.058028,51.540865],[-0.05807,51.540701],[-0.058128,51.540463],[-0.058148,51.540382],[-0.058158,51.540335],[-0.058141,51.540244],[-0.058146,51.540226],[-0.058138,51.540225],[-0.058162,51.540126],[-0.058593,51.539923],[-0.058611,51.540029],[-0.058569,51.540068],[-0.058568,51.540068],[-0.058647,51.540057],[-0.058621,51.53991],[-0.05875,51.539849],[-0.059102,51.539832],[-0.059051,51.539493],[-0.058986,51.53917],[-0.059203,51.539151],[-0.059189,51.539072],[-0.058955,51.539112],[-0.058939,51.539054],[-0.058956,51.539049],[-0.058904,51.538925],[-0.058568,51.538943],[-0.058587,51.538785],[-0.058572,51.538773],[-0.058571,51.53874],[-0.058568,51.53873],[-0.058565,51.538727],[-0.058559,51.538279],[-0.058712,51.538277],[-0.058742,51.538266],[-0.058766,51.53825],[-0.05879,51.538227],[-0.058795,51.538116],[-0.058796,51.537891],[-0.058778,51.537843],[-0.058736,51.537741],[-0.058712,51.537744],[-0.058711,51.537609],[-0.058791,51.537592],[-0.058871,51.537575],[-0.05892,51.537563],[-0.058921,51.537557],[-0.058996,51.537539],[-0.059064,51.537534],[-0.059063,51.537523],[-0.059159,51.537506],[-0.059234,51.537469],[-0.059288,51.537417],[-0.05931,51.537374],[-0.059322,51.537349],[-0.059313,51.537337],[-0.059278,51.53733],[-0.059386,51.537233],[-0.059644,51.536463],[-0.059793,51.53647],[-0.059792,51.536458],[-0.059816,51.536323],[-0.059824,51.536271],[-0.059826,51.536268],[-0.059828,51.536266],[-0.059838,51.536197],[-0.059833,51.536192],[-0.059836,51.536169],[-0.059848,51.536079],[-0.059853,51.536052],[-0.059855,51.536044],[-0.059856,51.536016],[-0.059856,51.535999],[-0.059855,51.535963],[-0.059855,51.535939],[-0.059854,51.535905],[-0.059851,51.535858],[-0.059851,51.535809],[-0.059849,51.535788],[-0.05985,51.535783],[-0.05985,51.535782],[-0.059852,51.535774],[-0.059865,51.535765],[-0.059864,51.535701],[-0.059864,51.535669],[-0.059919,51.535659],[-0.06029,51.535684],[-0.060619,51.535708],[-0.061178,51.535746],[-0.061183,51.535735],[-0.061677,51.535813],[-0.062002,51.53586],[-0.062098,51.535755],[-0.062151,51.535673],[-0.061912,51.535613],[-0.061883,51.535607],[-0.061828,51.535592],[-0.061707,51.535563],[-0.061642,51.535543],[-0.061597,51.535524],[-0.061557,51.535507],[-0.061476,51.535475],[-0.061443,51.535458],[-0.061393,51.535439],[-0.061363,51.53542],[-0.061337,51.5354],[-0.061325,51.535394],[-0.061195,51.535316],[-0.061169,51.535297],[-0.061075,51.535208],[-0.060948,51.53509],[-0.060924,51.535068],[-0.06111,51.534845],[-0.060912,51.53468],[-0.060657,51.534448],[-0.060629,51.534429],[-0.060434,51.534328],[-0.060345,51.53429],[-0.060173,51.534232],[-0.059883,51.534157],[-0.059658,51.534125],[-0.059329,51.534095],[-0.059037,51.534089],[-0.058727,51.534112],[-0.058086,51.534202],[-0.05754,51.534342],[-0.057274,51.534427],[-0.057227,51.534444],[-0.057368,51.53495],[-0.057303,51.534933],[-0.057293,51.535106],[-0.057292,51.535187],[-0.057291,51.535194],[-0.057269,51.535628],[-0.05727,51.535636],[-0.057272,51.535657],[-0.057261,51.535908],[-0.057257,51.535914],[-0.057252,51.535926],[-0.05725,51.535936],[-0.057247,51.535955],[-0.057243,51.535978],[-0.05724,51.53601],[-0.05724,51.536032],[-0.057236,51.536061],[-0.057235,51.536081],[-0.057233,51.536108],[-0.05723,51.536131],[-0.057228,51.536145],[-0.057196,51.536302],[-0.057188,51.536327],[-0.057177,51.53636],[-0.057172,51.536383],[-0.057166,51.536411],[-0.057163,51.536424],[-0.057163,51.536428],[-0.057164,51.536433],[-0.057018,51.537346],[-0.056277,51.537301],[-0.056246,51.53775],[-0.055697,51.53799],[-0.055714,51.537999],[-0.055699,51.538004],[-0.055697,51.53799],[-0.055688,51.537933],[-0.055276,51.537943],[-0.055278,51.537997],[-0.055274,51.538164],[-0.055274,51.538434],[-0.055272,51.538651],[-0.054988,51.538641],[-0.054851,51.538637],[-0.054788,51.538633],[-0.054717,51.538631],[-0.054615,51.538632],[-0.054526,51.538635],[-0.054397,51.538648],[-0.054308,51.53866],[-0.054099,51.538684],[-0.053407,51.538762],[-0.053119,51.538794],[-0.052908,51.538817],[-0.052907,51.538814],[-0.052883,51.538817],[-0.052814,51.538825],[-0.052799,51.5388],[-0.052769,51.538805],[-0.052731,51.538811],[-0.052613,51.538831],[-0.05261,51.538827],[-0.052253,51.538899],[-0.052299,51.539012],[-0.052373,51.53918],[-0.052418,51.539278],[-0.052452,51.539357],[-0.052521,51.539524],[-0.052606,51.539734],[-0.052699,51.539963],[-0.052751,51.540092],[-0.053131,51.540029],[-0.053177,51.54002],[-0.053177,51.54002],[-0.053257,51.540007],[-0.053139,51.539709],[-0.053078,51.539551],[-0.053213,51.539533],[-0.053212,51.53953],[-0.053453,51.539498],[-0.053788,51.539453],[-0.053996,51.539428],[-0.054142,51.539367],[-0.054307,51.539331],[-0.054359,51.53946],[-0.054392,51.539543],[-0.054429,51.539635],[-0.054489,51.539782],[-0.054549,51.539772],[-0.054847,51.539736],[-0.054849,51.539782],[-0.054852,51.539815],[-0.054853,51.539849],[-0.054855,51.53993],[-0.054759,51.539982],[-0.054771,51.54005],[-0.054717,51.540149],[-0.054693,51.540163],[-0.054652,51.540186],[-0.054612,51.540193],[-0.054545,51.540222],[-0.05454,51.540233],[-0.054514,51.540237],[-0.054493,51.54024],[-0.054481,51.540241],[-0.054445,51.540248],[-0.054442,51.540243],[-0.054436,51.54027],[-0.054434,51.540323],[-0.054928,51.540474],[-0.054919,51.540489],[-0.055194,51.540555],[-0.055373,51.540821],[-0.055371,51.540849],[-0.055372,51.540856],[-0.055374,51.540961],[-0.055383,51.541292],[-0.05539,51.541525],[-0.055404,51.54187],[-0.055407,51.542109],[-0.055421,51.542354],[-0.055423,51.5424],[-0.055427,51.542494],[-0.055431,51.542577],[-0.055471,51.542701],[-0.055493,51.542919],[-0.055501,51.542966],[-0.055513,51.543181],[-0.055514,51.543215],[-0.055504,51.543295],[-0.055517,51.543555],[-0.055488,51.543588],[-0.055484,51.543624],[-0.055357,51.543639],[-0.055355,51.543839],[-0.055262,51.543841],[-0.055212,51.543863],[-0.05482,51.543903],[-0.054746,51.543912],[-0.054711,51.543915],[-0.054634,51.543925],[-0.054637,51.543994],[-0.05464,51.544059],[-0.054759,51.5445],[-0.054714,51.54456],[-0.054585,51.54458],[-0.054585,51.544638],[-0.05446,51.544661],[-0.05351,51.544801],[-0.053293,51.54483],[-0.052997,51.544873],[-0.052969,51.544875],[-0.052943,51.544876],[-0.05293,51.544877],[-0.052915,51.544876],[-0.052889,51.544874],[-0.052855,51.544869],[-0.052807,51.544862],[-0.052746,51.544849],[-0.052698,51.544838],[-0.05262,51.544821],[-0.052594,51.544815],[-0.052541,51.544805],[-0.052525,51.544803],[-0.052507,51.5448],[-0.052482,51.544797],[-0.052452,51.544795],[-0.05242,51.544794],[-0.052405,51.544795],[-0.052375,51.544797],[-0.05236,51.544798],[-0.052344,51.5448],[-0.05233,51.544803],[-0.052317,51.544805],[-0.052296,51.54481],[-0.051779,51.544911],[-0.051733,51.544922],[-0.051846,51.545244],[-0.051872,51.545318],[-0.051881,51.545317],[-0.051916,51.545403],[-0.051895,51.545408],[-0.051901,51.54546],[-0.051957,51.545637],[-0.052193,51.546353],[-0.052255,51.546544],[-0.052136,51.546563],[-0.052106,51.546543],[-0.05205,51.546378],[-0.051928,51.545998],[-0.051709,51.546027],[-0.051695,51.54599],[-0.051676,51.545992],[-0.051561,51.545637],[-0.051535,51.545563],[-0.050936,51.545635],[-0.05094,51.545657],[-0.050943,51.545674],[-0.050945,51.545689],[-0.050948,51.545702],[-0.050951,51.54572],[-0.050955,51.545744],[-0.050964,51.54579],[-0.05097,51.545824],[-0.050983,51.545896],[-0.050995,51.545962],[-0.051015,51.546072],[-0.051016,51.546074],[-0.051022,51.546108],[-0.051026,51.546128],[-0.051046,51.54623],[-0.051059,51.546297],[-0.051118,51.546603],[-0.051125,51.546641],[-0.050915,51.546665],[-0.050915,51.546667],[-0.050912,51.546672],[-0.050908,51.546676],[-0.050904,51.546678],[-0.050898,51.546681],[-0.050891,51.546685],[-0.050887,51.546688],[-0.050879,51.546669],[-0.050746,51.546684],[-0.050148,51.54675],[-0.050137,51.546708],[-0.050037,51.546717],[-0.050043,51.546739],[-0.049985,51.546745],[-0.049941,51.546749],[-0.049693,51.546776],[-0.049698,51.546799],[-0.049594,51.54681],[-0.049593,51.546811],[-0.04959,51.546811],[-0.049586,51.54681],[-0.049583,51.546808],[-0.049582,51.546807],[-0.049581,51.546805],[-0.04958,51.546804],[-0.049581,51.546801],[-0.049584,51.546799],[-0.049588,51.546797],[-0.049628,51.546762],[-0.049519,51.546709],[-0.049404,51.546717],[-0.049411,51.546766],[-0.049257,51.546773],[-0.049248,51.546774],[-0.049197,51.546776],[-0.049087,51.546779],[-0.049079,51.546739],[-0.049057,51.54674],[-0.049019,51.546739],[-0.048946,51.546739],[-0.048836,51.546739],[-0.04886,51.546823],[-0.048823,51.546841],[-0.048756,51.546931],[-0.04874,51.546951],[-0.048638,51.546928],[-0.04857,51.546915],[-0.048412,51.546886],[-0.048359,51.546885],[-0.048257,51.546875],[-0.048232,51.546873],[-0.048162,51.546867],[-0.048082,51.546862],[-0.048063,51.546864],[-0.04801,51.546867],[-0.048003,51.546868],[-0.047983,51.546874],[-0.047552,51.546925],[-0.047497,51.546907],[-0.04738,51.546869],[-0.047334,51.546853],[-0.047244,51.546823],[-0.047229,51.546819],[-0.047153,51.546796],[-0.047138,51.54679],[-0.047108,51.546779],[-0.047093,51.546773],[-0.047092,51.54674],[-0.047061,51.546723],[-0.047004,51.54669],[-0.046968,51.54667],[-0.046966,51.546665],[-0.046965,51.546663],[-0.04696,51.546658],[-0.046947,51.546649],[-0.046937,51.546644],[-0.046925,51.546636],[-0.046911,51.546625],[-0.046903,51.546615],[-0.046878,51.54659],[-0.046868,51.54658],[-0.04684,51.54655],[-0.046833,51.546541],[-0.046816,51.546522],[-0.046815,51.54652],[-0.046811,51.546515],[-0.046804,51.546513],[-0.0468,51.546512],[-0.046785,51.54651],[-0.046775,51.546509],[-0.046764,51.546509],[-0.04675,51.54651],[-0.046742,51.546512],[-0.046735,51.546504],[-0.046731,51.546497],[-0.046713,51.546475],[-0.046691,51.546447],[-0.04668,51.546435],[-0.046669,51.546421],[-0.046663,51.546412],[-0.046659,51.546404],[-0.046646,51.546384],[-0.046616,51.546337],[-0.046602,51.546314],[-0.046585,51.546285],[-0.046568,51.546258],[-0.046553,51.546232],[-0.046514,51.54617],[-0.046492,51.546176],[-0.046315,51.546218],[-0.045998,51.546295],[-0.045993,51.546295],[-0.045936,51.546309],[-0.045907,51.546317],[-0.045909,51.546318],[-0.045793,51.546346],[-0.045792,51.54635],[-0.045641,51.546387],[-0.045445,51.546434],[-0.045474,51.546472],[-0.045478,51.546478],[-0.045504,51.54651],[-0.04551,51.546518],[-0.045519,51.546529],[-0.045531,51.546545],[-0.045543,51.54656],[-0.045606,51.546643],[-0.045624,51.546666],[-0.045663,51.546716],[-0.045684,51.546742],[-0.045689,51.54674],[-0.045717,51.546773],[-0.045831,51.546939],[-0.045976,51.547111],[-0.046036,51.547271],[-0.045914,51.547268],[-0.045727,51.547262],[-0.045727,51.547261],[-0.045686,51.54726],[-0.045272,51.547246],[-0.045264,51.547236],[-0.045203,51.547248],[-0.045137,51.547262],[-0.045121,51.547239],[-0.045021,51.547233],[-0.04493,51.547228],[-0.044847,51.547224],[-0.044765,51.547219],[-0.044511,51.547205],[-0.044331,51.547162],[-0.044313,51.547161],[-0.044238,51.547159],[-0.04418,51.547157],[-0.044179,51.547168],[-0.044094,51.547186],[-0.044038,51.547195],[-0.043754,51.547182],[-0.043755,51.547195],[-0.043655,51.547192],[-0.043569,51.54719],[-0.043495,51.547188],[-0.043393,51.547186],[-0.043299,51.547184],[-0.043299,51.547188],[-0.043198,51.547186],[-0.042965,51.547181],[-0.042891,51.547178],[-0.042888,51.547182],[-0.042884,51.547184],[-0.042875,51.547185],[-0.042861,51.547185],[-0.042858,51.547186],[-0.042823,51.547183],[-0.042829,51.547173],[-0.042664,51.54717],[-0.042544,51.547167],[-0.042394,51.547165],[-0.042283,51.547163],[-0.042281,51.547088],[-0.042186,51.547084],[-0.042067,51.54708],[-0.042071,51.547087],[-0.042087,51.547228],[-0.042093,51.547234],[-0.042091,51.547234],[-0.042111,51.547322],[-0.042122,51.547365],[-0.042153,51.547435],[-0.042122,51.547442],[-0.042161,51.547512],[-0.042228,51.547633],[-0.042248,51.547667],[-0.042335,51.54782],[-0.042361,51.547815],[-0.042429,51.547799],[-0.042497,51.547785],[-0.042523,51.54778],[-0.042561,51.547841],[-0.042588,51.547884],[-0.042597,51.547899],[-0.042602,51.547907],[-0.042615,51.547926],[-0.042627,51.547944],[-0.042634,51.547955],[-0.042661,51.547999],[-0.042702,51.548065],[-0.042668,51.548072],[-0.042628,51.548081],[-0.042543,51.548099],[-0.042526,51.548102],[-0.042543,51.548129],[-0.042576,51.548189],[-0.042641,51.548302],[-0.042714,51.54843],[-0.042714,51.548432],[-0.042723,51.548443],[-0.04273,51.548449],[-0.042799,51.548434],[-0.042866,51.548421],[-0.042863,51.548414],[-0.042908,51.548405],[-0.042871,51.548341],[-0.043021,51.54831],[-0.043031,51.54833],[-0.043044,51.548353],[-0.043056,51.548374],[-0.043058,51.548378],[-0.043068,51.548397],[-0.043098,51.54839],[-0.043101,51.548393],[-0.043113,51.54839],[-0.0432,51.548372],[-0.043237,51.548364],[-0.043291,51.548354],[-0.043289,51.548352],[-0.043301,51.548348],[-0.043315,51.54835],[-0.043488,51.548309],[-0.043483,51.548301],[-0.043441,51.548232],[-0.043519,51.548214],[-0.043577,51.548201],[-0.0436,51.548238],[-0.043779,51.548204],[-0.043781,51.548184],[-0.04382,51.548196],[-0.043855,51.548188],[-0.043893,51.548179],[-0.043952,51.548166],[-0.044055,51.548142],[-0.044166,51.548117],[-0.04421,51.548106],[-0.044216,51.548118],[-0.044361,51.548092],[-0.044369,51.548108],[-0.044525,51.548083],[-0.044488,51.548],[-0.044477,51.547977],[-0.044454,51.547936],[-0.044495,51.547926],[-0.044544,51.547917],[-0.044551,51.547927],[-0.044631,51.547913],[-0.044723,51.547895],[-0.04478,51.54802],[-0.044785,51.548029],[-0.04502,51.548001],[-0.045259,51.54796],[-0.045258,51.547956],[-0.045269,51.547955],[-0.045271,51.547959],[-0.045306,51.547953],[-0.045305,51.547949],[-0.045356,51.54794],[-0.045367,51.547938],[-0.045449,51.54794],[-0.045645,51.547947],[-0.045683,51.547935],[-0.045721,51.547938],[-0.045747,51.547941],[-0.045836,51.54794],[-0.046093,51.54795],[-0.047816,51.547953],[-0.04796,51.547364],[-0.047997,51.547365],[-0.048207,51.547373],[-0.048336,51.547378],[-0.048525,51.547384],[-0.048771,51.547393],[-0.048894,51.547398],[-0.04903,51.547402],[-0.049256,51.54741],[-0.049367,51.547394],[-0.049773,51.547405],[-0.049879,51.547413],[-0.050142,51.547432],[-0.050349,51.547444],[-0.050493,51.547451],[-0.050566,51.547451],[-0.050639,51.547452],[-0.050858,51.547452],[-0.05093,51.547451],[-0.051007,51.547448],[-0.051067,51.547442],[-0.051094,51.547439],[-0.051281,51.54744],[-0.051326,51.547439],[-0.051435,51.547436],[-0.051435,51.547436],[-0.051468,51.547485],[-0.051606,51.547705],[-0.051617,51.547723],[-0.051622,51.547728],[-0.051626,51.547734],[-0.051631,51.54774],[-0.051635,51.547745],[-0.051639,51.547751],[-0.051644,51.547756],[-0.051677,51.547796],[-0.051698,51.547821],[-0.051736,51.547867],[-0.051796,51.547939],[-0.051834,51.547989],[-0.051881,51.548046],[-0.051864,51.548109],[-0.051904,51.548161],[-0.051945,51.548213],[-0.052034,51.548319],[-0.052094,51.548398],[-0.052123,51.548427],[-0.052162,51.548468],[-0.052249,51.548579],[-0.052342,51.548713],[-0.052432,51.54886],[-0.052467,51.548941],[-0.052771,51.549626],[-0.052836,51.54977],[-0.05267,51.549802],[-0.052632,51.549809],[-0.052609,51.549813],[-0.052657,51.549909],[-0.05258,51.549926],[-0.05264,51.550051],[-0.052683,51.550043],[-0.052692,51.550064],[-0.052669,51.550065],[-0.052307,51.550137],[-0.052184,51.550162],[-0.051988,51.550198],[-0.051729,51.550246],[-0.051514,51.550287],[-0.051176,51.55035],[-0.051187,51.550368],[-0.051227,51.550473],[-0.051242,51.550504],[-0.051089,51.550535],[-0.050609,51.550616],[-0.050697,51.550825],[-0.050541,51.550855],[-0.050646,51.551107],[-0.050824,51.551077],[-0.050877,51.551201],[-0.050941,51.55119],[-0.050952,51.551214],[-0.050962,51.551237],[-0.050966,51.551236],[-0.051012,51.55134],[-0.050949,51.55135],[-0.050971,51.551383],[-0.051028,51.551469],[-0.051071,51.551534],[-0.051316,51.551468],[-0.051356,51.551456],[-0.051419,51.551555],[-0.051396,51.551561],[-0.051427,51.551613],[-0.051369,51.551629],[-0.051382,51.551652],[-0.051388,51.551665],[-0.051405,51.551713],[-0.051435,51.551793],[-0.051517,51.551773],[-0.051701,51.55206],[-0.051647,51.552073],[-0.051674,51.552122],[-0.051689,51.55215],[-0.051717,51.552197],[-0.051703,51.5522],[-0.051717,51.552223],[-0.051668,51.552235],[-0.05175,51.552364],[-0.05173,51.552369],[-0.051583,51.552405],[-0.051731,51.552636],[-0.051762,51.552656],[-0.051784,51.552695],[-0.052078,51.552616],[-0.052169,51.552572],[-0.05232,51.552498],[-0.0525,51.552428],[-0.052605,51.552359],[-0.052817,51.552267],[-0.052935,51.552226],[-0.052958,51.552216],[-0.052597,51.55188],[-0.052516,51.551806],[-0.052559,51.551791],[-0.052372,51.551618],[-0.05295,51.551508],[-0.052818,51.551232],[-0.053108,51.551183],[-0.05306,51.551074],[-0.05303,51.551008],[-0.053004,51.551012],[-0.052992,51.550985],[-0.053288,51.55094],[-0.053329,51.550934],[-0.053449,51.551285],[-0.053479,51.551371],[-0.053636,51.551855],[-0.053681,51.551905],[-0.053834,51.551808],[-0.054446,51.551688],[-0.054624,51.551655],[-0.055418,51.551512],[-0.05568,51.551469],[-0.05564,51.551397],[-0.055052,51.550033],[-0.055053,51.550029],[-0.055052,51.550024],[-0.054958,51.549805],[-0.054934,51.549751],[-0.05493,51.549742],[-0.054928,51.549735],[-0.054924,51.549728],[-0.05492,51.549721],[-0.054902,51.54966],[-0.054931,51.549679],[-0.054949,51.549706],[-0.054962,51.549727],[-0.055038,51.549715],[-0.055067,51.549711],[-0.055159,51.549655],[-0.055365,51.549655],[-0.05543,51.549588],[-0.055429,51.54956],[-0.055508,51.549556],[-0.055663,51.54955],[-0.05587,51.549546],[-0.056039,51.549542],[-0.056202,51.549541],[-0.05629,51.549541],[-0.056294,51.549541],[-0.056406,51.549543],[-0.056546,51.549545],[-0.056643,51.549546],[-0.056933,51.549548],[-0.057345,51.549554],[-0.057567,51.549557],[-0.057656,51.549558],[-0.057779,51.54956],[-0.057865,51.549562],[-0.058092,51.549563],[-0.058114,51.549659],[-0.058187,51.54991],[-0.05819,51.549924],[-0.058239,51.550091],[-0.058255,51.550143],[-0.058312,51.55035],[-0.058381,51.55059],[-0.058832,51.550538],[-0.059097,51.55051],[-0.059417,51.549813],[-0.059561,51.549723],[-0.059587,51.549711],[-0.059637,51.549691],[-0.059666,51.54968],[-0.059695,51.549668],[-0.059728,51.549656],[-0.059778,51.549637],[-0.059796,51.549632],[-0.059813,51.549627],[-0.059898,51.54961],[-0.060189,51.549483],[-0.060188,51.549478],[-0.060416,51.549352],[-0.060559,51.549276],[-0.060594,51.549256],[-0.06072,51.54919],[-0.061086,51.549033]]],[[[-0.058226,51.543485],[-0.058235,51.543463],[-0.058054,51.543433],[-0.058048,51.543432],[-0.058125,51.543729],[-0.058165,51.543634],[-0.058226,51.543485]]],[[[-0.061086,51.549033],[-0.061086,51.549033],[-0.061097,51.549028],[-0.061086,51.549033]]]]}},
{"type":"Feature","properties":{"fid":358,"address":null,"borough":"City of London","boroughdesignation":null,"classification":"Office to Resi","designation":"Article 4 Direction","easting":0,"extrainfo1":null,"extrainfo2":null,"extrainfo3":null,"firstaddeddate":null,"hectares":"314.942","lastupdateddate":null,"layerreference":"OTR00000346","northing":0,"notes":null,"objectid":346,"planningauthority":null,"removeddate":null,"shape":null,"sitename":null,"sitereference":null,"source":null,"status":null,"uprn":null,"runtime":"09/18/2019","in_cw":false,"whole_in_zone":false},"geometry":{"type":"MultiPolygon","coordinates":[[[[-0.096688,51.523194],[-0.096761,51.523322],[-0.097947,51.522879],[-0.097908,51.522844],[-0.097876,51.522812],[-0.097762,51.522688],[-0.097676,51.522576],[-0.097615,51.522483],[-0.097487,51.522233],[-0.097358,51.521855],[-0.097349,51.521729],[-0.097368,51.521629],[-0.097378,51.521594],[-0.097491,51.521604],[-0.097543,51.521305],[-0.097599,51.521033],[-0.097645,51.520723],[-0.098426,51.520588],[-0.098877,51.520498],[-0.099323,51.520369],[-0.099629,51.520284],[-0.100085,51.520143],[-0.100232,51.520136],[-0.100276,51.520129],[-0.100405,51.52011],[-0.100777,51.519988],[-0.101047,51.51991],[-0.10155,51.519751],[-0.101796,51.519667],[-0.102059,51.519576],[-0.103232,51.519208],[-0.104731,51.518749],[-0.105316,51.518545],[-0.105325,51.518542],[-0.105812,51.518397],[-0.106175,51.518275],[-0.106506,51.518177],[-0.107024,51.518021],[-0.107381,51.517895],[-0.107566,51.517844],[-0.107802,51.517766],[-0.108167,51.517792],[-0.109009,51.517887],[-0.109507,51.517928],[-0.110451,51.518076],[-0.111601,51.518209],[-0.112314,51.518264],[-0.113005,51.518293],[-0.113796,51.518259],[-0.113787,51.518221],[-0.113762,51.518107],[-0.113717,51.517964],[-0.113694,51.517935],[-0.113424,51.517645],[-0.112836,51.517044],[-0.112129,51.516225],[-0.112108,51.5162],[-0.111844,51.515801],[-0.111582,51.515339],[-0.111551,51.515285],[-0.111527,51.515224],[-0.111385,51.514795],[-0.111113,51.513961],[-0.111077,51.513826],[-0.111307,51.513792],[-0.111956,51.513686],[-0.111833,51.513474],[-0.111714,51.513196],[-0.112313,51.513037],[-0.112189,51.512889],[-0.11235,51.512831],[-0.112322,51.512798],[-0.11239,51.51277],[-0.112176,51.512516],[-0.112033,51.512331],[-0.112164,51.512308],[-0.112142,51.512279],[-0.112133,51.512266],[-0.111862,51.511968],[-0.111746,51.512003],[-0.111686,51.511954],[-0.111542,51.511731],[-0.111506,51.511644],[-0.111532,51.511444],[-0.111549,51.511318],[-0.111562,51.510911],[-0.111549,51.510756],[-0.111439,51.50977],[-0.111049,51.5098],[-0.110592,51.509821],[-0.110357,51.509825],[-0.109914,51.509841],[-0.109163,51.509872],[-0.10847,51.509887],[-0.107897,51.509903],[-0.107335,51.509905],[-0.106961,51.50991],[-0.106487,51.509908],[-0.105563,51.509888],[-0.105154,51.509876],[-0.104615,51.509875],[-0.104632,51.509672],[-0.104637,51.509671],[-0.104747,51.509644],[-0.104725,51.509619],[-0.104718,51.509611],[-0.104635,51.509606],[-0.104632,51.509464],[-0.104664,51.509118],[-0.104739,51.509107],[-0.104718,51.509095],[-0.104658,51.509062],[-0.104659,51.509017],[-0.104677,51.508624],[-0.104717,51.50857],[-0.104709,51.508475],[-0.104663,51.50841],[-0.10418,51.508425],[-0.104181,51.508498],[-0.10421,51.508622],[-0.104198,51.508805],[-0.104188,51.509046],[-0.104064,51.509088],[-0.104172,51.509139],[-0.104179,51.50958],[-0.104033,51.50963],[-0.104012,51.509642],[-0.104158,51.509671],[-0.104155,51.509854],[-0.103589,51.509853],[-0.103276,51.509818],[-0.101563,51.509808],[-0.100186,51.509727],[-0.099927,51.509713],[-0.099291,51.509674],[-0.098958,51.509644],[-0.09852,51.509606],[-0.097708,51.509535],[-0.096825,51.509448],[-0.095991,51.509333],[-0.095705,51.509286],[-0.095279,51.509195],[-0.094924,51.509108],[-0.093989,51.508896],[-0.093146,51.508657],[-0.092798,51.508555],[-0.092626,51.508512],[-0.092336,51.508447],[-0.091903,51.508359],[-0.09108,51.508263],[-0.090485,51.508185],[-0.090302,51.50816],[-0.089478,51.508085],[-0.089039,51.508031],[-0.088944,51.508018],[-0.088598,51.507987],[-0.088073,51.507927],[-0.087732,51.507884],[-0.087725,51.507883],[-0.087634,51.507877],[-0.086742,51.507815],[-0.086076,51.507755],[-0.085751,51.507736],[-0.085712,51.507733],[-0.085651,51.507729],[-0.085162,51.507691],[-0.084866,51.507647],[-0.084182,51.507531],[-0.08391,51.50748],[-0.083441,51.507426],[-0.082644,51.507304],[-0.081896,51.507194],[-0.081372,51.507109],[-0.081102,51.507063],[-0.081035,51.507051],[-0.080751,51.507],[-0.08027,51.506898],[-0.080165,51.50687],[-0.079755,51.507585],[-0.079732,51.5076],[-0.079525,51.507727],[-0.079379,51.507794],[-0.079354,51.507843],[-0.07932,51.507908],[-0.079218,51.507894],[-0.079077,51.508221],[-0.079029,51.508333],[-0.079022,51.508414],[-0.078846,51.508653],[-0.078711,51.50881],[-0.078696,51.508828],[-0.078712,51.508833],[-0.078766,51.508851],[-0.078723,51.508939],[-0.079064,51.509055],[-0.079074,51.509058],[-0.079024,51.509117],[-0.078937,51.509123],[-0.078857,51.509413],[-0.078519,51.509441],[-0.07849,51.509444],[-0.078477,51.509513],[-0.078373,51.509657],[-0.078141,51.509882],[-0.077938,51.510026],[-0.077764,51.510115],[-0.077553,51.510173],[-0.077053,51.510204],[-0.076894,51.510214],[-0.076857,51.51026],[-0.076861,51.51034],[-0.076868,51.510471],[-0.07687,51.510505],[-0.076533,51.510527],[-0.07626,51.510545],[-0.076251,51.510454],[-0.076147,51.510457],[-0.076125,51.510458],[-0.076057,51.510107],[-0.075756,51.510129],[-0.075751,51.510082],[-0.075733,51.509887],[-0.075674,51.509857],[-0.075668,51.509854],[-0.075615,51.509806],[-0.075596,51.509788],[-0.075559,51.509751],[-0.075541,51.509756],[-0.075386,51.509802],[-0.074809,51.509995],[-0.074593,51.509967],[-0.074525,51.509959],[-0.074396,51.509946],[-0.074171,51.510009],[-0.074024,51.510051],[-0.073808,51.510094],[-0.073496,51.510109],[-0.073115,51.510108],[-0.072965,51.510105],[-0.072889,51.510148],[-0.07281,51.510241],[-0.072755,51.510299],[-0.072734,51.510361],[-0.072724,51.510641],[-0.072735,51.510774],[-0.072738,51.510805],[-0.072746,51.510873],[-0.072802,51.511085],[-0.072891,51.511254],[-0.072958,51.511443],[-0.073018,51.511683],[-0.073038,51.511809],[-0.073117,51.512341],[-0.073242,51.512945],[-0.073364,51.513372],[-0.073366,51.513377],[-0.073462,51.513677],[-0.073639,51.514132],[-0.073943,51.514454],[-0.074281,51.514688],[-0.074416,51.514791],[-0.074788,51.5151],[-0.07512,51.515355],[-0.076408,51.516258],[-0.076794,51.516593],[-0.076832,51.516637],[-0.076851,51.516659],[-0.076893,51.516708],[-0.077345,51.517397],[-0.077377,51.517447],[-0.077618,51.517866],[-0.077627,51.51789],[-0.077661,51.517975],[-0.077708,51.518038],[-0.077778,51.518109],[-0.07794,51.518251],[-0.078121,51.51847],[-0.078023,51.518486],[-0.078057,51.518969],[-0.078309,51.518946],[-0.079404,51.518846],[-0.079148,51.519452],[-0.078964,51.520115],[-0.078815,51.520653],[-0.078818,51.520657],[-0.078785,51.52074],[-0.078705,51.52104],[-0.078446,51.521511],[-0.079744,51.521672],[-0.080733,51.52189],[-0.081025,51.521954],[-0.081259,51.521433],[-0.081524,51.521023],[-0.081737,51.520758],[-0.081769,51.520734],[-0.081992,51.520557],[-0.0823,51.520315],[-0.082708,51.520069],[-0.0833,51.519815],[-0.085192,51.520335],[-0.085351,51.520129],[-0.085531,51.519832],[-0.085788,51.519428],[-0.085879,51.51929],[-0.086202,51.51881],[-0.086332,51.518845],[-0.087517,51.519201],[-0.088104,51.519412],[-0.088613,51.519572],[-0.089278,51.519782],[-0.089681,51.519891],[-0.089755,51.519911],[-0.089979,51.519971],[-0.089679,51.52069],[-0.089668,51.520716],[-0.090238,51.520801],[-0.090901,51.52088],[-0.091347,51.52094],[-0.091796,51.520982],[-0.092151,51.521015],[-0.092349,51.521029],[-0.092491,51.521487],[-0.093276,51.521334],[-0.093389,51.521526],[-0.093568,51.521496],[-0.09359,51.521587],[-0.09385,51.52154],[-0.094319,51.521484],[-0.094385,51.521746],[-0.094597,51.522314],[-0.094904,51.522855],[-0.095063,51.523138],[-0.095962,51.52291],[-0.095992,51.522956],[-0.096444,51.522823],[-0.096598,51.523178],[-0.096659,51.523167],[-0.096672,51.523164],[-0.096688,51.523194]]]]}}
]}
