{"type":"FeatureCollection","meta":{
 "source": "City of London INSPIRE map service: Thames Tideway Tunnel Safeguarding Area",
 "borough": "City of London",
 "page": "https://www.mapping.cityoflondon.gov.uk/arcgis/rest/services/INSPIRE/MapServer/129",
 "api": "https://www.mapping.cityoflondon.gov.uk/arcgis/rest/services/INSPIRE/MapServer/129/query?where=1=1&geometry=<zone box>&geometryType=esriGeometryEnvelope&inSR=4326&spatialRel=esriSpatialRelIntersects&outFields=*&outSR=4326&f=geojson&resultOffset=<n>",
 "fetched": "2026-10-04",
 "licence": "Open Government Licence v3.0",
 "licence_evidence": "the City's INSPIRE record on data.gov.uk (thames-tideway-tunnel-safeguarding-area3): [\"http://www.nationalarchives.gov.uk/doc/open-government-licence/version/3/\"] | [\"https://inspire.ec.europa.eu/metadata-codelist/LimitationsOnPublicAccess\", \"License\"]",
 "licence_url": "https://www.nationalarchives.gov.uk/doc/open-government-licence/version/3/",
 "attribution": "Contains public sector information licensed under the Open Government Licence v3.0 (City of London Corporation)",
 "zone": "the 3D model box, BNG E 532400-539900, N 176700-182300 (WGS84 -0.095, 51.474 to 0.015, 51.522)",
 "method": "walk-portals.mjs boroughs harvest city-thames-tideway-tunnel-safeguarding-area: features that meet the zone box, WGS84 rounded to 6 decimals, whole geometries; whole_in_zone, in_cw; empty fields and ArcGIS shape measures left out; fields matching /e-?mail|phone|tel(ephone)?$|^tel|contact|^fax|mobile|^owner_?name|person|officer|case_?officer|agent_?name|applicant/i dropped",
 "counts": {
  "features": 13,
  "zone_count_at_walk": 13,
  "in_cw": 0
 },
 "fields_dropped": []
},
"features":[
{"type":"Feature","geometry":{"type":"Polygon","coordinates":[[[-0.017372,51.476592],[-0.017363,51.476596],[-0.017499,51.476636],[-0.017473,51.476671],[-0.017549,51.476697],[-0.017616,51.476722],[-0.017673,51.476743],[-0.01771,51.476759],[-0.017731,51.476766],[-0.017785,51.476788],[-0.017805,51.476798],[-0.017826,51.476808],[-0.017871,51.476831],[-0.017901,51.476846],[-0.017958,51.476873],[-0.017966,51.476878],[-0.017971,51.476877],[-0.017978,51.476876],[-0.017989,51.476868],[-0.018058,51.476841],[-0.018337,51.476933],[-0.018354,51.47692],[-0.018431,51.476847],[-0.018542,51.476747],[-0.01855,51.476737],[-0.018609,51.476704],[-0.018797,51.476825],[-0.01867,51.476904],[-0.018665,51.476907],[-0.018639,51.476924],[-0.018633,51.476927],[-0.018536,51.476987],[-0.01853,51.476983],[-0.018386,51.477072],[-0.018406,51.477085],[-0.018238,51.477187],[-0.018126,51.477257],[-0.01811,51.477248],[-0.017989,51.477172],[-0.017764,51.477124],[-0.017761,51.477198],[-0.017695,51.477199],[-0.017694,51.477234],[-0.017667,51.477243],[-0.017606,51.477263],[-0.017598,51.477257],[-0.017543,51.477284],[-0.017551,51.477306],[-0.017565,51.477348],[-0.017639,51.477347],[-0.017697,51.477346],[-0.017698,51.477395],[-0.017698,51.477437],[-0.017699,51.477463],[-0.0177,51.477484],[-0.017702,51.477495],[-0.017732,51.477609],[-0.017662,51.477622],[-0.017675,51.477658],[-0.01768,51.477671],[-0.017684,51.477685],[-0.017699,51.47772],[-0.017715,51.477755],[-0.01773,51.477818],[-0.017739,51.477835],[-0.017747,51.477898],[-0.017748,51.477971],[-0.017743,51.478089],[-0.017743,51.478231],[-0.017745,51.478259],[-0.017741,51.478332],[-0.017997,51.478341],[-0.018071,51.478364],[-0.018051,51.47839],[-0.018204,51.478436],[-0.018203,51.47845],[-0.018196,51.47845],[-0.018184,51.478517],[-0.018189,51.478517],[-0.018183,51.478539],[-0.018182,51.478548],[-0.018172,51.478612],[-0.018162,51.478676],[-0.018138,51.478829],[-0.018123,51.478932],[-0.018373,51.478968],[-0.018519,51.478988],[-0.018634,51.479003],[-0.018655,51.479007],[-0.018676,51.479007],[-0.018674,51.478996],[-0.018685,51.478972],[-0.0187,51.478937],[-0.018715,51.478901],[-0.01873,51.478862],[-0.018753,51.478812],[-0.018769,51.478774],[-0.018786,51.478731],[-0.018797,51.478709],[-0.018807,51.478681],[-0.01882,51.478648],[-0.018834,51.478622],[-0.018848,51.478586],[-0.01886,51.47855],[-0.018876,51.478516],[-0.018888,51.478489],[-0.018908,51.478443],[-0.018918,51.478419],[-0.018929,51.478392],[-0.018942,51.478361],[-0.018954,51.478332],[-0.018966,51.478303],[-0.01897,51.478294],[-0.018978,51.478274],[-0.01898,51.478267],[-0.018986,51.478249],[-0.018988,51.478242],[-0.018996,51.478225],[-0.019,51.478206],[-0.019017,51.478207],[-0.019042,51.47821],[-0.019072,51.478213],[-0.019094,51.478215],[-0.019102,51.47821],[-0.019106,51.478178],[-0.018913,51.478164],[-0.01892,51.478121],[-0.018926,51.478087],[-0.018928,51.47808],[-0.018935,51.47804],[-0.018973,51.478043],[-0.019028,51.478047],[-0.019087,51.478052],[-0.019099,51.477988],[-0.019031,51.47796],[-0.019023,51.477922],[-0.018979,51.477727],[-0.018953,51.477622],[-0.01895,51.477611],[-0.018931,51.477536],[-0.018928,51.477522],[-0.018927,51.477518],[-0.018874,51.477312],[-0.019027,51.477049],[-0.019139,51.476981],[-0.019223,51.476927],[-0.019368,51.476837],[-0.019518,51.476742],[-0.019578,51.476707],[-0.019587,51.4767],[-0.019601,51.476691],[-0.019591,51.476685],[-0.019586,51.476688],[-0.019157,51.476454],[-0.019117,51.476431],[-0.019064,51.476402],[-0.019055,51.476408],[-0.019,51.476378],[-0.019013,51.476369],[-0.018983,51.476352],[-0.018952,51.476335],[-0.018937,51.476328],[-0.018929,51.476335],[-0.018764,51.476452],[-0.018758,51.476456],[-0.018721,51.476482],[-0.018672,51.476517],[-0.018546,51.476607],[-0.01854,51.476611],[-0.018296,51.476442],[-0.018237,51.476486],[-0.018196,51.476458],[-0.01813,51.476522],[-0.01811,51.476503],[-0.018084,51.476478],[-0.018074,51.476469],[-0.018052,51.476448],[-0.01797,51.476481],[-0.017883,51.476393],[-0.017819,51.476418],[-0.01779,51.476429],[-0.017727,51.476454],[-0.017671,51.476476],[-0.017647,51.476486],[-0.017587,51.476508],[-0.017532,51.47653],[-0.017506,51.47654],[-0.017491,51.476546],[-0.01747,51.476555],[-0.017372,51.476592]]]},"properties":{"OBJECTID":8,"NAME":"Thames Tideway Tunnel Safeguarding Area","TYPE":"Safeguarding for all other parts of project","SITE_NAME":"Greenwich Pumping Station","whole_in_zone":true,"in_cw":false}},
{"type":"Feature","geometry":{"type":"Polygon","coordinates":[[[-0.04854,51.508751],[-0.048567,51.508747],[-0.048594,51.508741],[-0.048618,51.508732],[-0.048695,51.508698],[-0.048999,51.508534],[-0.049153,51.508545],[-0.049163,51.508748],[-0.0494,51.508742],[-0.049398,51.50869],[-0.049394,51.508614],[-0.049469,51.508612],[-0.04983,51.508599],[-0.049835,51.508662],[-0.049847,51.508837],[-0.049854,51.508918],[-0.049855,51.508923],[-0.049855,51.508931],[-0.049855,51.50894],[-0.04986,51.508989],[-0.049863,51.509037],[-0.049872,51.509144],[-0.050041,51.509141],[-0.050315,51.509138],[-0.050514,51.509137],[-0.050559,51.509136],[-0.05056,51.509175],[-0.050565,51.509411],[-0.050565,51.509413],[-0.050567,51.50948],[-0.050568,51.509511],[-0.05057,51.50959],[-0.050499,51.509638],[-0.050366,51.509643],[-0.05039,51.509897],[-0.05044,51.509895],[-0.050496,51.509927],[-0.050675,51.509932],[-0.050678,51.509916],[-0.05068,51.509912],[-0.050681,51.509909],[-0.050682,51.509907],[-0.050688,51.5099],[-0.050691,51.509898],[-0.050693,51.509896],[-0.050696,51.509893],[-0.050699,51.509891],[-0.050702,51.509888],[-0.050707,51.509885],[-0.05072,51.509877],[-0.050724,51.509875],[-0.050728,51.509874],[-0.050732,51.509871],[-0.050737,51.509868],[-0.050745,51.509865],[-0.050753,51.509862],[-0.050758,51.509862],[-0.050763,51.509861],[-0.050767,51.509859],[-0.050771,51.509859],[-0.050777,51.509858],[-0.050782,51.509857],[-0.050787,51.509857],[-0.050792,51.509856],[-0.050841,51.509855],[-0.05082,51.509662],[-0.050748,51.509623],[-0.050748,51.50959],[-0.050747,51.509572],[-0.050742,51.509422],[-0.05074,51.509354],[-0.050739,51.509335],[-0.050739,51.509327],[-0.050737,51.509255],[-0.050736,51.509229],[-0.050734,51.509153],[-0.050731,51.509052],[-0.050724,51.508891],[-0.050716,51.50867],[-0.050713,51.508535],[-0.050713,51.508533],[-0.050713,51.508533],[-0.050714,51.508531],[-0.050715,51.50853],[-0.050716,51.508527],[-0.050727,51.508494],[-0.050728,51.508493],[-0.050733,51.508402],[-0.050582,51.508398],[-0.050543,51.508369],[-0.05053,51.508378],[-0.050529,51.508408],[-0.050531,51.508444],[-0.050534,51.508475],[-0.050218,51.508438],[-0.049865,51.508397],[-0.049817,51.508391],[-0.049754,51.508384],[-0.049479,51.508352],[-0.049474,51.508403],[-0.049299,51.5084],[-0.049209,51.508346],[-0.049148,51.508377],[-0.049072,51.508331],[-0.048968,51.508394],[-0.048896,51.508405],[-0.04884,51.508444],[-0.048589,51.50858],[-0.048583,51.508586],[-0.048575,51.508594],[-0.048569,51.508599],[-0.048562,51.508605],[-0.048549,51.508614],[-0.048541,51.50862],[-0.048521,51.508634],[-0.048422,51.508638],[-0.048339,51.508642],[-0.048336,51.508642],[-0.048333,51.508642],[-0.048216,51.508605],[-0.048182,51.508525],[-0.048188,51.508521],[-0.048245,51.508479],[-0.047805,51.508004],[-0.046136,51.50861],[-0.046371,51.508863],[-0.046603,51.509115],[-0.04672,51.509084],[-0.046755,51.509075],[-0.046862,51.509035],[-0.0469,51.509076],[-0.046913,51.509091],[-0.046919,51.509098],[-0.046935,51.509116],[-0.047009,51.509204],[-0.047126,51.509163],[-0.047335,51.509093],[-0.047516,51.509031],[-0.047681,51.508974],[-0.047986,51.508836],[-0.048378,51.508763],[-0.04854,51.508751]]]},"properties":{"OBJECTID":9,"NAME":"Thames Tideway Tunnel Safeguarding Area","TYPE":"Safeguarding for all other parts of project","SITE_NAME":"King Edward Memorial Park Foreshore","whole_in_zone":true,"in_cw":false}},
{"type":"Feature","geometry":{"type":"Polygon","coordinates":[[[-0.041007,51.491898],[-0.040894,51.49177],[-0.040732,51.491589],[-0.040712,51.491567],[-0.040842,51.491518],[-0.040693,51.491363],[-0.040529,51.491192],[-0.04042,51.491233],[-0.040218,51.491307],[-0.040039,51.491373],[-0.040054,51.491396],[-0.039686,51.491508],[-0.039602,51.491534],[-0.03956,51.491548],[-0.039667,51.491685],[-0.039846,51.491914],[-0.039896,51.491977],[-0.039981,51.492085],[-0.040075,51.492105],[-0.040085,51.492102],[-0.040232,51.492052],[-0.040378,51.492001],[-0.040455,51.492089],[-0.041007,51.491898]]]},"properties":{"OBJECTID":14,"NAME":"Thames Tideway Tunnel Safeguarding Area","TYPE":"Safeguarding for all other parts of project","SITE_NAME":"Earl Pumping Station","whole_in_zone":true,"in_cw":false}},
{"type":"Feature","geometry":{"type":"Polygon","coordinates":[[[-0.072684,51.50226],[-0.072612,51.502327],[-0.072555,51.502382],[-0.072492,51.502444],[-0.072413,51.50252],[-0.072392,51.502541],[-0.072427,51.502555],[-0.072366,51.502614],[-0.072312,51.502662],[-0.072272,51.502696],[-0.072265,51.502702],[-0.072219,51.50274],[-0.072191,51.502728],[-0.072168,51.502749],[-0.072145,51.502739],[-0.072101,51.50272],[-0.071993,51.50281],[-0.072025,51.502824],[-0.072036,51.502829],[-0.072078,51.502848],[-0.072128,51.502877],[-0.072207,51.502917],[-0.072213,51.502913],[-0.072246,51.50293],[-0.072299,51.502884],[-0.07227,51.50287],[-0.072265,51.502868],[-0.072424,51.502718],[-0.072431,51.502712],[-0.072624,51.502794],[-0.072617,51.502801],[-0.072643,51.502812],[-0.072668,51.502823],[-0.072682,51.502829],[-0.07271,51.502841],[-0.073022,51.502559],[-0.072957,51.502531],[-0.072883,51.502498],[-0.072678,51.502408],[-0.072821,51.502272],[-0.072899,51.502197],[-0.072934,51.502162],[-0.072948,51.50215],[-0.072966,51.502145],[-0.072984,51.502146],[-0.072997,51.50215],[-0.07303,51.50216],[-0.073085,51.502105],[-0.073024,51.502081],[-0.072959,51.502056],[-0.072847,51.502015],[-0.072768,51.501983],[-0.072743,51.502009],[-0.07273,51.502022],[-0.072766,51.502036],[-0.072754,51.502047],[-0.072856,51.502086],[-0.072709,51.502235],[-0.072684,51.50226]]]},"properties":{"OBJECTID":15,"NAME":"Thames Tideway Tunnel Safeguarding Area","TYPE":"Safeguarding for all other parts of project","SITE_NAME":"Shad Thames Pumping Station","whole_in_zone":true,"in_cw":false}},
{"type":"Feature","geometry":{"type":"Polygon","coordinates":[[[-0.040285,51.512257],[-0.040286,51.512255],[-0.040361,51.512153],[-0.040364,51.512137],[-0.040379,51.51206],[-0.040383,51.51204],[-0.040397,51.511971],[-0.040411,51.5119],[-0.040426,51.511827],[-0.040427,51.51182],[-0.040422,51.51182],[-0.040424,51.511809],[-0.040441,51.511726],[-0.04039,51.511722],[-0.040337,51.511718],[-0.040341,51.5117],[-0.040253,51.511692],[-0.040249,51.511711],[-0.040228,51.51171],[-0.040214,51.511772],[-0.040211,51.511788],[-0.040209,51.511797],[-0.040217,51.511797],[-0.040158,51.512079],[-0.040154,51.512099],[-0.040154,51.5121],[-0.040153,51.512102],[-0.040152,51.512103],[-0.040151,51.512105],[-0.04015,51.512106],[-0.040148,51.512107],[-0.040146,51.512108],[-0.040144,51.51211],[-0.040142,51.51211],[-0.04014,51.512111],[-0.040138,51.512112],[-0.040135,51.512112],[-0.040133,51.512113],[-0.04013,51.512113],[-0.040128,51.512113],[-0.040125,51.512113],[-0.040123,51.512112],[-0.04012,51.512112],[-0.04007,51.512105],[-0.0399,51.51209],[-0.039894,51.512201],[-0.039922,51.512203],[-0.039991,51.512209],[-0.039989,51.51225],[-0.040104,51.512253],[-0.040101,51.512306],[-0.04021,51.512308],[-0.040212,51.512255],[-0.040285,51.512257]]]},"properties":{"OBJECTID":16,"NAME":"Thames Tideway Tunnel Safeguarding Area","TYPE":"Safeguarding for all other parts of project","SITE_NAME":"Bekesbourne Street","whole_in_zone":true,"in_cw":false}},
{"type":"Feature","geometry":{"type":"MultiPolygon","coordinates":[[[[-0.064273,51.501408],[-0.066775,51.501938],[-0.067064,51.501419],[-0.06696,51.501395],[-0.066928,51.501388],[-0.067007,51.501251],[-0.066951,51.501239],[-0.066899,51.501227],[-0.066872,51.501221],[-0.067074,51.500871],[-0.067054,51.500813],[-0.067188,51.500561],[-0.067273,51.500589],[-0.067274,51.500589],[-0.067361,51.500617],[-0.067363,51.500618],[-0.067465,51.500651],[-0.067476,51.500654],[-0.067479,51.500655],[-0.067483,51.500657],[-0.067486,51.500658],[-0.067489,51.500659],[-0.067491,51.500661],[-0.067494,51.500662],[-0.067497,51.500664],[-0.067499,51.500666],[-0.067502,51.500668],[-0.067505,51.500671],[-0.067508,51.500673],[-0.067511,51.500676],[-0.067513,51.500679],[-0.067515,51.500682],[-0.067517,51.500686],[-0.067519,51.500689],[-0.067521,51.500693],[-0.067521,51.500693],[-0.067522,51.500698],[-0.067524,51.500704],[-0.067524,51.500709],[-0.067524,51.500718],[-0.067524,51.500726],[-0.067521,51.500741],[-0.067519,51.500748],[-0.067514,51.500762],[-0.067445,51.500882],[-0.067397,51.500989],[-0.067396,51.500991],[-0.067395,51.500993],[-0.067394,51.500995],[-0.067393,51.500997],[-0.067391,51.500999],[-0.06739,51.501001],[-0.067388,51.501003],[-0.067386,51.501005],[-0.067385,51.501007],[-0.067383,51.501008],[-0.06738,51.50101],[-0.067378,51.501012],[-0.067376,51.501013],[-0.067374,51.501015],[-0.067371,51.501016],[-0.067368,51.501018],[-0.067366,51.501019],[-0.067363,51.50102],[-0.06736,51.501022],[-0.067357,51.501023],[-0.067354,51.501024],[-0.067351,51.501025],[-0.067348,51.501025],[-0.067344,51.501026],[-0.067341,51.501027],[-0.067338,51.501027],[-0.067335,51.501028],[-0.067331,51.501028],[-0.067328,51.501029],[-0.067327,51.501029],[-0.067324,51.501029],[-0.067321,51.501029],[-0.067318,51.501029],[-0.067314,51.501029],[-0.067311,51.501029],[-0.067307,51.501029],[-0.067304,51.501029],[-0.067297,51.501028],[-0.067278,51.50106],[-0.06735,51.501076],[-0.06743,51.501094],[-0.067448,51.501056],[-0.067452,51.501048],[-0.06752,51.500897],[-0.067665,51.500643],[-0.067634,51.500633],[-0.067501,51.500589],[-0.067365,51.500545],[-0.067229,51.5005],[-0.066773,51.50036],[-0.066758,51.500355],[-0.066668,51.500327],[-0.06656,51.500293],[-0.066554,51.500291],[-0.066365,51.500232],[-0.066392,51.500197],[-0.066269,51.500158],[-0.066241,51.500192],[-0.066187,51.500172],[-0.066185,51.500171],[-0.066072,51.500132],[-0.065995,51.500107],[-0.065945,51.50009],[-0.065895,51.500073],[-0.065841,51.500055],[-0.065807,51.500043],[-0.065774,51.500032],[-0.065721,51.500014],[-0.065688,51.500003],[-0.065581,51.499966],[-0.065368,51.500185],[-0.065274,51.500279],[-0.065155,51.500403],[-0.065071,51.500491],[-0.065057,51.500501],[-0.065055,51.500502],[-0.065053,51.500504],[-0.065051,51.500505],[-0.065049,51.500506],[-0.065047,51.500507],[-0.065045,51.500508],[-0.065038,51.500511],[-0.065036,51.500511],[-0.065033,51.500512],[-0.065032,51.500513],[-0.065029,51.500514],[-0.065024,51.500514],[-0.065021,51.500515],[-0.065018,51.500515],[-0.065016,51.500515],[-0.064992,51.500515],[-0.064989,51.500514],[-0.064984,51.500514],[-0.064983,51.500514],[-0.064977,51.500514],[-0.064972,51.500513],[-0.064968,51.500512],[-0.064963,51.500512],[-0.064958,51.500511],[-0.064949,51.500509],[-0.064944,51.500508],[-0.06494,51.500507],[-0.064912,51.500557],[-0.064908,51.500566],[-0.064896,51.500587],[-0.064871,51.500631],[-0.064847,51.500673],[-0.064825,51.500712],[-0.064816,51.500711],[-0.064773,51.500705],[-0.06476,51.500737],[-0.064733,51.500734],[-0.06472,51.500735],[-0.064717,51.500735],[-0.064712,51.500737],[-0.064709,51.500738],[-0.064708,51.500739],[-0.064706,51.500741],[-0.064703,51.500744],[-0.064679,51.500817],[-0.064585,51.500806],[-0.064273,51.501408]]],[[[-0.065249,51.499588],[-0.065152,51.499671],[-0.065305,51.499742],[-0.06545,51.499617],[-0.065298,51.499547],[-0.065249,51.499588]]]]},"properties":{"OBJECTID":18,"NAME":"Thames Tideway Tunnel Safeguarding Area","TYPE":"Safeguarding for all other parts of project","SITE_NAME":"Chambers Wharf","whole_in_zone":true,"in_cw":false}},
{"type":"Feature","geometry":{"type":"MultiPolygon","coordinates":[[[[-0.022947,51.479369],[-0.02295,51.479469],[-0.022953,51.479549],[-0.022954,51.47957],[-0.022955,51.479591],[-0.02295,51.479725],[-0.022952,51.47978],[-0.022954,51.479825],[-0.022953,51.479849],[-0.022908,51.479849],[-0.022912,51.479924],[-0.022915,51.479964],[-0.02329,51.47995],[-0.023282,51.479891],[-0.02328,51.479876],[-0.023277,51.479855],[-0.023276,51.479843],[-0.023266,51.479793],[-0.023265,51.479785],[-0.023263,51.479776],[-0.023262,51.47976],[-0.023259,51.479739],[-0.023257,51.479719],[-0.023256,51.479704],[-0.023255,51.47969],[-0.023253,51.47967],[-0.023252,51.47965],[-0.02325,51.479634],[-0.023249,51.479617],[-0.023249,51.479603],[-0.023249,51.479589],[-0.023247,51.479567],[-0.023246,51.479558],[-0.023245,51.479551],[-0.023244,51.479547],[-0.023244,51.479542],[-0.023243,51.479539],[-0.023243,51.479535],[-0.023244,51.479528],[-0.023246,51.47952],[-0.023254,51.479468],[-0.02362,51.479443],[-0.023589,51.479312],[-0.024547,51.479274],[-0.024627,51.479292],[-0.024695,51.479324],[-0.024744,51.479347],[-0.024819,51.479403],[-0.025142,51.47955],[-0.025202,51.47956],[-0.025412,51.479387],[-0.025368,51.479365],[-0.025309,51.479336],[-0.02528,51.479322],[-0.025278,51.479321],[-0.025275,51.47932],[-0.025251,51.479309],[-0.025216,51.479293],[-0.025182,51.479276],[-0.025137,51.479254],[-0.025017,51.479193],[-0.025012,51.479192],[-0.025006,51.479191],[-0.025,51.479188],[-0.024994,51.479185],[-0.024978,51.479177],[-0.02497,51.479173],[-0.024962,51.479169],[-0.024793,51.47909],[-0.024617,51.47901],[-0.024577,51.478991],[-0.024536,51.478972],[-0.024509,51.478959],[-0.024483,51.478946],[-0.024465,51.478938],[-0.024445,51.47893],[-0.024431,51.478923],[-0.02442,51.478918],[-0.024415,51.478923],[-0.024407,51.478929],[-0.024405,51.478928],[-0.0244,51.478926],[-0.024385,51.478919],[-0.024368,51.478912],[-0.02435,51.478905],[-0.024344,51.478903],[-0.024331,51.478898],[-0.024303,51.478888],[-0.024276,51.478878],[-0.024246,51.478867],[-0.024239,51.478864],[-0.024252,51.478851],[-0.02425,51.47885],[-0.024081,51.478785],[-0.024014,51.478759],[-0.023944,51.478732],[-0.023938,51.478738],[-0.023823,51.478696],[-0.02372,51.478659],[-0.02374,51.478628],[-0.023742,51.478622],[-0.023721,51.478619],[-0.02365,51.478609],[-0.023285,51.478506],[-0.023149,51.478491],[-0.023136,51.47849],[-0.023118,51.478487],[-0.023095,51.478485],[-0.023052,51.478385],[-0.022805,51.478405],[-0.022822,51.478455],[-0.022827,51.478471],[-0.022833,51.478487],[-0.022841,51.478512],[-0.022848,51.478537],[-0.022855,51.478554],[-0.02286,51.478571],[-0.022865,51.478589],[-0.022868,51.478606],[-0.02287,51.478621],[-0.022873,51.478635],[-0.022876,51.478649],[-0.022879,51.478664],[-0.022882,51.478681],[-0.022885,51.478699],[-0.02289,51.478725],[-0.022894,51.478752],[-0.022897,51.478776],[-0.0229,51.478799],[-0.022904,51.478826],[-0.022908,51.478854],[-0.022912,51.478893],[-0.022916,51.478923],[-0.022919,51.478952],[-0.022921,51.47897],[-0.022922,51.478989],[-0.022934,51.479072],[-0.022938,51.47919],[-0.022891,51.479191],[-0.022891,51.479212],[-0.022939,51.479211],[-0.022939,51.479216],[-0.022947,51.479369]]],[[[-0.022923,51.480081],[-0.022925,51.480099],[-0.02293,51.48018],[-0.022939,51.48025],[-0.022949,51.480316],[-0.022952,51.48034],[-0.022963,51.480409],[-0.023034,51.480404],[-0.023024,51.480336],[-0.02302,51.480311],[-0.023011,51.480246],[-0.023002,51.480177],[-0.022996,51.480097],[-0.022995,51.480077],[-0.022923,51.480081]]],[[[-0.023236,51.480065],[-0.023264,51.480224],[-0.023277,51.480298],[-0.023291,51.480389],[-0.023363,51.480385],[-0.023348,51.480293],[-0.023336,51.480219],[-0.023308,51.480062],[-0.023236,51.480065]]],[[[-0.022849,51.477901],[-0.022885,51.478028],[-0.022886,51.478033],[-0.022924,51.478173],[-0.022995,51.478166],[-0.022957,51.478026],[-0.022956,51.478021],[-0.02292,51.477892],[-0.022849,51.477901]]],[[[-0.02263,51.477929],[-0.02264,51.477961],[-0.022643,51.477966],[-0.022645,51.477972],[-0.022651,51.477989],[-0.022655,51.478006],[-0.022663,51.478038],[-0.022687,51.478118],[-0.022702,51.478167],[-0.02271,51.478196],[-0.022781,51.478188],[-0.022773,51.478159],[-0.022758,51.478109],[-0.022734,51.47803],[-0.022726,51.477999],[-0.022722,51.47798],[-0.022715,51.477962],[-0.022713,51.477954],[-0.022709,51.477947],[-0.0227,51.47792],[-0.02263,51.477929]]]]},"properties":{"OBJECTID":19,"NAME":"Thames Tideway Tunnel Safeguarding Area","TYPE":"Safeguarding for all other parts of project","SITE_NAME":"Deptford Church Street","whole_in_zone":true,"in_cw":false}},
{"type":"Feature","geometry":{"type":"Polygon","coordinates":[[[-0.103532,51.510583],[-0.103809,51.510591],[-0.10521,51.510462],[-0.10496,51.51043],[-0.104652,51.510394],[-0.104342,51.510365],[-0.104031,51.510343],[-0.103718,51.510327],[-0.103405,51.510319],[-0.102968,51.510311],[-0.10268,51.510304],[-0.102392,51.51029],[-0.102105,51.51027],[-0.10182,51.510244],[-0.101536,51.510211],[-0.101254,51.510173],[-0.100974,51.510129],[-0.100697,51.510079],[-0.100697,51.510078],[-0.100595,51.510059],[-0.094924,51.508965],[-0.094704,51.508921],[-0.094485,51.508872],[-0.094269,51.50882],[-0.092682,51.508422],[-0.092406,51.508356],[-0.092126,51.508296],[-0.091844,51.508241],[-0.091558,51.508193],[-0.09127,51.508151],[-0.09098,51.508114],[-0.084297,51.507347],[-0.083931,51.507302],[-0.083568,51.507251],[-0.083207,51.507194],[-0.082848,51.507131],[-0.082493,51.507062],[-0.08214,51.506988],[-0.08179,51.506908],[-0.074277,51.505112],[-0.074002,51.505043],[-0.073731,51.504967],[-0.073464,51.504886],[-0.073202,51.504799],[-0.072945,51.504706],[-0.072693,51.504608],[-0.072448,51.504504],[-0.072208,51.504395],[-0.071974,51.504281],[-0.071747,51.504162],[-0.071527,51.504037],[-0.071314,51.503908],[-0.071109,51.503775],[-0.069208,51.502494],[-0.068927,51.502311],[-0.068639,51.502132],[-0.068342,51.501958],[-0.068038,51.50179],[-0.067727,51.501626],[-0.067408,51.501469],[-0.067082,51.501317],[-0.066993,51.501276],[-0.066928,51.501388],[-0.06696,51.501395],[-0.067064,51.501419],[-0.066968,51.50159],[-0.067263,51.501731],[-0.067552,51.501877],[-0.067835,51.502027],[-0.068111,51.502182],[-0.068381,51.502341],[-0.068644,51.502505],[-0.068899,51.502673],[-0.0708,51.503953],[-0.071016,51.504093],[-0.071239,51.504229],[-0.07147,51.504359],[-0.071709,51.504485],[-0.071954,51.504605],[-0.072206,51.504719],[-0.072464,51.504828],[-0.072728,51.504931],[-0.072998,51.505029],[-0.073273,51.50512],[-0.073553,51.505205],[-0.073838,51.505284],[-0.074127,51.505357],[-0.08164,51.507153],[-0.082,51.507235],[-0.082363,51.507312],[-0.082729,51.507383],[-0.083098,51.507448],[-0.08347,51.507506],[-0.083844,51.507559],[-0.084221,51.507605],[-0.090904,51.508372],[-0.091181,51.508407],[-0.091455,51.508447],[-0.091727,51.508494],[-0.091996,51.508545],[-0.092262,51.508603],[-0.092525,51.508666],[-0.094112,51.509064],[-0.094339,51.509118],[-0.094568,51.509169],[-0.0948,51.509216],[-0.100572,51.510329],[-0.1008,51.510371],[-0.101029,51.510409],[-0.101491,51.510411],[-0.101966,51.510523],[-0.102213,51.510542],[-0.102461,51.510557],[-0.102709,51.510568],[-0.102957,51.510574],[-0.103532,51.510583]]]},"properties":{"OBJECTID":32,"NAME":"Thames Tideway Tunnel Safeguarding Area","TYPE":"Safeguarding for tunnels","whole_in_zone":false,"in_cw":false}},
{"type":"Feature","geometry":{"type":"Polygon","coordinates":[[[-0.018979,51.477727],[-0.019023,51.477922],[-0.019031,51.47796],[-0.019099,51.477988],[-0.019096,51.478005],[-0.020164,51.478286],[-0.020387,51.478341],[-0.020614,51.478391],[-0.020843,51.478435],[-0.021075,51.478473],[-0.021309,51.478505],[-0.02143,51.47852],[-0.02164,51.478549],[-0.021848,51.478583],[-0.022054,51.478622],[-0.022257,51.478665],[-0.022458,51.478714],[-0.022655,51.478767],[-0.022906,51.478839],[-0.022904,51.478826],[-0.0229,51.478799],[-0.022897,51.478776],[-0.022894,51.478752],[-0.02289,51.478725],[-0.022885,51.478699],[-0.022882,51.478681],[-0.022879,51.478664],[-0.022876,51.478649],[-0.022873,51.478635],[-0.02287,51.478621],[-0.022868,51.478606],[-0.022865,51.478589],[-0.02286,51.478571],[-0.022856,51.478558],[-0.022816,51.478547],[-0.022605,51.478489],[-0.022391,51.478437],[-0.022173,51.478391],[-0.021953,51.478349],[-0.021731,51.478313],[-0.021506,51.478282],[-0.021385,51.478267],[-0.021166,51.478237],[-0.020949,51.478201],[-0.020735,51.47816],[-0.020523,51.478114],[-0.020315,51.478062],[-0.018975,51.47771],[-0.018979,51.477727]]]},"properties":{"OBJECTID":34,"NAME":"Thames Tideway Tunnel Safeguarding Area","TYPE":"Safeguarding for tunnels","whole_in_zone":true,"in_cw":false}},
{"type":"Feature","geometry":{"type":"Polygon","coordinates":[[[-0.024414,51.479279],[-0.024595,51.479347],[-0.02477,51.47942],[-0.024939,51.479499],[-0.025101,51.479583],[-0.025257,51.479672],[-0.025404,51.479766],[-0.025544,51.479864],[-0.025676,51.479967],[-0.025799,51.480074],[-0.025913,51.480184],[-0.026018,51.480298],[-0.026113,51.480416],[-0.026604,51.481059],[-0.026698,51.481176],[-0.026801,51.481289],[-0.026912,51.4814],[-0.027031,51.481507],[-0.027158,51.481611],[-0.027292,51.481711],[-0.027434,51.481806],[-0.027583,51.481898],[-0.027738,51.481985],[-0.0279,51.482068],[-0.032124,51.484129],[-0.032315,51.484226],[-0.032499,51.484329],[-0.032675,51.484437],[-0.032844,51.484549],[-0.033004,51.484666],[-0.034021,51.485442],[-0.034175,51.485565],[-0.03432,51.485692],[-0.034456,51.485823],[-0.034582,51.485958],[-0.034698,51.486096],[-0.034804,51.486237],[-0.0349,51.486381],[-0.034986,51.486528],[-0.035061,51.486677],[-0.035964,51.488624],[-0.036039,51.488773],[-0.036123,51.488921],[-0.036218,51.489066],[-0.036323,51.489208],[-0.036437,51.489348],[-0.03656,51.489484],[-0.036693,51.489618],[-0.036834,51.489747],[-0.036984,51.489873],[-0.037142,51.489994],[-0.037309,51.490112],[-0.037483,51.490225],[-0.037665,51.490333],[-0.037853,51.490436],[-0.038049,51.490534],[-0.038251,51.490627],[-0.04002,51.491406],[-0.040054,51.491396],[-0.040039,51.491373],[-0.040218,51.491307],[-0.040355,51.491257],[-0.038475,51.490429],[-0.038274,51.490336],[-0.03808,51.490238],[-0.037892,51.490134],[-0.037713,51.490025],[-0.037542,51.489911],[-0.037379,51.489792],[-0.037224,51.489669],[-0.037079,51.489542],[-0.036943,51.489411],[-0.036817,51.489276],[-0.0367,51.489138],[-0.036594,51.488996],[-0.036498,51.488852],[-0.036412,51.488705],[-0.036337,51.488556],[-0.035434,51.486609],[-0.035362,51.486466],[-0.035282,51.486324],[-0.035192,51.486185],[-0.035093,51.486048],[-0.034985,51.485914],[-0.034869,51.485782],[-0.034744,51.485653],[-0.034612,51.485528],[-0.034471,51.485406],[-0.034322,51.485288],[-0.033305,51.484512],[-0.033162,51.484408],[-0.033014,51.484306],[-0.03286,51.484209],[-0.0327,51.484115],[-0.032534,51.484024],[-0.032363,51.483938],[-0.028139,51.481877],[-0.027975,51.481793],[-0.027819,51.481703],[-0.02767,51.481609],[-0.027529,51.48151],[-0.027396,51.481407],[-0.027272,51.481299],[-0.027157,51.481188],[-0.027051,51.481073],[-0.026955,51.480955],[-0.026464,51.480311],[-0.026361,51.480185],[-0.026249,51.480062],[-0.026127,51.479943],[-0.025995,51.479828],[-0.025854,51.479717],[-0.025704,51.479611],[-0.025546,51.479509],[-0.025381,51.479413],[-0.025202,51.47956],[-0.025142,51.47955],[-0.024819,51.479403],[-0.024744,51.479347],[-0.024695,51.479324],[-0.024627,51.479292],[-0.024547,51.479274],[-0.024414,51.479279]]]},"properties":{"OBJECTID":35,"NAME":"Thames Tideway Tunnel Safeguarding Area","TYPE":"Safeguarding for tunnels","whole_in_zone":true,"in_cw":false}},
{"type":"Feature","geometry":{"type":"Polygon","coordinates":[[[-0.061034,51.495566],[-0.061268,51.495564],[-0.061502,51.495569],[-0.061736,51.49558],[-0.061968,51.495599],[-0.062199,51.495625],[-0.062427,51.495658],[-0.062653,51.495697],[-0.062875,51.495743],[-0.063093,51.495796],[-0.063307,51.495856],[-0.063517,51.495922],[-0.063721,51.495994],[-0.063919,51.496072],[-0.06411,51.496156],[-0.064295,51.496246],[-0.064473,51.496341],[-0.064644,51.496441],[-0.064806,51.496547],[-0.06496,51.496657],[-0.065105,51.496772],[-0.065241,51.496891],[-0.065368,51.497014],[-0.065485,51.49714],[-0.065592,51.49727],[-0.065689,51.497403],[-0.065776,51.497539],[-0.065852,51.497678],[-0.065917,51.497818],[-0.065971,51.497961],[-0.066015,51.498104],[-0.066046,51.498249],[-0.066067,51.498395],[-0.066077,51.498541],[-0.066075,51.498687],[-0.066061,51.498833],[-0.066037,51.498979],[-0.066001,51.499123],[-0.065954,51.499266],[-0.065896,51.499408],[-0.065636,51.499985],[-0.065688,51.500003],[-0.065721,51.500014],[-0.065774,51.500032],[-0.065807,51.500043],[-0.065841,51.500055],[-0.065895,51.500073],[-0.065945,51.50009],[-0.065986,51.500104],[-0.06627,51.499474],[-0.06633,51.499328],[-0.066379,51.499181],[-0.066418,51.499033],[-0.066445,51.498884],[-0.066461,51.498734],[-0.066466,51.498583],[-0.06646,51.498433],[-0.066443,51.498283],[-0.066415,51.498134],[-0.066376,51.497986],[-0.066326,51.497839],[-0.066265,51.497693],[-0.066194,51.49755],[-0.066112,51.497408],[-0.06602,51.497269],[-0.065918,51.497133],[-0.065806,51.497],[-0.065684,51.496871],[-0.065553,51.496745],[-0.065412,51.496623],[-0.065263,51.496505],[-0.065105,51.496391],[-0.064939,51.496282],[-0.064765,51.496179],[-0.064584,51.49608],[-0.064396,51.495986],[-0.064201,51.495898],[-0.063999,51.495816],[-0.063792,51.495739],[-0.06358,51.495669],[-0.063362,51.495604],[-0.06314,51.495546],[-0.062914,51.495495],[-0.062684,51.49545],[-0.062451,51.495411],[-0.062216,51.49538],[-0.061978,51.495355],[-0.061739,51.495337],[-0.061499,51.495326],[-0.061259,51.495321],[-0.061018,51.495324],[-0.05912,51.495372],[-0.058881,51.495375],[-0.058642,51.495371],[-0.058403,51.495361],[-0.058166,51.495345],[-0.057929,51.495322],[-0.057695,51.495293],[-0.048731,51.494059],[-0.048523,51.494027],[-0.048317,51.493991],[-0.048114,51.49395],[-0.047913,51.493904],[-0.047715,51.493853],[-0.04752,51.493798],[-0.043566,51.492612],[-0.04336,51.492546],[-0.043158,51.492476],[-0.042961,51.4924],[-0.042769,51.492319],[-0.040763,51.491436],[-0.040842,51.491518],[-0.040712,51.491567],[-0.040732,51.491589],[-0.040894,51.49177],[-0.040924,51.491804],[-0.042545,51.492518],[-0.04275,51.492604],[-0.042961,51.492685],[-0.043177,51.492761],[-0.043398,51.49283],[-0.047352,51.494016],[-0.04756,51.494076],[-0.047772,51.49413],[-0.047987,51.494179],[-0.048204,51.494223],[-0.048425,51.494262],[-0.048647,51.494296],[-0.057611,51.49553],[-0.057862,51.495561],[-0.058115,51.495586],[-0.058369,51.495603],[-0.058624,51.495614],[-0.05888,51.495618],[-0.059136,51.495615],[-0.061034,51.495566]]]},"properties":{"OBJECTID":38,"NAME":"Thames Tideway Tunnel Safeguarding Area","TYPE":"Safeguarding for tunnels","whole_in_zone":true,"in_cw":false}},
{"type":"Feature","geometry":{"type":"Polygon","coordinates":[[[-0.06104,51.500896],[-0.060725,51.500918],[-0.060412,51.500948],[-0.0601,51.500984],[-0.059791,51.501028],[-0.059484,51.501078],[-0.059181,51.501135],[-0.058881,51.501199],[-0.058585,51.501269],[-0.058293,51.501346],[-0.058006,51.501429],[-0.057723,51.501519],[-0.057446,51.501615],[-0.057175,51.501718],[-0.05691,51.501826],[-0.056651,51.50194],[-0.056398,51.50206],[-0.056153,51.502185],[-0.055915,51.502316],[-0.055685,51.502452],[-0.055463,51.502593],[-0.055249,51.502738],[-0.055043,51.502889],[-0.054847,51.503044],[-0.054659,51.503203],[-0.050582,51.506797],[-0.05041,51.506943],[-0.05023,51.507085],[-0.050043,51.507224],[-0.049848,51.507358],[-0.049645,51.507488],[-0.049436,51.507613],[-0.04922,51.507734],[-0.048997,51.50785],[-0.048768,51.507962],[-0.048533,51.508068],[-0.048293,51.508169],[-0.048047,51.508265],[-0.048245,51.508479],[-0.048195,51.508516],[-0.04846,51.508414],[-0.04872,51.508307],[-0.048973,51.508194],[-0.04922,51.508075],[-0.04946,51.507951],[-0.049693,51.507822],[-0.049918,51.507688],[-0.050136,51.50755],[-0.050346,51.507406],[-0.050547,51.507258],[-0.050741,51.507105],[-0.050925,51.506949],[-0.055002,51.503355],[-0.055181,51.503203],[-0.055368,51.503056],[-0.055564,51.502912],[-0.055768,51.502773],[-0.05598,51.502639],[-0.056199,51.502509],[-0.056426,51.502385],[-0.056659,51.502266],[-0.056899,51.502152],[-0.057146,51.502043],[-0.057399,51.50194],[-0.057657,51.501842],[-0.057921,51.501751],[-0.05819,51.501665],[-0.058464,51.501586],[-0.058742,51.501513],[-0.059024,51.501445],[-0.059309,51.501385],[-0.059598,51.50133],[-0.05989,51.501283],[-0.060185,51.501241],[-0.060482,51.501207],[-0.06078,51.501179],[-0.06108,51.501157],[-0.064509,51.500952],[-0.064585,51.500806],[-0.064679,51.500817],[-0.064703,51.500744],[-0.064706,51.500741],[-0.064708,51.500739],[-0.064709,51.500738],[-0.064712,51.500737],[-0.064717,51.500735],[-0.06472,51.500735],[-0.064733,51.500734],[-0.06476,51.500737],[-0.064773,51.500705],[-0.064816,51.500711],[-0.064825,51.500712],[-0.064847,51.500673],[-0.06485,51.500668],[-0.06104,51.500896]]]},"properties":{"OBJECTID":44,"NAME":"Thames Tideway Tunnel Safeguarding Area","TYPE":"Safeguarding for tunnels","whole_in_zone":true,"in_cw":false}},
{"type":"Feature","geometry":{"type":"Polygon","coordinates":[[[-0.004336,51.527188],[-0.004559,51.526929],[-0.00469,51.526781],[-0.00483,51.526636],[-0.004977,51.526494],[-0.005131,51.526355],[-0.010244,51.52189],[-0.010428,51.521735],[-0.010621,51.521585],[-0.010823,51.521439],[-0.011033,51.521298],[-0.011252,51.521161],[-0.011478,51.52103],[-0.011712,51.520904],[-0.011953,51.520783],[-0.012201,51.520668],[-0.012456,51.520559],[-0.030789,51.512995],[-0.031024,51.512902],[-0.031264,51.512813],[-0.031508,51.512729],[-0.031757,51.512651],[-0.03201,51.512577],[-0.032266,51.512509],[-0.032565,51.512433],[-0.032843,51.512359],[-0.033116,51.51228],[-0.033385,51.512194],[-0.033649,51.512103],[-0.033908,51.512006],[-0.034162,51.511904],[-0.03441,51.511796],[-0.034652,51.511683],[-0.034887,51.511566],[-0.035116,51.511443],[-0.035338,51.511315],[-0.035604,51.511157],[-0.035827,51.511029],[-0.036056,51.510907],[-0.036293,51.510789],[-0.036537,51.510677],[-0.036787,51.510571],[-0.037042,51.51047],[-0.037304,51.510375],[-0.03757,51.510285],[-0.037842,51.510202],[-0.038118,51.510125],[-0.038398,51.510054],[-0.038683,51.50999],[-0.038971,51.509932],[-0.039262,51.50988],[-0.039555,51.509835],[-0.039852,51.509796],[-0.04015,51.509765],[-0.04045,51.509739],[-0.040751,51.509721],[-0.041053,51.509709],[-0.043041,51.509655],[-0.043347,51.509643],[-0.043652,51.509625],[-0.043956,51.5096],[-0.044259,51.509569],[-0.044559,51.509531],[-0.044857,51.509486],[-0.045153,51.509436],[-0.045445,51.509378],[-0.045734,51.509315],[-0.04602,51.509245],[-0.046301,51.50917],[-0.046578,51.509088],[-0.046371,51.508863],[-0.046368,51.50886],[-0.046106,51.508937],[-0.045839,51.509008],[-0.045569,51.509073],[-0.045296,51.509133],[-0.045019,51.509187],[-0.04474,51.509234],[-0.044458,51.509276],[-0.044174,51.509312],[-0.043888,51.509341],[-0.043601,51.509365],[-0.043312,51.509382],[-0.043023,51.509393],[-0.041034,51.509447],[-0.040717,51.509459],[-0.040401,51.509479],[-0.040086,51.509505],[-0.039773,51.509539],[-0.039462,51.509579],[-0.039154,51.509626],[-0.038848,51.50968],[-0.038546,51.509741],[-0.038248,51.509809],[-0.037953,51.509884],[-0.037663,51.509964],[-0.037378,51.510052],[-0.037098,51.510145],[-0.036824,51.510245],[-0.036555,51.510351],[-0.036293,51.510463],[-0.036038,51.510581],[-0.035789,51.510704],[-0.035547,51.510833],[-0.035314,51.510967],[-0.035048,51.511125],[-0.034837,51.511247],[-0.034618,51.511364],[-0.034394,51.511476],[-0.034164,51.511583],[-0.033928,51.511686],[-0.033686,51.511783],[-0.033439,51.511875],[-0.033188,51.511962],[-0.032931,51.512044],[-0.032671,51.51212],[-0.032406,51.51219],[-0.032108,51.512266],[-0.031838,51.512338],[-0.031573,51.512415],[-0.031312,51.512497],[-0.031055,51.512585],[-0.030804,51.512678],[-0.030557,51.512776],[-0.012224,51.52034],[-0.011981,51.520444],[-0.011743,51.520553],[-0.011511,51.520667],[-0.011286,51.520786],[-0.011067,51.520909],[-0.010854,51.521037],[-0.010649,51.521169],[-0.010451,51.521305],[-0.01026,51.521445],[-0.010077,51.52159],[-0.009901,51.521737],[-0.004789,51.526202],[-0.004665,51.526313],[-0.004535,51.526436],[-0.004414,51.526557],[-0.004298,51.52668],[-0.004188,51.526805],[-0.004129,51.526873],[-0.00428,51.526835],[-0.004336,51.527188]]]},"properties":{"OBJECTID":45,"NAME":"Thames Tideway Tunnel Safeguarding Area","TYPE":"Safeguarding for tunnels","whole_in_zone":false,"in_cw":false}}
]}
