{"type":"FeatureCollection","meta":{
 "source": "London Datastore: Green roofs in the Central Activities Zone (Greater London Authority)",
 "dataset": "2nl6n",
 "page": "https://data.london.gov.uk/dataset/green-roofs-in-the-central-activities-zone-2nl6n",
 "resources": [
  {
   "resource": "039be167-8008-4261-83a8-8151b4a8a470",
   "file": "Green Roofs CAZ 2015 imagery.zip",
   "url": "https://data.london.gov.uk/download/2nl6n/039be167-8008-4261-83a8-8151b4a8a470/Green%20Roofs%20CAZ%202015%20imagery.zip",
   "size": 56609,
   "resource_date": "2017-10-13",
   "fetched": "2026-10-04"
  }
 ],
 "licence": "Creative Commons Attribution",
 "licence_url": "https://creativecommons.org/licenses/by/4.0/",
 "attribution": "Greater London Authority, Creative Commons Attribution. The GLA cannot warrant the quality or accuracy of the data (London Datastore terms).",
 "dataset_modified": "2018-10-22",
 "update_frequency": "One off",
 "geo": null,
 "theme": "environment",
 "layers": [
  {
   "table": "GR_jan_2017",
   "srs": 27700
  }
 ],
 "crs_source": "EPSG:27700",
 "crs_output": "EPSG:4326 (WGS84), 6 decimal places; BNG to WGS84 through the OS OSTN15 grid (lib.mjs bngProjector)",
 "method": "walk-london-datastore.mjs harvest green-roofs-caz: download the newest matching resource (shpzip); read every feature; keep a feature whose geometry meets the zone (the 3D model box, BNG E 532400-539900, N 176700-182300; WGS84 -0.095, 51.474, 0.015, 51.522): a vertex inside, an edge crossing the box or the box inside a polygon. Whole geometries are kept (not cut at the box): whole_in_zone says whether all of it lies inside. in_cw: the geometry meets the Canary Wharf registry box -0.03, 51.498, -0.005, 51.51. Source attributes kept as published except fields matching e-?mail|phone|tel(ephone)?$|^tel|contact|^fax|mobile|website_contact|^owner_?name|person. uprn_suspect: a UPRN field that a spreadsheet rounded (an exponent, or 9+ digits ending in 5+ zeros); not a key (fault F22).",
 "counts": {
  "source_features": 476,
  "no_geometry": 0,
  "in_zone": 89,
  "in_cw": 0
 },
 "attributes_in_source": "yes",
 "fields_dropped": []
},
"features":[
{"type":"Feature","properties":{"Id":0,"Area_m2":71.5279208104,"in_cw":false,"whole_in_zone":true},"geometry":{"type":"Polygon","coordinates":[[[-0.092878,51.496281],[-0.092855,51.496262],[-0.092917,51.496223],[-0.092986,51.49626],[-0.09282,51.496357],[-0.092781,51.496337],[-0.092878,51.496281]]]}},
{"type":"Feature","properties":{"Id":0,"Area_m2":104.950926747,"in_cw":false,"whole_in_zone":true},"geometry":{"type":"Polygon","coordinates":[[[-0.092819,51.496235],[-0.09275,51.496276],[-0.092667,51.496225],[-0.092814,51.49614],[-0.092891,51.496186],[-0.092807,51.496225],[-0.092819,51.496235]]]}},
{"type":"Feature","properties":{"Id":0,"Area_m2":33.855984474,"in_cw":false,"whole_in_zone":true},"geometry":{"type":"Polygon","coordinates":[[[-0.085046,51.523087],[-0.084943,51.523088],[-0.084945,51.523043],[-0.085049,51.523047],[-0.085046,51.523087]]]}},
{"type":"Feature","properties":{"Id":0,"Area_m2":34.3876695758,"in_cw":false,"whole_in_zone":true},"geometry":{"type":"Polygon","coordinates":[[[-0.08735,51.521933],[-0.087245,51.521934],[-0.087249,51.52189],[-0.087352,51.521892],[-0.08735,51.521933]]]}},
{"type":"Feature","properties":{"Id":0,"Area_m2":71.7239337717,"in_cw":false,"whole_in_zone":true},"geometry":{"type":"Polygon","coordinates":[[[-0.091209,51.522533],[-0.091063,51.522563],[-0.091027,51.522504],[-0.091142,51.52248],[-0.091183,51.522494],[-0.091209,51.522533]]]}},
{"type":"Feature","properties":{"Id":0,"Area_m2":1376.6408581,"in_cw":false,"whole_in_zone":true},"geometry":{"type":"Polygon","coordinates":[[[-0.090749,51.518455],[-0.090267,51.518328],[-0.090466,51.518024],[-0.090962,51.518125],[-0.090749,51.518455]]]}},
{"type":"Feature","properties":{"Id":0,"Area_m2":219.402530404,"in_cw":false,"whole_in_zone":true},"geometry":{"type":"Polygon","coordinates":[[[-0.08598,51.518576],[-0.086497,51.518728],[-0.086524,51.518691],[-0.086547,51.518692],[-0.08655,51.518763],[-0.086537,51.518773],[-0.085844,51.518571],[-0.085881,51.518526],[-0.085897,51.51853],[-0.085901,51.518525],[-0.085991,51.518547],[-0.08598,51.518576]]]}},
{"type":"Feature","properties":{"Id":0,"Area_m2":59.60018357,"in_cw":false,"whole_in_zone":true},"geometry":{"type":"Polygon","coordinates":[[[-0.088445,51.518665],[-0.088239,51.518624],[-0.088254,51.518589],[-0.088458,51.51863],[-0.088445,51.518665]]]}},
{"type":"Feature","properties":{"Id":0,"Area_m2":142.187784351,"in_cw":false,"whole_in_zone":true},"geometry":{"type":"Polygon","coordinates":[[[-0.091843,51.513638],[-0.091443,51.513583],[-0.091472,51.513546],[-0.091695,51.513575],[-0.091702,51.513563],[-0.091868,51.51359],[-0.091843,51.513638]]]}},
{"type":"Feature","properties":{"Id":0,"Area_m2":349.608674088,"in_cw":false,"whole_in_zone":true},"geometry":{"type":"Polygon","coordinates":[[[-0.085844,51.509777],[-0.085743,51.509911],[-0.085712,51.509906],[-0.085703,51.509916],[-0.085549,51.509873],[-0.085553,51.509855],[-0.085535,51.509851],[-0.085534,51.509842],[-0.085729,51.509579],[-0.085763,51.509581],[-0.085766,51.509573],[-0.086071,51.509613],[-0.086067,51.509634],[-0.086084,51.509638],[-0.085998,51.50976],[-0.085952,51.509751],[-0.085848,51.509775],[-0.085827,51.509748],[-0.085982,51.509722],[-0.086041,51.509637],[-0.08577,51.509596],[-0.0856,51.509833],[-0.085732,51.50987],[-0.085824,51.509752],[-0.085844,51.509777]]]}},
{"type":"Feature","properties":{"Id":0,"Area_m2":21.7167458019,"in_cw":false,"whole_in_zone":true},"geometry":{"type":"Polygon","coordinates":[[[-0.086129,51.50975],[-0.086139,51.509751],[-0.086122,51.509781],[-0.086039,51.509764],[-0.086058,51.509732],[-0.086129,51.50975]]]}},
{"type":"Feature","properties":{"Id":0,"Area_m2":63.1805699125,"in_cw":false,"whole_in_zone":true},"geometry":{"type":"Polygon","coordinates":[[[-0.08519,51.506405],[-0.084939,51.506388],[-0.084943,51.506357],[-0.085189,51.506371],[-0.08519,51.506405]]]}},
{"type":"Feature","properties":{"Id":0,"Area_m2":66.8348111562,"in_cw":false,"whole_in_zone":true},"geometry":{"type":"Polygon","coordinates":[[[-0.085465,51.506515],[-0.085159,51.506487],[-0.085156,51.506466],[-0.085471,51.506481],[-0.085465,51.506515]]]}},
{"type":"Feature","properties":{"Id":0,"Area_m2":54.3347861212,"in_cw":false,"whole_in_zone":true},"geometry":{"type":"Polygon","coordinates":[[[-0.085457,51.506473],[-0.085056,51.506444],[-0.085059,51.506427],[-0.085465,51.506456],[-0.085457,51.506473]]]}},
{"type":"Feature","properties":{"Id":0,"Area_m2":89.9195346546,"in_cw":false,"whole_in_zone":true},"geometry":{"type":"Polygon","coordinates":[[[-0.091662,51.50732],[-0.091592,51.50731],[-0.091663,51.507131],[-0.091741,51.507143],[-0.091741,51.50715],[-0.091711,51.507149],[-0.091662,51.50732]]]}},
{"type":"Feature","properties":{"Id":0,"Area_m2":51.4239939799,"in_cw":false,"whole_in_zone":true},"geometry":{"type":"Polygon","coordinates":[[[-0.090749,51.504557],[-0.090599,51.504524],[-0.090655,51.504485],[-0.09078,51.50452],[-0.090749,51.504557]]]}},
{"type":"Feature","properties":{"Id":0,"Area_m2":115.631531692,"in_cw":false,"whole_in_zone":true},"geometry":{"type":"Polygon","coordinates":[[[-0.085915,51.499492],[-0.08576,51.499425],[-0.085782,51.499406],[-0.085769,51.499401],[-0.085822,51.499355],[-0.085982,51.499435],[-0.085915,51.499492]]]}},
{"type":"Feature","properties":{"Id":0,"Area_m2":61.6215670316,"in_cw":false,"whole_in_zone":true},"geometry":{"type":"Polygon","coordinates":[[[-0.089053,51.499485],[-0.089022,51.4995],[-0.088994,51.499475],[-0.088959,51.499487],[-0.08898,51.499529],[-0.088965,51.499533],[-0.088917,51.499497],[-0.088899,51.499506],[-0.088864,51.49948],[-0.088983,51.499429],[-0.089053,51.499485]]]}},
{"type":"Feature","properties":{"Id":0,"Area_m2":198.96433161,"in_cw":false,"whole_in_zone":true},"geometry":{"type":"Polygon","coordinates":[[[-0.092494,51.496546],[-0.0924,51.496598],[-0.092344,51.496563],[-0.092354,51.496558],[-0.092301,51.496522],[-0.092309,51.496517],[-0.092255,51.496482],[-0.092269,51.496476],[-0.092213,51.49644],[-0.092227,51.496435],[-0.092172,51.496398],[-0.09223,51.496361],[-0.092257,51.496383],[-0.092297,51.496361],[-0.092319,51.496378],[-0.092276,51.496403],[-0.092304,51.496423],[-0.092337,51.496402],[-0.092362,51.496422],[-0.092318,51.496447],[-0.092345,51.496464],[-0.092381,51.496444],[-0.092403,51.496462],[-0.092364,51.496486],[-0.092389,51.496505],[-0.092425,51.496486],[-0.092445,51.496505],[-0.092403,51.496529],[-0.092436,51.496547],[-0.092469,51.496526],[-0.092494,51.496546]]]}},
{"type":"Feature","properties":{"Id":0,"Area_m2":91.7452552107,"in_cw":false,"whole_in_zone":true},"geometry":{"type":"Polygon","coordinates":[[[-0.092002,51.496243],[-0.09193,51.496285],[-0.091798,51.496196],[-0.09187,51.496155],[-0.092002,51.496243]]]}},
{"type":"Feature","properties":{"Id":0,"Area_m2":90.9948056299,"in_cw":false,"whole_in_zone":true},"geometry":{"type":"Polygon","coordinates":[[[-0.092184,51.496137],[-0.092116,51.496177],[-0.091981,51.496088],[-0.092054,51.496046],[-0.092184,51.496137]]]}},
{"type":"Feature","properties":{"Id":0,"Area_m2":87.6961879669,"in_cw":false,"whole_in_zone":true},"geometry":{"type":"Polygon","coordinates":[[[-0.092106,51.496183],[-0.092038,51.496221],[-0.091904,51.496132],[-0.091973,51.496093],[-0.091974,51.496094],[-0.092106,51.496183]]]}},
{"type":"Feature","properties":{"Id":0,"Area_m2":93.5485741752,"in_cw":false,"whole_in_zone":true},"geometry":{"type":"Polygon","coordinates":[[[-0.092298,51.496076],[-0.092228,51.496117],[-0.092093,51.496025],[-0.092166,51.495983],[-0.092298,51.496076]]]}},
{"type":"Feature","properties":{"Id":0,"Area_m2":105.544565924,"in_cw":false,"whole_in_zone":true},"geometry":{"type":"Polygon","coordinates":[[[-0.09237,51.495974],[-0.092254,51.496043],[-0.092164,51.495982],[-0.092295,51.495909],[-0.092341,51.495942],[-0.092333,51.495949],[-0.09237,51.495974]]]}},
{"type":"Feature","properties":{"Id":0,"Area_m2":133.759228142,"in_cw":false,"whole_in_zone":true},"geometry":{"type":"Polygon","coordinates":[[[-0.092543,51.495831],[-0.092354,51.495941],[-0.092277,51.495893],[-0.092474,51.495783],[-0.092543,51.495831]]]}},
{"type":"Feature","properties":{"Id":0,"Area_m2":193.772788957,"in_cw":false,"whole_in_zone":true},"geometry":{"type":"Polygon","coordinates":[[[-0.092653,51.49598],[-0.092509,51.496064],[-0.09237,51.495972],[-0.092518,51.495887],[-0.092653,51.49598]]]}},
{"type":"Feature","properties":{"Id":0,"Area_m2":107.006262397,"in_cw":false,"whole_in_zone":true},"geometry":{"type":"Polygon","coordinates":[[[-0.092741,51.496058],[-0.092662,51.4961],[-0.092677,51.496108],[-0.092605,51.49615],[-0.092525,51.496095],[-0.092669,51.49601],[-0.092741,51.496058]]]}},
{"type":"Feature","properties":{"Id":0,"Area_m2":94.1737154419,"in_cw":false,"whole_in_zone":true},"geometry":{"type":"Polygon","coordinates":[[[-0.091429,51.494578],[-0.091333,51.494585],[-0.091325,51.494523],[-0.091493,51.494509],[-0.091488,51.494478],[-0.091561,51.494471],[-0.091564,51.49453],[-0.091423,51.494542],[-0.091429,51.494578]]]}},
{"type":"Feature","properties":{"Id":0,"Area_m2":25.892958944,"in_cw":false,"whole_in_zone":true},"geometry":{"type":"Polygon","coordinates":[[[-0.091691,51.494502],[-0.091609,51.494509],[-0.091599,51.49447],[-0.091684,51.494461],[-0.091691,51.494502]]]}},
{"type":"Feature","properties":{"Id":0,"Area_m2":142.940715986,"in_cw":false,"whole_in_zone":true},"geometry":{"type":"Polygon","coordinates":[[[-0.091912,51.492553],[-0.09188,51.492513],[-0.091829,51.492524],[-0.091816,51.492506],[-0.091776,51.492516],[-0.091814,51.492578],[-0.091746,51.492597],[-0.091688,51.492516],[-0.091938,51.49245],[-0.091996,51.492533],[-0.091912,51.492553]]]}},
{"type":"Feature","properties":{"Id":0,"Area_m2":130.248496398,"in_cw":false,"whole_in_zone":true},"geometry":{"type":"Polygon","coordinates":[[[-0.09244,51.492486],[-0.092356,51.492491],[-0.092348,51.492447],[-0.092316,51.492449],[-0.092311,51.492436],[-0.092244,51.492438],[-0.09225,51.492498],[-0.092197,51.4925],[-0.092181,51.492411],[-0.092427,51.492393],[-0.09244,51.492486]]]}},
{"type":"Feature","properties":{"Id":0,"Area_m2":41.2960755278,"in_cw":false,"whole_in_zone":true},"geometry":{"type":"Polygon","coordinates":[[[-0.092948,51.492379],[-0.092888,51.492409],[-0.092826,51.492363],[-0.092864,51.492318],[-0.092948,51.492379]]]}},
{"type":"Feature","properties":{"Id":0,"Area_m2":34.5231285188,"in_cw":false,"whole_in_zone":true},"geometry":{"type":"Polygon","coordinates":[[[-0.092817,51.492387],[-0.092774,51.492403],[-0.092707,51.492347],[-0.092772,51.492314],[-0.092796,51.492349],[-0.092777,51.492358],[-0.092817,51.492387]]]}},
{"type":"Feature","properties":{"Id":0,"Area_m2":20.9803847125,"in_cw":false,"whole_in_zone":true},"geometry":{"type":"Polygon","coordinates":[[[-0.092708,51.492259],[-0.092636,51.492293],[-0.092608,51.492269],[-0.092676,51.492235],[-0.092708,51.492259]]]}},
{"type":"Feature","properties":{"Id":0,"Area_m2":229.489496292,"in_cw":false,"whole_in_zone":true},"geometry":{"type":"Polygon","coordinates":[[[-0.092346,51.492174],[-0.092177,51.492107],[-0.092214,51.492063],[-0.092131,51.492035],[-0.092092,51.492075],[-0.09195,51.492021],[-0.092046,51.491971],[-0.09205,51.491965],[-0.092411,51.492111],[-0.092346,51.492174]]]}},
{"type":"Feature","properties":{"Id":0,"Area_m2":209.284062716,"in_cw":false,"whole_in_zone":true},"geometry":{"type":"Polygon","coordinates":[[[-0.091862,51.492003],[-0.091731,51.491983],[-0.091746,51.491934],[-0.091651,51.491918],[-0.091629,51.491969],[-0.091493,51.491946],[-0.091512,51.491895],[-0.091466,51.491886],[-0.091477,51.491857],[-0.091893,51.491929],[-0.091862,51.492003]]]}},
{"type":"Feature","properties":{"Id":0,"Area_m2":85.9723241765,"in_cw":false,"whole_in_zone":true},"geometry":{"type":"Polygon","coordinates":[[[-0.09154,51.492267],[-0.091386,51.492307],[-0.091346,51.492245],[-0.0915,51.492205],[-0.09154,51.492267]]]}},
{"type":"Feature","properties":{"Id":0,"Area_m2":295.87382761,"in_cw":false,"whole_in_zone":true},"geometry":{"type":"Polygon","coordinates":[[[-0.091762,51.492331],[-0.091597,51.492372],[-0.091544,51.492283],[-0.091984,51.492171],[-0.092038,51.492257],[-0.091846,51.492308],[-0.091817,51.492261],[-0.091661,51.492299],[-0.091674,51.492321],[-0.091745,51.492307],[-0.091762,51.492331]]]}},
{"type":"Feature","properties":{"Id":0,"Area_m2":33.3386503518,"in_cw":false,"whole_in_zone":true},"geometry":{"type":"Polygon","coordinates":[[[-0.09133,51.49181],[-0.091256,51.491827],[-0.091218,51.491777],[-0.091295,51.491761],[-0.09133,51.49181]]]}},
{"type":"Feature","properties":{"Id":0,"Area_m2":106.628237422,"in_cw":false,"whole_in_zone":true},"geometry":{"type":"Polygon","coordinates":[[[-0.091314,51.491827],[-0.091394,51.491928],[-0.09118,51.49198],[-0.091137,51.491915],[-0.091194,51.491899],[-0.09122,51.491941],[-0.091322,51.49192],[-0.091261,51.491839],[-0.091314,51.491827]]]}},
{"type":"Feature","properties":{"Id":0,"Area_m2":107.973376235,"in_cw":false,"whole_in_zone":true},"geometry":{"type":"Polygon","coordinates":[[[-0.07948,51.523227],[-0.079063,51.523217],[-0.079061,51.523167],[-0.079141,51.523168],[-0.079143,51.523212],[-0.07929,51.523212],[-0.079292,51.523176],[-0.079488,51.523183],[-0.07948,51.523227]]]}},
{"type":"Feature","properties":{"Id":0,"Area_m2":62.3489150332,"in_cw":false,"whole_in_zone":true},"geometry":{"type":"Polygon","coordinates":[[[-0.081306,51.522221],[-0.081178,51.522212],[-0.081204,51.522141],[-0.081305,51.522153],[-0.081306,51.522221]]]}},
{"type":"Feature","properties":{"Id":0,"Area_m2":57.384187361,"in_cw":false,"whole_in_zone":true},"geometry":{"type":"Polygon","coordinates":[[[-0.0818,51.515043],[-0.081648,51.515008],[-0.081668,51.514964],[-0.081816,51.514995],[-0.081799,51.515017],[-0.081812,51.515022],[-0.0818,51.515043]]]}},
{"type":"Feature","properties":{"Id":0,"Area_m2":85.849466046,"in_cw":false,"whole_in_zone":true},"geometry":{"type":"Polygon","coordinates":[[[-0.081505,51.514983],[-0.081308,51.514942],[-0.081331,51.51489],[-0.08153,51.514933],[-0.081505,51.514983]]]}},
{"type":"Feature","properties":{"Id":0,"Area_m2":267.636414031,"in_cw":false,"whole_in_zone":true},"geometry":{"type":"Polygon","coordinates":[[[-0.078028,51.511587],[-0.077898,51.511565],[-0.078021,51.511315],[-0.078146,51.511336],[-0.078028,51.511587]]]}},
{"type":"Feature","properties":{"Id":0,"Area_m2":89.7515236232,"in_cw":false,"whole_in_zone":true},"geometry":{"type":"Polygon","coordinates":[[[-0.079896,51.50836],[-0.079533,51.508275],[-0.079548,51.508246],[-0.079912,51.508333],[-0.079896,51.50836]]]}},
{"type":"Feature","properties":{"Id":0,"Area_m2":28.7109949325,"in_cw":false,"whole_in_zone":true},"geometry":{"type":"Polygon","coordinates":[[[-0.080154,51.508243],[-0.080112,51.508234],[-0.080119,51.508224],[-0.080075,51.508214],[-0.080075,51.508227],[-0.080011,51.50821],[-0.080013,51.508206],[-0.080019,51.508205],[-0.080033,51.508205],[-0.080048,51.508204],[-0.080058,51.508203],[-0.080071,51.508197],[-0.080084,51.508193],[-0.080099,51.508189],[-0.08011,51.508189],[-0.080127,51.508193],[-0.080139,51.508197],[-0.080148,51.508203],[-0.080152,51.508212],[-0.080157,51.50822],[-0.080157,51.508233],[-0.080154,51.508243]]]}},
{"type":"Feature","properties":{"Id":0,"Area_m2":19.0997105996,"in_cw":false,"whole_in_zone":true},"geometry":{"type":"Polygon","coordinates":[[[-0.080087,51.508306],[-0.080102,51.508314],[-0.080095,51.50832],[-0.080085,51.508331],[-0.080083,51.508342],[-0.080075,51.508355],[-0.079977,51.508347],[-0.079984,51.508335],[-0.079996,51.508335],[-0.080012,51.508335],[-0.080036,51.508332],[-0.080053,51.508328],[-0.080072,51.50832],[-0.08008,51.508313],[-0.080087,51.508306]]]}},
{"type":"Feature","properties":{"Id":0,"Area_m2":14.1538841216,"in_cw":false,"whole_in_zone":true},"geometry":{"type":"Polygon","coordinates":[[[-0.079815,51.50819],[-0.079678,51.508156],[-0.079685,51.508144],[-0.07982,51.508178],[-0.079815,51.50819]]]}},
{"type":"Feature","properties":{"Id":0,"Area_m2":9.28681292079,"in_cw":false,"whole_in_zone":true},"geometry":{"type":"Polygon","coordinates":[[[-0.079578,51.508131],[-0.079519,51.508118],[-0.079526,51.5081],[-0.079587,51.508114],[-0.079578,51.508131]]]}},
{"type":"Feature","properties":{"Id":0,"Area_m2":9.09465025009,"in_cw":false,"whole_in_zone":true},"geometry":{"type":"Polygon","coordinates":[[[-0.07995,51.50822],[-0.079854,51.508198],[-0.079856,51.508192],[-0.07988,51.508198],[-0.079887,51.508202],[-0.079903,51.508205],[-0.079911,51.5082],[-0.079918,51.508193],[-0.079961,51.508201],[-0.07995,51.50822]]]}},
{"type":"Feature","properties":{"Id":0,"Area_m2":65.5243245896,"in_cw":false,"whole_in_zone":true},"geometry":{"type":"Polygon","coordinates":[[[-0.084346,51.506439],[-0.083994,51.506411],[-0.084001,51.506386],[-0.08435,51.506417],[-0.084346,51.506439]]]}},
{"type":"Feature","properties":{"Id":0,"Area_m2":64.0682284767,"in_cw":false,"whole_in_zone":true},"geometry":{"type":"Polygon","coordinates":[[[-0.084415,51.506391],[-0.084002,51.50636],[-0.084006,51.506337],[-0.084416,51.506374],[-0.084415,51.506391]]]}},
{"type":"Feature","properties":{"Id":0,"Area_m2":67.2044355275,"in_cw":false,"whole_in_zone":true},"geometry":{"type":"Polygon","coordinates":[[[-0.084493,51.506347],[-0.084266,51.506328],[-0.084267,51.50629],[-0.084495,51.506309],[-0.084493,51.506347]]]}},
{"type":"Feature","properties":{"Id":0,"Area_m2":47.7081487362,"in_cw":false,"whole_in_zone":true},"geometry":{"type":"Polygon","coordinates":[[[-0.082231,51.50465],[-0.082129,51.504626],[-0.082166,51.504573],[-0.082264,51.504596],[-0.082231,51.50465]]]}},
{"type":"Feature","properties":{"Id":0,"Area_m2":42.9565851238,"in_cw":false,"whole_in_zone":true},"geometry":{"type":"Polygon","coordinates":[[[-0.082065,51.504607],[-0.081973,51.504588],[-0.082002,51.504536],[-0.0821,51.504555],[-0.082065,51.504607]]]}},
{"type":"Feature","properties":{"Id":0,"Area_m2":28.7193954839,"in_cw":false,"whole_in_zone":true},"geometry":{"type":"Polygon","coordinates":[[[-0.080053,51.499597],[-0.079894,51.499588],[-0.079899,51.499561],[-0.080056,51.499577],[-0.080053,51.499597]]]}},
{"type":"Feature","properties":{"Id":0,"Area_m2":36.7286240966,"in_cw":false,"whole_in_zone":true},"geometry":{"type":"Polygon","coordinates":[[[-0.081197,51.498885],[-0.08115,51.498891],[-0.081121,51.498795],[-0.081169,51.498789],[-0.081197,51.498885]]]}},
{"type":"Feature","properties":{"Id":0,"Area_m2":11.7103728786,"in_cw":false,"whole_in_zone":true},"geometry":{"type":"Polygon","coordinates":[[[-0.081727,51.498858],[-0.081727,51.49888],[-0.081729,51.4989],[-0.081709,51.4989],[-0.081691,51.4989],[-0.081672,51.498901],[-0.081669,51.498894],[-0.081671,51.498891],[-0.081682,51.498889],[-0.081696,51.498884],[-0.081703,51.498881],[-0.081707,51.498877],[-0.081707,51.498871],[-0.081703,51.498867],[-0.081698,51.498864],[-0.081699,51.498858],[-0.081706,51.498855],[-0.081716,51.498853],[-0.081727,51.498858]]]}},
{"type":"Feature","properties":{"Id":0,"Area_m2":21.2268009479,"in_cw":false,"whole_in_zone":true},"geometry":{"type":"Polygon","coordinates":[[[-0.081647,51.498901],[-0.081593,51.498903],[-0.081591,51.498899],[-0.081589,51.498896],[-0.081585,51.498889],[-0.081552,51.498887],[-0.081527,51.498887],[-0.081517,51.498893],[-0.081512,51.498899],[-0.081507,51.49891],[-0.081494,51.49891],[-0.081494,51.498901],[-0.081494,51.498891],[-0.081497,51.498881],[-0.081519,51.49888],[-0.081544,51.498879],[-0.08157,51.49888],[-0.081596,51.498879],[-0.081627,51.498877],[-0.081651,51.498878],[-0.081655,51.498884],[-0.081654,51.498891],[-0.081651,51.498897],[-0.081647,51.498901]]]}},
{"type":"Feature","properties":{"Id":0,"Area_m2":48.4487976094,"in_cw":false,"whole_in_zone":true},"geometry":{"type":"Polygon","coordinates":[[[-0.081882,51.499035],[-0.081835,51.499029],[-0.08189,51.498904],[-0.08194,51.498909],[-0.081882,51.499035]]]}},
{"type":"Feature","properties":{"Id":0,"Area_m2":5.55066633247,"in_cw":false,"whole_in_zone":true},"geometry":{"type":"Polygon","coordinates":[[[-0.082341,51.499984],[-0.082262,51.499978],[-0.082266,51.499969],[-0.082347,51.499975],[-0.082341,51.499984]]]}},
{"type":"Feature","properties":{"Id":0,"Area_m2":20.7850718305,"in_cw":false,"whole_in_zone":true},"geometry":{"type":"Polygon","coordinates":[[[-0.082227,51.499983],[-0.082061,51.49997],[-0.082075,51.499954],[-0.082245,51.499969],[-0.082227,51.499983]]]}},
{"type":"Feature","properties":{"Id":0,"Area_m2":8.2031413988,"in_cw":false,"whole_in_zone":true},"geometry":{"type":"Polygon","coordinates":[[[-0.082034,51.499966],[-0.081964,51.499962],[-0.081966,51.499947],[-0.082047,51.499953],[-0.082034,51.499966]]]}},
{"type":"Feature","properties":{"Id":0,"Area_m2":37.5126758299,"in_cw":false,"whole_in_zone":true},"geometry":{"type":"Polygon","coordinates":[[[-0.082156,51.500057],[-0.082086,51.500025],[-0.082125,51.49999],[-0.082217,51.499997],[-0.082156,51.500057]]]}},
{"type":"Feature","properties":{"Id":0,"Area_m2":11.4423426919,"in_cw":false,"whole_in_zone":true},"geometry":{"type":"Polygon","coordinates":[[[-0.08206,51.500012],[-0.08198,51.499981],[-0.082091,51.499987],[-0.08206,51.500012]]]}},
{"type":"Feature","properties":{"Id":0,"Area_m2":114.383349301,"in_cw":false,"whole_in_zone":true},"geometry":{"type":"Polygon","coordinates":[[[-0.083359,51.496336],[-0.083215,51.496234],[-0.083236,51.496219],[-0.083245,51.49622],[-0.08327,51.496204],[-0.083282,51.496197],[-0.083293,51.496203],[-0.083347,51.496171],[-0.083403,51.496207],[-0.083344,51.496254],[-0.083396,51.496291],[-0.083359,51.496336]]]}},
{"type":"Feature","properties":{"Id":0,"Area_m2":18.7136350894,"in_cw":false,"whole_in_zone":true},"geometry":{"type":"Polygon","coordinates":[[[-0.083319,51.496182],[-0.083241,51.49613],[-0.083266,51.496115],[-0.083343,51.496167],[-0.083319,51.496182]]]}},
{"type":"Feature","properties":{"Id":0,"Area_m2":66.721403605,"in_cw":false,"whole_in_zone":true},"geometry":{"type":"Polygon","coordinates":[[[-0.083414,51.498656],[-0.083455,51.498591],[-0.083568,51.498621],[-0.083522,51.498687],[-0.083414,51.498656]]]}},
{"type":"Feature","properties":{"Id":0,"Area_m2":62.61353248,"in_cw":false,"whole_in_zone":true},"geometry":{"type":"Polygon","coordinates":[[[-0.083059,51.498381],[-0.082993,51.49837],[-0.083039,51.498267],[-0.08312,51.498288],[-0.083059,51.498381]]]}},
{"type":"Feature","properties":{"Id":0,"Area_m2":71.2423019663,"in_cw":false,"whole_in_zone":true},"geometry":{"type":"Polygon","coordinates":[[[-0.076145,51.517972],[-0.076162,51.518031],[-0.076069,51.518039],[-0.075934,51.51787],[-0.076048,51.517839],[-0.076092,51.517893],[-0.076075,51.517894],[-0.07604,51.517854],[-0.075971,51.517873],[-0.076077,51.518022],[-0.076134,51.518012],[-0.076114,51.517975],[-0.076145,51.517972]]]}},
{"type":"Feature","properties":{"Id":0,"Area_m2":882.562248986,"in_cw":false,"whole_in_zone":true},"geometry":{"type":"Polygon","coordinates":[[[-0.074168,51.516825],[-0.073404,51.516887],[-0.073289,51.516746],[-0.074056,51.516686],[-0.074168,51.516825]]]}},
{"type":"Feature","properties":{"Id":0,"Area_m2":194.758454036,"in_cw":false,"whole_in_zone":true},"geometry":{"type":"Polygon","coordinates":[[[-0.074079,51.516677],[-0.07368,51.516705],[-0.073982,51.516558],[-0.074079,51.516677]]]}},
{"type":"Feature","properties":{"Id":0,"Area_m2":108.243944101,"in_cw":false,"whole_in_zone":true},"geometry":{"type":"Polygon","coordinates":[[[-0.073099,51.516201],[-0.07301,51.516226],[-0.072923,51.516118],[-0.072963,51.516107],[-0.072946,51.51608],[-0.073001,51.516066],[-0.073099,51.516201]]]}},
{"type":"Feature","properties":{"Id":0,"Area_m2":115.412417211,"in_cw":false,"whole_in_zone":true},"geometry":{"type":"Polygon","coordinates":[[[-0.073003,51.516245],[-0.07291,51.516274],[-0.072802,51.516152],[-0.072907,51.516123],[-0.073003,51.516245]]]}},
{"type":"Feature","properties":{"Id":0,"Area_m2":30.1523900566,"in_cw":false,"whole_in_zone":true},"geometry":{"type":"Polygon","coordinates":[[[-0.073643,51.516103],[-0.073511,51.516137],[-0.07349,51.516112],[-0.073617,51.51608],[-0.073643,51.516103]]]}},
{"type":"Feature","properties":{"Id":0,"Area_m2":212.387017526,"in_cw":false,"whole_in_zone":true},"geometry":{"type":"Polygon","coordinates":[[[-0.074052,51.503714],[-0.07346,51.503548],[-0.073501,51.503498],[-0.074071,51.503688],[-0.074052,51.503714]]]}},
{"type":"Feature","properties":{"Id":0,"Area_m2":72.1271603633,"in_cw":false,"whole_in_zone":true},"geometry":{"type":"Polygon","coordinates":[[[-0.073731,51.503788],[-0.073392,51.503686],[-0.073409,51.503666],[-0.073748,51.503763],[-0.073731,51.503788]]]}},
{"type":"Feature","properties":{"Id":0,"Area_m2":53.452727889,"in_cw":false,"whole_in_zone":true},"geometry":{"type":"Polygon","coordinates":[[[-0.07294,51.503558],[-0.072888,51.503536],[-0.073007,51.503435],[-0.073048,51.50345],[-0.07294,51.503558]]]}},
{"type":"Feature","properties":{"Id":0,"Area_m2":76.0082164997,"in_cw":false,"whole_in_zone":true},"geometry":{"type":"Polygon","coordinates":[[[-0.07604,51.503907],[-0.075974,51.503963],[-0.075857,51.503921],[-0.075926,51.503859],[-0.07604,51.503907]]]}},
{"type":"Feature","properties":{"Id":0,"Area_m2":101.411493151,"in_cw":false,"whole_in_zone":true},"geometry":{"type":"Polygon","coordinates":[[[-0.076934,51.503748],[-0.076774,51.503711],[-0.07682,51.503643],[-0.076998,51.503686],[-0.076934,51.503748]]]}},
{"type":"Feature","properties":{"Id":0,"Area_m2":54.1443735058,"in_cw":false,"whole_in_zone":true},"geometry":{"type":"Polygon","coordinates":[[[-0.077064,51.503638],[-0.077022,51.503632],[-0.077057,51.503594],[-0.076873,51.503551],[-0.076886,51.503532],[-0.077103,51.503576],[-0.077064,51.503638]]]}},
{"type":"Feature","properties":{"Id":0,"Area_m2":44.8925628619,"in_cw":false,"whole_in_zone":true},"geometry":{"type":"Polygon","coordinates":[[[-0.074509,51.503986],[-0.074482,51.503972],[-0.074588,51.503839],[-0.074627,51.503849],[-0.074509,51.503986]]]}},
{"type":"Feature","properties":{"Id":0,"Area_m2":113.351481228,"in_cw":false,"whole_in_zone":true},"geometry":{"type":"Polygon","coordinates":[[[-0.071236,51.501673],[-0.071102,51.501755],[-0.070917,51.501652],[-0.070936,51.501628],[-0.071061,51.501695],[-0.071164,51.501643],[-0.071236,51.501673]]]}},
{"type":"Feature","properties":{"Id":0,"Area_m2":74.2819025762,"in_cw":false,"whole_in_zone":true},"geometry":{"type":"Polygon","coordinates":[[[-0.074635,51.502631],[-0.074531,51.502599],[-0.074605,51.502526],[-0.074704,51.502562],[-0.074635,51.502631]]]}},
{"type":"Feature","properties":{"Id":0,"Area_m2":157.422189832,"in_cw":false,"whole_in_zone":true},"geometry":{"type":"Polygon","coordinates":[[[-0.067467,51.513472],[-0.067312,51.513441],[-0.067338,51.513372],[-0.067395,51.513377],[-0.067411,51.513328],[-0.067482,51.513334],[-0.067495,51.513297],[-0.06757,51.513305],[-0.067554,51.513344],[-0.067504,51.513341],[-0.067467,51.513472]]]}},
{"type":"Feature","properties":{"Id":0,"Area_m2":33.0085785658,"in_cw":false,"whole_in_zone":true},"geometry":{"type":"Polygon","coordinates":[[[-0.070215,51.513549],[-0.070126,51.513575],[-0.070107,51.513552],[-0.070146,51.513539],[-0.07013,51.513514],[-0.070182,51.513499],[-0.070215,51.513549]]]}},
{"type":"Feature","properties":{"Id":0,"Area_m2":20.6205609618,"in_cw":false,"whole_in_zone":true},"geometry":{"type":"Polygon","coordinates":[[[-0.070103,51.513571],[-0.07004,51.51359],[-0.07003,51.513573],[-0.070047,51.51357],[-0.070028,51.513544],[-0.070079,51.513529],[-0.070103,51.513571]]]}},
{"type":"Feature","properties":{"Id":0,"Area_m2":96.9591993005,"in_cw":false,"whole_in_zone":true},"geometry":{"type":"Polygon","coordinates":[[[-0.070013,51.513609],[-0.069927,51.513634],[-0.069902,51.5136],[-0.06983,51.513619],[-0.069849,51.513656],[-0.069786,51.513676],[-0.069755,51.513643],[-0.069714,51.513654],[-0.069731,51.51368],[-0.069681,51.513696],[-0.069654,51.513661],[-0.069983,51.51356],[-0.070013,51.513609]]]}}
]}
