{"type":"FeatureCollection","meta":{
 "source": "City of London INSPIRE map service: Monument Views and Setting",
 "borough": "City of London",
 "page": "https://www.mapping.cityoflondon.gov.uk/arcgis/rest/services/INSPIRE/MapServer/117",
 "api": "https://www.mapping.cityoflondon.gov.uk/arcgis/rest/services/INSPIRE/MapServer/117/query?where=1=1&geometry=<zone box>&geometryType=esriGeometryEnvelope&inSR=4326&spatialRel=esriSpatialRelIntersects&outFields=*&outSR=4326&f=geojson&resultOffset=<n>",
 "fetched": "2026-10-04",
 "licence": "Open Government Licence v3.0",
 "licence_evidence": "the City's INSPIRE record on data.gov.uk (monument-views-and-setting6): [\"http://www.nationalarchives.gov.uk/doc/open-government-licence/version/3/\"] | [\"License\", \"https://inspire.ec.europa.eu/metadata-codelist/LimitationsOnPublicAccess\"]",
 "licence_url": "https://www.nationalarchives.gov.uk/doc/open-government-licence/version/3/",
 "attribution": "Contains public sector information licensed under the Open Government Licence v3.0 (City of London Corporation)",
 "zone": "the 3D model box, BNG E 532400-539900, N 176700-182300 (WGS84 -0.095, 51.474 to 0.015, 51.522)",
 "method": "walk-portals.mjs boroughs harvest city-monument-views-and-setting: features that meet the zone box, WGS84 rounded to 6 decimals, whole geometries; whole_in_zone, in_cw; empty fields and ArcGIS shape measures left out; fields matching /e-?mail|phone|tel(ephone)?$|^tel|contact|^fax|mobile|^owner_?name|person|officer|case_?officer|agent_?name|applicant/i dropped",
 "counts": {
  "features": 6,
  "zone_count_at_walk": 6,
  "in_cw": 0
 },
 "fields_dropped": []
},
"features":[
{"type":"Feature","geometry":{"type":"Polygon","coordinates":[[[-0.08543,51.510667],[-0.08543,51.510664],[-0.085436,51.510668],[-0.085445,51.51067],[-0.085453,51.510672],[-0.085538,51.510683],[-0.085645,51.510698],[-0.085695,51.510704],[-0.085945,51.510756],[-0.086054,51.510777],[-0.086149,51.510795],[-0.086179,51.510801],[-0.086191,51.510802],[-0.086202,51.510804],[-0.086213,51.510805],[-0.086226,51.510805],[-0.086251,51.510807],[-0.086265,51.510807],[-0.086273,51.510807],[-0.08628,51.510807],[-0.086283,51.510807],[-0.086293,51.510806],[-0.086303,51.510805],[-0.086307,51.510805],[-0.086334,51.510803],[-0.086368,51.510801],[-0.086376,51.5108],[-0.086382,51.510799],[-0.086388,51.510798],[-0.086395,51.510797],[-0.086401,51.510795],[-0.086403,51.510795],[-0.086432,51.510789],[-0.086457,51.510782],[-0.086463,51.51078],[-0.086476,51.510776],[-0.086482,51.510774],[-0.086483,51.510774],[-0.0865,51.510767],[-0.086516,51.510761],[-0.086517,51.510761],[-0.086534,51.510754],[-0.086544,51.510749],[-0.086548,51.510747],[-0.08656,51.51074],[-0.086564,51.510737],[-0.086564,51.510737],[-0.086581,51.510726],[-0.086584,51.510724],[-0.086587,51.510722],[-0.08659,51.510719],[-0.086593,51.510716],[-0.086595,51.510714],[-0.086595,51.510714],[-0.086601,51.510708],[-0.086603,51.510704],[-0.086605,51.510701],[-0.08661,51.510692],[-0.086612,51.510689],[-0.086614,51.510682],[-0.086615,51.51068],[-0.086627,51.510639],[-0.086636,51.510609],[-0.086646,51.510576],[-0.086655,51.510549],[-0.086663,51.510522],[-0.086675,51.510491],[-0.086692,51.510447],[-0.086834,51.510171],[-0.086862,51.510095],[-0.086888,51.51002],[-0.086906,51.509965],[-0.086928,51.509905],[-0.086969,51.509797],[-0.086972,51.509776],[-0.086965,51.509759],[-0.086947,51.50975],[-0.086847,51.509731],[-0.086318,51.509655],[-0.086088,51.509645],[-0.085983,51.509639],[-0.085889,51.509639],[-0.085822,51.509642],[-0.085753,51.509651],[-0.085698,51.509668],[-0.085677,51.509675],[-0.08531,51.510082],[-0.08543,51.510667]]]},"properties":{"OBJECTID":1,"NAME":"Monument Views and Setting","COMPONENT":"Monument Setting","whole_in_zone":true,"in_cw":false}},
{"type":"Feature","geometry":{"type":"Polygon","coordinates":[[[-0.086007,51.510188],[-0.086053,51.510123],[-0.083789,51.50746],[-0.083694,51.507449],[-0.083624,51.50744],[-0.083557,51.507431],[-0.083428,51.507414],[-0.083246,51.507389],[-0.083152,51.507377],[-0.083016,51.507358],[-0.082929,51.507346],[-0.082815,51.507328],[-0.082723,51.507314],[-0.082662,51.507304],[-0.082568,51.507291],[-0.082508,51.507281],[-0.082383,51.507263],[-0.082168,51.507231],[-0.081977,51.507199],[-0.081864,51.507183],[-0.081729,51.507163],[-0.08156,51.507139],[-0.081541,51.507136],[-0.081443,51.507119],[-0.081352,51.507101],[-0.081266,51.507085],[-0.081133,51.507061],[-0.080924,51.507022],[-0.080805,51.506997],[-0.080683,51.506973],[-0.080561,51.506951],[-0.080478,51.50693],[-0.080355,51.506906],[-0.080259,51.506884],[-0.080209,51.506871],[-0.079785,51.507582],[-0.07969,51.507636],[-0.079582,51.507699],[-0.07942,51.507792],[-0.079343,51.507907],[-0.079248,51.507891],[-0.079087,51.508249],[-0.079141,51.50826],[-0.079138,51.508267],[-0.079167,51.508277],[-0.079176,51.50828],[-0.079175,51.508294],[-0.079155,51.50832],[-0.079134,51.508347],[-0.07913,51.508353],[-0.07913,51.508354],[-0.079101,51.508346],[-0.079083,51.508371],[-0.079079,51.508376],[-0.079014,51.508461],[-0.078999,51.508482],[-0.078869,51.508652],[-0.078866,51.508659],[-0.078854,51.508673],[-0.078731,51.508833],[-0.078785,51.508855],[-0.078799,51.508875],[-0.078766,51.508869],[-0.078752,51.508883],[-0.078742,51.508894],[-0.078718,51.508932],[-0.078763,51.508948],[-0.079036,51.509041],[-0.079098,51.509063],[-0.079043,51.50912],[-0.079003,51.509107],[-0.078996,51.509108],[-0.078989,51.509111],[-0.078987,51.509112],[-0.078981,51.509116],[-0.078976,51.50912],[-0.07897,51.509124],[-0.078965,51.509132],[-0.078961,51.509139],[-0.078951,51.509162],[-0.078937,51.509195],[-0.078951,51.509196],[-0.078919,51.509272],[-0.078902,51.509315],[-0.078901,51.509317],[-0.078864,51.509404],[-0.078847,51.509445],[-0.078841,51.509459],[-0.086007,51.510188]]]},"properties":{"OBJECTID":2,"NAME":"Monument Views and Setting","COMPONENT":"Tower of London, Tower Bridge, HMS Belfast","whole_in_zone":true,"in_cw":false}},
{"type":"Feature","geometry":{"type":"Polygon","coordinates":[[[-0.086899,51.507818],[-0.086658,51.507796],[-0.086382,51.507775],[-0.085902,51.510157],[-0.086007,51.510188],[-0.086053,51.510123],[-0.087066,51.507833],[-0.087014,51.507827],[-0.086922,51.50782],[-0.086899,51.507818]]]},"properties":{"OBJECTID":3,"NAME":"Monument Views and Setting","COMPONENT":"Montague House to Adelaide House","whole_in_zone":true,"in_cw":false}},
{"type":"Feature","geometry":{"type":"Polygon","coordinates":[[[-0.092147,51.508389],[-0.092102,51.508383],[-0.091977,51.508368],[-0.091803,51.508345],[-0.091682,51.508331],[-0.091495,51.50831],[-0.091347,51.508292],[-0.091147,51.508268],[-0.09099,51.50825],[-0.090751,51.50822],[-0.090498,51.508188],[-0.09026,51.508161],[-0.090062,51.508138],[-0.08988,51.508118],[-0.089654,51.508093],[-0.089486,51.508074],[-0.089318,51.508056],[-0.089166,51.50804],[-0.089001,51.508022],[-0.088865,51.508008],[-0.088863,51.508008],[-0.088689,51.507988],[-0.088515,51.507969],[-0.085947,51.510092],[-0.085902,51.510157],[-0.086007,51.510188],[-0.093467,51.508739],[-0.093054,51.508621],[-0.093053,51.508621],[-0.092851,51.50857],[-0.092558,51.50849],[-0.092406,51.50845],[-0.092362,51.50844],[-0.092317,51.508429],[-0.092274,51.50842],[-0.09223,51.508409],[-0.092188,51.5084],[-0.092147,51.508389]]]},"properties":{"OBJECTID":4,"NAME":"Monument Views and Setting","COMPONENT":"London Bridge to Cannon Street Rail Bridge","whole_in_zone":true,"in_cw":false}},
{"type":"Feature","geometry":{"type":"Polygon","coordinates":[[[-0.086007,51.510188],[-0.11172,51.511952],[-0.111693,51.51192],[-0.111589,51.511811],[-0.111582,51.5118],[-0.111575,51.511749],[-0.111571,51.511711],[-0.111569,51.511668],[-0.111567,51.51162],[-0.111561,51.511581],[-0.111562,51.511525],[-0.11156,51.511478],[-0.111562,51.511447],[-0.111562,51.51141],[-0.111569,51.511313],[-0.111575,51.511208],[-0.111578,51.511151],[-0.11158,51.511136],[-0.111586,51.511042],[-0.111588,51.511],[-0.111592,51.510944],[-0.111597,51.510911],[-0.111594,51.510873],[-0.111588,51.51081],[-0.111584,51.510776],[-0.111571,51.510644],[-0.111561,51.510556],[-0.11155,51.510447],[-0.111534,51.510314],[-0.111518,51.510184],[-0.111509,51.510106],[-0.1115,51.510024],[-0.11149,51.509931],[-0.111481,51.50984],[-0.11147,51.509771],[-0.111367,51.50978],[-0.111264,51.509788],[-0.111163,51.509795],[-0.111062,51.509799],[-0.110983,51.509803],[-0.110903,51.509807],[-0.110838,51.50981],[-0.110773,51.509813],[-0.110723,51.509815],[-0.110674,51.509817],[-0.110559,51.509821],[-0.110387,51.509825],[-0.110225,51.509829],[-0.110124,51.509832],[-0.110007,51.509836],[-0.109927,51.509839],[-0.109864,51.509842],[-0.109761,51.509846],[-0.109655,51.509851],[-0.109548,51.509856],[-0.109449,51.509861],[-0.109351,51.509865],[-0.109241,51.509871],[-0.109199,51.509873],[-0.109132,51.509876],[-0.10903,51.509881],[-0.108927,51.509885],[-0.108853,51.509887],[-0.10878,51.509889],[-0.108744,51.509889],[-0.108708,51.509889],[-0.108634,51.50989],[-0.108561,51.509891],[-0.108509,51.509891],[-0.108456,51.509892],[-0.108221,51.509892],[-0.107983,51.509895],[-0.107937,51.509895],[-0.107782,51.509897],[-0.107556,51.509901],[-0.107381,51.509903],[-0.10729,51.509903],[-0.107199,51.509904],[-0.107101,51.509905],[-0.107004,51.509906],[-0.106925,51.509907],[-0.106846,51.509907],[-0.106734,51.509904],[-0.106654,51.509903],[-0.106573,51.509902],[-0.106495,51.5099],[-0.106011,51.509887],[-0.105525,51.509879],[-0.105112,51.509873],[-0.104787,51.509869],[-0.10465,51.509868],[-0.104659,51.509658],[-0.104684,51.509658],[-0.104698,51.509657],[-0.104713,51.509655],[-0.104715,51.509655],[-0.104729,51.509652],[-0.104743,51.509647],[-0.104746,51.509646],[-0.104757,51.509641],[-0.104768,51.509635],[-0.104773,51.509632],[-0.104779,51.509628],[-0.104766,51.509621],[-0.104752,51.509615],[-0.104751,51.509614],[-0.104736,51.509609],[-0.10472,51.509604],[-0.10471,51.509602],[-0.104695,51.5096],[-0.10468,51.509599],[-0.104669,51.509599],[-0.10466,51.509599],[-0.104669,51.509359],[-0.104681,51.509126],[-0.104697,51.509125],[-0.104714,51.509123],[-0.104735,51.509119],[-0.104753,51.509113],[-0.104764,51.509109],[-0.104775,51.509105],[-0.104783,51.509102],[-0.104788,51.509098],[-0.104778,51.509092],[-0.104767,51.509087],[-0.104753,51.509082],[-0.104739,51.509076],[-0.104737,51.509076],[-0.104721,51.509072],[-0.104705,51.50907],[-0.10469,51.509069],[-0.104677,51.509069],[-0.104688,51.508889],[-0.104699,51.508632],[-0.104724,51.508633],[-0.104725,51.508615],[-0.104742,51.508603],[-0.104746,51.508556],[-0.104721,51.508542],[-0.104721,51.508524],[-0.104703,51.508523],[-0.10471,51.508404],[-0.104493,51.508413],[-0.104231,51.50842],[-0.104226,51.508518],[-0.104202,51.508518],[-0.104205,51.508534],[-0.104173,51.508544],[-0.10417,51.508596],[-0.104194,51.508609],[-0.104195,51.50863],[-0.104223,51.508631],[-0.104212,51.508847],[-0.10421,51.508921],[-0.10421,51.509057],[-0.10419,51.509057],[-0.104149,51.509062],[-0.104117,51.509073],[-0.104106,51.509084],[-0.104115,51.509096],[-0.104157,51.50911],[-0.104185,51.509115],[-0.104206,51.509118],[-0.1042,51.50959],[-0.104161,51.50959],[-0.104101,51.509605],[-0.10407,51.509621],[-0.104096,51.509637],[-0.104141,51.509649],[-0.104194,51.509651],[-0.104185,51.509866],[-0.104171,51.509868],[-0.103843,51.50986],[-0.103646,51.509855],[-0.103486,51.509848],[-0.1033,51.509841],[-0.103011,51.509831],[-0.102708,51.509822],[-0.102456,51.509816],[-0.102252,51.509812],[-0.102019,51.509808],[-0.10184,51.509805],[-0.101592,51.5098],[-0.101387,51.509796],[-0.10133,51.509795],[-0.101273,51.509794],[-0.101234,51.509793],[-0.101197,51.509792],[-0.10116,51.50979],[-0.101123,51.509788],[-0.10109,51.509786],[-0.101056,51.509783],[-0.100711,51.50976],[-0.100402,51.50974],[-0.100081,51.509718],[-0.099741,51.509695],[-0.09942,51.509674],[-0.0993,51.509663],[-0.099251,51.509657],[-0.09925,51.509657],[-0.099117,51.509649],[-0.098984,51.50964],[-0.098801,51.509625],[-0.098619,51.50961],[-0.098457,51.509596],[-0.098296,51.509583],[-0.097977,51.509555],[-0.097811,51.509541],[-0.097646,51.509525],[-0.097483,51.509509],[-0.09732,51.509494],[-0.097156,51.509477],[-0.096993,51.509461],[-0.096828,51.509441],[-0.096663,51.509419],[-0.096507,51.509398],[-0.096351,51.509375],[-0.096194,51.509352],[-0.09604,51.509328],[-0.095873,51.5093],[-0.095708,51.50927],[-0.095584,51.509243],[-0.095461,51.509216],[-0.095361,51.509195],[-0.095263,51.509174],[-0.095262,51.509174],[-0.09511,51.50914],[-0.094957,51.509105],[-0.085947,51.510092],[-0.085902,51.510157],[-0.086007,51.510188]]]},"properties":{"OBJECTID":5,"NAME":"Monument Views and Setting","COMPONENT":"Mondial House to Victoria Embankment","whole_in_zone":false,"in_cw":false}},
{"type":"Feature","geometry":{"type":"Polygon","coordinates":[[[-0.09737,51.513782],[-0.09737,51.513782],[-0.097385,51.513775],[-0.097391,51.513773],[-0.097396,51.513769],[-0.097406,51.513765],[-0.097417,51.513762],[-0.097421,51.51376],[-0.097421,51.513753],[-0.097433,51.513752],[-0.097424,51.513709],[-0.097414,51.51371],[-0.097408,51.51368],[-0.097415,51.513681],[-0.097413,51.513674],[-0.097419,51.513674],[-0.09742,51.513669],[-0.097469,51.513664],[-0.097468,51.51367],[-0.097511,51.513667],[-0.097507,51.513662],[-0.097554,51.513659],[-0.097555,51.513664],[-0.09766,51.513656],[-0.097658,51.513651],[-0.097703,51.513648],[-0.097704,51.513654],[-0.097807,51.513645],[-0.097806,51.513643],[-0.097853,51.513639],[-0.097855,51.513644],[-0.097933,51.513637],[-0.097952,51.513636],[-0.097951,51.513629],[-0.09796,51.513628],[-0.097956,51.513609],[-0.097949,51.51361],[-0.097942,51.513579],[-0.097953,51.513578],[-0.097952,51.513573],[-0.098,51.51357],[-0.098003,51.513575],[-0.098032,51.513572],[-0.098033,51.513566],[-0.098041,51.513567],[-0.098029,51.513505],[-0.098022,51.513506],[-0.098015,51.513475],[-0.098027,51.513474],[-0.098026,51.513471],[-0.085947,51.510092],[-0.085902,51.510157],[-0.09737,51.513782],[-0.09737,51.513782]]]},"properties":{"OBJECTID":6,"NAME":"Monument Views and Setting","COMPONENT":"Unilever House to St Paul's Cathedral","whole_in_zone":false,"in_cw":false}}
]}
