{"type":"FeatureCollection","meta":{
 "source": "City of London INSPIRE map service: St Paul's Heights Setback",
 "borough": "City of London",
 "page": "https://www.mapping.cityoflondon.gov.uk/arcgis/rest/services/INSPIRE/MapServer/92",
 "api": "https://www.mapping.cityoflondon.gov.uk/arcgis/rest/services/INSPIRE/MapServer/92/query?where=1=1&geometry=<zone box>&geometryType=esriGeometryEnvelope&inSR=4326&spatialRel=esriSpatialRelIntersects&outFields=*&outSR=4326&f=geojson&resultOffset=<n>",
 "fetched": "2026-10-04",
 "licence": "Open Government Licence v3.0",
 "licence_evidence": "the City's INSPIRE record on data.gov.uk (st-pauls-heights-setback4): [\"http://www.nationalarchives.gov.uk/doc/open-government-licence/version/3/\"] | [\"License\", \"https://inspire.ec.europa.eu/metadata-codelist/LimitationsOnPublicAccess\"]",
 "licence_url": "https://www.nationalarchives.gov.uk/doc/open-government-licence/version/3/",
 "attribution": "Contains public sector information licensed under the Open Government Licence v3.0 (City of London Corporation)",
 "zone": "the 3D model box, BNG E 532400-539900, N 176700-182300 (WGS84 -0.095, 51.474 to 0.015, 51.522)",
 "method": "walk-portals.mjs boroughs harvest city-st-paul-s-heights-setback: features that meet the zone box, WGS84 rounded to 6 decimals, whole geometries; whole_in_zone, in_cw; empty fields and ArcGIS shape measures left out; fields matching /e-?mail|phone|tel(ephone)?$|^tel|contact|^fax|mobile|^owner_?name|person|officer|case_?officer|agent_?name|applicant/i dropped",
 "counts": {
  "features": 6,
  "zone_count_at_walk": 8,
  "in_cw": 0
 },
 "fields_dropped": []
},
"features":[
{"type":"Feature","geometry":{"type":"LineString","coordinates":[[-0.095084,51.512708],[-0.094477,51.512604]]},"properties":{"OBJECTID":8,"HEIGHT":33.7,"whole_in_zone":false,"in_cw":false}},
{"type":"Feature","geometry":{"type":"LineString","coordinates":[[-0.094146,51.513119],[-0.094833,51.513225]]},"properties":{"OBJECTID":9,"HEIGHT":30.400000000000002,"whole_in_zone":true,"in_cw":false}},
{"type":"Feature","geometry":{"type":"LineString","coordinates":[[-0.095618,51.513364],[-0.094929,51.513255]]},"properties":{"OBJECTID":36,"HEIGHT":30.400000000000002,"whole_in_zone":false,"in_cw":false}},
{"type":"Feature","geometry":{"type":"LineString","coordinates":[[-0.095082,51.512765],[-0.094453,51.512657]]},"properties":{"OBJECTID":42,"HEIGHT":38.6,"whole_in_zone":false,"in_cw":false}},
{"type":"Feature","geometry":{"type":"LineString","coordinates":[[-0.094135,51.513146],[-0.094845,51.513255]]},"properties":{"OBJECTID":43,"HEIGHT":30.400000000000002,"whole_in_zone":true,"in_cw":false}},
{"type":"Feature","geometry":{"type":"LineString","coordinates":[[-0.095606,51.51339],[-0.094918,51.513281]]},"properties":{"OBJECTID":44,"HEIGHT":30.400000000000002,"whole_in_zone":false,"in_cw":false}}
]}
