{"type":"FeatureCollection","meta":{
 "source": "London Datastore: Central Activities Zone (Planning Constraints Map)",
 "dataset": "23jxk",
 "page": "https://data.london.gov.uk/dataset/central-activities-zone-23jxk",
 "resources": [
  {
   "resource": "0a89db50-b158-4c87-9139-4dd9f887cf15",
   "file": "caz_lp_2021.gpkg",
   "url": "https://data.london.gov.uk/download/23jxk/0a89db50-b158-4c87-9139-4dd9f887cf15/caz_lp_2021.gpkg",
   "size": 147456,
   "resource_date": "2026-06-08",
   "fetched": "2026-10-04"
  }
 ],
 "licence": "Open Government Licence v3",
 "licence_url": "https://www.nationalarchives.gov.uk/doc/open-government-licence/version/3/",
 "attribution": "Contains public sector information licensed under the Open Government Licence v3 (Planning Constraints Map). The GLA cannot warrant the quality or accuracy of the data (London Datastore terms).",
 "dataset_modified": "2026-06-08",
 "update_frequency": "One off",
 "geo": "Custom Polygons",
 "theme": "buildings-places",
 "layers": [
  {
   "table": "caz_lp_2021",
   "srs": 27700
  }
 ],
 "crs_source": "EPSG:27700",
 "crs_output": "EPSG:4326 (WGS84), 6 decimal places; BNG to WGS84 through the OS OSTN15 grid (lib.mjs bngProjector)",
 "method": "walk-london-datastore.mjs harvest central-activities-zone: download the newest matching resource (gpkg); read every feature; keep a feature whose geometry meets the zone (the 3D model box, BNG E 532400-539900, N 176700-182300; WGS84 -0.095, 51.474, 0.015, 51.522): a vertex inside, an edge crossing the box or the box inside a polygon. Whole geometries are kept (not cut at the box): whole_in_zone says whether all of it lies inside. in_cw: the geometry meets the Canary Wharf registry box -0.03, 51.498, -0.005, 51.51. Source attributes kept as published except fields matching e-?mail|phone|tel(ephone)?$|^tel|contact|^fax|mobile|website_contact|^owner_?name|person. uprn_suspect: a UPRN field that a spreadsheet rounded (an exponent, or 9+ digits ending in 5+ zeros); not a key (fault F22).",
 "counts": {
  "source_features": 1,
  "no_geometry": 0,
  "in_zone": 1,
  "in_cw": 0,
  "with_uprn": 0,
  "uprn_suspect": 0
 },
 "attributes_in_source": "yes",
 "fields_dropped": []
},
"features":[
{"type":"Feature","properties":{"fid":1,"layerreference":null,"sitereference":null,"sitename":"London Plan 2021 CAZ boundary","address":null,"uprn":null,"borough":null,"planningauthority":null,"firstaddeddate":"2021","lastupdateddate":null,"removeddate":null,"status":"Current","hectares":3364.037,"easting":530147,"northing":180686,"designation":"Central Activities Zone","boroughdesignation":null,"classification":null,"notes":"CAZ boundary as per the diagram in the published London Plan 2021","source":"https://www.london.gov.uk/programmes-strategies/planning/london-plan/new-london-plan/london-plan-2021","extrainfo1":null,"extrainfo2":null,"extrainfo3":null,"missing":null,"in_cw":false,"whole_in_zone":false},"geometry":{"type":"MultiPolygon","coordinates":[[[[-0.115608,51.49558],[-0.116093,51.494891],[-0.116192,51.49476],[-0.11622,51.494714],[-0.11686,51.493858],[-0.11754,51.493229],[-0.117979,51.492786],[-0.118302,51.49254],[-0.118743,51.492273],[-0.119219,51.491906],[-0.118964,51.491809],[-0.118041,51.491458],[-0.118376,51.490754],[-0.118727,51.489835],[-0.119197,51.489934],[-0.119769,51.488578],[-0.119207,51.48852],[-0.119331,51.488267],[-0.11938,51.488114],[-0.119338,51.487504],[-0.119205,51.486485],[-0.118351,51.486614],[-0.11821,51.486252],[-0.118432,51.486218],[-0.118358,51.486054],[-0.118343,51.486056],[-0.118283,51.485914],[-0.118166,51.485933],[-0.118144,51.485886],[-0.118369,51.485842],[-0.118269,51.485641],[-0.118168,51.485657],[-0.118054,51.485386],[-0.117959,51.48514],[-0.117904,51.485081],[-0.118317,51.485013],[-0.118504,51.484983],[-0.118408,51.484744],[-0.119432,51.485194],[-0.120125,51.485451],[-0.120377,51.485195],[-0.120648,51.485183],[-0.120691,51.48533],[-0.121446,51.485314],[-0.121431,51.485168],[-0.122684,51.485103],[-0.123078,51.484536],[-0.123251,51.483367],[-0.12339,51.483105],[-0.123711,51.482856],[-0.124035,51.482621],[-0.124341,51.482282],[-0.124597,51.48163],[-0.12679,51.481525],[-0.127687,51.481469],[-0.127847,51.480829],[-0.128144,51.480149],[-0.128463,51.479689],[-0.129229,51.479887],[-0.130144,51.480108],[-0.130572,51.480212],[-0.130868,51.479823],[-0.131326,51.479462],[-0.131767,51.478849],[-0.131738,51.47875],[-0.13191,51.478469],[-0.132135,51.478525],[-0.13244,51.478135],[-0.13349,51.47667],[-0.133664,51.47639],[-0.133972,51.475938],[-0.134064,51.475287],[-0.134495,51.474939],[-0.134759,51.474977],[-0.134884,51.475026],[-0.135966,51.475576],[-0.136468,51.475565],[-0.136956,51.475867],[-0.139592,51.477871],[-0.139884,51.47815],[-0.14257,51.476981],[-0.142877,51.477851],[-0.143354,51.478349],[-0.144995,51.477672],[-0.144393,51.476843],[-0.143966,51.476396],[-0.146585,51.475289],[-0.148078,51.476051],[-0.148342,51.476443],[-0.148617,51.478061],[-0.148644,51.478216],[-0.148908,51.47955],[-0.149427,51.482171],[-0.14975,51.4838],[-0.150131,51.486029],[-0.150414,51.486258],[-0.151862,51.487166],[-0.150368,51.489185],[-0.150064,51.490572],[-0.149366,51.491102],[-0.150168,51.491453],[-0.149659,51.491857],[-0.151054,51.492508],[-0.150821,51.492722],[-0.150418,51.492731],[-0.148177,51.494665],[-0.147534,51.494469],[-0.146628,51.495702],[-0.147353,51.495925],[-0.147145,51.49614],[-0.147611,51.496433],[-0.147455,51.496537],[-0.14775,51.497036],[-0.148717,51.497676],[-0.148821,51.49774],[-0.148618,51.497856],[-0.148114,51.498139],[-0.148383,51.49845],[-0.148442,51.49843],[-0.148825,51.498706],[-0.14871,51.498948],[-0.149647,51.49976],[-0.150114,51.500051],[-0.150367,51.500241],[-0.150477,51.500385],[-0.151729,51.50116],[-0.15254,51.500696],[-0.15118,51.499823],[-0.151482,51.499564],[-0.15119,51.499374],[-0.151076,51.499262],[-0.150972,51.499166],[-0.150736,51.499027],[-0.152681,51.497738],[-0.152681,51.497738],[-0.152681,51.497738],[-0.153013,51.497954],[-0.153345,51.49777],[-0.153491,51.497549],[-0.153804,51.497547],[-0.15407,51.497712],[-0.154285,51.497903],[-0.154622,51.497733],[-0.154622,51.497733],[-0.154622,51.497733],[-0.155995,51.498652],[-0.155797,51.498782],[-0.155635,51.498889],[-0.155506,51.499005],[-0.155853,51.499044],[-0.155928,51.499276],[-0.155799,51.499307],[-0.1559,51.499516],[-0.155592,51.499683],[-0.155874,51.49991],[-0.15451,51.500652],[-0.154375,51.500851],[-0.153979,51.501164],[-0.153959,51.501413],[-0.154035,51.501454],[-0.153739,51.501821],[-0.153602,51.502074],[-0.155254,51.502074],[-0.155198,51.501773],[-0.156336,51.501639],[-0.156394,51.501781],[-0.15652,51.501781],[-0.156655,51.502166],[-0.158087,51.501964],[-0.158262,51.501973],[-0.158417,51.501981],[-0.15851,51.501416],[-0.159709,51.501318],[-0.159505,51.500561],[-0.159224,51.500585],[-0.159107,51.500081],[-0.159366,51.500048],[-0.158993,51.498712],[-0.15943,51.498658],[-0.159398,51.498549],[-0.159747,51.498498],[-0.16006,51.499582],[-0.160446,51.499542],[-0.160716,51.500569],[-0.160319,51.500888],[-0.160907,51.501286],[-0.1622,51.500078],[-0.16158,51.499783],[-0.161745,51.499444],[-0.161524,51.499354],[-0.162241,51.498507],[-0.163189,51.498594],[-0.16402,51.499018],[-0.16444,51.498748],[-0.164711,51.498838],[-0.16516,51.498571],[-0.165622,51.498247],[-0.16373,51.497521],[-0.164148,51.497128],[-0.166036,51.497968],[-0.168977,51.496261],[-0.169223,51.496282],[-0.16928,51.495997],[-0.169758,51.495931],[-0.170027,51.496487],[-0.171384,51.496129],[-0.173668,51.495825],[-0.179101,51.4954],[-0.179624,51.497881],[-0.179797,51.498844],[-0.179958,51.49974],[-0.180194,51.500837],[-0.180311,51.501382],[-0.181446,51.501387],[-0.182201,51.501423],[-0.183284,51.501537],[-0.184324,51.501735],[-0.18575,51.502023],[-0.186656,51.502195],[-0.188087,51.50235],[-0.188725,51.502396],[-0.189098,51.502305],[-0.189571,51.502184],[-0.189977,51.503062],[-0.190426,51.503977],[-0.191473,51.505735],[-0.192791,51.508262],[-0.193469,51.509403],[-0.194011,51.509315],[-0.194085,51.509576],[-0.191528,51.510067],[-0.189182,51.510206],[-0.188162,51.510321],[-0.187474,51.510356],[-0.187245,51.510352],[-0.185922,51.510486],[-0.185671,51.510493],[-0.184738,51.510571],[-0.18363,51.510655],[-0.182706,51.510678],[-0.175725,51.511693],[-0.162767,51.51312],[-0.163326,51.513987],[-0.162023,51.514237],[-0.165407,51.516535],[-0.167552,51.517993],[-0.171207,51.515968],[-0.170888,51.515712],[-0.174995,51.513475],[-0.17524,51.513518],[-0.17552,51.513151],[-0.177699,51.514527],[-0.177242,51.514788],[-0.178788,51.515724],[-0.178898,51.515665],[-0.179209,51.515898],[-0.17905,51.515976],[-0.180555,51.517033],[-0.180966,51.516811],[-0.183044,51.518223],[-0.183991,51.517971],[-0.184552,51.518242],[-0.185422,51.518473],[-0.186149,51.518604],[-0.186783,51.518534],[-0.187514,51.518345],[-0.188485,51.51808],[-0.188784,51.517995],[-0.188843,51.51805],[-0.188961,51.518245],[-0.18896,51.518536],[-0.188888,51.518874],[-0.188737,51.519757],[-0.187659,51.519734],[-0.185864,51.519688],[-0.185009,51.519705],[-0.184503,51.519715],[-0.183811,51.51979],[-0.182496,51.520133],[-0.180534,51.521084],[-0.179521,51.520438],[-0.178616,51.520131],[-0.177212,51.520173],[-0.175557,51.520115],[-0.173329,51.520084],[-0.174089,51.52101],[-0.172502,51.522058],[-0.17087,51.520903],[-0.170671,51.520743],[-0.170036,51.52025],[-0.16787,51.520567],[-0.164412,51.521107],[-0.16484,51.521844],[-0.163839,51.522133],[-0.164728,51.523402],[-0.163462,51.523645],[-0.1637,51.524147],[-0.163096,51.524284],[-0.16219,51.522128],[-0.161966,51.522176],[-0.161933,51.522109],[-0.16146,51.522183],[-0.161343,51.522031],[-0.159888,51.522315],[-0.160081,51.52278],[-0.158024,51.523128],[-0.158625,51.524529],[-0.158421,51.524772],[-0.160274,51.526612],[-0.16358,51.528715],[-0.165711,51.528376],[-0.167609,51.529887],[-0.168154,51.530175],[-0.167707,51.530408],[-0.167449,51.530816],[-0.166875,51.531775],[-0.166119,51.53289],[-0.165378,51.53378],[-0.164482,51.5345],[-0.163289,51.535172],[-0.161198,51.535902],[-0.159289,51.536416],[-0.15486,51.53736],[-0.152714,51.537566],[-0.151639,51.537635],[-0.150188,51.537415],[-0.149239,51.537149],[-0.146894,51.53615],[-0.147265,51.535562],[-0.148311,51.535304],[-0.146056,51.530184],[-0.145962,51.527729],[-0.14431,51.527763],[-0.144307,51.527548],[-0.144281,51.525738],[-0.144066,51.525741],[-0.142072,51.525698],[-0.141649,51.52569],[-0.140856,51.526092],[-0.140867,51.527259],[-0.138718,51.527252],[-0.138622,51.528537],[-0.138732,51.530114],[-0.139009,51.531505],[-0.139153,51.532533],[-0.137841,51.532792],[-0.137051,51.533106],[-0.135323,51.531509],[-0.135134,51.531332],[-0.134996,51.531203],[-0.134472,51.53071],[-0.131579,51.528016],[-0.130237,51.528467],[-0.128213,51.529278],[-0.130375,51.531481],[-0.127736,51.532506],[-0.127769,51.532587],[-0.127799,51.532594],[-0.127789,51.532598],[-0.128546,51.533557],[-0.129974,51.534448],[-0.129315,51.534751],[-0.129444,51.535295],[-0.129586,51.536249],[-0.129611,51.537587],[-0.129844,51.538048],[-0.129604,51.538111],[-0.129576,51.538456],[-0.129847,51.539225],[-0.13031,51.540092],[-0.130766,51.540799],[-0.131183,51.540843],[-0.131107,51.54123],[-0.126728,51.541194],[-0.125052,51.541267],[-0.123783,51.541417],[-0.122625,51.541677],[-0.122863,51.540614],[-0.122976,51.539283],[-0.122898,51.538367],[-0.122685,51.538097],[-0.122517,51.537688],[-0.122292,51.537036],[-0.122285,51.536024],[-0.122214,51.535623],[-0.120501,51.535462],[-0.120487,51.533687],[-0.121624,51.533675],[-0.121722,51.532476],[-0.121703,51.531743],[-0.120878,51.531736],[-0.121033,51.531496],[-0.121068,51.531115],[-0.121076,51.530939],[-0.120599,51.530974],[-0.11936,51.531063],[-0.119558,51.532163],[-0.1184,51.532223],[-0.118279,51.531149],[-0.117012,51.531225],[-0.117162,51.532312],[-0.114518,51.532591],[-0.114226,51.531429],[-0.113064,51.531568],[-0.113198,51.532073],[-0.112194,51.532154],[-0.112331,51.532599],[-0.111434,51.532687],[-0.111494,51.533367],[-0.111572,51.534047],[-0.109959,51.534287],[-0.109364,51.534344],[-0.108887,51.534373],[-0.107223,51.534673],[-0.107164,51.535854],[-0.107054,51.536155],[-0.105469,51.536202],[-0.105366,51.536807],[-0.104929,51.536812],[-0.104317,51.53679],[-0.103439,51.53663],[-0.102277,51.536314],[-0.103505,51.535765],[-0.104171,51.535151],[-0.103744,51.53492],[-0.103123,51.534662],[-0.102537,51.534501],[-0.103425,51.533479],[-0.104941,51.533934],[-0.105203,51.533708],[-0.103613,51.533167],[-0.104349,51.532282],[-0.104789,51.531732],[-0.103847,51.531504],[-0.103442,51.53211],[-0.101266,51.53119],[-0.101433,51.530908],[-0.100377,51.530618],[-0.097993,51.529986],[-0.097708,51.530551],[-0.095068,51.530023],[-0.095027,51.530044],[-0.092484,51.530324],[-0.092419,51.529973],[-0.091508,51.530122],[-0.091164,51.529317],[-0.090841,51.529354],[-0.090507,51.529399],[-0.090016,51.529362],[-0.089618,51.529313],[-0.089274,51.529307],[-0.088955,51.529276],[-0.088557,51.529323],[-0.087415,51.529506],[-0.087402,51.528567],[-0.087399,51.528412],[-0.086301,51.528394],[-0.085189,51.528412],[-0.085216,51.527491],[-0.085195,51.527392],[-0.083689,51.52745],[-0.083708,51.526833],[-0.08374,51.526554],[-0.082178,51.526735],[-0.0813,51.526848],[-0.080741,51.526948],[-0.079999,51.527299],[-0.079999,51.527299],[-0.079998,51.527299],[-0.078144,51.527275],[-0.077671,51.52726],[-0.077239,51.527369],[-0.076955,51.527305],[-0.076338,51.527209],[-0.076688,51.526315],[-0.076633,51.525825],[-0.076555,51.524736],[-0.075236,51.52484],[-0.074973,51.52369],[-0.074985,51.523624],[-0.072966,51.523596],[-0.07157,51.523531],[-0.071616,51.523308],[-0.071599,51.523312],[-0.071716,51.522715],[-0.071731,51.522723],[-0.071833,51.522136],[-0.071877,51.522009],[-0.073126,51.522121],[-0.075397,51.522164],[-0.076184,51.522159],[-0.076433,51.522072],[-0.07645,51.522066],[-0.07491,51.520799],[-0.074799,51.520663],[-0.074485,51.520283],[-0.074518,51.519606],[-0.074511,51.519121],[-0.074492,51.518575],[-0.074061,51.517984],[-0.073674,51.518006],[-0.073647,51.517984],[-0.0736,51.517989],[-0.073393,51.51756],[-0.073196,51.517572],[-0.073087,51.517013],[-0.071845,51.517103],[-0.068954,51.517641],[-0.06735,51.51813],[-0.067412,51.518096],[-0.066827,51.517472],[-0.067169,51.517348],[-0.066749,51.516912],[-0.066081,51.515465],[-0.06529,51.515503],[-0.065269,51.514964],[-0.065638,51.514958],[-0.065531,51.514312],[-0.065593,51.514384],[-0.066235,51.514375],[-0.066251,51.514255],[-0.066672,51.514287],[-0.066728,51.513978],[-0.067141,51.513441],[-0.067203,51.51322],[-0.067139,51.512751],[-0.066953,51.511491],[-0.06694,51.511044],[-0.067861,51.510963],[-0.067129,51.509403],[-0.067947,51.509165],[-0.067404,51.508546],[-0.066989,51.508258],[-0.066815,51.508055],[-0.066734,51.507642],[-0.066718,51.506917],[-0.066811,51.506675],[-0.067155,51.506548],[-0.067615,51.506219],[-0.068073,51.505846],[-0.068375,51.505258],[-0.06842,51.504774],[-0.068524,51.504645],[-0.068642,51.504665],[-0.068715,51.504543],[-0.070438,51.502095],[-0.070435,51.502091],[-0.070691,51.5018],[-0.071587,51.501069],[-0.071758,51.500921],[-0.072493,51.500533],[-0.072806,51.500241],[-0.072801,51.500239],[-0.072801,51.500238],[-0.072801,51.500238],[-0.073076,51.500282],[-0.073485,51.500347],[-0.073485,51.500347],[-0.074766,51.500577],[-0.076087,51.50022],[-0.076106,51.500214],[-0.07816,51.501287],[-0.078367,51.500872],[-0.078605,51.500273],[-0.078974,51.49952],[-0.079325,51.498766],[-0.079802,51.497761],[-0.080051,51.497566],[-0.080632,51.497305],[-0.081467,51.496969],[-0.082227,51.496589],[-0.082642,51.496349],[-0.082904,51.496088],[-0.08396,51.495334],[-0.084555,51.494946],[-0.084932,51.494711],[-0.085305,51.494102],[-0.085203,51.493998],[-0.084929,51.493861],[-0.085325,51.493638],[-0.086643,51.492834],[-0.087296,51.492447],[-0.088267,51.492089],[-0.088641,51.491914],[-0.08907,51.491812],[-0.088955,51.491569],[-0.089189,51.491525],[-0.089274,51.491333],[-0.090012,51.491466],[-0.090063,51.491395],[-0.090138,51.491215],[-0.090187,51.491198],[-0.090372,51.491164],[-0.090655,51.491326],[-0.090773,51.491273],[-0.092522,51.490778],[-0.093469,51.490534],[-0.096503,51.489564],[-0.097248,51.489287],[-0.097798,51.489049],[-0.09835,51.48878],[-0.098655,51.489111],[-0.098876,51.489368],[-0.099162,51.489692],[-0.099532,51.490096],[-0.100119,51.489906],[-0.100725,51.489717],[-0.101361,51.489534],[-0.101561,51.489363],[-0.102212,51.489717],[-0.102638,51.489923],[-0.103281,51.490253],[-0.103814,51.490518],[-0.103276,51.491078],[-0.103215,51.491241],[-0.103406,51.491377],[-0.103083,51.491579],[-0.103385,51.491769],[-0.103348,51.491804],[-0.103618,51.491932],[-0.103723,51.492054],[-0.103891,51.492022],[-0.104195,51.492437],[-0.104411,51.492787],[-0.104595,51.49295],[-0.10471,51.493128],[-0.104844,51.493561],[-0.105009,51.493579],[-0.105332,51.493643],[-0.105676,51.493733],[-0.106038,51.493854],[-0.106639,51.494038],[-0.10721,51.49424],[-0.107972,51.4945],[-0.108762,51.494778],[-0.109856,51.495169],[-0.110675,51.495464],[-0.110968,51.495556],[-0.111454,51.496504],[-0.114963,51.495707],[-0.114963,51.495705],[-0.11509,51.495675],[-0.11509,51.495675],[-0.115608,51.49558]]]]}}
]}
