{"type":"FeatureCollection","meta":{
 "source": "City of London INSPIRE map service: City Flood Risk Area",
 "borough": "City of London",
 "page": "https://www.mapping.cityoflondon.gov.uk/arcgis/rest/services/INSPIRE/MapServer/109",
 "api": "https://www.mapping.cityoflondon.gov.uk/arcgis/rest/services/INSPIRE/MapServer/109/query?where=1=1&geometry=<zone box>&geometryType=esriGeometryEnvelope&inSR=4326&spatialRel=esriSpatialRelIntersects&outFields=*&outSR=4326&f=geojson&resultOffset=<n>",
 "fetched": "2026-10-04",
 "licence": "Open Government Licence v3.0",
 "licence_evidence": "the City's INSPIRE record on data.gov.uk (city-flood-risk-area3): [\"http://www.nationalarchives.gov.uk/doc/open-government-licence/version/3/\"] | [\"License\", \"https://inspire.ec.europa.eu/metadata-codelist/LimitationsOnPublicAccess\"]",
 "licence_url": "https://www.nationalarchives.gov.uk/doc/open-government-licence/version/3/",
 "attribution": "Contains public sector information licensed under the Open Government Licence v3.0 (City of London Corporation)",
 "zone": "the 3D model box, BNG E 532400-539900, N 176700-182300 (WGS84 -0.095, 51.474 to 0.015, 51.522)",
 "method": "walk-portals.mjs boroughs harvest city-city-flood-risk-area: features that meet the zone box, WGS84 rounded to 6 decimals, whole geometries; whole_in_zone, in_cw; empty fields and ArcGIS shape measures left out; fields matching /e-?mail|phone|tel(ephone)?$|^tel|contact|^fax|mobile|^owner_?name|person|officer|case_?officer|agent_?name|applicant/i dropped",
 "counts": {
  "features": 1,
  "zone_count_at_walk": 1,
  "in_cw": 0
 },
 "fields_dropped": []
},
"features":[
{"type":"Feature","geometry":{"type":"Polygon","coordinates":[[[-0.095159,51.511211],[-0.095366,51.511235],[-0.095416,51.511241],[-0.095617,51.511266],[-0.09613,51.511301],[-0.096254,51.511308],[-0.096332,51.511327],[-0.096508,51.511324],[-0.096706,51.511331],[-0.097072,51.511344],[-0.097195,51.511342],[-0.097228,51.511341],[-0.097233,51.511344],[-0.097332,51.511407],[-0.097406,51.511815],[-0.098397,51.51178],[-0.098381,51.511682],[-0.098421,51.511685],[-0.098519,51.51169],[-0.098555,51.511529],[-0.101117,51.511543],[-0.10126,51.511544],[-0.101261,51.511551],[-0.101276,51.511828],[-0.101581,51.511972],[-0.10188,51.511877],[-0.101997,51.511799],[-0.102152,51.511717],[-0.102688,51.511681],[-0.102693,51.511785],[-0.102715,51.512242],[-0.102827,51.512242],[-0.103247,51.512244],[-0.103444,51.513074],[-0.103436,51.513689],[-0.103437,51.513789],[-0.104102,51.513788],[-0.104162,51.514185],[-0.103376,51.51417],[-0.10383,51.516967],[-0.104454,51.516923],[-0.104661,51.517922],[-0.105849,51.517875],[-0.105588,51.516567],[-0.106467,51.516361],[-0.106402,51.516245],[-0.106378,51.516192],[-0.106372,51.516167],[-0.106353,51.51611],[-0.106274,51.515787],[-0.106267,51.515758],[-0.106253,51.515731],[-0.106222,51.515662],[-0.106187,51.515622],[-0.106004,51.515493],[-0.105836,51.515374],[-0.105548,51.515155],[-0.105277,51.514951],[-0.105271,51.514818],[-0.10527,51.514777],[-0.105258,51.514674],[-0.10525,51.514615],[-0.105243,51.514529],[-0.105239,51.514459],[-0.105236,51.514209],[-0.105264,51.513569],[-0.105108,51.513369],[-0.105127,51.513145],[-0.105467,51.513154],[-0.105908,51.513044],[-0.1059,51.512982],[-0.105896,51.51292],[-0.1059,51.512776],[-0.105969,51.512772],[-0.105964,51.512744],[-0.105967,51.512624],[-0.105967,51.512598],[-0.106383,51.512602],[-0.10663,51.512604],[-0.106696,51.512607],[-0.106739,51.512637],[-0.107026,51.512735],[-0.107396,51.512697],[-0.108196,51.512484],[-0.108559,51.512446],[-0.109246,51.512201],[-0.109684,51.5125],[-0.110072,51.512424],[-0.110291,51.512384],[-0.110508,51.512342],[-0.110871,51.512303],[-0.111088,51.512261],[-0.111514,51.512182],[-0.111818,51.512049],[-0.111891,51.512004],[-0.111909,51.511994],[-0.111911,51.511986],[-0.111788,51.512024],[-0.111693,51.51192],[-0.111589,51.511811],[-0.111582,51.5118],[-0.111575,51.511749],[-0.111572,51.511711],[-0.111569,51.511668],[-0.111567,51.51162],[-0.111562,51.511581],[-0.111562,51.511525],[-0.11156,51.511478],[-0.111562,51.511447],[-0.111562,51.51141],[-0.111569,51.511313],[-0.111578,51.511151],[-0.11158,51.511136],[-0.111586,51.511042],[-0.111588,51.511],[-0.111593,51.510944],[-0.111597,51.510911],[-0.111595,51.510873],[-0.111588,51.51081],[-0.111584,51.510776],[-0.111572,51.510644],[-0.111561,51.510556],[-0.11155,51.510447],[-0.111534,51.510314],[-0.111509,51.510106],[-0.111499,51.510024],[-0.11149,51.509931],[-0.111481,51.50984],[-0.11147,51.509773],[-0.111469,51.509771],[-0.111367,51.50978],[-0.111263,51.509788],[-0.111164,51.509795],[-0.111063,51.509799],[-0.110983,51.509803],[-0.110902,51.509807],[-0.110838,51.50981],[-0.110774,51.509813],[-0.110723,51.509815],[-0.110674,51.509817],[-0.110559,51.509821],[-0.110386,51.509825],[-0.110125,51.509832],[-0.110007,51.509836],[-0.109927,51.509839],[-0.109865,51.509842],[-0.109761,51.509846],[-0.109548,51.509856],[-0.10945,51.509861],[-0.109351,51.509865],[-0.109241,51.509871],[-0.1092,51.509873],[-0.109131,51.509876],[-0.109029,51.509881],[-0.108927,51.509885],[-0.108853,51.509887],[-0.10878,51.509889],[-0.108744,51.509889],[-0.108634,51.50989],[-0.108561,51.509891],[-0.108504,51.509891],[-0.108456,51.509892],[-0.108221,51.509892],[-0.107983,51.509895],[-0.107782,51.509897],[-0.107557,51.509901],[-0.107381,51.509903],[-0.107291,51.509904],[-0.107199,51.509904],[-0.107004,51.509906],[-0.106925,51.509907],[-0.106846,51.509907],[-0.106734,51.509904],[-0.106654,51.509903],[-0.106572,51.509902],[-0.106495,51.5099],[-0.106012,51.509887],[-0.105526,51.509879],[-0.105112,51.509873],[-0.104787,51.509869],[-0.104651,51.509868],[-0.104647,51.509864],[-0.104649,51.509829],[-0.104653,51.509657],[-0.104666,51.509657],[-0.104682,51.509656],[-0.104698,51.509654],[-0.104711,51.509652],[-0.104724,51.509649],[-0.10474,51.509646],[-0.104753,51.50964],[-0.104763,51.509635],[-0.104773,51.509629],[-0.104767,51.509625],[-0.104761,51.509622],[-0.104751,51.509617],[-0.10474,51.509614],[-0.104726,51.509609],[-0.104713,51.509606],[-0.104698,51.509604],[-0.104685,51.509603],[-0.104669,51.509602],[-0.104656,51.509602],[-0.104658,51.50953],[-0.10467,51.509224],[-0.104673,51.509123],[-0.104679,51.509123],[-0.104694,51.509121],[-0.104705,51.50912],[-0.104721,51.509118],[-0.104737,51.509115],[-0.104748,51.509112],[-0.104761,51.509109],[-0.104772,51.509104],[-0.104782,51.509098],[-0.104773,51.509093],[-0.104769,51.509092],[-0.104765,51.50909],[-0.104755,51.509086],[-0.104744,51.509081],[-0.104734,51.509079],[-0.104724,51.509076],[-0.104709,51.509073],[-0.104693,51.509072],[-0.104684,51.509071],[-0.104675,51.50907],[-0.104679,51.508957],[-0.104681,51.508914],[-0.104682,51.508907],[-0.10469,51.508751],[-0.104696,51.508631],[-0.104723,51.508631],[-0.104725,51.508615],[-0.104743,51.508603],[-0.104744,51.508557],[-0.10472,51.508544],[-0.104722,51.508526],[-0.104703,51.508525],[-0.104703,51.508523],[-0.10471,51.508404],[-0.104493,51.508413],[-0.104231,51.50842],[-0.104226,51.508518],[-0.104226,51.50852],[-0.104206,51.508519],[-0.104205,51.508533],[-0.104184,51.508542],[-0.10418,51.508595],[-0.104201,51.508608],[-0.104202,51.508626],[-0.104229,51.508626],[-0.104218,51.508858],[-0.104216,51.508913],[-0.104216,51.508919],[-0.104215,51.508927],[-0.104212,51.509059],[-0.104193,51.509059],[-0.10415,51.509064],[-0.104119,51.509073],[-0.104107,51.509083],[-0.10411,51.509091],[-0.104119,51.509096],[-0.10416,51.50911],[-0.104187,51.509115],[-0.104211,51.509115],[-0.104204,51.509404],[-0.104197,51.509591],[-0.104161,51.50959],[-0.104126,51.509598],[-0.104101,51.509606],[-0.104071,51.509621],[-0.104097,51.509637],[-0.10414,51.509648],[-0.104195,51.50965],[-0.104191,51.509749],[-0.104187,51.509865],[-0.104186,51.509866],[-0.104171,51.509868],[-0.103843,51.50986],[-0.103647,51.509855],[-0.103486,51.509848],[-0.1033,51.509841],[-0.103011,51.509831],[-0.102708,51.509822],[-0.102456,51.509816],[-0.102252,51.509812],[-0.102019,51.509808],[-0.101873,51.509806],[-0.101032,51.509782],[-0.100081,51.509718],[-0.099886,51.509705],[-0.099741,51.509695],[-0.099419,51.509674],[-0.0993,51.509663],[-0.09925,51.509657],[-0.099117,51.509649],[-0.098984,51.50964],[-0.098801,51.509625],[-0.098619,51.50961],[-0.097812,51.509541],[-0.097646,51.509525],[-0.097319,51.509494],[-0.097156,51.509477],[-0.096993,51.509461],[-0.096829,51.509441],[-0.096664,51.509419],[-0.096507,51.509398],[-0.096351,51.509375],[-0.096195,51.509352],[-0.096039,51.509328],[-0.095873,51.5093],[-0.095708,51.50927],[-0.095706,51.509269],[-0.095584,51.509243],[-0.09546,51.509216],[-0.095361,51.509195],[-0.095263,51.509174],[-0.09511,51.50914],[-0.094957,51.509105],[-0.0948,51.50907],[-0.094642,51.509035],[-0.094549,51.509014],[-0.094455,51.508993],[-0.09438,51.508976],[-0.094303,51.508959],[-0.094233,51.508943],[-0.094162,51.508928],[-0.094093,51.508912],[-0.094025,51.508895],[-0.093895,51.508859],[-0.093767,51.508822],[-0.093468,51.508739],[-0.093053,51.508621],[-0.092852,51.50857],[-0.092558,51.50849],[-0.092557,51.50849],[-0.092406,51.50845],[-0.092362,51.50844],[-0.092317,51.508429],[-0.092274,51.50842],[-0.09223,51.508409],[-0.092189,51.5084],[-0.092147,51.508389],[-0.092102,51.508383],[-0.091977,51.508368],[-0.091803,51.508345],[-0.091682,51.508331],[-0.091495,51.50831],[-0.09099,51.50825],[-0.090752,51.50822],[-0.090498,51.508188],[-0.09026,51.508161],[-0.090062,51.508138],[-0.08988,51.508118],[-0.089654,51.508093],[-0.089487,51.508074],[-0.089318,51.508056],[-0.089166,51.50804],[-0.089001,51.508022],[-0.088956,51.508017],[-0.088865,51.508008],[-0.088689,51.507988],[-0.088515,51.507969],[-0.088352,51.507949],[-0.088193,51.507929],[-0.088084,51.507919],[-0.087981,51.507906],[-0.088006,51.507836],[-0.088088,51.5076],[-0.088153,51.507412],[-0.088221,51.507217],[-0.088307,51.506968],[-0.088309,51.506964],[-0.088316,51.506942],[-0.088317,51.506938],[-0.088329,51.506908],[-0.088347,51.50686],[-0.088376,51.506865],[-0.088392,51.506816],[-0.088402,51.506791],[-0.088376,51.506787],[-0.088436,51.506632],[-0.088439,51.506624],[-0.088441,51.50662],[-0.088442,51.506618],[-0.088443,51.506618],[-0.088445,51.506612],[-0.088436,51.50661],[-0.088439,51.506602],[-0.088448,51.506603],[-0.088451,51.506595],[-0.087939,51.506526],[-0.087927,51.506561],[-0.087963,51.506566],[-0.087911,51.506722],[-0.087887,51.506719],[-0.087878,51.506746],[-0.087867,51.506745],[-0.087849,51.506807],[-0.087885,51.506812],[-0.087859,51.506893],[-0.087857,51.506899],[-0.087845,51.506934],[-0.087823,51.506998],[-0.08776,51.507176],[-0.087692,51.507368],[-0.087559,51.507742],[-0.087529,51.507828],[-0.087517,51.507864],[-0.087432,51.507857],[-0.087261,51.507844],[-0.087092,51.507833],[-0.087013,51.507827],[-0.086922,51.50782],[-0.086898,51.507818],[-0.086887,51.507817],[-0.086658,51.507796],[-0.086382,51.507775],[-0.085928,51.507742],[-0.085741,51.507728],[-0.085456,51.507706],[-0.084972,51.507673],[-0.084684,51.507617],[-0.08459,51.507598],[-0.084528,51.507585],[-0.084485,51.507577],[-0.084294,51.507542],[-0.084112,51.507511],[-0.083997,51.50749],[-0.083894,51.507473],[-0.083866,51.50747],[-0.083859,51.507469],[-0.083856,51.507468],[-0.083789,51.50746],[-0.083695,51.507449],[-0.083624,51.50744],[-0.083557,51.507431],[-0.083429,51.507414],[-0.083246,51.507389],[-0.083152,51.507377],[-0.083016,51.507358],[-0.082929,51.507346],[-0.082815,51.507328],[-0.082723,51.507314],[-0.082662,51.507304],[-0.082568,51.507291],[-0.082508,51.507281],[-0.082382,51.507263],[-0.082168,51.507231],[-0.081977,51.507199],[-0.081863,51.507183],[-0.081729,51.507163],[-0.08156,51.507139],[-0.08154,51.507136],[-0.081443,51.507119],[-0.081352,51.507101],[-0.081267,51.507085],[-0.081133,51.507061],[-0.081133,51.507061],[-0.080924,51.507022],[-0.080806,51.506997],[-0.080683,51.506973],[-0.080561,51.506951],[-0.080478,51.50693],[-0.080355,51.506906],[-0.080259,51.506884],[-0.080209,51.506871],[-0.079784,51.507582],[-0.079582,51.507699],[-0.079553,51.507715],[-0.07942,51.507792],[-0.079343,51.507907],[-0.079248,51.507891],[-0.079085,51.508253],[-0.079139,51.508264],[-0.079137,51.508267],[-0.079167,51.508277],[-0.079176,51.50828],[-0.079175,51.508294],[-0.079155,51.50832],[-0.079134,51.508347],[-0.079129,51.508354],[-0.079101,51.508346],[-0.079083,51.508371],[-0.07908,51.508376],[-0.079052,51.508423],[-0.079226,51.508461],[-0.079438,51.508511],[-0.079875,51.50857],[-0.080011,51.508653],[-0.080131,51.508739],[-0.08032,51.508805],[-0.080743,51.50872],[-0.081091,51.50882],[-0.08116,51.508843],[-0.081183,51.508853],[-0.081197,51.508859],[-0.081219,51.50887],[-0.081233,51.508876],[-0.081258,51.508884],[-0.082394,51.509161],[-0.082548,51.509181],[-0.082687,51.509197],[-0.082754,51.509204],[-0.082912,51.509225],[-0.083042,51.509238],[-0.083216,51.509259],[-0.083376,51.509278],[-0.083565,51.509301],[-0.083736,51.509321],[-0.08377,51.509326],[-0.083952,51.50935],[-0.084282,51.509392],[-0.084323,51.509398],[-0.084496,51.50942],[-0.084683,51.509444],[-0.084722,51.509448],[-0.084897,51.50947],[-0.085031,51.509488],[-0.085312,51.509522],[-0.085573,51.509554],[-0.085638,51.509559],[-0.08577,51.509577],[-0.08594,51.509602],[-0.086054,51.509618],[-0.086165,51.509633],[-0.086253,51.509645],[-0.086498,51.50969],[-0.086847,51.509731],[-0.087309,51.509788],[-0.087535,51.509819],[-0.087822,51.50986],[-0.088042,51.509891],[-0.088421,51.509959],[-0.088533,51.509979],[-0.088614,51.509994],[-0.088758,51.510038],[-0.088841,51.510062],[-0.089061,51.510125],[-0.089202,51.510165],[-0.089348,51.510207],[-0.089397,51.510221],[-0.089526,51.510258],[-0.08968,51.510302],[-0.08981,51.510336],[-0.089918,51.510362],[-0.089985,51.510379],[-0.090045,51.510392],[-0.09022,51.510428],[-0.090283,51.51044],[-0.091141,51.51058],[-0.091303,51.510609],[-0.091311,51.510612],[-0.091322,51.510616],[-0.091367,51.510634],[-0.091597,51.510687],[-0.092019,51.510781],[-0.092168,51.510875],[-0.092155,51.511054],[-0.092435,51.51115],[-0.092591,51.511063],[-0.092733,51.510976],[-0.09298,51.510977],[-0.093673,51.511035],[-0.093886,51.511084],[-0.094249,51.511135],[-0.09447,51.511286],[-0.094744,51.511232],[-0.095159,51.511211]]]},"properties":{"OBJECTID":2,"NAME":"City Flood Risk Area","whole_in_zone":false,"in_cw":false}}
]}
