{"type":"FeatureCollection","meta":{
 "source": "London Datastore: Strategic Industrial Land (SIL) (Planning Constraints Map)",
 "dataset": "2y5xy",
 "page": "https://data.london.gov.uk/dataset/strategic-industrial-land-sil-2y5xy",
 "resources": [
  {
   "resource": "b0616b02-d392-4564-b45a-eeb2945e5df9",
   "file": "Strategic_Industrial_Land.gpkg",
   "url": "https://data.london.gov.uk/download/2y5xy/b0616b02-d392-4564-b45a-eeb2945e5df9/Strategic_Industrial_Land.gpkg",
   "size": 835584,
   "resource_date": "2025-12-23",
   "fetched": "2026-10-04"
  }
 ],
 "licence": "Open Government Licence v3",
 "licence_url": "https://www.nationalarchives.gov.uk/doc/open-government-licence/version/3/",
 "attribution": "Contains public sector information licensed under the Open Government Licence v3 (Planning Constraints Map). The GLA cannot warrant the quality or accuracy of the data (London Datastore terms).",
 "dataset_modified": "2025-12-23",
 "update_frequency": null,
 "geo": "Custom Polygons",
 "theme": "buildings-places",
 "layers": [
  {
   "table": "sil",
   "srs": 27700
  }
 ],
 "crs_source": "EPSG:27700",
 "crs_output": "EPSG:4326 (WGS84), 6 decimal places; BNG to WGS84 through the OS OSTN15 grid (lib.mjs bngProjector)",
 "method": "walk-london-datastore.mjs harvest strategic-industrial-land: download the newest matching resource (gpkg); read every feature; keep a feature whose geometry meets the zone (the 3D model box, BNG E 532400-539900, N 176700-182300; WGS84 -0.095, 51.474, 0.015, 51.522): a vertex inside, an edge crossing the box or the box inside a polygon. Whole geometries are kept (not cut at the box): whole_in_zone says whether all of it lies inside. in_cw: the geometry meets the Canary Wharf registry box -0.03, 51.498, -0.005, 51.51. Source attributes kept as published except fields matching e-?mail|phone|tel(ephone)?$|^tel|contact|^fax|mobile|website_contact|^owner_?name|person. uprn_suspect: a UPRN field that a spreadsheet rounded (an exponent, or 9+ digits ending in 5+ zeros); not a key (fault F22).",
 "counts": {
  "source_features": 148,
  "no_geometry": 0,
  "in_zone": 14,
  "in_cw": 0
 },
 "attributes_in_source": "none (geometry and object ids only)",
 "fields_dropped": []
},
"features":[
{"type":"Feature","properties":{"fid":57,"OBJECTID":57,"Shape_Length":675.9421912056664,"Shape_Area":16454.746093836955,"in_cw":false,"whole_in_zone":true},"geometry":{"type":"MultiPolygon","coordinates":[[[[-0.072063,51.497474],[-0.070956,51.49779],[-0.07098,51.497822],[-0.070742,51.497891],[-0.070626,51.497736],[-0.070633,51.497723],[-0.070581,51.497659],[-0.070359,51.497385],[-0.070226,51.497286],[-0.070106,51.497216],[-0.070063,51.497188],[-0.069972,51.497143],[-0.069884,51.497114],[-0.069766,51.497087],[-0.069863,51.496881],[-0.069606,51.496765],[-0.069459,51.496695],[-0.068802,51.49664],[-0.068671,51.496375],[-0.068579,51.496332],[-0.069844,51.496152],[-0.069926,51.496177],[-0.070031,51.496331],[-0.070083,51.496395],[-0.070286,51.496489],[-0.071056,51.496838],[-0.071197,51.496936],[-0.07126,51.497012],[-0.071264,51.497077],[-0.071797,51.49734],[-0.072063,51.497474]]]]}},
{"type":"Feature","properties":{"fid":76,"OBJECTID":76,"Shape_Length":3025.127572804091,"Shape_Area":207863.1266546211,"in_cw":false,"whole_in_zone":true},"geometry":{"type":"MultiPolygon","coordinates":[[[[0.000898,51.495445],[0.000861,51.4955],[0.000857,51.495499],[0.000826,51.495505],[0.00081,51.495507],[0.000699,51.495502],[0.000713,51.495453],[0.000716,51.495436],[0.000622,51.495427],[0.000218,51.495329],[-0.000108,51.495251],[-0.000137,51.495244],[-0.000152,51.495238],[-0.000169,51.495234],[-0.000186,51.495231],[-0.000203,51.495229],[-0.000213,51.495229],[-0.000231,51.495229],[-0.000248,51.49523],[-0.000258,51.495233],[-0.000268,51.495236],[-0.000277,51.495241],[-0.000284,51.495247],[-0.000289,51.495252],[-0.000292,51.495259],[-0.000564,51.495661],[-0.000796,51.496007],[-0.000977,51.496277],[-0.000991,51.496301],[-0.001006,51.496326],[-0.001023,51.496361],[-0.00105,51.496413],[-0.001482,51.497374],[-0.001463,51.497389],[-0.001399,51.4974],[-0.001097,51.497456],[-0.000984,51.497475],[-0.000928,51.497487],[-0.000913,51.497463],[-0.000779,51.497492],[-0.00058,51.497533],[-0.000204,51.497612],[-0.000206,51.497615],[-0.000152,51.497627],[-0.000149,51.497623],[0.000015,51.497657],[0.000541,51.497733],[0.000716,51.49777],[0.000837,51.497795],[0.000852,51.497797],[0.000873,51.497801],[0.001013,51.497831],[0.001401,51.497922],[0.001435,51.497841],[0.001452,51.4978],[0.001484,51.497722],[0.001517,51.497638],[0.001554,51.497541],[0.001587,51.497459],[0.001603,51.497409],[0.001621,51.497357],[0.001624,51.497349],[0.001631,51.497328],[0.001634,51.497323],[0.001642,51.497303],[0.001649,51.497258],[0.001648,51.497255],[0.001651,51.497245],[0.001662,51.497169],[0.001669,51.497123],[0.001687,51.497002],[0.001693,51.496973],[0.001684,51.496972],[0.001691,51.49693],[0.001698,51.496929],[0.001708,51.49686],[0.001682,51.496854],[0.00173,51.49675],[0.001746,51.49672],[0.001765,51.496683],[0.001784,51.496647],[0.0018,51.496617],[0.001885,51.496462],[0.001898,51.496445],[0.001903,51.496433],[0.001904,51.496425],[0.001905,51.496378],[0.001903,51.496363],[0.001899,51.49635],[0.001893,51.496336],[0.001876,51.496305],[0.001863,51.496288],[0.001813,51.496233],[0.00179,51.4962],[0.001782,51.496185],[0.001774,51.496165],[0.001768,51.496144],[0.001766,51.496131],[0.00173,51.49612],[0.001766,51.496066],[0.001771,51.496059],[0.001775,51.496055],[0.001778,51.496044],[0.001788,51.496029],[0.001795,51.496023],[0.001809,51.496006],[0.00187,51.495956],[0.0019,51.495938],[0.001921,51.495927],[0.001949,51.495917],[0.001971,51.49591],[0.001997,51.495903],[0.002048,51.495894],[0.002099,51.495889],[0.002125,51.495888],[0.002344,51.495875],[0.002398,51.495872],[0.002423,51.495871],[0.002477,51.495868],[0.002498,51.495866],[0.002546,51.495859],[0.002592,51.49585],[0.00263,51.495842],[0.002667,51.49583],[0.002708,51.495815],[0.003106,51.495641],[0.003183,51.495603],[0.00363,51.495417],[0.003628,51.495412],[0.003651,51.495409],[0.003662,51.495404],[0.003667,51.495401],[0.003678,51.49539],[0.003671,51.495384],[0.003689,51.495372],[0.003885,51.495261],[0.003896,51.495256],[0.003944,51.495219],[0.003962,51.495205],[0.004025,51.495154],[0.004002,51.495141],[0.004269,51.494943],[0.004531,51.494746],[0.004562,51.494724],[0.004595,51.494706],[0.004771,51.494612],[0.004837,51.494575],[0.004844,51.494571],[0.005003,51.494491],[0.005027,51.494486],[0.005065,51.494477],[0.00526,51.494327],[0.00536,51.494251],[0.005462,51.494176],[0.005571,51.494101],[0.00568,51.494026],[0.005767,51.493947],[0.005967,51.49382],[0.006006,51.493787],[0.006106,51.493703],[0.006316,51.493534],[0.006395,51.493458],[0.006442,51.493415],[0.006631,51.493245],[0.006705,51.493181],[0.006848,51.493026],[0.006904,51.492965],[0.00695,51.492911],[0.007099,51.492759],[0.007107,51.492749],[0.00716,51.492695],[0.007191,51.492658],[0.007203,51.492646],[0.007206,51.492642],[0.007207,51.492639],[0.007207,51.492632],[0.007204,51.492631],[0.007201,51.492627],[0.007216,51.49261],[0.007236,51.492589],[0.007241,51.49259],[0.007244,51.49259],[0.007249,51.49259],[0.007252,51.492589],[0.007254,51.492588],[0.007256,51.492586],[0.007259,51.492583],[0.007277,51.492563],[0.007325,51.49251],[0.007355,51.492476],[0.007404,51.492427],[0.007508,51.492301],[0.007552,51.492246],[0.007682,51.492084],[0.007686,51.492077],[0.007697,51.492063],[0.007703,51.492055],[0.007708,51.49205],[0.007733,51.492017],[0.007767,51.491971],[0.007859,51.491845],[0.007879,51.491819],[0.007913,51.491775],[0.007934,51.491747],[0.008018,51.491631],[0.008028,51.491616],[0.008188,51.49139],[0.008212,51.491356],[0.008323,51.491197],[0.008349,51.491159],[0.008371,51.491123],[0.008429,51.491032],[0.008436,51.491019],[0.008454,51.490984],[0.008503,51.490849],[0.008509,51.490825],[0.008516,51.490806],[0.008518,51.490794],[0.00852,51.49078],[0.008524,51.490768],[0.008526,51.490755],[0.00853,51.490739],[0.008533,51.49072],[0.008534,51.490704],[0.008534,51.490689],[0.008535,51.490675],[0.008538,51.490622],[0.00854,51.490584],[0.008542,51.49054],[0.008545,51.490486],[0.008545,51.490471],[0.008547,51.490379],[0.008552,51.490277],[0.008558,51.490167],[0.00856,51.490079],[0.008558,51.489971],[0.008557,51.489909],[0.008556,51.4898],[0.008518,51.489682],[0.008514,51.489612],[0.008514,51.489611],[0.008513,51.48961],[0.008512,51.489609],[0.00851,51.489608],[0.008498,51.489608],[0.008507,51.489266],[0.008246,51.489263],[0.007979,51.489261],[0.007913,51.489261],[0.007713,51.48926],[0.007689,51.48926],[0.007571,51.489259],[0.007453,51.489259],[0.00736,51.489258],[0.006988,51.489255],[0.006988,51.48927],[0.006924,51.489269],[0.006882,51.489269],[0.006882,51.48931],[0.006905,51.489312],[0.006902,51.489394],[0.006883,51.489394],[0.006819,51.489394],[0.006755,51.489394],[0.006688,51.489394],[0.006627,51.489395],[0.006563,51.489397],[0.006498,51.489399],[0.006427,51.489401],[0.006362,51.489404],[0.006301,51.489407],[0.006252,51.48941],[0.006191,51.489413],[0.006126,51.489416],[0.006065,51.489419],[0.005983,51.489424],[0.005923,51.489427],[0.005859,51.489431],[0.005793,51.489434],[0.005729,51.489437],[0.005726,51.489437],[0.005663,51.489441],[0.005653,51.489441],[0.005674,51.489842],[0.005709,51.49068],[0.005423,51.490689],[0.005364,51.490691],[0.004941,51.490706],[0.004945,51.490724],[0.004956,51.490824],[0.004957,51.490839],[0.004966,51.490929],[0.00497,51.490965],[0.004942,51.490968],[0.004865,51.490974],[0.004612,51.490988],[0.004694,51.491211],[0.004715,51.491269],[0.004726,51.491284],[0.004785,51.491381],[0.004799,51.491405],[0.004803,51.491417],[0.004809,51.491435],[0.004812,51.491442],[0.004815,51.491452],[0.004812,51.491456],[0.004769,51.491541],[0.00476,51.491556],[0.004751,51.49157],[0.004736,51.491592],[0.004733,51.491597],[0.004682,51.491682],[0.004679,51.49169],[0.004597,51.491864],[0.004597,51.491864],[0.004644,51.492069],[0.004656,51.49212],[0.004657,51.492125],[0.004662,51.492145],[0.004664,51.492153],[0.004697,51.492292],[0.004707,51.492347],[0.004709,51.492352],[0.004711,51.49236],[0.004714,51.492383],[0.004742,51.492547],[0.004742,51.492547],[0.004742,51.492547],[0.004742,51.492547],[0.004742,51.492548],[0.004742,51.492548],[0.004742,51.492548],[0.004742,51.492548],[0.004742,51.492548],[0.004742,51.492548],[0.004742,51.492548],[0.004742,51.492548],[0.004742,51.492549],[0.004741,51.492549],[0.004741,51.492549],[0.004741,51.492549],[0.004741,51.492549],[0.004741,51.492549],[0.00474,51.492549],[0.00474,51.492549],[0.00474,51.492549],[0.00474,51.492549],[0.00474,51.492549],[0.00474,51.492549],[0.004739,51.49255],[0.004739,51.49255],[0.004739,51.49255],[0.004737,51.49255],[0.004737,51.49255],[0.004737,51.49255],[0.004672,51.492554],[0.00473,51.492747],[0.004463,51.493531],[0.004057,51.493424],[0.00382,51.493364],[0.003461,51.493283],[0.00341,51.493271],[0.003394,51.493296],[0.002479,51.493054],[0.002489,51.493043],[0.00246,51.493034],[0.002454,51.49303],[0.002441,51.493015],[0.002432,51.493004],[0.00237,51.492988],[0.002353,51.492983],[0.002311,51.492972],[0.002118,51.49292],[0.002102,51.492943],[0.002056,51.492931],[0.002017,51.492923],[0.001985,51.492918],[0.001954,51.492914],[0.001916,51.493012],[0.001844,51.4932],[0.001827,51.493232],[0.001822,51.493245],[0.001609,51.493627],[0.001589,51.493663],[0.001657,51.49368],[0.001683,51.493729],[0.001519,51.49396],[0.001621,51.493988],[0.001587,51.494035],[0.00152,51.494119],[0.001447,51.494171],[0.00144,51.494169],[0.001366,51.494147],[0.001364,51.494149],[0.001234,51.494228],[0.00114,51.494289],[0.00108,51.494332],[0.001054,51.494355],[0.001021,51.494386],[0.001014,51.494391],[0.001008,51.494397],[0.001001,51.494402],[0.000991,51.494412],[0.000976,51.49443],[0.000968,51.494441],[0.000954,51.494464],[0.000945,51.494492],[0.000944,51.494503],[0.000945,51.494523],[0.000951,51.494539],[0.000958,51.49455],[0.000967,51.494559],[0.000989,51.494576],[0.001004,51.494586],[0.001019,51.494594],[0.001046,51.494605],[0.00107,51.494618],[0.001229,51.494723],[0.001245,51.49474],[0.001216,51.494852],[0.001216,51.494861],[0.00122,51.494871],[0.001222,51.494873],[0.001231,51.494928],[0.001233,51.494936],[0.001233,51.494947],[0.00124,51.494977],[0.001241,51.494984],[0.001239,51.494989],[0.001165,51.495091],[0.001159,51.495104],[0.001158,51.495111],[0.001155,51.495118],[0.001155,51.495153],[0.00116,51.495195],[0.001138,51.495222],[0.001101,51.495267],[0.001076,51.495298],[0.000981,51.495415],[0.000942,51.495457],[0.000898,51.495445]]],[[[0.000897,51.495445],[0.000898,51.495445],[0.000898,51.495445],[0.000897,51.495445]]]]}},
{"type":"Feature","properties":{"fid":95,"OBJECTID":95,"Shape_Length":4275.923538541826,"Shape_Area":287380.07299589214,"in_cw":false,"whole_in_zone":true},"geometry":{"type":"MultiPolygon","coordinates":[[[[-0.043474,51.485397],[-0.042265,51.484883],[-0.042234,51.484769],[-0.042262,51.484601],[-0.042327,51.484542],[-0.042439,51.484461],[-0.042462,51.484446],[-0.041944,51.483994],[-0.041517,51.48329],[-0.041602,51.483129],[-0.04168,51.483052],[-0.041681,51.482995],[-0.041962,51.483106],[-0.042184,51.483223],[-0.042478,51.4834],[-0.042585,51.483479],[-0.042745,51.483643],[-0.04297,51.483853],[-0.043172,51.484037],[-0.043308,51.484034],[-0.042914,51.483108],[-0.042815,51.482716],[-0.042657,51.481542],[-0.042572,51.480479],[-0.042549,51.480109],[-0.042686,51.479084],[-0.042749,51.478882],[-0.042799,51.478935],[-0.043688,51.479218],[-0.043863,51.479441],[-0.044039,51.479626],[-0.044169,51.479746],[-0.044668,51.480164],[-0.044798,51.480298],[-0.045084,51.480563],[-0.045331,51.480808],[-0.045598,51.481152],[-0.045658,51.481214],[-0.045888,51.481351],[-0.046166,51.481717],[-0.04664,51.482371],[-0.046687,51.482536],[-0.046685,51.482646],[-0.046673,51.482694],[-0.046648,51.482752],[-0.04662,51.482821],[-0.046573,51.482927],[-0.046535,51.483031],[-0.046465,51.483192],[-0.046704,51.483518],[-0.047274,51.48428],[-0.047301,51.484428],[-0.047108,51.484633],[-0.047054,51.484664],[-0.047281,51.48498],[-0.047355,51.484991],[-0.047505,51.484979],[-0.047593,51.485081],[-0.048058,51.485564],[-0.048423,51.485902],[-0.048532,51.485971],[-0.048068,51.486393],[-0.047613,51.48681],[-0.047351,51.486954],[-0.047142,51.48716],[-0.046721,51.487607],[-0.046485,51.487943],[-0.046292,51.488264],[-0.046075,51.488731],[-0.046025,51.488883],[-0.046011,51.48916],[-0.045985,51.489622],[-0.045919,51.489623],[-0.045855,51.489624],[-0.045827,51.489541],[-0.045802,51.489486],[-0.045714,51.489313],[-0.045623,51.489154],[-0.045493,51.488952],[-0.045339,51.488741],[-0.045232,51.48859],[-0.044892,51.488201],[-0.044667,51.487944],[-0.044517,51.487768],[-0.044283,51.487456],[-0.044122,51.487208],[-0.044066,51.487088],[-0.044061,51.487029],[-0.044002,51.486879],[-0.043916,51.486496],[-0.043882,51.48632],[-0.043874,51.486056],[-0.043879,51.485901],[-0.043868,51.485568],[-0.043474,51.485397]]],[[[-0.036426,51.485236],[-0.037488,51.484796],[-0.037489,51.484789],[-0.037886,51.484626],[-0.037914,51.484444],[-0.037927,51.484422],[-0.037959,51.484397],[-0.037994,51.484374],[-0.038381,51.484205],[-0.038503,51.484151],[-0.038669,51.484082],[-0.03932,51.48381],[-0.03941,51.483773],[-0.039781,51.483604],[-0.041527,51.484268],[-0.041849,51.484382],[-0.041804,51.484427],[-0.041784,51.484422],[-0.041401,51.484466],[-0.041311,51.484515],[-0.040744,51.484584],[-0.03951,51.484729],[-0.039485,51.484752],[-0.038882,51.48483],[-0.03888,51.484822],[-0.038809,51.484836],[-0.038513,51.484922],[-0.03804,51.485101],[-0.037335,51.485406],[-0.037094,51.485518],[-0.036213,51.485912],[-0.036011,51.486008],[-0.036517,51.486419],[-0.036403,51.486476],[-0.0361,51.486679],[-0.035665,51.48642],[-0.035521,51.486304],[-0.034958,51.485867],[-0.034963,51.485843],[-0.035503,51.485621],[-0.035517,51.485615],[-0.035511,51.485606],[-0.036426,51.485236]]]]}},
{"type":"Feature","properties":{"fid":109,"OBJECTID":109,"Shape_Length":2322.027514599364,"Shape_Area":167926.32818661685,"in_cw":false,"whole_in_zone":false},"geometry":{"type":"MultiPolygon","coordinates":[[[[-0.001925,51.523345],[-0.002273,51.522753],[-0.002567,51.522375],[-0.002815,51.522055],[-0.003134,51.521638],[-0.003308,51.521644],[-0.003309,51.521616],[-0.003313,51.521569],[-0.003314,51.521548],[-0.003316,51.521501],[-0.003316,51.521498],[-0.003316,51.521491],[-0.003316,51.521488],[-0.003321,51.521398],[-0.003401,51.521291],[-0.003429,51.521253],[-0.003466,51.521205],[-0.003605,51.521023],[-0.003836,51.520723],[-0.004422,51.519964],[-0.004444,51.519935],[-0.004465,51.519905],[-0.003979,51.519584],[-0.003982,51.519582],[-0.004139,51.51949],[-0.004307,51.519391],[-0.004306,51.519391],[-0.004339,51.519371],[-0.003551,51.518855],[-0.003586,51.518833],[-0.003554,51.518812],[-0.003327,51.518664],[-0.00338,51.518633],[-0.003361,51.51862],[-0.003292,51.51866],[-0.003114,51.518544],[-0.003181,51.518503],[-0.003099,51.518409],[-0.003668,51.518216],[-0.003686,51.518237],[-0.003838,51.518184],[-0.003874,51.518228],[-0.004379,51.518056],[-0.004333,51.518005],[-0.004866,51.517825],[-0.004911,51.517876],[-0.004955,51.517862],[-0.004986,51.517852],[-0.004999,51.517848],[-0.005011,51.517845],[-0.005022,51.517843],[-0.005034,51.51784],[-0.005047,51.517838],[-0.005059,51.517837],[-0.005071,51.517835],[-0.005084,51.517834],[-0.005096,51.517834],[-0.005108,51.517833],[-0.00512,51.517833],[-0.005134,51.517833],[-0.005156,51.517835],[-0.005168,51.517836],[-0.005181,51.517837],[-0.005194,51.517839],[-0.005205,51.517841],[-0.005217,51.517844],[-0.005229,51.517846],[-0.005241,51.51785],[-0.005243,51.51785],[-0.005252,51.517853],[-0.005264,51.517857],[-0.005275,51.517861],[-0.005288,51.517866],[-0.005291,51.517867],[-0.005299,51.517871],[-0.005308,51.517876],[-0.005317,51.51788],[-0.005326,51.517886],[-0.005335,51.517891],[-0.005343,51.517897],[-0.00535,51.517902],[-0.005358,51.517908],[-0.005365,51.517914],[-0.005372,51.517921],[-0.005414,51.517969],[-0.005516,51.518086],[-0.006231,51.518899],[-0.006244,51.518914],[-0.00632,51.519],[-0.006339,51.51902],[-0.00635,51.51903],[-0.006374,51.519049],[-0.006387,51.519059],[-0.006473,51.519118],[-0.006495,51.519133],[-0.006589,51.519197],[-0.006598,51.519204],[-0.006662,51.519248],[-0.006728,51.519295],[-0.00675,51.519307],[-0.007282,51.519579],[-0.0073,51.519586],[-0.007308,51.51959],[-0.007317,51.519595],[-0.007325,51.519599],[-0.007332,51.519604],[-0.00734,51.519609],[-0.007347,51.519614],[-0.007353,51.519619],[-0.00736,51.519625],[-0.007366,51.51963],[-0.007369,51.519633],[-0.007371,51.519636],[-0.007377,51.519642],[-0.007382,51.519648],[-0.007386,51.519654],[-0.007391,51.519661],[-0.007394,51.519668],[-0.007397,51.519674],[-0.0074,51.519681],[-0.007403,51.519688],[-0.007405,51.519694],[-0.007406,51.519701],[-0.007407,51.519708],[-0.007408,51.519714],[-0.007408,51.519721],[-0.007408,51.519728],[-0.007407,51.519735],[-0.007406,51.519741],[-0.007404,51.519748],[-0.007402,51.519755],[-0.0074,51.519761],[-0.007396,51.519768],[-0.007393,51.519774],[-0.007388,51.519781],[-0.007541,51.51986],[-0.007567,51.519864],[-0.007623,51.519873],[-0.007708,51.519885],[-0.007753,51.519892],[-0.007765,51.519872],[-0.007865,51.519893],[-0.00794,51.519913],[-0.008062,51.51995],[-0.008131,51.519974],[-0.008114,51.519993],[-0.00813,51.519998],[-0.008161,51.520008],[-0.008188,51.520018],[-0.008222,51.520032],[-0.008204,51.52005],[-0.008277,51.520082],[-0.008366,51.520126],[-0.008263,51.520201],[-0.008364,51.520257],[-0.008315,51.520289],[-0.008329,51.520303],[-0.008347,51.520322],[-0.008355,51.520332],[-0.008348,51.520334],[-0.008353,51.520339],[-0.008355,51.520342],[-0.008361,51.520351],[-0.008368,51.520361],[-0.008374,51.520373],[-0.008379,51.520384],[-0.008382,51.520394],[-0.008382,51.520395],[-0.008384,51.520405],[-0.008384,51.520405],[-0.008386,51.520415],[-0.008386,51.520415],[-0.008386,51.520422],[-0.008386,51.520431],[-0.008386,51.520441],[-0.008386,51.520442],[-0.008386,51.520446],[-0.008384,51.520455],[-0.008383,51.520464],[-0.008381,51.520471],[-0.008377,51.520482],[-0.008373,51.520491],[-0.008369,51.5205],[-0.008364,51.520509],[-0.00846,51.52053],[-0.008454,51.52054],[-0.008319,51.520767],[-0.008296,51.520806],[-0.007882,51.5215],[-0.007809,51.521519],[-0.007695,51.521678],[-0.007668,51.521709],[-0.007485,51.521912],[-0.007396,51.522057],[-0.007378,51.522086],[-0.007126,51.522491],[-0.006958,51.522816],[-0.006934,51.52293],[-0.00689,51.523133],[-0.006883,51.523258],[-0.006872,51.523477],[-0.006859,51.523684],[-0.006832,51.523898],[-0.006669,51.523896],[-0.005525,51.523876],[-0.005438,51.5236],[-0.005228,51.523155],[-0.005114,51.522948],[-0.004735,51.523049],[-0.004661,51.523057],[-0.004615,51.523058],[-0.004542,51.523051],[-0.004468,51.523033],[-0.004212,51.523102],[-0.004139,51.523041],[-0.003971,51.522996],[-0.003914,51.522988],[-0.003807,51.522983],[-0.003679,51.522952],[-0.003525,51.522893],[-0.003341,51.523191],[-0.003157,51.523493],[-0.003041,51.523677],[-0.003019,51.523766],[-0.002998,51.523839],[-0.002844,51.523864],[-0.002647,51.523921],[-0.002538,51.523972],[-0.002291,51.524119],[-0.002071,51.524252],[-0.001451,51.52417],[-0.001464,51.524122],[-0.00162,51.523859],[-0.00175,51.523644],[-0.001775,51.523602],[-0.001798,51.523563],[-0.001925,51.523345]]]]}},
{"type":"Feature","properties":{"fid":111,"OBJECTID":111,"Shape_Length":1676.5512606272425,"Shape_Area":158378.5128617712,"in_cw":false,"whole_in_zone":false},"geometry":{"type":"MultiPolygon","coordinates":[[[[0.001609,51.521573],[0.001518,51.521333],[0.001501,51.521288],[0.0015,51.521286],[0.001477,51.521224],[0.001476,51.521221],[0.001475,51.521218],[0.001475,51.521212],[0.001476,51.521207],[0.00148,51.521199],[0.001483,51.521196],[0.001488,51.521192],[0.001497,51.521186],[0.0015,51.521185],[0.001506,51.521182],[0.001477,51.521107],[0.001462,51.521067],[0.001454,51.521048],[0.001448,51.521049],[0.001298,51.521071],[0.001179,51.521088],[0.001158,51.520995],[0.001088,51.520688],[0.001052,51.520528],[0.000997,51.520286],[0.000974,51.52019],[0.000976,51.520191],[0.000967,51.52015],[0.000966,51.520149],[0.000947,51.520084],[0.000945,51.520074],[0.000649,51.519863],[0.000507,51.519762],[0.000482,51.519743],[0.000399,51.519684],[0.000226,51.51956],[-0.000212,51.519247],[-0.000337,51.519157],[-0.000388,51.519121],[-0.000409,51.519105],[-0.00062,51.518955],[-0.000643,51.518939],[-0.000758,51.518856],[-0.00077,51.518848],[-0.00111,51.518606],[-0.001683,51.518219],[-0.001697,51.51821],[-0.001738,51.518233],[-0.001759,51.518219],[-0.001882,51.518129],[-0.001893,51.518121],[-0.001939,51.518089],[-0.002079,51.518182],[-0.002297,51.518323],[-0.00236,51.518365],[-0.002351,51.51837],[-0.002371,51.518385],[-0.002384,51.518381],[-0.00239,51.518385],[-0.002404,51.518394],[-0.002411,51.518399],[-0.002482,51.518446],[-0.002491,51.518452],[-0.002501,51.518459],[-0.002501,51.518459],[-0.002537,51.518482],[-0.002546,51.518488],[-0.002562,51.518498],[-0.002562,51.518498],[-0.002562,51.518499],[-0.002573,51.518506],[-0.002573,51.518506],[-0.002574,51.518506],[-0.002617,51.518535],[-0.002636,51.518547],[-0.002651,51.518557],[-0.002652,51.518566],[-0.002691,51.518588],[-0.002697,51.518586],[-0.00276,51.518629],[-0.00277,51.518638],[-0.002773,51.518641],[-0.002775,51.518645],[-0.002777,51.51865],[-0.002779,51.518659],[-0.002779,51.518664],[-0.002777,51.518668],[-0.002774,51.518672],[-0.002763,51.518688],[-0.002758,51.5187],[-0.002755,51.518712],[-0.002753,51.518724],[-0.002752,51.518735],[-0.002753,51.518747],[-0.002755,51.518755],[-0.002759,51.518764],[-0.00276,51.518767],[-0.002776,51.51879],[-0.002785,51.518801],[-0.002901,51.51888],[-0.003283,51.519129],[-0.003809,51.519472],[-0.003902,51.519534],[-0.003979,51.519584],[-0.004465,51.519905],[-0.004444,51.519935],[-0.004422,51.519964],[-0.003836,51.520723],[-0.003605,51.521023],[-0.003466,51.521205],[-0.003429,51.521253],[-0.003401,51.521291],[-0.003321,51.521398],[-0.003316,51.521488],[-0.003316,51.521491],[-0.003316,51.521498],[-0.003316,51.521501],[-0.003314,51.521548],[-0.003313,51.521569],[-0.003309,51.521616],[-0.003308,51.521644],[-0.003134,51.521638],[-0.002815,51.522055],[-0.002567,51.522375],[-0.002273,51.522753],[-0.001925,51.523345],[-0.001798,51.523563],[-0.001702,51.52355],[-0.000479,51.523376],[-0.000409,51.523366],[0.001178,51.523143],[0.001331,51.523122],[0.001365,51.523116],[0.001359,51.523099],[0.001314,51.523091],[0.001307,51.52307],[0.001236,51.522877],[0.001736,51.522806],[0.002053,51.522761],[0.002049,51.522749],[0.002048,51.522744],[0.002009,51.522641],[0.002005,51.522633],[0.002005,51.522632],[0.001883,51.522316],[0.00187,51.522281],[0.001786,51.522053],[0.00176,51.521983],[0.001639,51.521656],[0.001614,51.521587],[0.001609,51.521573]]]]}},
{"type":"Feature","properties":{"fid":112,"OBJECTID":112,"Shape_Length":1247.9075193358467,"Shape_Area":64431.94282596452,"in_cw":false,"whole_in_zone":true},"geometry":{"type":"MultiPolygon","coordinates":[[[[0.001828,51.521057],[0.002119,51.521018],[0.002401,51.520981],[0.003069,51.520884],[0.003577,51.520813],[0.003638,51.520807],[0.003693,51.520809],[0.003776,51.520814],[0.003802,51.520747],[0.003809,51.520691],[0.003817,51.520612],[0.003814,51.52054],[0.003798,51.520478],[0.003786,51.520434],[0.003777,51.520373],[0.00379,51.520312],[0.003915,51.520235],[0.003812,51.520108],[0.003748,51.52002],[0.003709,51.519966],[0.003594,51.5198],[0.003593,51.519798],[0.003551,51.519713],[0.003513,51.519601],[0.003479,51.519511],[0.003409,51.519361],[0.003278,51.51912],[0.003246,51.51907],[0.003175,51.518954],[0.003138,51.518865],[0.003122,51.518825],[0.0031,51.518756],[0.003089,51.518708],[0.003081,51.518648],[0.003079,51.518633],[0.003079,51.518515],[0.00308,51.518496],[0.003103,51.518361],[0.00313,51.518263],[0.003158,51.518184],[0.00319,51.518106],[0.003228,51.518028],[0.003267,51.517943],[0.003331,51.517801],[0.003334,51.517797],[0.003335,51.517794],[0.003321,51.517791],[0.003324,51.517784],[0.003326,51.517781],[0.003232,51.517764],[0.00317,51.517753],[0.003146,51.517749],[0.003143,51.517752],[0.00314,51.517754],[0.00313,51.517763],[0.003128,51.517764],[0.003127,51.517764],[0.003067,51.517814],[0.002929,51.517926],[0.002724,51.518049],[0.002794,51.518096],[0.002803,51.518103],[0.002777,51.518116],[0.00243,51.518296],[0.002408,51.518307],[0.002269,51.518379],[0.002244,51.518392],[0.002224,51.518406],[0.002239,51.518417],[0.00224,51.518418],[0.002244,51.51842],[0.002247,51.518423],[0.00225,51.518426],[0.00225,51.518429],[0.002247,51.518432],[0.002245,51.518434],[0.002242,51.518437],[0.002239,51.518439],[0.002235,51.518442],[0.002231,51.518444],[0.001996,51.51857],[0.001867,51.51864],[0.001844,51.518654],[0.001811,51.518674],[0.001771,51.518697],[0.001743,51.518708],[0.001701,51.518714],[0.001663,51.518709],[0.001662,51.518708],[0.001449,51.518663],[0.001435,51.518654],[0.001361,51.518603],[0.00136,51.518603],[0.001343,51.518614],[0.001338,51.518617],[0.001311,51.518632],[0.001267,51.518599],[0.000874,51.518315],[0.000573,51.518097],[0.000564,51.518091],[-0.000014,51.518399],[-0.000055,51.518421],[-0.000185,51.518491],[-0.000185,51.518491],[-0.000231,51.518534],[-0.000231,51.518535],[-0.00026,51.518556],[-0.00028,51.518571],[-0.000383,51.518629],[-0.000427,51.518654],[-0.000517,51.518705],[-0.00077,51.518848],[-0.000758,51.518856],[-0.000643,51.518939],[-0.00062,51.518955],[-0.000409,51.519105],[-0.000388,51.519121],[-0.000337,51.519157],[-0.000212,51.519247],[0.000226,51.51956],[0.000399,51.519684],[0.000482,51.519743],[0.000507,51.519762],[0.000649,51.519863],[0.000945,51.520074],[0.000947,51.520084],[0.000966,51.520149],[0.000967,51.52015],[0.000976,51.520191],[0.000974,51.52019],[0.000997,51.520286],[0.001052,51.520528],[0.001088,51.520688],[0.001158,51.520995],[0.001179,51.521088],[0.001298,51.521071],[0.001448,51.521049],[0.001454,51.521048],[0.001462,51.521067],[0.001477,51.521107],[0.001548,51.521097],[0.0017,51.521074],[0.001828,51.521057]]]]}},
{"type":"Feature","properties":{"fid":113,"OBJECTID":113,"Shape_Length":1237.3770872417554,"Shape_Area":64830.51822808091,"in_cw":false,"whole_in_zone":true},"geometry":{"type":"MultiPolygon","coordinates":[[[[-0.000055,51.518421],[0.000564,51.518091],[0.000573,51.518097],[0.000874,51.518315],[0.001267,51.518599],[0.001311,51.518632],[0.00136,51.518603],[0.001361,51.518603],[0.001435,51.518654],[0.001449,51.518663],[0.001662,51.518708],[0.001663,51.518709],[0.001701,51.518714],[0.001743,51.518708],[0.001771,51.518697],[0.001811,51.518674],[0.001844,51.518654],[0.001867,51.51864],[0.001996,51.51857],[0.002231,51.518444],[0.002235,51.518442],[0.00225,51.518429],[0.002247,51.518423],[0.00224,51.518418],[0.002239,51.518417],[0.002224,51.518406],[0.002244,51.518392],[0.002269,51.518379],[0.002408,51.518307],[0.00243,51.518296],[0.002777,51.518116],[0.002803,51.518103],[0.002794,51.518096],[0.002724,51.518049],[0.002929,51.517926],[0.003067,51.517814],[0.003127,51.517764],[0.003128,51.517764],[0.00313,51.517763],[0.00314,51.517754],[0.003143,51.517752],[0.003145,51.51775],[0.003146,51.517749],[0.003146,51.517749],[0.00317,51.517753],[0.003232,51.517764],[0.003326,51.517781],[0.003326,51.517781],[0.003471,51.517524],[0.003541,51.517411],[0.003735,51.517114],[0.003958,51.516788],[0.004334,51.516378],[0.00434,51.516372],[0.003653,51.516108],[0.003178,51.516369],[0.002721,51.516045],[0.002717,51.516047],[0.002468,51.516156],[0.002462,51.516158],[0.002377,51.516195],[0.002265,51.516246],[0.002114,51.516308],[0.0019,51.516397],[0.001813,51.516432],[0.001591,51.516522],[0.00149,51.516564],[0.001448,51.516581],[0.001372,51.516612],[0.001086,51.51673],[0.000802,51.516846],[0.000544,51.516953],[0.000507,51.516968],[0.000224,51.517082],[0.00019,51.517096],[-0.000085,51.517209],[-0.000276,51.517286],[-0.000392,51.517334],[-0.000521,51.517389],[-0.000641,51.517444],[-0.000815,51.517525],[-0.00087,51.517551],[-0.000937,51.517583],[-0.001464,51.517828],[-0.001671,51.517923],[-0.001688,51.51793],[-0.001706,51.517939],[-0.001726,51.51795],[-0.001735,51.517955],[-0.001744,51.517961],[-0.001753,51.517966],[-0.001761,51.517971],[-0.001796,51.517994],[-0.001763,51.518019],[-0.001623,51.518124],[-0.001629,51.518127],[-0.001625,51.518154],[-0.001598,51.518174],[-0.001683,51.518219],[-0.001478,51.518358],[-0.001359,51.518438],[-0.00111,51.518606],[-0.00077,51.518848],[-0.000517,51.518705],[-0.000427,51.518654],[-0.000383,51.518629],[-0.00028,51.518571],[-0.00026,51.518556],[-0.000231,51.518535],[-0.000231,51.518534],[-0.000185,51.518491],[-0.000185,51.518491],[-0.000055,51.518421]]]]}},
{"type":"Feature","properties":{"fid":114,"OBJECTID":114,"Shape_Length":658.534322673393,"Shape_Area":25518.73404797696,"in_cw":false,"whole_in_zone":false},"geometry":{"type":"MultiPolygon","coordinates":[[[[0.002053,51.522761],[0.002751,51.522659],[0.003775,51.522516],[0.003712,51.522232],[0.003628,51.521852],[0.003597,51.521532],[0.003627,51.521296],[0.003655,51.521012],[0.00366,51.520956],[0.003659,51.520932],[0.003651,51.520919],[0.003604,51.52089],[0.003638,51.520807],[0.003069,51.520884],[0.002401,51.520981],[0.002119,51.521018],[0.001548,51.521097],[0.001477,51.521107],[0.001506,51.521182],[0.001475,51.521218],[0.001477,51.521224],[0.001518,51.521333],[0.001609,51.521573],[0.00176,51.521983],[0.001786,51.522053],[0.00187,51.522281],[0.002005,51.522632],[0.002027,51.52269],[0.002048,51.522744],[0.002053,51.522761]]]]}},
{"type":"Feature","properties":{"fid":133,"OBJECTID":133,"Shape_Length":331.20868445242934,"Shape_Area":6878.35449407554,"in_cw":false,"whole_in_zone":true},"geometry":{"type":"MultiPolygon","coordinates":[[[[-0.060147,51.489809],[-0.059418,51.489238],[-0.059311,51.489158],[-0.05946,51.488984],[-0.060496,51.488972],[-0.061088,51.489472],[-0.060274,51.489772],[-0.060147,51.489809]]]]}},
{"type":"Feature","properties":{"fid":134,"OBJECTID":134,"Shape_Length":920.8051146595031,"Shape_Area":22549.151627187803,"in_cw":false,"whole_in_zone":true},"geometry":{"type":"MultiPolygon","coordinates":[[[[-0.065188,51.494198],[-0.066075,51.494598],[-0.067198,51.495088],[-0.067531,51.495234],[-0.067979,51.495462],[-0.068204,51.495596],[-0.069475,51.496206],[-0.068579,51.496329],[-0.067532,51.495977],[-0.066848,51.496099],[-0.066711,51.49613],[-0.066499,51.495692],[-0.06589,51.495747],[-0.065855,51.495498],[-0.066394,51.495441],[-0.066228,51.495341],[-0.065825,51.495381],[-0.065188,51.494198]]]]}},
{"type":"Feature","properties":{"fid":135,"OBJECTID":135,"Shape_Length":3098.1071853886665,"Shape_Area":144827.36170214522,"in_cw":false,"whole_in_zone":true},"geometry":{"type":"MultiPolygon","coordinates":[[[[-0.050141,51.48827],[-0.050177,51.488228],[-0.050245,51.488164],[-0.050262,51.488169],[-0.050281,51.488178],[-0.050289,51.488176],[-0.050319,51.488142],[-0.050286,51.488119],[-0.050383,51.488033],[-0.050382,51.488019],[-0.050474,51.487933],[-0.050527,51.487929],[-0.050628,51.487894],[-0.050715,51.487939],[-0.050931,51.487863],[-0.050983,51.487839],[-0.051164,51.487807],[-0.051357,51.487782],[-0.051656,51.487809],[-0.052056,51.487828],[-0.052372,51.487793],[-0.052466,51.487714],[-0.052522,51.487656],[-0.0534,51.487909],[-0.053844,51.488026],[-0.054476,51.488161],[-0.054829,51.488247],[-0.05532,51.488331],[-0.055443,51.488393],[-0.056074,51.488459],[-0.056655,51.488497],[-0.056891,51.488492],[-0.057406,51.488564],[-0.057631,51.488602],[-0.057436,51.488741],[-0.056924,51.489131],[-0.056716,51.489249],[-0.056115,51.489556],[-0.056321,51.489719],[-0.056355,51.489699],[-0.056975,51.490137],[-0.058061,51.490885],[-0.05813,51.490863],[-0.058195,51.490841],[-0.059564,51.490331],[-0.059659,51.490426],[-0.059789,51.490411],[-0.060544,51.491723],[-0.060605,51.491798],[-0.06059,51.491803],[-0.060625,51.491863],[-0.060296,51.492066],[-0.060501,51.492148],[-0.06168,51.492663],[-0.063122,51.493299],[-0.064674,51.493993],[-0.0652,51.494203],[-0.065579,51.494927],[-0.065355,51.494849],[-0.06405,51.494214],[-0.062543,51.49354],[-0.061236,51.492959],[-0.059776,51.492329],[-0.059546,51.492373],[-0.059349,51.492295],[-0.05936,51.492285],[-0.058437,51.491881],[-0.058195,51.491777],[-0.057869,51.491636],[-0.057512,51.491482],[-0.057301,51.49139],[-0.057199,51.491343],[-0.056936,51.491236],[-0.056694,51.491132],[-0.056475,51.49104],[-0.056228,51.490934],[-0.056,51.490838],[-0.0558,51.490755],[-0.055671,51.490701],[-0.055111,51.490463],[-0.05502,51.490408],[-0.05357,51.489855],[-0.051747,51.489006],[-0.050145,51.488338],[-0.050163,51.488323],[-0.050141,51.48827]]]]}},
{"type":"Feature","properties":{"fid":136,"OBJECTID":136,"Shape_Length":625.1945178245461,"Shape_Area":13276.834106294446,"in_cw":false,"whole_in_zone":true},"geometry":{"type":"MultiPolygon","coordinates":[[[[-0.071355,51.485196],[-0.071431,51.483028],[-0.072158,51.48294],[-0.072159,51.48294],[-0.072465,51.483659],[-0.072496,51.48376],[-0.07224,51.48381],[-0.072268,51.483915],[-0.072305,51.483914],[-0.072365,51.48401],[-0.072418,51.484155],[-0.072005,51.48424],[-0.071945,51.484643],[-0.071977,51.484647],[-0.071899,51.485179],[-0.071866,51.485216],[-0.071355,51.485196]]]]}},
{"type":"Feature","properties":{"fid":137,"OBJECTID":137,"Shape_Length":1751.998344242508,"Shape_Area":117538.80288596575,"in_cw":false,"whole_in_zone":true},"geometry":{"type":"MultiPolygon","coordinates":[[[[-0.054777,51.483447],[-0.05565,51.483465],[-0.055667,51.482777],[-0.055736,51.481837],[-0.056126,51.481857],[-0.05614,51.481686],[-0.056172,51.481685],[-0.05617,51.481676],[-0.0562,51.481677],[-0.056195,51.481662],[-0.056259,51.481664],[-0.056297,51.481307],[-0.05656,51.481349],[-0.057992,51.481592],[-0.058355,51.481261],[-0.05875,51.481414],[-0.058537,51.481652],[-0.05855,51.481683],[-0.058659,51.481746],[-0.058779,51.481769],[-0.058874,51.481793],[-0.058965,51.481826],[-0.059047,51.481878],[-0.059105,51.481954],[-0.059132,51.482091],[-0.059113,51.482203],[-0.059048,51.482571],[-0.059038,51.48264],[-0.059014,51.482827],[-0.058964,51.483331],[-0.059742,51.48335],[-0.06077,51.483412],[-0.0607,51.484222],[-0.060706,51.484283],[-0.061362,51.484261],[-0.061317,51.484298],[-0.061285,51.484328],[-0.061206,51.484394],[-0.061118,51.484474],[-0.061024,51.484557],[-0.060979,51.484595],[-0.06094,51.484623],[-0.060896,51.484643],[-0.06084,51.484663],[-0.060777,51.48468],[-0.060727,51.484683],[-0.060662,51.484685],[-0.060617,51.48469],[-0.060605,51.484713],[-0.060618,51.484717],[-0.060621,51.484868],[-0.060646,51.485091],[-0.060416,51.48509],[-0.060181,51.485084],[-0.060183,51.485096],[-0.059758,51.485123],[-0.059403,51.48515],[-0.058437,51.485232],[-0.058384,51.485033],[-0.0584,51.484834],[-0.058093,51.484821],[-0.055105,51.484631],[-0.055132,51.484479],[-0.054751,51.484465],[-0.054777,51.483447]]]]}},
{"type":"Feature","properties":{"fid":140,"OBJECTID":140,"Shape_Length":1452.0195322509762,"Shape_Area":100717.39577604369,"in_cw":false,"whole_in_zone":false},"geometry":{"type":"MultiPolygon","coordinates":[[[[-0.014902,51.522854],[-0.014844,51.522773],[-0.014671,51.522531],[-0.014577,51.522395],[-0.014439,51.522202],[-0.014332,51.522048],[-0.014134,51.522068],[-0.014131,51.522068],[-0.013963,51.522079],[-0.013556,51.52211],[-0.013231,51.522133],[-0.01226,51.522203],[-0.012151,51.522211],[-0.011845,51.522232],[-0.011249,51.522277],[-0.011247,51.522277],[-0.011237,51.522279],[-0.011226,51.522279],[-0.011217,51.522278],[-0.011209,51.522277],[-0.011207,51.522276],[-0.011044,51.522291],[-0.011038,51.522292],[-0.01102,51.522295],[-0.011004,51.522295],[-0.010997,51.522295],[-0.010986,51.522293],[-0.010976,51.52229],[-0.01097,51.522288],[-0.01069,51.522307],[-0.010622,51.522317],[-0.010622,51.522287],[-0.010623,51.52223],[-0.010625,51.522188],[-0.010628,51.522147],[-0.010632,51.522111],[-0.010637,51.522076],[-0.010641,51.522046],[-0.010646,51.522016],[-0.010656,51.521954],[-0.010667,51.521892],[-0.010682,51.521593],[-0.010717,51.521596],[-0.010733,51.521556],[-0.010742,51.521534],[-0.010757,51.521499],[-0.010801,51.521487],[-0.010804,51.521486],[-0.010807,51.521485],[-0.010809,51.521484],[-0.010815,51.521481],[-0.010818,51.521479],[-0.010922,51.521389],[-0.011034,51.521293],[-0.011107,51.521233],[-0.011177,51.521173],[-0.011249,51.521112],[-0.011289,51.521083],[-0.011338,51.521046],[-0.011411,51.520993],[-0.011503,51.520926],[-0.011579,51.520871],[-0.011635,51.520829],[-0.011663,51.520807],[-0.011703,51.52078],[-0.011711,51.520772],[-0.011727,51.520762],[-0.011733,51.520759],[-0.011741,51.520756],[-0.011749,51.520753],[-0.011759,51.520749],[-0.011768,51.520744],[-0.011815,51.520725],[-0.011833,51.520718],[-0.011851,51.520711],[-0.011867,51.520705],[-0.011884,51.520698],[-0.0119,51.520692],[-0.011917,51.520687],[-0.011929,51.520683],[-0.011942,51.520679],[-0.012013,51.520652],[-0.012219,51.52057],[-0.012333,51.520525],[-0.012434,51.520484],[-0.012601,51.520418],[-0.012628,51.520442],[-0.012711,51.520408],[-0.012897,51.520329],[-0.012987,51.520291],[-0.013018,51.520279],[-0.013055,51.520263],[-0.013159,51.52022],[-0.01317,51.520216],[-0.01318,51.520212],[-0.013185,51.520209],[-0.013191,51.520206],[-0.013205,51.520199],[-0.01322,51.520192],[-0.013264,51.52017],[-0.013408,51.520098],[-0.013664,51.519974],[-0.013956,51.519849],[-0.014101,51.51979],[-0.01431,51.519701],[-0.014521,51.519612],[-0.014526,51.51961],[-0.01475,51.519516],[-0.014979,51.519419],[-0.015171,51.519335],[-0.015264,51.519297],[-0.015319,51.519375],[-0.015304,51.519379],[-0.015736,51.520064],[-0.015753,51.520095],[-0.015781,51.520089],[-0.015951,51.520357],[-0.01604,51.520505],[-0.01608,51.520562],[-0.016132,51.520642],[-0.016241,51.520815],[-0.016377,51.521027],[-0.016853,51.521788],[-0.01715,51.522247],[-0.017178,51.522289],[-0.017184,51.522383],[-0.017184,51.522389],[-0.017185,51.522393],[-0.017186,51.522402],[-0.017189,51.522408],[-0.01719,51.52241],[-0.017193,51.522418],[-0.017196,51.522421],[-0.017198,51.522423],[-0.017198,51.522425],[-0.017205,51.522432],[-0.017206,51.522433],[-0.017236,51.522464],[-0.017279,51.522456],[-0.017396,51.522644],[-0.017421,51.522686],[-0.017334,51.522724],[-0.01732,51.52273],[-0.017316,51.522732],[-0.0173,51.522738],[-0.017291,51.522742],[-0.017235,51.522758],[-0.017178,51.522773],[-0.017136,51.522783],[-0.017078,51.522796],[-0.017019,51.522808],[-0.016959,51.522818],[-0.016948,51.52282],[-0.016885,51.522829],[-0.016822,51.522837],[-0.016759,51.522843],[-0.016747,51.522844],[-0.016686,51.522848],[-0.016624,51.52285],[-0.016562,51.522852],[-0.016512,51.522852],[-0.016448,51.522851],[-0.016414,51.52285],[-0.016338,51.522847],[-0.016245,51.522845],[-0.015961,51.522842],[-0.015888,51.522841],[-0.015867,51.522855],[-0.015847,51.522856],[-0.015733,51.522864],[-0.01562,51.522875],[-0.015507,51.522885],[-0.015342,51.522902],[-0.015238,51.522912],[-0.015163,51.522918],[-0.015152,51.522919],[-0.015078,51.522925],[-0.014936,51.522895],[-0.014904,51.522857],[-0.014902,51.522854]]]]}}
]}
