{"type":"FeatureCollection","meta":{
 "source": "City of London INSPIRE map service: Tower of London WHS Local Setting Area",
 "borough": "City of London",
 "page": "https://www.mapping.cityoflondon.gov.uk/arcgis/rest/services/INSPIRE/MapServer/131",
 "api": "https://www.mapping.cityoflondon.gov.uk/arcgis/rest/services/INSPIRE/MapServer/131/query?where=1=1&geometry=<zone box>&geometryType=esriGeometryEnvelope&inSR=4326&spatialRel=esriSpatialRelIntersects&outFields=*&outSR=4326&f=geojson&resultOffset=<n>",
 "fetched": "2026-10-04",
 "licence": "Open Government Licence v3.0",
 "licence_evidence": "the City's INSPIRE record on data.gov.uk (tower-of-london-whs-local-setting-area1): [\"http://www.nationalarchives.gov.uk/doc/open-government-licence/version/3/\"] | [\"https://inspire.ec.europa.eu/metadata-codelist/LimitationsOnPublicAccess\", \"License\"]",
 "licence_url": "https://www.nationalarchives.gov.uk/doc/open-government-licence/version/3/",
 "attribution": "Contains public sector information licensed under the Open Government Licence v3.0 (City of London Corporation)",
 "zone": "the 3D model box, BNG E 532400-539900, N 176700-182300 (WGS84 -0.095, 51.474 to 0.015, 51.522)",
 "method": "walk-portals.mjs boroughs harvest city-tower-of-london-whs-local-setting-area: features that meet the zone box, WGS84 rounded to 6 decimals, whole geometries; whole_in_zone, in_cw; empty fields and ArcGIS shape measures left out; fields matching /e-?mail|phone|tel(ephone)?$|^tel|contact|^fax|mobile|^owner_?name|person|officer|case_?officer|agent_?name|applicant/i dropped",
 "counts": {
  "features": 1,
  "zone_count_at_walk": 1,
  "in_cw": 0
 },
 "fields_dropped": []
},
"features":[
{"type":"Feature","geometry":{"type":"Polygon","coordinates":[[[-0.081315,51.508362],[-0.087958,51.50797],[-0.088006,51.507836],[-0.088088,51.5076],[-0.088153,51.507412],[-0.088221,51.507217],[-0.088307,51.506968],[-0.088309,51.506964],[-0.088316,51.506942],[-0.088317,51.506938],[-0.088353,51.506844],[-0.088371,51.506783],[-0.08841,51.506676],[-0.087899,51.506607],[-0.087953,51.506443],[-0.087954,51.506442],[-0.087692,51.506408],[-0.087686,51.506411],[-0.087554,51.506468],[-0.087527,51.50648],[-0.087302,51.506451],[-0.087306,51.506444],[-0.087131,51.506397],[-0.087069,51.50638],[-0.087059,51.506378],[-0.086829,51.506315],[-0.086821,51.506313],[-0.086781,51.506302],[-0.086678,51.506278],[-0.086582,51.506247],[-0.086576,51.506245],[-0.086498,51.506221],[-0.086488,51.506218],[-0.086396,51.506188],[-0.086357,51.506236],[-0.086285,51.506225],[-0.086271,51.506224],[-0.086257,51.506222],[-0.086248,51.506221],[-0.086226,51.506218],[-0.086196,51.506216],[-0.086162,51.50621],[-0.08613,51.506207],[-0.08612,51.506206],[-0.0861,51.506204],[-0.086094,51.506204],[-0.086098,51.506189],[-0.086063,51.506189],[-0.085912,51.506187],[-0.085871,51.506187],[-0.0858,51.506187],[-0.085797,51.506187],[-0.085793,51.506187],[-0.085706,51.506182],[-0.085703,51.506182],[-0.085703,51.506176],[-0.085674,51.506176],[-0.08553,51.506179],[-0.085531,51.506184],[-0.085524,51.506184],[-0.085522,51.506162],[-0.085518,51.506157],[-0.085407,51.506148],[-0.085397,51.506153],[-0.085332,51.506147],[-0.085324,51.506141],[-0.085333,51.506101],[-0.085342,51.506097],[-0.085355,51.506041],[-0.085377,51.505943],[-0.085367,51.50594],[-0.085377,51.505935],[-0.0854,51.505829],[-0.085445,51.505786],[-0.085493,51.50574],[-0.085492,51.505734],[-0.085423,51.505705],[-0.085286,51.505717],[-0.085142,51.505854],[-0.085094,51.50585],[-0.085085,51.50585],[-0.085049,51.505847],[-0.085,51.505844],[-0.085003,51.505828],[-0.08501,51.505786],[-0.084832,51.505771],[-0.084822,51.505814],[-0.084819,51.505827],[-0.084812,51.505832],[-0.084739,51.505826],[-0.084725,51.505825],[-0.084718,51.505819],[-0.084729,51.505764],[-0.084784,51.50571],[-0.084626,51.505644],[-0.084507,51.505578],[-0.084454,51.505554],[-0.084144,51.505419],[-0.084096,51.505398],[-0.084093,51.505396],[-0.083744,51.505246],[-0.083736,51.505242],[-0.08358,51.505379],[-0.083579,51.50538],[-0.083523,51.505428],[-0.083522,51.505429],[-0.083457,51.505486],[-0.083324,51.505589],[-0.083293,51.505614],[-0.08317,51.505556],[-0.083131,51.505538],[-0.083071,51.50551],[-0.083066,51.505508],[-0.083063,51.505507],[-0.08273,51.50538],[-0.082723,51.505377],[-0.082568,51.505324],[-0.082505,51.505307],[-0.082161,51.505221],[-0.082073,51.5052],[-0.082072,51.505199],[-0.08207,51.505199],[-0.082069,51.505198],[-0.082068,51.505198],[-0.082066,51.505198],[-0.082064,51.505198],[-0.082063,51.505198],[-0.082061,51.505197],[-0.082059,51.505197],[-0.082058,51.505197],[-0.082056,51.505197],[-0.082055,51.505197],[-0.082053,51.505198],[-0.082052,51.505198],[-0.08205,51.505198],[-0.082048,51.505198],[-0.082003,51.505188],[-0.082202,51.504822],[-0.082249,51.504706],[-0.082281,51.504625],[-0.082018,51.504565],[-0.082049,51.504512],[-0.082109,51.50441],[-0.082121,51.50439],[-0.082124,51.504386],[-0.082126,51.504384],[-0.081952,51.504303],[-0.081933,51.504294],[-0.081538,51.504112],[-0.081361,51.504262],[-0.081381,51.504271],[-0.081368,51.504292],[-0.08093,51.504158],[-0.080766,51.504121],[-0.080754,51.504116],[-0.080539,51.50405],[-0.080526,51.504046],[-0.080475,51.504007],[-0.080415,51.503989],[-0.080409,51.503977],[-0.080321,51.503927],[-0.080284,51.503986],[-0.080095,51.503941],[-0.080135,51.503866],[-0.080028,51.503841],[-0.079998,51.503834],[-0.079962,51.503824],[-0.079679,51.503743],[-0.079677,51.503743],[-0.079676,51.503743],[-0.079675,51.503743],[-0.079674,51.503742],[-0.079673,51.503742],[-0.079672,51.503742],[-0.079671,51.503742],[-0.07967,51.503742],[-0.079669,51.503742],[-0.07958,51.503715],[-0.079612,51.503673],[-0.079646,51.503634],[-0.079727,51.50355],[-0.079735,51.50354],[-0.079475,51.50344],[-0.079451,51.503431],[-0.079393,51.503409],[-0.07932,51.503391],[-0.079307,51.503386],[-0.078951,51.503292],[-0.078952,51.503283],[-0.07895,51.50328],[-0.078948,51.503276],[-0.078944,51.503273],[-0.078938,51.503269],[-0.078932,51.503267],[-0.078898,51.503259],[-0.078612,51.503186],[-0.078575,51.503178],[-0.078385,51.50313],[-0.078223,51.50309],[-0.078078,51.503054],[-0.078014,51.503037],[-0.078005,51.503034],[-0.077962,51.503024],[-0.077955,51.503022],[-0.077813,51.502987],[-0.077743,51.502971],[-0.077615,51.502941],[-0.077612,51.50294],[-0.077572,51.502932],[-0.077506,51.502919],[-0.077457,51.502912],[-0.077446,51.502911],[-0.077438,51.502911],[-0.077428,51.502912],[-0.077417,51.502913],[-0.077394,51.502916],[-0.07737,51.502921],[-0.077359,51.502924],[-0.077328,51.502932],[-0.077039,51.50285],[-0.077031,51.502831],[-0.076912,51.502794],[-0.076883,51.502801],[-0.076807,51.502912],[-0.076797,51.502926],[-0.076751,51.502992],[-0.076704,51.503059],[-0.076686,51.503084],[-0.07668,51.503094],[-0.076676,51.5031],[-0.076668,51.503109],[-0.076663,51.503113],[-0.076649,51.503127],[-0.07663,51.503145],[-0.076621,51.503154],[-0.076581,51.503193],[-0.076514,51.503257],[-0.076479,51.503293],[-0.076415,51.503351],[-0.076334,51.503429],[-0.076267,51.503497],[-0.076199,51.503565],[-0.076131,51.503631],[-0.076086,51.503678],[-0.075737,51.504031],[-0.075736,51.504033],[-0.075734,51.504034],[-0.075733,51.504036],[-0.075732,51.504038],[-0.07573,51.504039],[-0.075729,51.504042],[-0.075728,51.504044],[-0.075653,51.504124],[-0.075649,51.504123],[-0.075607,51.504112],[-0.075603,51.504111],[-0.075536,51.504095],[-0.07541,51.504061],[-0.075276,51.504026],[-0.075246,51.504017],[-0.075233,51.504014],[-0.075229,51.504013],[-0.075209,51.504007],[-0.075145,51.503983],[-0.075061,51.503954],[-0.075038,51.503945],[-0.075006,51.503936],[-0.074966,51.503924],[-0.074868,51.503894],[-0.074669,51.503834],[-0.07466,51.503831],[-0.074494,51.503781],[-0.074458,51.503771],[-0.074418,51.503759],[-0.074291,51.503722],[-0.074175,51.503687],[-0.074165,51.503684],[-0.074137,51.503676],[-0.074124,51.503671],[-0.074091,51.503662],[-0.074019,51.503642],[-0.073987,51.503632],[-0.07396,51.503624],[-0.07395,51.503621],[-0.073893,51.503604],[-0.073879,51.503599],[-0.073848,51.503588],[-0.073845,51.503588],[-0.073826,51.503581],[-0.073785,51.503567],[-0.073754,51.503556],[-0.073734,51.503549],[-0.073712,51.503542],[-0.073682,51.503532],[-0.073677,51.50353],[-0.073567,51.503493],[-0.073547,51.503487],[-0.073536,51.503484],[-0.073513,51.503473],[-0.073499,51.503467],[-0.073467,51.503453],[-0.073421,51.503433],[-0.073402,51.503426],[-0.073359,51.503407],[-0.073356,51.503406],[-0.073302,51.503382],[-0.073297,51.50338],[-0.073268,51.503367],[-0.073257,51.503363],[-0.073237,51.503354],[-0.073233,51.503352],[-0.07323,51.503351],[-0.073145,51.503315],[-0.073122,51.503306],[-0.073076,51.503286],[-0.072992,51.503248],[-0.072986,51.503246],[-0.072982,51.503244],[-0.07296,51.503236],[-0.072957,51.503235],[-0.072946,51.503231],[-0.072862,51.5032],[-0.072857,51.503198],[-0.072851,51.503196],[-0.072839,51.503191],[-0.072836,51.50319],[-0.072832,51.503189],[-0.072739,51.503155],[-0.072725,51.503151],[-0.07272,51.503148],[-0.072714,51.503146],[-0.072707,51.503144],[-0.072701,51.503142],[-0.07269,51.503137],[-0.072668,51.503129],[-0.072585,51.50309],[-0.072579,51.503087],[-0.072564,51.503081],[-0.072415,51.503012],[-0.072414,51.503011],[-0.072408,51.503008],[-0.072391,51.503],[-0.07231,51.502963],[-0.072213,51.502913],[-0.072207,51.502917],[-0.072194,51.502929],[-0.072176,51.502921],[-0.072142,51.502949],[-0.072093,51.502989],[-0.07211,51.502997],[-0.072098,51.503008],[-0.072028,51.503065],[-0.071834,51.503203],[-0.072847,51.506398],[-0.072833,51.506434],[-0.072819,51.506479],[-0.072754,51.506471],[-0.072725,51.506479],[-0.072716,51.506498],[-0.072727,51.506509],[-0.07272,51.50653],[-0.072726,51.506543],[-0.072688,51.506558],[-0.072679,51.506579],[-0.07269,51.506591],[-0.072692,51.506593],[-0.072718,51.506597],[-0.072701,51.506641],[-0.072695,51.506655],[-0.072677,51.5067],[-0.07267,51.506717],[-0.072665,51.506731],[-0.072954,51.506774],[-0.073132,51.5068],[-0.073139,51.506801],[-0.073273,51.506822],[-0.073406,51.506842],[-0.073603,51.506871],[-0.073628,51.506875],[-0.073636,51.506876],[-0.073642,51.506878],[-0.073651,51.506882],[-0.07366,51.506886],[-0.073666,51.506889],[-0.073671,51.506893],[-0.073673,51.506895],[-0.073675,51.506898],[-0.073678,51.506903],[-0.073679,51.506908],[-0.073672,51.506946],[-0.073661,51.507007],[-0.07364,51.507092],[-0.073623,51.507172],[-0.073607,51.507247],[-0.073587,51.50734],[-0.07357,51.507418],[-0.073543,51.507544],[-0.073531,51.507599],[-0.073524,51.507633],[-0.073481,51.507839],[-0.07346,51.50793],[-0.073428,51.508079],[-0.073409,51.508164],[-0.073405,51.508183],[-0.073397,51.508226],[-0.073123,51.508312],[-0.072734,51.508197],[-0.072662,51.508179],[-0.072624,51.508167],[-0.072594,51.508207],[-0.072418,51.508439],[-0.072416,51.50844],[-0.072424,51.508443],[-0.072394,51.508483],[-0.072265,51.508652],[-0.072236,51.508641],[-0.072182,51.508623],[-0.072112,51.5086],[-0.071902,51.508533],[-0.07183,51.50851],[-0.071678,51.508462],[-0.071634,51.508452],[-0.071577,51.508441],[-0.071546,51.508437],[-0.071449,51.508419],[-0.071427,51.508416],[-0.071377,51.508415],[-0.071363,51.508414],[-0.071338,51.508412],[-0.071299,51.50841],[-0.071252,51.508409],[-0.071219,51.508408],[-0.071186,51.508408],[-0.071154,51.50841],[-0.071121,51.508412],[-0.071096,51.508415],[-0.071073,51.508417],[-0.071028,51.508425],[-0.071075,51.508561],[-0.071039,51.508594],[-0.071047,51.508621],[-0.070987,51.508629],[-0.070993,51.508644],[-0.07103,51.508754],[-0.071119,51.50901],[-0.071204,51.509253],[-0.071223,51.509306],[-0.071233,51.50934],[-0.07119,51.509347],[-0.071194,51.509361],[-0.071223,51.509446],[-0.071226,51.509454],[-0.071273,51.509448],[-0.071306,51.509543],[-0.071429,51.509898],[-0.071447,51.50995],[-0.071503,51.510113],[-0.071516,51.510151],[-0.071589,51.510141],[-0.071668,51.51013],[-0.07169,51.510195],[-0.071717,51.510191],[-0.07172,51.510203],[-0.071909,51.510178],[-0.071994,51.510177],[-0.072104,51.510164],[-0.072159,51.510158],[-0.072476,51.510125],[-0.072726,51.510099],[-0.072597,51.510295],[-0.072607,51.510306],[-0.072614,51.510317],[-0.072619,51.510328],[-0.072622,51.510337],[-0.072624,51.510349],[-0.072624,51.510361],[-0.072627,51.510442],[-0.072627,51.510488],[-0.072629,51.510554],[-0.07263,51.510575],[-0.072631,51.510612],[-0.072982,51.510597],[-0.073247,51.510585],[-0.073274,51.510584],[-0.073295,51.510584],[-0.073322,51.510583],[-0.073345,51.510582],[-0.073372,51.510582],[-0.073814,51.510581],[-0.073894,51.510581],[-0.073962,51.510581],[-0.074496,51.510581],[-0.074497,51.510613],[-0.074497,51.510641],[-0.074497,51.510673],[-0.074502,51.510673],[-0.074761,51.510673],[-0.074809,51.510678],[-0.074807,51.510693],[-0.074924,51.510702],[-0.074923,51.510712],[-0.074964,51.510714],[-0.07497,51.510724],[-0.075012,51.51073],[-0.07505,51.510735],[-0.075131,51.510747],[-0.07516,51.510751],[-0.075188,51.510756],[-0.075212,51.510759],[-0.075228,51.510762],[-0.07529,51.510773],[-0.075369,51.510787],[-0.075422,51.510797],[-0.075474,51.510807],[-0.075588,51.51083],[-0.075594,51.510831],[-0.075606,51.510833],[-0.075695,51.510851],[-0.075742,51.51086],[-0.075823,51.510877],[-0.076045,51.510921],[-0.076234,51.510958],[-0.076353,51.510981],[-0.076353,51.510965],[-0.076729,51.510918],[-0.076711,51.510872],[-0.076761,51.510861],[-0.076804,51.510852],[-0.076914,51.510822],[-0.076926,51.510819],[-0.077105,51.510791],[-0.077293,51.510774],[-0.077499,51.510756],[-0.077638,51.510743],[-0.077687,51.510739],[-0.077866,51.510712],[-0.078011,51.510703],[-0.078351,51.510684],[-0.078432,51.51068],[-0.078785,51.510659],[-0.078923,51.510651],[-0.07892,51.510624],[-0.078913,51.510561],[-0.0789,51.510481],[-0.078882,51.510345],[-0.078881,51.510335],[-0.078876,51.510298],[-0.078874,51.510295],[-0.078865,51.510216],[-0.078847,51.510075],[-0.078835,51.509987],[-0.07882,51.509897],[-0.078872,51.509893],[-0.078933,51.509888],[-0.079007,51.50989],[-0.079243,51.509894],[-0.079289,51.509813],[-0.079339,51.50972],[-0.079518,51.509536],[-0.079536,51.509531],[-0.079633,51.509525],[-0.079654,51.509523],[-0.079708,51.509517],[-0.079756,51.509511],[-0.079815,51.509501],[-0.079862,51.509492],[-0.079876,51.509488],[-0.079877,51.509488],[-0.079878,51.509487],[-0.079879,51.509487],[-0.07988,51.509486],[-0.07988,51.509486],[-0.079881,51.509485],[-0.079881,51.509485],[-0.079882,51.509484],[-0.079883,51.509483],[-0.079883,51.509483],[-0.079884,51.509482],[-0.079884,51.509481],[-0.079885,51.509481],[-0.079885,51.50948],[-0.079886,51.509479],[-0.079886,51.509478],[-0.079886,51.509477],[-0.079886,51.509476],[-0.079886,51.509476],[-0.079886,51.509476],[-0.080069,51.509421],[-0.080246,51.509343],[-0.080254,51.50934],[-0.08026,51.509337],[-0.080267,51.509335],[-0.080275,51.50933],[-0.08031,51.509311],[-0.080377,51.509277],[-0.080524,51.50921],[-0.080671,51.509151],[-0.080778,51.509113],[-0.080929,51.509065],[-0.080935,51.509063],[-0.080941,51.509061],[-0.080947,51.509059],[-0.080952,51.509057],[-0.080958,51.509055],[-0.080967,51.509051],[-0.080972,51.509048],[-0.080977,51.509045],[-0.080982,51.509043],[-0.080986,51.50904],[-0.080991,51.509036],[-0.080995,51.509033],[-0.080999,51.50903],[-0.081002,51.509027],[-0.081005,51.509024],[-0.081008,51.50902],[-0.08101,51.509017],[-0.081012,51.509014],[-0.081015,51.50901],[-0.081016,51.509007],[-0.081018,51.509003],[-0.081019,51.508999],[-0.081021,51.508996],[-0.081021,51.508992],[-0.081022,51.508989],[-0.081022,51.508985],[-0.081023,51.508981],[-0.081023,51.508978],[-0.081023,51.508974],[-0.081022,51.508971],[-0.081021,51.508966],[-0.08102,51.508963],[-0.081019,51.50896],[-0.081018,51.508956],[-0.081016,51.508953],[-0.081013,51.508948],[-0.081011,51.508945],[-0.081006,51.508939],[-0.081003,51.508936],[-0.081,51.508932],[-0.080997,51.508929],[-0.080993,51.508926],[-0.080989,51.508923],[-0.081054,51.50874],[-0.081149,51.508604],[-0.08122,51.508499],[-0.081258,51.508445],[-0.08127,51.508429],[-0.081288,51.508401],[-0.081289,51.5084],[-0.081315,51.508362]]]},"properties":{"OBJECTID":1,"NAME":"Tower of London World Heritage Site - Local Setting Area","whole_in_zone":true,"in_cw":false}}
]}
