{"type":"FeatureCollection","meta":{
 "source": "planning.data.gov.uk: Agricultural land classification (agricultural-land-classification)",
 "dataset": "agricultural-land-classification",
 "page": "https://www.planning.data.gov.uk/dataset/agricultural-land-classification",
 "typology": "geography",
 "phase": "alpha",
 "api": "https://www.planning.data.gov.uk/entity.geojson?dataset=agricultural-land-classification&geometry=<zone polygon WKT>&geometry_relation=intersects&limit=500&offset=<n>",
 "fetched": "2026-10-04",
 "licence": "Open Government Licence v3.0",
 "licence_url": "https://www.nationalarchives.gov.uk/doc/open-government-licence/version/3/",
 "attribution": "© Natural England copyright. Contains Ordnance Survey data © Crown copyright and database right 2026.",
 "why": "ALC grades (urban)",
 "zone": "the 3D model box, BNG E 532400-539900, N 176700-182300 (WGS84 -0.095, 51.474 to 0.015, 51.522)",
 "method": "walk-portals.mjs pdg harvest agricultural-land-classification: the platform's spatial query (geometry intersects the zone box) in pages of 500; whole geometries kept (not cut), rounded to 6 decimals; in_zone, whole_in_zone, in_cw (Canary Wharf registry box -0.03, 51.498, -0.005, 51.51); fields kept as published except empty ones and fields matching /e-?mail|phone|tel(ephone)?$|^tel|contact|^fax|mobile|^owner_?name|person|officer|case_?officer|agent_?name|applicant/i",
 "counts": {
  "features": 2,
  "zone_count_at_walk": 2,
  "whole_in_zone": 0,
  "in_cw": 1,
  "pages": 1
 }
},
"features":[
{"type":"Feature","geometry":{"type":"MultiPolygon","coordinates":[[[[0.003364,51.467643],[0.001501,51.467855],[-0.001341,51.468713],[-0.003895,51.469565],[-0.005303,51.470309],[-0.006275,51.471135],[-0.003906,51.472623],[-0.001856,51.473398],[-0.001269,51.473657],[-0.001949,51.474568],[-0.004137,51.477213],[-0.004674,51.478122],[-0.003351,51.478729],[-0.000146,51.479574],[0.001173,51.480091],[0.001896,51.480168],[0.003156,51.479337],[0.00482,51.47787],[0.006056,51.4765],[0.005593,51.475788],[0.00369,51.475102],[0.002512,51.474492],[0.002492,51.474043],[0.002605,51.473321],[0.003164,51.472952],[0.004899,51.473102],[0.006194,51.47308],[0.007041,51.472706],[0.007745,51.472334],[0.010751,51.471923],[0.010583,51.471386],[0.008314,51.468907],[0.006937,51.467042],[0.00507,51.467164],[0.003364,51.467643]]],[[[-0.236197,51.469756],[-0.238498,51.469536],[-0.238149,51.469813],[-0.237528,51.470972],[-0.236613,51.472307],[-0.236379,51.474642],[-0.236165,51.476437],[-0.236268,51.477518],[-0.236672,51.478243],[-0.236644,51.478962],[-0.236332,51.479587],[-0.235602,51.479846],[-0.233597,51.479546],[-0.230592,51.479051],[-0.228587,51.478751],[-0.227878,51.478471],[-0.227632,51.477388],[-0.227417,51.475496],[-0.227185,51.474054],[-0.226655,51.472877],[-0.224847,51.471231],[-0.224727,51.470599],[-0.226166,51.470621],[-0.227599,51.470823],[-0.228178,51.470741],[-0.22892,51.468682],[-0.235838,51.469742],[-0.236197,51.469756]]],[[[-0.155019,51.524559],[-0.156283,51.525388],[-0.157544,51.526307],[-0.159812,51.527242],[-0.161383,51.527626],[-0.162207,51.528628],[-0.163558,51.530898],[-0.163817,51.531621],[-0.163349,51.532513],[-0.161115,51.534277],[-0.159637,51.535153],[-0.157883,51.535755],[-0.155548,51.536437],[-0.153073,51.537028],[-0.15018,51.537252],[-0.148166,51.53713],[-0.147176,51.536665],[-0.146621,51.536117],[-0.146077,51.535299],[-0.145848,51.533856],[-0.145197,51.532137],[-0.144261,51.530324],[-0.144017,51.529241],[-0.143968,51.526902],[-0.144034,51.525285],[-0.144625,51.524934],[-0.145936,51.524595],[-0.150132,51.524212],[-0.153312,51.523992],[-0.154461,51.5241],[-0.155019,51.524559]]],[[[-0.169503,51.568563],[-0.1605,51.572112],[-0.160032,51.571849],[-0.159776,51.571035],[-0.158792,51.57039],[-0.157671,51.569563],[-0.156154,51.567831],[-0.153426,51.563921],[-0.151894,51.562548],[-0.148659,51.560519],[-0.148547,51.559708],[-0.14916,51.558818],[-0.149186,51.558189],[-0.147399,51.556003],[-0.147277,51.555461],[-0.147731,51.554929],[-0.149602,51.555048],[-0.151617,51.55517],[-0.152763,51.555368],[-0.155786,51.555506],[-0.156929,51.555793],[-0.158046,51.55671],[-0.159862,51.558177],[-0.160565,51.558638],[-0.161134,51.558827],[-0.161855,51.558838],[-0.162313,51.558216],[-0.162922,51.557416],[-0.163387,51.556614],[-0.163975,51.556353],[-0.164707,51.556095],[-0.16599,51.556475],[-0.167258,51.557214],[-0.168365,51.5584],[-0.169201,51.559133],[-0.169763,51.559501],[-0.170621,51.559694],[-0.1722,51.559899],[-0.173638,51.560011],[-0.174914,51.56057],[-0.176323,51.561402],[-0.17747,51.561599],[-0.178771,51.56153],[-0.179362,51.561179],[-0.182303,51.559786],[-0.182754,51.559343],[-0.183482,51.559175],[-0.183752,51.559629],[-0.18385,51.560799],[-0.184254,51.561525],[-0.185249,51.5619],[-0.186391,51.562187],[-0.188262,51.562306],[-0.189113,51.562679],[-0.189373,51.563402],[-0.189045,51.564386],[-0.188832,51.564571],[-0.182176,51.567196],[-0.169503,51.568563]]]]},"properties":{"entry-date":"2024-07-15","entity":32491,"dataset":"agricultural-land-classification","typology":"geography","reference":"3/Non Agricultural","prefix":"agricultural-land-classification","organisation-entity":501910,"quality":"authoritative","agricultural-land-classification-grade":"Non Agricultural","in_zone":true,"whole_in_zone":false,"in_cw":false}},
{"type":"Feature","geometry":{"type":"MultiPolygon","coordinates":[[[[-0.108712,51.414958],[-0.089424,51.422571],[-0.034126,51.428502],[-0.024497,51.427899],[-0.018507,51.428068],[0.007346,51.424394],[0.008924,51.432279],[0.015577,51.450726],[0.024574,51.467628],[0.054443,51.493924],[0.054074,51.493924],[0.046893,51.494409],[0.042014,51.494854],[0.039427,51.494989],[0.033353,51.494465],[0.028414,51.493561],[0.023656,51.493464],[0.022093,51.49394],[0.018938,51.494265],[0.015242,51.495407],[0.012431,51.496984],[0.00837,51.499662],[0.005742,51.502135],[0.003513,51.503882],[0.001937,51.504089],[0.000065,51.50412],[-0.001818,51.503883],[-0.002566,51.503266],[-0.002532,51.500747],[-0.003739,51.499509],[-0.002433,51.496429],[-0.000675,51.493791],[0.000405,51.492154],[0.000614,51.490352],[0.000248,51.48856],[-0.000971,51.487052],[-0.003193,51.485651],[-0.006562,51.484359],[-0.009919,51.483337],[-0.013109,51.482851],[-0.01829,51.482939],[-0.022288,51.483726],[-0.026116,51.48514],[-0.028925,51.486806],[-0.030722,51.488544],[-0.033178,51.491733],[-0.033813,51.493722],[-0.034031,51.495345],[-0.034222,51.497596],[-0.033834,51.499928],[-0.034399,51.503534],[-0.034632,51.504797],[-0.035738,51.505895],[-0.038155,51.506655],[-0.04246,51.507086],[-0.045215,51.506683],[-0.048005,51.50547],[-0.049794,51.504061],[-0.055521,51.501548],[-0.059022,51.500527],[-0.064513,51.500169],[-0.068094,51.500677],[-0.074201,51.502756],[-0.080041,51.504381],[-0.083603,51.505338],[-0.087025,51.506203],[-0.093047,51.506931],[-0.098046,51.508001],[-0.103086,51.508083],[-0.109866,51.507923],[-0.114925,51.507554],[-0.117979,51.506884],[-0.120047,51.505658],[-0.120689,51.50405],[-0.120926,51.501806],[-0.120612,51.498923],[-0.120882,51.49587],[-0.123237,51.491141],[-0.124344,51.488731],[-0.125861,51.486867],[-0.128821,51.484935],[-0.131903,51.483546],[-0.135401,51.482522],[-0.137294,51.482013],[-0.139165,51.482043],[-0.142897,51.482371],[-0.147337,51.482981],[-0.150946,51.482768],[-0.151323,51.484123],[-0.148139,51.484523],[-0.144824,51.48456],[-0.143244,51.484445],[-0.14182,51.484063],[-0.136926,51.483985],[-0.135475,51.484232],[-0.133291,51.484827],[-0.131829,51.485343],[-0.1308,51.485866],[-0.129194,51.48638],[-0.128024,51.486811],[-0.127279,51.487429],[-0.126079,51.488579],[-0.125315,51.489646],[-0.124854,51.490358],[-0.124489,51.49224],[-0.123097,51.494556],[-0.122285,51.496791],[-0.12237,51.498232],[-0.122624,51.499045],[-0.122883,51.499769],[-0.12285,51.500577],[-0.122654,51.501833],[-0.122314,51.503087],[-0.121668,51.504785],[-0.121494,51.505502],[-0.120881,51.506391],[-0.119408,51.507177],[-0.118222,51.507967],[-0.11645,51.509018],[-0.114976,51.509803],[-0.112945,51.510131],[-0.110486,51.510361],[-0.107742,51.510496],[-0.106298,51.510563],[-0.103274,51.510514],[-0.100253,51.510375],[-0.096941,51.510322],[-0.094356,51.5101],[-0.093067,51.509899],[-0.091638,51.509606],[-0.089512,51.508762],[-0.087662,51.508192],[-0.085949,51.507805],[-0.081656,51.507105],[-0.075369,51.505833],[-0.070795,51.504948],[-0.066816,51.503624],[-0.062974,51.502481],[-0.060962,51.502358],[-0.059226,51.502509],[-0.057627,51.502842],[-0.055884,51.503173],[-0.05441,51.503958],[-0.05339,51.504211],[-0.052071,51.504729],[-0.051021,51.5057],[-0.049683,51.506667],[-0.048068,51.50736],[-0.045877,51.508043],[-0.043239,51.509078],[-0.040048,51.509564],[-0.038176,51.509533],[-0.035735,51.509312],[-0.033162,51.508819],[-0.031033,51.508064],[-0.0292,51.507134],[-0.028091,51.506126],[-0.027281,51.504854],[-0.026794,51.502777],[-0.02637,51.499263],[-0.025988,51.49476],[-0.025638,51.492865],[-0.024984,51.491326],[-0.024319,51.490055],[-0.021954,51.488127],[-0.021257,51.487576],[-0.019849,51.486832],[-0.018429,51.486359],[-0.01685,51.486242],[-0.014987,51.486031],[-0.013695,51.485919],[-0.012552,51.48572],[-0.011109,51.485785],[-0.009817,51.485673],[-0.007363,51.485811],[-0.005756,51.486324],[-0.004289,51.486928],[-0.003098,51.487807],[-0.002639,51.488429],[-0.002024,51.489318],[-0.001845,51.490124],[-0.002077,51.491387],[-0.00261,51.492385],[-0.003006,51.493201],[-0.003846,51.493755],[-0.004507,51.495115],[-0.005308,51.496568],[-0.005701,51.497474],[-0.00623,51.498562],[-0.006459,51.499915],[-0.006404,51.501173],[-0.005925,51.502244],[-0.004858,51.503575],[-0.003355,51.504988],[-0.000984,51.506476],[0.000915,51.507074],[0.002803,51.507401],[0.004819,51.507367],[0.005967,51.507257],[0.006691,51.507335],[0.007691,51.507138],[0.009263,51.506841],[0.010815,51.506095],[0.012764,51.504533],[0.01792,51.500577],[0.020024,51.499282],[0.02116,51.498902],[0.023588,51.498411],[0.025163,51.498204],[0.027035,51.498172],[0.029778,51.498304],[0.033393,51.498601],[0.036576,51.498905],[0.039464,51.499035],[0.042347,51.499075],[0.044075,51.499045],[0.046086,51.49892],[0.053112,51.498168],[0.056843,51.497832],[0.058644,51.497675],[0.060497,51.499566],[0.06302,51.501527],[0.072199,51.507736],[0.074817,51.515422],[0.074629,51.515449],[0.068751,51.514826],[0.062625,51.515699],[0.029788,51.519016],[0.02194,51.520491],[0.004709,51.524493],[-0.005163,51.528612],[-0.008847,51.5299],[-0.011122,51.530613],[-0.011384,51.530666],[-0.011613,51.530767],[-0.013163,51.531253],[-0.01336,51.531322],[-0.013847,51.531391],[-0.013962,51.531433],[-0.014164,51.531463],[-0.016627,51.532188],[-0.018601,51.533079],[-0.029868,51.537078],[-0.037266,51.539637],[-0.037734,51.539834],[-0.037928,51.539937],[-0.038276,51.54006],[-0.038661,51.54023],[-0.039371,51.54054],[-0.04773,51.545035],[-0.052442,51.546922],[-0.053809,51.547673],[-0.059145,51.55088],[-0.059519,51.551038],[-0.060081,51.55138],[-0.060262,51.551551],[-0.063112,51.553264],[-0.063489,51.553637],[-0.064023,51.553873],[-0.065328,51.554825],[-0.067495,51.556256],[-0.067592,51.556353],[-0.068602,51.557109],[-0.08243,51.559969],[-0.128404,51.580205],[-0.131352,51.583113],[-0.139121,51.580055],[-0.140792,51.579875],[-0.1605,51.572112],[-0.160032,51.571849],[-0.159776,51.571035],[-0.158792,51.57039],[-0.157671,51.569563],[-0.156154,51.567831],[-0.153426,51.563921],[-0.151894,51.562548],[-0.148659,51.560519],[-0.148547,51.559708],[-0.14916,51.558818],[-0.149186,51.558189],[-0.147399,51.556003],[-0.147277,51.555461],[-0.147731,51.554929],[-0.149602,51.555048],[-0.151617,51.55517],[-0.152763,51.555368],[-0.155786,51.555506],[-0.156929,51.555793],[-0.158046,51.55671],[-0.159862,51.558177],[-0.160565,51.558638],[-0.161134,51.558827],[-0.161855,51.558838],[-0.162313,51.558216],[-0.162922,51.557416],[-0.163387,51.556614],[-0.163975,51.556353],[-0.164707,51.556095],[-0.16599,51.556475],[-0.167258,51.557214],[-0.168365,51.5584],[-0.169201,51.559133],[-0.169763,51.559501],[-0.170621,51.559694],[-0.1722,51.559899],[-0.173638,51.560011],[-0.174914,51.56057],[-0.176323,51.561402],[-0.17747,51.561599],[-0.178771,51.56153],[-0.179362,51.561179],[-0.182303,51.559786],[-0.182754,51.559343],[-0.183482,51.559175],[-0.183752,51.559629],[-0.18385,51.560799],[-0.184254,51.561525],[-0.185249,51.5619],[-0.186391,51.562187],[-0.188262,51.562306],[-0.189113,51.562679],[-0.189373,51.563402],[-0.189045,51.564386],[-0.188832,51.564571],[-0.205253,51.558091],[-0.26069,51.55208],[-0.266991,51.552959],[-0.267955,51.552566],[-0.285272,51.547028],[-0.28908,51.545448],[-0.29489,51.543863],[-0.301475,51.540925],[-0.308685,51.538583],[-0.323205,51.534485],[-0.327267,51.533657],[-0.329144,51.533157],[-0.33054,51.532989],[-0.331859,51.53272],[-0.333633,51.532017],[-0.340348,51.530877],[-0.34435,51.52287],[-0.344342,51.522843],[-0.338259,51.519303],[-0.316827,51.498261],[-0.310298,51.495496],[-0.300363,51.493912],[-0.269962,51.481995],[-0.269774,51.48193],[-0.269548,51.481833],[-0.265234,51.48014],[-0.260964,51.47787],[-0.254209,51.474584],[-0.245913,51.469895],[-0.245563,51.469741],[-0.243675,51.469886],[-0.242816,51.469766],[-0.241586,51.4699],[-0.238785,51.469508],[-0.238498,51.469536],[-0.238149,51.469813],[-0.237528,51.470972],[-0.236613,51.472307],[-0.236379,51.474642],[-0.236165,51.476437],[-0.236268,51.477518],[-0.236672,51.478243],[-0.236644,51.478962],[-0.236332,51.479587],[-0.235602,51.479846],[-0.233597,51.479546],[-0.230592,51.479051],[-0.228587,51.478751],[-0.227878,51.478471],[-0.227632,51.477388],[-0.227417,51.475496],[-0.227185,51.474054],[-0.226655,51.472877],[-0.224847,51.471231],[-0.224727,51.470599],[-0.226166,51.470621],[-0.227599,51.470823],[-0.228178,51.470741],[-0.22892,51.468682],[-0.18679,51.462221],[-0.140906,51.442008],[-0.124075,51.42536],[-0.122854,51.424634],[-0.115655,51.417997],[-0.115302,51.417821],[-0.113619,51.417267],[-0.112911,51.416995],[-0.109469,51.41525],[-0.108712,51.414958]],[[0.006937,51.467042],[0.00507,51.467164],[0.003364,51.467643],[0.001501,51.467855],[-0.001341,51.468713],[-0.003895,51.469565],[-0.005303,51.470309],[-0.006275,51.471135],[-0.003906,51.472623],[-0.001856,51.473398],[-0.001269,51.473657],[-0.001949,51.474568],[-0.004137,51.477213],[-0.004674,51.478122],[-0.003351,51.478729],[-0.000146,51.479574],[0.001173,51.480091],[0.001896,51.480168],[0.003156,51.479337],[0.00482,51.47787],[0.006056,51.4765],[0.005593,51.475788],[0.00369,51.475102],[0.002512,51.474492],[0.002492,51.474043],[0.002605,51.473321],[0.003164,51.472952],[0.004899,51.473102],[0.006194,51.47308],[0.007041,51.472706],[0.007745,51.472334],[0.010751,51.471923],[0.010583,51.471386],[0.008314,51.468907],[0.006937,51.467042]],[[0.046934,51.508168],[0.045646,51.50837],[0.044214,51.508575],[0.043114,51.509763],[0.041894,51.511493],[0.040774,51.512232],[0.039947,51.513056],[0.039727,51.514588],[0.039643,51.515939],[0.039939,51.516113],[0.044108,51.515861],[0.046552,51.515728],[0.048836,51.515239],[0.050836,51.514844],[0.05228,51.514909],[0.053872,51.515061],[0.060209,51.51495],[0.061513,51.515107],[0.061175,51.510796],[0.060929,51.508552],[0.059773,51.508482],[0.058901,51.508318],[0.057741,51.508158],[0.056153,51.508096],[0.054133,51.508042],[0.052125,51.508257],[0.050393,51.508197],[0.047946,51.50824],[0.046934,51.508168]],[[-0.153312,51.523992],[-0.154461,51.5241],[-0.155019,51.524559],[-0.156283,51.525388],[-0.157544,51.526307],[-0.159812,51.527242],[-0.161383,51.527626],[-0.162207,51.528628],[-0.163558,51.530898],[-0.163817,51.531621],[-0.163349,51.532513],[-0.161115,51.534277],[-0.159637,51.535153],[-0.157883,51.535755],[-0.155548,51.536437],[-0.153073,51.537028],[-0.15018,51.537252],[-0.148166,51.53713],[-0.147176,51.536665],[-0.146621,51.536117],[-0.146077,51.535299],[-0.145848,51.533856],[-0.145197,51.532137],[-0.144261,51.530324],[-0.144017,51.529241],[-0.143968,51.526902],[-0.144034,51.525285],[-0.144625,51.524934],[-0.145936,51.524595],[-0.150132,51.524212],[-0.153312,51.523992]]]]},"properties":{"entry-date":"2024-07-15","entity":32492,"dataset":"agricultural-land-classification","typology":"geography","reference":"3/Urban","prefix":"agricultural-land-classification","organisation-entity":501910,"quality":"authoritative","agricultural-land-classification-grade":"Urban","in_zone":true,"whole_in_zone":false,"in_cw":true}}
]}
