{"type":"FeatureCollection","meta":{
 "source": "London Datastore: Safeguarded Wharves (Planning Constraints Map)",
 "dataset": "2g90r",
 "page": "https://data.london.gov.uk/dataset/safeguarded-wharves-2g90r",
 "resources": [
  {
   "resource": "745ae31a-80d2-4f69-b715-e75ae2537b45",
   "file": "Safeguarded_Wharves.gpkg",
   "url": "https://data.london.gov.uk/download/2g90r/745ae31a-80d2-4f69-b715-e75ae2537b45/Safeguarded_Wharves.gpkg",
   "size": 274432,
   "resource_date": "2019-09-19",
   "fetched": "2026-10-04"
  }
 ],
 "licence": "Open Government Licence v3",
 "licence_url": "https://www.nationalarchives.gov.uk/doc/open-government-licence/version/3/",
 "attribution": "Contains public sector information licensed under the Open Government Licence v3 (Planning Constraints Map). The GLA cannot warrant the quality or accuracy of the data (London Datastore terms).",
 "dataset_modified": "2022-07-12",
 "update_frequency": null,
 "geo": "Custom Polygons",
 "theme": "transport",
 "layers": [
  {
   "table": "Safeguarded_Wharves",
   "srs": 27700
  }
 ],
 "crs_source": "EPSG:27700",
 "crs_output": "EPSG:4326 (WGS84), 6 decimal places; BNG to WGS84 through the OS OSTN15 grid (lib.mjs bngProjector)",
 "method": "walk-london-datastore.mjs harvest safeguarded-wharves: download the newest matching resource (gpkg); read every feature; keep a feature whose geometry meets the zone (the 3D model box, BNG E 532400-539900, N 176700-182300; WGS84 -0.095, 51.474, 0.015, 51.522): a vertex inside, an edge crossing the box or the box inside a polygon. Whole geometries are kept (not cut at the box): whole_in_zone says whether all of it lies inside. in_cw: the geometry meets the Canary Wharf registry box -0.03, 51.498, -0.005, 51.51. Source attributes kept as published except fields matching e-?mail|phone|tel(ephone)?$|^tel|contact|^fax|mobile|website_contact|^owner_?name|person. uprn_suspect: a UPRN field that a spreadsheet rounded (an exponent, or 9+ digits ending in 5+ zeros); not a key (fault F22).",
 "counts": {
  "source_features": 52,
  "no_geometry": 0,
  "in_zone": 10,
  "in_cw": 1,
  "with_uprn": 0,
  "uprn_suspect": 0
 },
 "attributes_in_source": "yes",
 "fields_dropped": []
},
"features":[
{"type":"Feature","properties":{"fid":8,"address":null,"borough":"City of London","boroughdesignation":null,"classification":null,"designation":"Safeguarded Wharves","easting":"532505.36281299999","extrainfo1":"The Town and Country Planning Act 1990. The Town and Country Planning Order 1995. Direction under articles 10 and 27. Please see 'Date' attribute for the date this direction comes into force.","extrainfo2":null,"extrainfo3":null,"firstaddeddate":"2000-07-03","hectares":"0.63760307158","lastupdateddate":null,"layerreference":"SGW00000008","northing":"180731.42542300001","notes":null,"objectid":8,"planningauthority":null,"removeddate":null,"sitename":"Walbrook Wharf","sitereference":"26","source":"https://www.london.gov.uk/what-we-do/planning/planning-applications-and-decisions/safeguarded-wharves-directions","status":"Approved","uprn":null,"runtime":"09/18/2019","in_cw":false,"whole_in_zone":true},"geometry":{"type":"MultiPolygon","coordinates":[[[[-0.092564,51.509574],[-0.091974,51.509428],[-0.091921,51.509414],[-0.091914,51.509427],[-0.091902,51.509449],[-0.091829,51.509584],[-0.091748,51.509734],[-0.091676,51.509719],[-0.091669,51.509733],[-0.091664,51.509732],[-0.091626,51.509811],[-0.091609,51.509847],[-0.091402,51.510283],[-0.091419,51.510287],[-0.0914,51.510327],[-0.091389,51.510353],[-0.091369,51.51035],[-0.091349,51.510392],[-0.091337,51.510415],[-0.091337,51.510417],[-0.091336,51.510417],[-0.09133,51.510432],[-0.091352,51.510437],[-0.091353,51.510437],[-0.091354,51.510437],[-0.09141,51.510447],[-0.091439,51.510453],[-0.091541,51.510472],[-0.092007,51.510559],[-0.092067,51.51057],[-0.09209,51.510574],[-0.092097,51.51056],[-0.092098,51.510559],[-0.09211,51.510536],[-0.092132,51.510494],[-0.09211,51.510489],[-0.09211,51.510489],[-0.09211,51.510489],[-0.09211,51.510489],[-0.092129,51.510452],[-0.092144,51.510423],[-0.092169,51.510428],[-0.092174,51.510418],[-0.092151,51.510414],[-0.092174,51.510367],[-0.092197,51.510371],[-0.09227,51.510225],[-0.092381,51.51],[-0.092443,51.509875],[-0.092447,51.509868],[-0.092573,51.509614],[-0.092589,51.50958],[-0.092587,51.50958],[-0.092585,51.509579],[-0.092564,51.509574]]]]}},
{"type":"Feature","properties":{"fid":10,"address":null,"borough":"Lewisham","boroughdesignation":null,"classification":null,"designation":"Safeguarded Wharves","easting":"536987.02349000005","extrainfo1":"The Town and Country Planning Act 1990. The Town and Country Planning Order 1995. Direction under articles 10 and 27. Please see 'Date' attribute for the date this direction comes into force.","extrainfo2":null,"extrainfo3":null,"firstaddeddate":"2000-07-03","hectares":"8.62554621641","lastupdateddate":null,"layerreference":"SGW00000009","northing":"178260.60268800001","notes":null,"objectid":9,"planningauthority":null,"removeddate":null,"sitename":"Convoys Wharf","sitereference":"18","source":"https://www.london.gov.uk/what-we-do/planning/planning-applications-and-decisions/safeguarded-wharves-directions","status":"Approved","uprn":null,"runtime":"09/18/2019","in_cw":false,"whole_in_zone":true},"geometry":{"type":"MultiPolygon","coordinates":[[[[-0.027775,51.488138],[-0.027901,51.488059],[-0.027774,51.487977],[-0.027812,51.487955],[-0.027869,51.487916],[-0.027892,51.487901],[-0.027756,51.487818],[-0.027822,51.487779],[-0.028081,51.487628],[-0.028085,51.487627],[-0.028094,51.487634],[-0.028476,51.487944],[-0.02881,51.488263],[-0.02874,51.488295],[-0.029094,51.48861],[-0.029108,51.488623],[-0.029113,51.488625],[-0.029118,51.488627],[-0.029123,51.488629],[-0.029129,51.48863],[-0.029132,51.488631],[-0.029139,51.48863],[-0.029144,51.488629],[-0.029147,51.488627],[-0.029383,51.488506],[-0.029388,51.488504],[-0.029388,51.488504],[-0.029388,51.488504],[-0.029388,51.488504],[-0.029447,51.488551],[-0.029449,51.488559],[-0.02922,51.488677],[-0.029196,51.488689],[-0.029192,51.488693],[-0.02919,51.488698],[-0.029189,51.488703],[-0.02919,51.488708],[-0.029192,51.488711],[-0.029196,51.488716],[-0.029202,51.488719],[-0.029207,51.488722],[-0.029265,51.488729],[-0.029269,51.488733],[-0.029276,51.488741],[-0.029325,51.488794],[-0.029333,51.488788],[-0.029338,51.488784],[-0.029353,51.488774],[-0.029421,51.488726],[-0.0296,51.488598],[-0.0296,51.488598],[-0.029642,51.488575],[-0.029665,51.488563],[-0.029801,51.488487],[-0.02984,51.488465],[-0.029942,51.488409],[-0.030012,51.48837],[-0.030053,51.488348],[-0.030072,51.488338],[-0.030078,51.488334],[-0.030187,51.488293],[-0.030292,51.488254],[-0.030336,51.488237],[-0.03036,51.488228],[-0.030596,51.488139],[-0.031,51.487989],[-0.031317,51.487872],[-0.031408,51.487838],[-0.031386,51.487813],[-0.031366,51.487791],[-0.03134,51.487762],[-0.031277,51.487692],[-0.031263,51.487675],[-0.031062,51.48745],[-0.031062,51.48745],[-0.031079,51.487443],[-0.031221,51.487388],[-0.03131,51.487353],[-0.03049,51.486696],[-0.029108,51.485673],[-0.02792,51.485018],[-0.027673,51.4849],[-0.027087,51.484623],[-0.027043,51.48466],[-0.026946,51.484739],[-0.026912,51.484766],[-0.027055,51.484834],[-0.026825,51.485025],[-0.026638,51.485149],[-0.025409,51.485966],[-0.025579,51.486062],[-0.025612,51.48608],[-0.025629,51.48609],[-0.025645,51.486099],[-0.025659,51.486106],[-0.025671,51.486113],[-0.025679,51.486117],[-0.02569,51.486124],[-0.025899,51.48624],[-0.025927,51.486257],[-0.025957,51.486273],[-0.025992,51.486293],[-0.026027,51.486312],[-0.026064,51.486334],[-0.0261,51.486354],[-0.026389,51.486518],[-0.026537,51.486598],[-0.026613,51.486646],[-0.026689,51.486693],[-0.02696,51.486862],[-0.026998,51.486884],[-0.027035,51.486907],[-0.027071,51.486928],[-0.027105,51.48695],[-0.027147,51.486978],[-0.02717,51.486993],[-0.02728,51.487065],[-0.027299,51.487076],[-0.027327,51.487096],[-0.027355,51.487115],[-0.027373,51.487127],[-0.027391,51.487138],[-0.027401,51.487146],[-0.027412,51.487152],[-0.027417,51.487155],[-0.027423,51.487159],[-0.027425,51.48716],[-0.027429,51.487161],[-0.027434,51.487161],[-0.02744,51.487161],[-0.027445,51.48716],[-0.027448,51.487159],[-0.02746,51.487152],[-0.027554,51.487221],[-0.027578,51.487238],[-0.027601,51.487255],[-0.027612,51.487263],[-0.027622,51.487272],[-0.02763,51.487278],[-0.027638,51.487284],[-0.027606,51.487322],[-0.027659,51.487359],[-0.027669,51.487366],[-0.027685,51.487357],[-0.027807,51.487464],[-0.0279,51.487479],[-0.027993,51.487554],[-0.027713,51.487712],[-0.027662,51.48774],[-0.027567,51.487794],[-0.027552,51.487802],[-0.02752,51.487801],[-0.027492,51.487783],[-0.027476,51.487796],[-0.027354,51.487719],[-0.02737,51.487709],[-0.027225,51.487618],[-0.027066,51.487718],[-0.027211,51.487807],[-0.027227,51.487798],[-0.02737,51.487885],[-0.027395,51.4879],[-0.027395,51.4879],[-0.027395,51.4879],[-0.027338,51.487927],[-0.027209,51.488091],[-0.027165,51.488311],[-0.02721,51.48835],[-0.027421,51.488259],[-0.027368,51.488213],[-0.027375,51.488102],[-0.027452,51.488003],[-0.027511,51.487974],[-0.027775,51.488138]]]]}},
{"type":"Feature","properties":{"fid":14,"address":null,"borough":"Greenwich","boroughdesignation":null,"classification":null,"designation":"Safeguarded Wharves","easting":"538951.93698100001","extrainfo1":"The Town and Country Planning Act 1990. The Town and Country Planning Order 1995. Direction under articles 10 and 27. Please see 'Date' attribute for the date this direction comes into force.","extrainfo2":null,"extrainfo3":null,"firstaddeddate":"2000-07-03","hectares":"4.4400999366","lastupdateddate":"2005-06-06","layerreference":"SGW00000013","northing":"179448.37269300001","notes":"Boundary adjusted June 2005; original boundary lost.","objectid":13,"planningauthority":null,"removeddate":null,"sitename":"Victoria Deep Water Terminal","sitereference":"14","source":"https://www.london.gov.uk/what-we-do/planning/planning-applications-and-decisions/safeguarded-wharves-directions","status":"Approved","uprn":null,"runtime":"09/18/2019","in_cw":false,"whole_in_zone":true},"geometry":{"type":"MultiPolygon","coordinates":[[[[-0.001465,51.49733],[-0.001052,51.496413],[-0.001025,51.49636],[-0.001008,51.496326],[-0.000993,51.4963],[-0.000979,51.496277],[-0.00032,51.495297],[-0.000294,51.495258],[-0.000291,51.495252],[-0.000286,51.495246],[-0.000279,51.495241],[-0.00027,51.495236],[-0.000259,51.495232],[-0.00025,51.49523],[-0.000233,51.495228],[-0.000215,51.495228],[-0.000205,51.495229],[-0.000187,51.495231],[-0.000171,51.495234],[-0.000154,51.495238],[-0.000147,51.49524],[-0.000139,51.495244],[-0.00011,51.49525],[0.000138,51.49531],[0.000217,51.495329],[0.000336,51.495358],[0.00062,51.495426],[0.00062,51.495426],[0.000714,51.495435],[0.000711,51.495453],[0.00085,51.495457],[0.000883,51.495458],[0.000885,51.495459],[0.000862,51.495489],[0.000855,51.495499],[0.000845,51.495511],[0.000804,51.495563],[0.000791,51.495582],[0.000744,51.495639],[0.000729,51.495657],[0.000709,51.495684],[0.000894,51.495738],[0.001807,51.496006],[0.001794,51.496022],[0.001787,51.496028],[0.001776,51.496044],[0.001773,51.496055],[0.001769,51.496059],[0.001764,51.496065],[0.001728,51.49612],[0.001764,51.496131],[0.001766,51.496143],[0.001772,51.496164],[0.00178,51.496185],[0.001788,51.496199],[0.001811,51.496233],[0.001861,51.496288],[0.001874,51.496305],[0.001891,51.496335],[0.001897,51.496349],[0.001901,51.496363],[0.001903,51.496378],[0.001902,51.496424],[0.001901,51.496432],[0.001896,51.496444],[0.001883,51.496462],[0.001798,51.496617],[0.001793,51.496625],[0.001782,51.496647],[0.001763,51.496682],[0.001637,51.496646],[0.001635,51.496645],[0.001586,51.496636],[0.001438,51.496611],[0.001445,51.496593],[0.001321,51.496571],[0.00129,51.496638],[0.001223,51.496768],[0.001419,51.496805],[0.001414,51.496819],[0.001466,51.496829],[0.001447,51.49687],[0.001447,51.496874],[0.00145,51.496883],[0.001457,51.496888],[0.001469,51.496892],[0.001602,51.496917],[0.001681,51.496927],[0.001689,51.49693],[0.001682,51.496972],[0.001691,51.496973],[0.001685,51.497002],[0.001667,51.497123],[0.00166,51.497169],[0.001649,51.497245],[0.001647,51.497255],[0.001647,51.497257],[0.00164,51.497302],[0.001632,51.497322],[0.00163,51.497328],[0.001622,51.497348],[0.001619,51.497357],[0.001601,51.497409],[0.001585,51.497458],[0.001552,51.497541],[0.001515,51.497637],[0.001486,51.497712],[0.001482,51.497721],[0.00145,51.497799],[0.00145,51.497799],[0.001279,51.497771],[0.001121,51.497744],[0.000572,51.497658],[-0.000954,51.49742],[-0.001095,51.497395],[-0.001384,51.497344],[-0.001465,51.49733]]]]}},
{"type":"Feature","properties":{"fid":18,"address":null,"borough":"Greenwich","boroughdesignation":null,"classification":null,"designation":"Safeguarded Wharves","easting":"537893.74935000006","extrainfo1":"The Town and Country Planning Act 1990. The Town and Country Planning Order 1995. Direction under articles 10 and 27. Please see 'Date' attribute for the date this direction comes into force.","extrainfo2":null,"extrainfo3":null,"firstaddeddate":"2000-07-03","hectares":"0.23930747264","lastupdateddate":null,"layerreference":"SGW00000018","northing":"177653.79638499999","notes":null,"objectid":18,"planningauthority":null,"removeddate":null,"sitename":"Brewery wharf","sitereference":"12","source":"https://www.london.gov.uk/what-we-do/planning/planning-applications-and-decisions/safeguarded-wharves-directions","status":"Approved","uprn":null,"runtime":"09/18/2019","in_cw":false,"whole_in_zone":true},"geometry":{"type":"MultiPolygon","coordinates":[[[[-0.01614,51.480912],[-0.016114,51.480905],[-0.015812,51.480822],[-0.015684,51.480774],[-0.015642,51.480818],[-0.015639,51.480822],[-0.015611,51.480852],[-0.015608,51.480854],[-0.015608,51.480855],[-0.015544,51.480922],[-0.015533,51.480935],[-0.01552,51.480948],[-0.01551,51.480958],[-0.0155,51.480969],[-0.015488,51.48098],[-0.015477,51.480992],[-0.015456,51.481013],[-0.01545,51.481019],[-0.015445,51.481025],[-0.015437,51.481031],[-0.01543,51.481037],[-0.01542,51.481045],[-0.015416,51.481049],[-0.015404,51.481058],[-0.015396,51.481063],[-0.01538,51.481072],[-0.015371,51.481077],[-0.015365,51.481081],[-0.015359,51.481084],[-0.015354,51.481088],[-0.015349,51.481091],[-0.015342,51.481094],[-0.015336,51.481097],[-0.01533,51.481099],[-0.015325,51.481101],[-0.015318,51.481103],[-0.015296,51.481111],[-0.015282,51.481116],[-0.015267,51.481121],[-0.015251,51.481125],[-0.015234,51.481129],[-0.015218,51.481133],[-0.015202,51.481137],[-0.015182,51.481142],[-0.015173,51.481143],[-0.015157,51.481147],[-0.015149,51.481148],[-0.01514,51.48115],[-0.01513,51.481152],[-0.015111,51.481155],[-0.015101,51.481157],[-0.01509,51.481161],[-0.015081,51.481166],[-0.015062,51.481177],[-0.015053,51.481184],[-0.015051,51.481187],[-0.015049,51.481188],[-0.015046,51.481191],[-0.015044,51.481193],[-0.015041,51.481195],[-0.015037,51.481202],[-0.015031,51.481212],[-0.015027,51.481218],[-0.015024,51.481224],[-0.015023,51.48123],[-0.015022,51.481237],[-0.015021,51.481243],[-0.015023,51.481249],[-0.015024,51.481253],[-0.015026,51.481257],[-0.015029,51.481262],[-0.015032,51.481265],[-0.015035,51.481268],[-0.01504,51.481271],[-0.015044,51.481275],[-0.015056,51.481284],[-0.015061,51.481286],[-0.015066,51.481289],[-0.015072,51.481291],[-0.015077,51.481293],[-0.015083,51.481295],[-0.01509,51.481296],[-0.015109,51.481299],[-0.0153,51.481296],[-0.015481,51.481292],[-0.015827,51.481284],[-0.015825,51.48126],[-0.015897,51.481258],[-0.015946,51.481188],[-0.016032,51.481064],[-0.016117,51.480945],[-0.016123,51.480935],[-0.01613,51.480924],[-0.01614,51.480912]]]]}},
{"type":"Feature","properties":{"fid":19,"address":null,"borough":"Tower Hamlets","boroughdesignation":null,"classification":null,"designation":"Safeguarded Wharves","easting":"538469.90597399999","extrainfo1":"The Town and Country Planning Act 1990. The Town and Country Planning Order 1995. Direction under articles 10 and 27. Please see 'Date' attribute for the date this direction comes into force.","extrainfo2":null,"extrainfo3":null,"firstaddeddate":"2000-07-03","hectares":"0.85281829257","lastupdateddate":null,"layerreference":"SGW00000019","northing":"180291.52134400001","notes":null,"objectid":19,"planningauthority":null,"removeddate":null,"sitename":"Northumberland Wharf","sitereference":"24","source":"https://www.london.gov.uk/what-we-do/planning/planning-applications-and-decisions/safeguarded-wharves-directions","status":"Approved","uprn":null,"runtime":"09/18/2019","in_cw":true,"whole_in_zone":true},"geometry":{"type":"MultiPolygon","coordinates":[[[[-0.006559,51.504939],[-0.006563,51.504934],[-0.006629,51.504881],[-0.006647,51.504867],[-0.00684,51.50472],[-0.006894,51.504679],[-0.006938,51.504647],[-0.006942,51.504644],[-0.006968,51.504622],[-0.006979,51.50461],[-0.006989,51.504599],[-0.00699,51.504598],[-0.007003,51.504583],[-0.007015,51.504567],[-0.007025,51.504552],[-0.007036,51.504532],[-0.00704,51.504526],[-0.007044,51.504519],[-0.007049,51.504512],[-0.007055,51.504498],[-0.007059,51.504485],[-0.00706,51.504481],[-0.007061,51.504477],[-0.007061,51.504469],[-0.007059,51.504451],[-0.007057,51.504443],[-0.007052,51.504428],[-0.007049,51.50442],[-0.007045,51.504412],[-0.007041,51.504405],[-0.007035,51.504398],[-0.007028,51.504388],[-0.007021,51.504381],[-0.007013,51.504374],[-0.007005,51.504367],[-0.006996,51.504361],[-0.006987,51.504354],[-0.006975,51.504347],[-0.006965,51.504341],[-0.006954,51.504336],[-0.006941,51.50433],[-0.006868,51.504294],[-0.006898,51.504263],[-0.006938,51.504221],[-0.006928,51.50422],[-0.006939,51.504207],[-0.006968,51.504169],[-0.00693,51.504158],[-0.006944,51.504099],[-0.006754,51.504081],[-0.006656,51.504033],[-0.006652,51.50403],[-0.006587,51.503998],[-0.006575,51.504003],[-0.00648,51.504038],[-0.006425,51.504058],[-0.006405,51.504065],[-0.006384,51.504053],[-0.006217,51.50418],[-0.006028,51.504325],[-0.005828,51.504477],[-0.00576,51.504527],[-0.005824,51.50456],[-0.005799,51.504586],[-0.005784,51.5046],[-0.005773,51.504612],[-0.00572,51.504664],[-0.005682,51.504704],[-0.005646,51.504742],[-0.005623,51.504766],[-0.00559,51.504797],[-0.005566,51.504825],[-0.005552,51.504845],[-0.00555,51.504848],[-0.005549,51.504849],[-0.005549,51.50485],[-0.005548,51.504851],[-0.005548,51.504853],[-0.005547,51.504853],[-0.005546,51.504857],[-0.005546,51.504859],[-0.005547,51.50486],[-0.005547,51.504863],[-0.005547,51.504864],[-0.005547,51.504865],[-0.005548,51.504866],[-0.005548,51.504868],[-0.005549,51.504869],[-0.00555,51.504871],[-0.005552,51.504872],[-0.005553,51.504874],[-0.005554,51.504875],[-0.005555,51.504876],[-0.005725,51.50496],[-0.005628,51.505042],[-0.005628,51.505042],[-0.005505,51.504983],[-0.005439,51.505013],[-0.005721,51.505175],[-0.005721,51.505174],[-0.00573,51.505168],[-0.005775,51.505135],[-0.005792,51.505122],[-0.005792,51.505122],[-0.005792,51.505122],[-0.005799,51.505126],[-0.005826,51.505142],[-0.005913,51.50522],[-0.00592,51.505226],[-0.005927,51.505226],[-0.006025,51.505228],[-0.006041,51.505228],[-0.006237,51.505194],[-0.006254,51.505187],[-0.006261,51.505177],[-0.006253,51.505138],[-0.006287,51.505134],[-0.006439,51.50512],[-0.00645,51.505119],[-0.006465,51.505118],[-0.006464,51.505116],[-0.006457,51.505076],[-0.006467,51.505051],[-0.006489,51.505025],[-0.006495,51.505017],[-0.006559,51.504939]]]]}},
{"type":"Feature","properties":{"fid":20,"address":null,"borough":"Newham","boroughdesignation":null,"classification":null,"designation":"Safeguarded Wharves","easting":"539064.58100600005","extrainfo1":"The Town and Country Planning Act 1990. The Town and Country Planning Order 1995. Direction under articles 10 and 27. Please see 'Date' attribute for the date this direction comes into force.","extrainfo2":null,"extrainfo3":null,"firstaddeddate":"2000-07-03","hectares":"1.96960354997","lastupdateddate":null,"layerreference":"SGW00000020","northing":"181683.93277000001","notes":null,"objectid":20,"planningauthority":null,"removeddate":null,"sitename":"Mayer Parry Wharf","sitereference":"5","source":"https://www.london.gov.uk/what-we-do/planning/planning-applications-and-decisions/safeguarded-wharves-directions","status":"Approved","uprn":null,"runtime":"09/18/2019","in_cw":false,"whole_in_zone":true},"geometry":{"type":"MultiPolygon","coordinates":[[[[0.004095,51.516281],[0.004129,51.516294],[0.00424,51.516334],[0.00434,51.516371],[0.00434,51.516371],[0.004334,51.516378],[0.004255,51.516462],[0.004254,51.516463],[0.004242,51.516477],[0.003984,51.51676],[0.003978,51.516757],[0.003969,51.516771],[0.003927,51.516834],[0.003919,51.516845],[0.003922,51.516846],[0.003873,51.516913],[0.003835,51.516965],[0.003809,51.517005],[0.003787,51.517036],[0.003786,51.517038],[0.003734,51.517114],[0.003714,51.517144],[0.003693,51.517175],[0.003663,51.517218],[0.003635,51.517261],[0.003608,51.517302],[0.003582,51.517345],[0.003578,51.51735],[0.003557,51.517383],[0.003533,51.517422],[0.003502,51.517473],[0.003471,51.517523],[0.003416,51.517617],[0.003392,51.517658],[0.003379,51.517682],[0.003368,51.5177],[0.003346,51.517742],[0.003324,51.517783],[0.00332,51.51779],[0.003171,51.517763],[0.00314,51.517747],[0.002624,51.517378],[0.002129,51.517023],[0.001921,51.516874],[0.001706,51.516719],[0.001635,51.516668],[0.001499,51.51657],[0.001495,51.516567],[0.001489,51.516563],[0.00159,51.516521],[0.001813,51.516432],[0.0019,51.516396],[0.002114,51.516307],[0.002264,51.516245],[0.002377,51.516194],[0.002716,51.516046],[0.002725,51.516052],[0.002734,51.516058],[0.002814,51.516114],[0.002929,51.516194],[0.003031,51.516266],[0.00304,51.516272],[0.003098,51.516312],[0.00315,51.516349],[0.003178,51.516368],[0.003211,51.516391],[0.003611,51.516133],[0.003653,51.516107],[0.003729,51.516137],[0.003888,51.5162],[0.003993,51.51624],[0.004025,51.516253],[0.004095,51.516281]]]]}},
{"type":"Feature","properties":{"fid":21,"address":null,"borough":"Newham","boroughdesignation":null,"classification":null,"designation":"Safeguarded Wharves","easting":"538978.502568","extrainfo1":"The Town and Country Planning Act 1990. The Town and Country Planning Order 1995. Direction under articles 10 and 27. Please see 'Date' attribute for the date this direction comes into force.","extrainfo2":null,"extrainfo3":null,"firstaddeddate":"2000-07-03","hectares":"1.67721179746","lastupdateddate":null,"layerreference":"SGW00000021","northing":"181732.90875100001","notes":null,"objectid":21,"planningauthority":null,"removeddate":null,"sitename":"Priors Wharf","sitereference":"4","source":"https://www.london.gov.uk/what-we-do/planning/planning-applications-and-decisions/safeguarded-wharves-directions","status":"Approved","uprn":null,"runtime":"09/18/2019","in_cw":false,"whole_in_zone":true},"geometry":{"type":"MultiPolygon","coordinates":[[[[0.00033,51.517039],[0.000507,51.516967],[0.000544,51.516952],[0.000801,51.516845],[0.001086,51.51673],[0.001372,51.516611],[0.001489,51.516563],[0.001495,51.516567],[0.001499,51.51657],[0.001635,51.516668],[0.001706,51.516719],[0.001921,51.516874],[0.002129,51.517023],[0.002624,51.517378],[0.00314,51.517747],[0.003171,51.517763],[0.002031,51.518239],[0.00033,51.517039]]]]}},
{"type":"Feature","properties":{"fid":22,"address":null,"borough":"Tower Hamlets","boroughdesignation":null,"classification":null,"designation":"Safeguarded Wharves","easting":"539248.26447699999","extrainfo1":"The Town and Country Planning Act 1990. The Town and Country Planning Order 1995. Direction under articles 10 and 27. Please see 'Date' attribute for the date this direction comes into force.","extrainfo2":null,"extrainfo3":null,"firstaddeddate":"2000-07-03","hectares":"1.41105712482","lastupdateddate":null,"layerreference":"SGW00000022","northing":"180778.022085","notes":null,"objectid":22,"planningauthority":null,"removeddate":null,"sitename":"Orchard Wharf","sitereference":"25","source":"https://www.london.gov.uk/what-we-do/planning/planning-applications-and-decisions/safeguarded-wharves-directions","status":"Approved","uprn":null,"runtime":"09/18/2019","in_cw":false,"whole_in_zone":true},"geometry":{"type":"MultiPolygon","coordinates":[[[[0.005771,51.50814],[0.005824,51.508259],[0.006127,51.508185],[0.006171,51.508283],[0.006175,51.508294],[0.006181,51.508308],[0.006199,51.508351],[0.006199,51.508354],[0.00621,51.508377],[0.006223,51.508406],[0.006223,51.508407],[0.006234,51.508431],[0.006235,51.508432],[0.006268,51.508506],[0.00627,51.508506],[0.006373,51.508744],[0.005985,51.508807],[0.00581,51.508836],[0.005661,51.508861],[0.005656,51.508862],[0.005645,51.508864],[0.00564,51.508865],[0.00555,51.508879],[0.005541,51.50888],[0.005392,51.508905],[0.005365,51.508909],[0.005289,51.508921],[0.005322,51.509003],[0.005307,51.509042],[0.005287,51.509094],[0.005263,51.509154],[0.005202,51.50931],[0.005124,51.509506],[0.005121,51.509511],[0.005122,51.509505],[0.005121,51.50949],[0.00512,51.509482],[0.005118,51.509475],[0.005117,51.509468],[0.005113,51.509462],[0.00511,51.509456],[0.005105,51.509449],[0.005094,51.509438],[0.005088,51.509432],[0.005081,51.509427],[0.005073,51.509421],[0.004998,51.509385],[0.004641,51.509212],[0.004611,51.509105],[0.004539,51.508849],[0.004533,51.508848],[0.004399,51.508832],[0.004394,51.50883],[0.004156,51.508749],[0.004047,51.508711],[0.004046,51.508707],[0.004016,51.508633],[0.003952,51.508468],[0.003915,51.508375],[0.003903,51.508346],[0.004259,51.508294],[0.004407,51.508271],[0.004527,51.508254],[0.00469,51.508229],[0.00477,51.508218],[0.004909,51.508198],[0.005068,51.508174],[0.00552,51.508108],[0.005571,51.5081],[0.005588,51.508098],[0.005634,51.508092],[0.005638,51.508091],[0.005654,51.508088],[0.00567,51.508086],[0.005684,51.508085],[0.005698,51.508087],[0.005701,51.508086],[0.005711,51.508089],[0.00572,51.508092],[0.005751,51.50811],[0.005759,51.508115],[0.005771,51.50814]]]]}},
{"type":"Feature","properties":{"fid":24,"address":null,"borough":"Newham","boroughdesignation":null,"classification":null,"designation":"Safeguarded Wharves","easting":"539614.99655000004","extrainfo1":"The Town and Country Planning Act 1990. The Town and Country Planning Order 1995. Direction under articles 10 and 27. Please see 'Date' attribute for the date this direction comes into force.","extrainfo2":null,"extrainfo3":null,"firstaddeddate":"2000-07-03","hectares":"3.28186578353","lastupdateddate":"2005-06-06","layerreference":"SGW00000023","northing":"180586.76683099999","notes":"Boundary adjusted June 2005; original boundary lost.","objectid":23,"planningauthority":null,"removeddate":null,"sitename":"Thames Wharf","sitereference":"6","source":"https://www.london.gov.uk/what-we-do/planning/planning-applications-and-decisions/safeguarded-wharves-directions","status":"Approved","uprn":null,"runtime":"09/18/2019","in_cw":false,"whole_in_zone":false},"geometry":{"type":"MultiPolygon","coordinates":[[[[0.014633,51.506181],[0.014643,51.506186],[0.014766,51.506245],[0.014853,51.506288],[0.014838,51.506298],[0.014743,51.506362],[0.014733,51.506369],[0.014662,51.506305],[0.014584,51.50626],[0.014527,51.506224],[0.0145,51.506182],[0.014507,51.506121],[0.014528,51.506014],[0.014521,51.505949],[0.014492,51.505912],[0.014433,51.505867],[0.014324,51.505814],[0.013872,51.505664],[0.013819,51.505643],[0.013806,51.50564],[0.013706,51.505608],[0.013651,51.50559],[0.013612,51.505578],[0.013571,51.505567],[0.013501,51.505552],[0.013459,51.505544],[0.013337,51.505522],[0.013247,51.505509],[0.013185,51.505504],[0.013153,51.505502],[0.013096,51.5055],[0.013054,51.505501],[0.013014,51.505504],[0.01299,51.505506],[0.012967,51.505508],[0.01291,51.505515],[0.012884,51.505518],[0.012836,51.505532],[0.012836,51.505532],[0.012836,51.505532],[0.012481,51.505767],[0.012413,51.505812],[0.012401,51.50582],[0.012385,51.50581],[0.012311,51.50585],[0.012285,51.505868],[0.012247,51.505895],[0.011863,51.506166],[0.011622,51.506332],[0.011397,51.506481],[0.011366,51.506501],[0.011236,51.506587],[0.011027,51.506724],[0.010932,51.506785],[0.010908,51.506802],[0.010943,51.506834],[0.011001,51.506888],[0.011018,51.506904],[0.011077,51.506958],[0.011089,51.50697],[0.011102,51.506981],[0.011118,51.506996],[0.011134,51.507011],[0.011154,51.50703],[0.011174,51.507049],[0.011193,51.507067],[0.011226,51.507101],[0.011241,51.507116],[0.011265,51.507141],[0.011288,51.507166],[0.011307,51.50719],[0.011328,51.507215],[0.011349,51.507241],[0.01137,51.507268],[0.011382,51.507282],[0.01142,51.507333],[0.011469,51.507401],[0.011479,51.507416],[0.011489,51.507429],[0.011499,51.507443],[0.011509,51.507458],[0.011521,51.507477],[0.011532,51.507496],[0.011548,51.507523],[0.011563,51.507549],[0.01158,51.507584],[0.011595,51.507617],[0.01161,51.507644],[0.011624,51.507672],[0.011651,51.50773],[0.011662,51.507756],[0.011674,51.507783],[0.011676,51.507787],[0.011677,51.50779],[0.011641,51.5078],[0.011154,51.508118],[0.010771,51.508457],[0.010686,51.508575],[0.010646,51.508633],[0.010602,51.508695],[0.01031,51.508269],[0.010228,51.508151],[0.010159,51.508051],[0.010151,51.508051],[0.010145,51.508049],[0.010141,51.508048],[0.010137,51.508046],[0.010134,51.508044],[0.010131,51.508041],[0.010129,51.50804],[0.010128,51.508038],[0.010127,51.508036],[0.010126,51.508034],[0.010124,51.508029],[0.01012,51.508021],[0.010106,51.507995],[0.010088,51.507956],[0.010047,51.507873],[0.010021,51.507821],[0.010019,51.507817],[0.010015,51.507812],[0.010013,51.507808],[0.010009,51.507804],[0.010005,51.507801],[0.010002,51.507799],[0.009997,51.507794],[0.009994,51.507791],[0.009993,51.507787],[0.00999,51.507784],[0.009989,51.507781],[0.009983,51.507774],[0.009965,51.507738],[0.009834,51.507476],[0.009779,51.507364],[0.009712,51.507231],[0.009639,51.507086],[0.009614,51.507037],[0.009614,51.507036],[0.009614,51.507031],[0.009614,51.507026],[0.009614,51.50702],[0.009614,51.507014],[0.009614,51.507008],[0.009615,51.507005],[0.009616,51.506996],[0.009617,51.506989],[0.009619,51.506985],[0.00962,51.506982],[0.009623,51.506977],[0.009627,51.506972],[0.009629,51.506967],[0.009638,51.506955],[0.009642,51.50695],[0.009645,51.506944],[0.009653,51.506919],[0.009659,51.506918],[0.009657,51.506906],[0.009665,51.506881],[0.009669,51.506871],[0.009672,51.506862],[0.009676,51.506856],[0.009679,51.50685],[0.009685,51.506843],[0.009691,51.506836],[0.009698,51.506826],[0.009706,51.506814],[0.009716,51.506803],[0.009725,51.506791],[0.009734,51.506781],[0.009744,51.506771],[0.009754,51.506761],[0.009767,51.506752],[0.009775,51.506747],[0.009781,51.506745],[0.009785,51.506744],[0.00979,51.506743],[0.010029,51.506573],[0.010032,51.506568],[0.010034,51.506566],[0.010042,51.506559],[0.010049,51.506555],[0.010084,51.506533],[0.010205,51.506454],[0.010334,51.506369],[0.010402,51.506326],[0.010436,51.506305],[0.01044,51.506303],[0.010444,51.506301],[0.010448,51.5063],[0.010454,51.5063],[0.01046,51.506301],[0.010463,51.506303],[0.010466,51.506304],[0.01047,51.506306],[0.010532,51.506266],[0.010593,51.506226],[0.010652,51.506187],[0.010844,51.506054],[0.01103,51.505928],[0.011035,51.505924],[0.01104,51.505921],[0.011051,51.505914],[0.011054,51.505911],[0.011056,51.505909],[0.011059,51.505907],[0.011062,51.505905],[0.011066,51.505901],[0.011078,51.505894],[0.011086,51.505889],[0.01118,51.505828],[0.011362,51.505711],[0.011423,51.505671],[0.011485,51.505631],[0.01159,51.505564],[0.011631,51.505537],[0.011672,51.505511],[0.011706,51.50549],[0.011807,51.505425],[0.011839,51.505403],[0.011872,51.505382],[0.011893,51.505368],[0.011915,51.505354],[0.011931,51.505343],[0.011947,51.505333],[0.011958,51.505325],[0.011969,51.505318],[0.011992,51.505306],[0.012001,51.505301],[0.012011,51.505294],[0.012016,51.505292],[0.012021,51.505288],[0.012025,51.505284],[0.01203,51.505281],[0.012043,51.505286],[0.012192,51.505336],[0.012238,51.505351],[0.012682,51.505232],[0.012752,51.50537],[0.012899,51.505343],[0.012939,51.505429],[0.013015,51.505415],[0.013032,51.505412],[0.013241,51.505373],[0.013241,51.505373],[0.013262,51.50538],[0.013284,51.505387],[0.013343,51.505408],[0.013848,51.50558],[0.013946,51.505614],[0.013946,51.505614],[0.014104,51.505669],[0.014177,51.505694],[0.014356,51.505756],[0.014406,51.505773],[0.014438,51.505784],[0.014445,51.505787],[0.014585,51.505835],[0.014701,51.506117],[0.014633,51.506181]]]]}},
{"type":"Feature","properties":{"fid":51,"address":null,"borough":"Greenwich","boroughdesignation":null,"classification":null,"designation":"Safeguarded Wharves","easting":"539245.93937000004","extrainfo1":"The Town and Country Planning Act 1990. The Town and Country Planning Order 1995. Direction under articles 10 and 27. Please see 'Date' attribute for the date this direction comes into force.","extrainfo2":null,"extrainfo3":null,"firstaddeddate":"2000-07-03","hectares":"4.19660354012","lastupdateddate":null,"layerreference":"SGW00000051","northing":"178969.65972299999","notes":null,"objectid":51,"planningauthority":null,"removeddate":null,"sitename":"Tunnel Glucose","sitereference":"13","source":"https://www.london.gov.uk/what-we-do/planning/planning-applications-and-decisions/safeguarded-wharves-directions","status":"Approved","uprn":null,"runtime":"09/18/2019","in_cw":false,"whole_in_zone":true},"geometry":{"type":"MultiPolygon","coordinates":[[[[0.004513,51.49353],[0.004064,51.493412],[0.003827,51.493352],[0.003398,51.493255],[0.003351,51.493241],[0.003336,51.493266],[0.002998,51.493176],[0.002488,51.493042],[0.00246,51.493033],[0.002369,51.492987],[0.002369,51.492987],[0.002369,51.492987],[0.002352,51.492983],[0.00235,51.492971],[0.00234,51.492953],[0.002336,51.492946],[0.002324,51.492932],[0.002309,51.492919],[0.002287,51.492887],[0.002282,51.492879],[0.002279,51.49287],[0.002274,51.492841],[0.002273,51.492811],[0.002273,51.492802],[0.002273,51.492795],[0.002274,51.492788],[0.002275,51.49278],[0.002276,51.492773],[0.002278,51.49276],[0.00228,51.49275],[0.002283,51.492738],[0.002286,51.492727],[0.002289,51.492717],[0.002291,51.492706],[0.002298,51.492688],[0.002316,51.492638],[0.002327,51.492606],[0.002336,51.492584],[0.002343,51.492561],[0.002346,51.492549],[0.002356,51.492531],[0.002263,51.492518],[0.002277,51.49248],[0.0023,51.492483],[0.002331,51.492398],[0.00231,51.492395],[0.002321,51.492366],[0.002325,51.492355],[0.002186,51.492334],[0.002191,51.492323],[0.002192,51.492321],[0.0022,51.492312],[0.00222,51.492258],[0.00223,51.492237],[0.002234,51.492203],[0.002259,51.492142],[0.002291,51.49213],[0.00239,51.492143],[0.002431,51.492152],[0.002499,51.492162],[0.002521,51.492119],[0.002538,51.492084],[0.002552,51.492059],[0.002561,51.49204],[0.002572,51.492023],[0.002581,51.49201],[0.002587,51.491998],[0.002595,51.491985],[0.002608,51.491965],[0.002615,51.491952],[0.002619,51.491943],[0.002623,51.491935],[0.002624,51.491928],[0.002626,51.491922],[0.002629,51.491914],[0.002631,51.491906],[0.002632,51.491901],[0.00263,51.491892],[0.002629,51.491866],[0.002627,51.491852],[0.002626,51.491839],[0.002623,51.49183],[0.002621,51.49182],[0.002619,51.491811],[0.002615,51.491802],[0.002607,51.491786],[0.002603,51.491773],[0.002593,51.491754],[0.002583,51.491736],[0.00257,51.491719],[0.002558,51.4917],[0.002545,51.491682],[0.002524,51.491649],[0.002508,51.491627],[0.002499,51.491611],[0.00249,51.491597],[0.002478,51.491582],[0.002462,51.491556],[0.002453,51.49154],[0.002443,51.491522],[0.002435,51.491508],[0.002431,51.491496],[0.002425,51.491482],[0.002419,51.491468],[0.002415,51.49145],[0.002413,51.491435],[0.002411,51.491422],[0.002412,51.491419],[0.002516,51.491419],[0.002542,51.491418],[0.002554,51.491418],[0.002584,51.491417],[0.002595,51.491304],[0.0026,51.491234],[0.004216,51.491522],[0.0043,51.491537],[0.004455,51.491564],[0.004501,51.491573],[0.004562,51.491881],[0.004563,51.491884],[0.004564,51.491888],[0.004566,51.491894],[0.004568,51.491908],[0.004571,51.491929],[0.004574,51.491949],[0.004577,51.491977],[0.00458,51.492016],[0.004582,51.492051],[0.004581,51.49207],[0.004582,51.492089],[0.004581,51.492108],[0.004581,51.49213],[0.00458,51.492138],[0.004578,51.492164],[0.004575,51.492192],[0.004567,51.492248],[0.004555,51.492326],[0.004544,51.492379],[0.004532,51.492452],[0.004515,51.492541],[0.004487,51.492693],[0.004466,51.492803],[0.004458,51.492848],[0.004464,51.492847],[0.004963,51.492834],[0.00496,51.492795],[0.00496,51.492795],[0.00497,51.492795],[0.005157,51.492798],[0.0052,51.492795],[0.005331,51.492789],[0.00546,51.492783],[0.005475,51.492782],[0.005542,51.492779],[0.005801,51.492767],[0.006022,51.492757],[0.006023,51.492763],[0.006024,51.492772],[0.006024,51.492777],[0.006044,51.493023],[0.006054,51.493028],[0.006193,51.49308],[0.006307,51.493123],[0.006337,51.493134],[0.006376,51.493149],[0.006566,51.493221],[0.006568,51.493222],[0.006589,51.493229],[0.006632,51.493244],[0.006668,51.493259],[0.006552,51.493364],[0.006485,51.49343],[0.006353,51.493549],[0.006145,51.493713],[0.006141,51.493716],[0.00604,51.493735],[0.006039,51.493735],[0.006037,51.493737],[0.006008,51.493723],[0.005988,51.493718],[0.005883,51.493675],[0.005769,51.493628],[0.005768,51.493628],[0.005463,51.493842],[0.005211,51.493775],[0.005219,51.493772],[0.005222,51.493769],[0.005225,51.493765],[0.005233,51.493762],[0.005235,51.493753],[0.005237,51.493733],[0.005235,51.493702],[0.005228,51.493683],[0.005222,51.493673],[0.005205,51.493643],[0.005194,51.49363],[0.00517,51.49361],[0.005144,51.493601],[0.005123,51.493596],[0.00511,51.493594],[0.005095,51.493593],[0.005091,51.493595],[0.005087,51.493601],[0.005081,51.493601],[0.005072,51.493605],[0.005066,51.493611],[0.005063,51.493615],[0.005032,51.493607],[0.005055,51.493566],[0.004843,51.493509],[0.004781,51.493603],[0.004752,51.493596],[0.004739,51.49359],[0.004513,51.49353]]]]}}
]}
