{"type":"FeatureCollection","meta":{
 "source": "City of London INSPIRE map service: Permissive Subway",
 "borough": "City of London",
 "page": "https://www.mapping.cityoflondon.gov.uk/arcgis/rest/services/INSPIRE/MapServer/121",
 "api": "https://www.mapping.cityoflondon.gov.uk/arcgis/rest/services/INSPIRE/MapServer/121/query?where=1=1&geometry=<zone box>&geometryType=esriGeometryEnvelope&inSR=4326&spatialRel=esriSpatialRelIntersects&outFields=*&outSR=4326&f=geojson&resultOffset=<n>",
 "fetched": "2026-10-04",
 "licence": "Open Government Licence v3.0",
 "licence_evidence": "the City's INSPIRE record on data.gov.uk (permissive-subway3): [\"http://www.nationalarchives.gov.uk/doc/open-government-licence/version/3/\"] | [\"License\", \"https://inspire.ec.europa.eu/metadata-codelist/LimitationsOnPublicAccess\"]",
 "licence_url": "https://www.nationalarchives.gov.uk/doc/open-government-licence/version/3/",
 "attribution": "Contains public sector information licensed under the Open Government Licence v3.0 (City of London Corporation)",
 "zone": "the 3D model box, BNG E 532400-539900, N 176700-182300 (WGS84 -0.095, 51.474 to 0.015, 51.522)",
 "method": "walk-portals.mjs boroughs harvest city-permissive-subway: features that meet the zone box, WGS84 rounded to 6 decimals, whole geometries; whole_in_zone, in_cw; empty fields and ArcGIS shape measures left out; fields matching /e-?mail|phone|tel(ephone)?$|^tel|contact|^fax|mobile|^owner_?name|person|officer|case_?officer|agent_?name|applicant/i dropped",
 "counts": {
  "features": 3,
  "zone_count_at_walk": 3,
  "in_cw": 0
 },
 "fields_dropped": []
},
"features":[
{"type":"Feature","geometry":{"type":"Polygon","coordinates":[[[-0.090137,51.513343],[-0.090018,51.513346],[-0.08999,51.513339],[-0.089986,51.513337],[-0.089982,51.513334],[-0.089978,51.513331],[-0.089963,51.513308],[-0.08991,51.513228],[-0.089899,51.513221],[-0.089894,51.513218],[-0.089873,51.513184],[-0.089874,51.513184],[-0.089872,51.513177],[-0.089873,51.513173],[-0.089879,51.513159],[-0.089882,51.51315],[-0.089854,51.513144],[-0.089844,51.513168],[-0.089843,51.513179],[-0.089846,51.51319],[-0.089848,51.51319],[-0.08987,51.513224],[-0.08987,51.513225],[-0.08987,51.513226],[-0.089871,51.513238],[-0.089938,51.513339],[-0.08994,51.513346],[-0.089933,51.513353],[-0.089858,51.513386],[-0.089815,51.513399],[-0.089701,51.513424],[-0.089693,51.513425],[-0.089615,51.51342],[-0.089609,51.513418],[-0.089565,51.513332],[-0.089514,51.513344],[-0.089261,51.51333],[-0.089236,51.513298],[-0.089232,51.513293],[-0.08922,51.513282],[-0.089213,51.513277],[-0.089197,51.513268],[-0.089187,51.513263],[-0.089177,51.513259],[-0.089169,51.513256],[-0.089161,51.513253],[-0.08914,51.513245],[-0.089176,51.513178],[-0.089173,51.513173],[-0.089178,51.513165],[-0.089194,51.513138],[-0.089172,51.513133],[-0.089156,51.513159],[-0.089151,51.513168],[-0.089128,51.513206],[-0.089118,51.513204],[-0.089097,51.513233],[-0.089018,51.513217],[-0.089005,51.513214],[-0.08899,51.513211],[-0.088975,51.513209],[-0.088959,51.513208],[-0.088953,51.513208],[-0.088936,51.513201],[-0.088906,51.513187],[-0.088873,51.513174],[-0.088765,51.513129],[-0.088731,51.513114],[-0.088655,51.51308],[-0.08863,51.513065],[-0.088562,51.513023],[-0.088482,51.512972],[-0.088461,51.512985],[-0.088437,51.513],[-0.088423,51.512994],[-0.08841,51.512989],[-0.088372,51.512973],[-0.08835,51.512994],[-0.088327,51.513015],[-0.08834,51.513021],[-0.088353,51.513026],[-0.088365,51.513031],[-0.088378,51.513036],[-0.088403,51.513047],[-0.088415,51.513052],[-0.088414,51.513053],[-0.08846,51.513073],[-0.088485,51.51307],[-0.088506,51.513053],[-0.088528,51.513033],[-0.088573,51.513062],[-0.088596,51.513075],[-0.088646,51.513104],[-0.088723,51.513139],[-0.08882,51.513178],[-0.088893,51.513209],[-0.088908,51.513216],[-0.088905,51.513217],[-0.088897,51.513221],[-0.088869,51.513234],[-0.088844,51.513247],[-0.088824,51.513257],[-0.08882,51.513259],[-0.088815,51.51326],[-0.088811,51.513261],[-0.088808,51.513261],[-0.088805,51.513261],[-0.088801,51.51326],[-0.088774,51.513253],[-0.088756,51.513248],[-0.088748,51.513246],[-0.088745,51.513244],[-0.088746,51.513244],[-0.088747,51.513239],[-0.088747,51.513234],[-0.088746,51.513229],[-0.088744,51.513223],[-0.088741,51.513218],[-0.088738,51.513214],[-0.088734,51.513209],[-0.088732,51.513204],[-0.088712,51.513212],[-0.088715,51.513215],[-0.088718,51.513219],[-0.088721,51.513222],[-0.088723,51.513226],[-0.088724,51.513231],[-0.088724,51.513236],[-0.088724,51.51324],[-0.088724,51.513244],[-0.088713,51.513274],[-0.088714,51.513275],[-0.088713,51.513278],[-0.088711,51.513282],[-0.088709,51.513286],[-0.088706,51.51329],[-0.088692,51.5133],[-0.088687,51.513303],[-0.088705,51.513312],[-0.088711,51.513309],[-0.088715,51.513305],[-0.08872,51.513301],[-0.088723,51.513297],[-0.088727,51.513292],[-0.08873,51.513287],[-0.088733,51.513283],[-0.088736,51.51328],[-0.088736,51.513279],[-0.088738,51.513278],[-0.088742,51.513278],[-0.088746,51.513278],[-0.088751,51.513278],[-0.088757,51.513278],[-0.088761,51.51328],[-0.088764,51.513281],[-0.088765,51.513282],[-0.088766,51.513284],[-0.088766,51.513286],[-0.088765,51.513289],[-0.088763,51.513291],[-0.08876,51.513293],[-0.088757,51.513294],[-0.088697,51.513324],[-0.088631,51.513358],[-0.088623,51.513362],[-0.088617,51.513365],[-0.088609,51.513367],[-0.088601,51.513369],[-0.088585,51.513373],[-0.088574,51.513374],[-0.088351,51.513406],[-0.08825,51.51342],[-0.088226,51.513422],[-0.088163,51.51342],[-0.088161,51.51345],[-0.088222,51.513452],[-0.088246,51.513447],[-0.08852,51.513411],[-0.088527,51.51341],[-0.088532,51.51341],[-0.08854,51.51341],[-0.088547,51.513411],[-0.088548,51.513411],[-0.088553,51.513412],[-0.088558,51.513414],[-0.088562,51.51342],[-0.088563,51.513421],[-0.088563,51.513426],[-0.088561,51.513428],[-0.08856,51.513434],[-0.088558,51.513439],[-0.088556,51.513444],[-0.088554,51.513454],[-0.088552,51.513466],[-0.08855,51.513484],[-0.088548,51.513491],[-0.088544,51.513497],[-0.08854,51.513502],[-0.088536,51.513507],[-0.088529,51.513511],[-0.088523,51.513514],[-0.08852,51.513515],[-0.088511,51.513517],[-0.088502,51.513518],[-0.08839,51.51353],[-0.088318,51.513537],[-0.088292,51.51354],[-0.088277,51.513544],[-0.088264,51.513547],[-0.0882,51.513564],[-0.08822,51.513591],[-0.088282,51.513574],[-0.088295,51.513571],[-0.088313,51.513564],[-0.088428,51.513551],[-0.088503,51.513542],[-0.088511,51.513541],[-0.088519,51.513541],[-0.088533,51.513541],[-0.088542,51.513542],[-0.08855,51.513543],[-0.088558,51.513544],[-0.088567,51.513546],[-0.0886,51.513551],[-0.088614,51.513552],[-0.088629,51.513554],[-0.088643,51.513554],[-0.088658,51.513554],[-0.088672,51.513554],[-0.088686,51.513554],[-0.088703,51.513552],[-0.088719,51.513548],[-0.088799,51.513531],[-0.088852,51.51352],[-0.088887,51.513513],[-0.088891,51.513515],[-0.088894,51.513517],[-0.088897,51.513519],[-0.088898,51.513522],[-0.088898,51.513523],[-0.088899,51.513527],[-0.088899,51.51353],[-0.088899,51.513539],[-0.088897,51.513549],[-0.088898,51.513549],[-0.088902,51.513549],[-0.088919,51.51355],[-0.088926,51.513552],[-0.088925,51.513551],[-0.088926,51.513519],[-0.088927,51.513515],[-0.088926,51.513511],[-0.088926,51.513507],[-0.088924,51.513504],[-0.088985,51.51349],[-0.088995,51.513487],[-0.089005,51.513484],[-0.089017,51.513481],[-0.089029,51.513478],[-0.08904,51.513475],[-0.089052,51.513471],[-0.089074,51.513464],[-0.089082,51.513462],[-0.08909,51.51346],[-0.089098,51.513458],[-0.089106,51.513456],[-0.089112,51.513455],[-0.08912,51.513455],[-0.08913,51.513455],[-0.089137,51.513456],[-0.089143,51.513458],[-0.089152,51.513464],[-0.089161,51.513468],[-0.08917,51.513473],[-0.089168,51.513474],[-0.089165,51.51348],[-0.089162,51.513485],[-0.089159,51.51349],[-0.089157,51.513496],[-0.089156,51.5135],[-0.089154,51.513504],[-0.089154,51.513508],[-0.089155,51.513511],[-0.089175,51.513511],[-0.089175,51.513504],[-0.089177,51.513496],[-0.089178,51.513492],[-0.089181,51.513488],[-0.089186,51.51348],[-0.089189,51.513476],[-0.089195,51.51347],[-0.089212,51.51346],[-0.089217,51.513457],[-0.089221,51.513454],[-0.089231,51.51345],[-0.089246,51.513447],[-0.089252,51.513445],[-0.089258,51.513444],[-0.089251,51.513424],[-0.089237,51.513429],[-0.089234,51.51343],[-0.089231,51.513431],[-0.089226,51.513433],[-0.08922,51.513436],[-0.089215,51.513439],[-0.089211,51.513441],[-0.089206,51.513445],[-0.089199,51.513449],[-0.089193,51.513442],[-0.08919,51.513439],[-0.089189,51.513435],[-0.089187,51.513432],[-0.089186,51.513429],[-0.089186,51.513426],[-0.089187,51.513423],[-0.089189,51.513419],[-0.089193,51.513416],[-0.089195,51.513416],[-0.089224,51.513397],[-0.08923,51.513394],[-0.089236,51.51339],[-0.089241,51.513386],[-0.089245,51.513382],[-0.08925,51.513378],[-0.089252,51.513374],[-0.089253,51.513372],[-0.089265,51.513372],[-0.0894,51.513377],[-0.089542,51.513423],[-0.08957,51.513431],[-0.08957,51.513431],[-0.089585,51.513436],[-0.08959,51.513437],[-0.089595,51.513438],[-0.089617,51.513441],[-0.08969,51.513446],[-0.089712,51.513444],[-0.089833,51.513418],[-0.089878,51.513404],[-0.089958,51.513368],[-0.089971,51.513365],[-0.089987,51.513368],[-0.090015,51.513367],[-0.09014,51.513383],[-0.090138,51.513351],[-0.090137,51.513343]],[[-0.089193,51.51334],[-0.089192,51.513348],[-0.089189,51.513356],[-0.089183,51.513364],[-0.089177,51.513371],[-0.089176,51.513373],[-0.089167,51.513379],[-0.089157,51.513386],[-0.089122,51.513404],[-0.089107,51.513411],[-0.089092,51.513418],[-0.089072,51.513425],[-0.089052,51.513433],[-0.089029,51.51344],[-0.089005,51.513446],[-0.08898,51.513453],[-0.088956,51.51346],[-0.088869,51.513477],[-0.088791,51.513494],[-0.088757,51.513501],[-0.088747,51.513502],[-0.088738,51.513504],[-0.088717,51.513509],[-0.088708,51.513511],[-0.0887,51.513513],[-0.08869,51.513515],[-0.08868,51.513516],[-0.088638,51.51352],[-0.088633,51.51352],[-0.088627,51.51352],[-0.088621,51.513519],[-0.088615,51.513517],[-0.088613,51.513515],[-0.08861,51.513513],[-0.088608,51.51351],[-0.088608,51.513507],[-0.088608,51.513494],[-0.088611,51.513475],[-0.088617,51.513458],[-0.088624,51.51344],[-0.088629,51.51343],[-0.088635,51.513421],[-0.088641,51.513413],[-0.088648,51.513404],[-0.088656,51.513397],[-0.088666,51.513389],[-0.088679,51.513382],[-0.088692,51.513374],[-0.088704,51.513368],[-0.088716,51.513362],[-0.088819,51.51331],[-0.088888,51.513277],[-0.088944,51.513251],[-0.088949,51.513249],[-0.088954,51.513247],[-0.088959,51.513246],[-0.088965,51.513245],[-0.088973,51.513245],[-0.088981,51.513246],[-0.088987,51.513248],[-0.088993,51.51325],[-0.089029,51.513259],[-0.089148,51.513294],[-0.089158,51.513297],[-0.089166,51.513301],[-0.089172,51.513305],[-0.089177,51.513309],[-0.089184,51.513316],[-0.089188,51.513323],[-0.089188,51.513323],[-0.089192,51.513332],[-0.089193,51.51334]]]},"properties":{"OBJECTID":1,"OTHER_NOTES_1":"Subway adjacent to BANK UNDERGROUND STATION, connecting 1 POULTRY, WALBROOK, PRINCES STREET, KING WILLIAM STREET and the ROYAL EXCHANGE FORECOURT.","OTHER_NOTES_2":"Land at 1 POULTRY is private and therefore still shown as permissive path. The entrance at the south corner of the bank of England is within the building structure and dedicated as highway.","whole_in_zone":true,"in_cw":false}},
{"type":"Feature","geometry":{"type":"Polygon","coordinates":[[[-0.093899,51.512528],[-0.093899,51.512532],[-0.09387,51.512616],[-0.09386,51.512644],[-0.093778,51.512633],[-0.09377,51.512654],[-0.093891,51.51267],[-0.093908,51.512621],[-0.093938,51.512536],[-0.093939,51.512534],[-0.093899,51.512528]]]},"properties":{"OBJECTID":321,"OTHER_NOTES_1":"or temporarily close the path at any time.\"  Subway connecting BOW LANE, CANNON STREET and QUEEN VICTORIA STREET with MANSION HOUSE UNDERGROUND STATION.","OTHER_NOTES_2":"Accessible entrance to station via public lift to subway level is currently closed as of 14/02/2023.","whole_in_zone":true,"in_cw":false}},
{"type":"Feature","geometry":{"type":"Polygon","coordinates":[[[-0.09386,51.512239],[-0.093886,51.512248],[-0.09391,51.512243],[-0.093916,51.512243],[-0.093962,51.512234],[-0.093975,51.512231],[-0.093984,51.51223],[-0.094024,51.512223],[-0.094011,51.512191],[-0.09396,51.51217],[-0.093919,51.512197],[-0.093952,51.512209],[-0.093973,51.512199],[-0.093978,51.512208],[-0.093957,51.512212],[-0.093897,51.512222],[-0.09386,51.512239]]]},"properties":{"OBJECTID":322,"OTHER_NOTES_1":"Subway connecting BOW LANE, CANNON STREET and QUEEN VICTORIA STREET with MANSION HOUSE UNDERGROUND STATION.","whole_in_zone":true,"in_cw":false}}
]}
