{"type":"FeatureCollection","meta":{
 "source": "London Datastore: Inner and Outer London Boundaries (London Plan Consolidated with Alterations since 2004) (Greater London Authority)",
 "dataset": "2jrxd",
 "page": "https://data.london.gov.uk/dataset/inner-and-outer-london-boundaries-london-plan-consolidated-with--2jrxd",
 "resources": [
  {
   "resource": "804d24b9-eb2f-4ba6-86ff-977e419d26c1",
   "file": "lp-falp-2006-inner-outer-london-shp.zip",
   "url": "https://data.london.gov.uk/download/2jrxd/804d24b9-eb2f-4ba6-86ff-977e419d26c1/lp-falp-2006-inner-outer-london-shp.zip",
   "size": 195660,
   "resource_date": "2018-11-15",
   "fetched": "2026-10-04",
   "entries": 7
  }
 ],
 "licence": "Open Government Licence v2",
 "licence_url": "https://www.nationalarchives.gov.uk/doc/open-government-licence/version/2/",
 "attribution": "Contains public sector information licensed under the Open Government Licence v2 (Greater London Authority). The GLA cannot warrant the quality or accuracy of the data (London Datastore terms).",
 "dataset_modified": "2014-07-04",
 "update_frequency": null,
 "geo": "Custom Polygons",
 "theme": "buildings-places",
 "layers": [
  {
   "table": "lp-falp-2006-inner-outer-london",
   "srs": 27700
  }
 ],
 "crs_source": "EPSG:27700",
 "crs_output": "EPSG:4326 (WGS84), 6 decimal places; BNG to WGS84 through the OS OSTN15 grid (lib.mjs bngProjector)",
 "method": "lds-harvest-auto.mjs run 2jrxd: resources chosen by the written rules (harvest-log.json meta.rules: formats, dedupe, caps); every feature read (GeoPackage, GeoJSON, shapefile, or table rows with coordinate columns as points, the CRS judged per row by value); a feature is kept when it meets the zone (the 3D model box, BNG E 532400-539900, N 176700-182300): a vertex inside, an edge crossing or the box inside a polygon; whole geometries kept, whole_in_zone and in_cw added; WGS84 6 decimals through OSTN15; contact fields dropped.",
 "counts": {
  "source_features": 2,
  "no_geometry": 0,
  "in_zone": 2,
  "in_cw": 1
 },
 "attributes_in_source": "yes",
 "fields_dropped": [],
 "harvest_rules": "tools/lds-harvest-auto.mjs AUTO_RULES (feeds/london-datastore/harvest-log.json meta.rules)",
 "selection_notes": [
  "1 format variants of a picked stem not read",
  "lp-falp-2006-inner-outer-london-shp.zip: 2 polygons with over 1000 vertices cut to the zone box plus 500 m (clipped_to_zone)"
 ]
},
"features":[
{"type":"Feature","properties":{"Designated":"Inner","Source":"The London Plan consolidated with alterations since 2004","Shape_Leng":130298.412266,"Shape_Area":327962789.708,"clipped_to_zone":true,"in_cw":true,"whole_in_zone":false},"geometry":{"type":"Polygon","coordinates":[[[0.007625,51.505511],[0.007348,51.505631],[0.005992,51.506163],[0.005201,51.506429],[0.004173,51.506712],[0.003982,51.506746],[0.003898,51.506754],[0.003814,51.506757],[0.003614,51.506751],[0.003356,51.506753],[0.002812,51.506736],[0.00224,51.506735],[0.001466,51.506633],[0.00098,51.506552],[0.00066,51.506488],[0.000503,51.506454],[0.000019,51.506316],[-0.000296,51.506243],[-0.000467,51.506194],[-0.000737,51.506098],[-0.00089,51.506032],[-0.001185,51.505882],[-0.001581,51.50565],[-0.002009,51.505357],[-0.002401,51.505103],[-0.002605,51.504938],[-0.002781,51.504809],[-0.00289,51.504721],[-0.003075,51.504553],[-0.003215,51.504407],[-0.003579,51.503963],[-0.0038,51.503747],[-0.0039,51.503632],[-0.00423,51.503175],[-0.004349,51.502997],[-0.004445,51.502839],[-0.004582,51.502581],[-0.004795,51.502112],[-0.004825,51.501956],[-0.005009,51.501678],[-0.005054,51.501574],[-0.00508,51.501489],[-0.005108,51.50136],[-0.00514,51.501072],[-0.005162,51.50097],[-0.005071,51.500786],[-0.004859,51.499999],[-0.004577,51.499003],[-0.00445,51.498636],[-0.00435,51.498379],[-0.004305,51.498272],[-0.004137,51.497925],[-0.003979,51.497616],[-0.003632,51.497123],[-0.002595,51.495387],[-0.002293,51.494958],[-0.002238,51.494855],[-0.002184,51.494777],[-0.002116,51.494692],[-0.00205,51.494625],[-0.0016,51.4942],[-0.001442,51.493956],[-0.00128,51.493675],[-0.001055,51.493315],[-0.000984,51.493103],[-0.000776,51.492556],[-0.000651,51.492161],[-0.000389,51.49139],[-0.000485,51.490246],[-0.000527,51.490047],[-0.000564,51.48992],[-0.000665,51.48966],[-0.000818,51.489384],[-0.001177,51.488699],[-0.001383,51.488421],[-0.001694,51.488094],[-0.002021,51.487771],[-0.002927,51.487145],[-0.003384,51.486903],[-0.004529,51.486324],[-0.004758,51.486217],[-0.005056,51.486088],[-0.005355,51.48597],[-0.005529,51.485906],[-0.005624,51.485872],[-0.005901,51.485782],[-0.006232,51.485684],[-0.006568,51.485596],[-0.008711,51.485112],[-0.01058,51.484733],[-0.010806,51.484705],[-0.011032,51.484679],[-0.012317,51.484587],[-0.012525,51.484576],[-0.012772,51.484571],[-0.012858,51.484569],[-0.01315,51.484563],[-0.01367,51.484573],[-0.014632,51.484577],[-0.016695,51.484676],[-0.017535,51.484794],[-0.017953,51.484863],[-0.018391,51.48495],[-0.018788,51.485045],[-0.019447,51.485224],[-0.019994,51.485388],[-0.021055,51.485775],[-0.021365,51.485894],[-0.021858,51.486092],[-0.022992,51.486576],[-0.023491,51.486823],[-0.024857,51.485554],[-0.024959,51.485399],[-0.025162,51.48509],[-0.025206,51.484848],[-0.025255,51.484496],[-0.025351,51.484084],[-0.025552,51.483435],[-0.025713,51.482573],[-0.025793,51.482189],[-0.025857,51.482044],[-0.025926,51.481944],[-0.026039,51.481829],[-0.026342,51.481577],[-0.026383,51.48151],[-0.024694,51.481197],[-0.023135,51.480738],[-0.023095,51.480242],[-0.023045,51.479629],[-0.022498,51.4797],[-0.020341,51.479936],[-0.020392,51.480231],[-0.018909,51.480727],[-0.018702,51.480784],[-0.018558,51.480817],[-0.018375,51.480849],[-0.018135,51.480859],[-0.017849,51.48088],[-0.017618,51.48072],[-0.01709,51.48041],[-0.017041,51.480381],[-0.016834,51.480288],[-0.016834,51.48028],[-0.016884,51.480183],[-0.016936,51.480126],[-0.017001,51.480076],[-0.01708,51.480032],[-0.017205,51.479985],[-0.017438,51.479944],[-0.017618,51.479926],[-0.017743,51.479919],[-0.017926,51.479917],[-0.018266,51.479896],[-0.018351,51.479878],[-0.018418,51.479855],[-0.018492,51.479817],[-0.018547,51.479778],[-0.018607,51.479713],[-0.018872,51.479517],[-0.018938,51.479452],[-0.018972,51.479406],[-0.019003,51.479343],[-0.019036,51.479194],[-0.019105,51.478947],[-0.019102,51.478784],[-0.019066,51.478618],[-0.01906,51.478501],[-0.019117,51.478207],[-0.019129,51.478072],[-0.019128,51.477998],[-0.019121,51.47792],[-0.019079,51.477695],[-0.019017,51.477196],[-0.019034,51.477173],[-0.019082,51.477129],[-0.019147,51.477088],[-0.019218,51.477056],[-0.019298,51.477035],[-0.01938,51.477021],[-0.019424,51.477018],[-0.019615,51.477032],[-0.01971,51.477028],[-0.019761,51.47702],[-0.019854,51.47699],[-0.019932,51.476951],[-0.020129,51.476885],[-0.020691,51.476552],[-0.020758,51.476499],[-0.020784,51.476461],[-0.020801,51.476418],[-0.020802,51.476378],[-0.020791,51.476337],[-0.020755,51.476278],[-0.020576,51.475875],[-0.020626,51.47573],[-0.02066,51.475662],[-0.020704,51.475612],[-0.020757,51.475568],[-0.020794,51.475544],[-0.020838,51.475524],[-0.02089,51.475507],[-0.021327,51.475426],[-0.021578,51.475432],[-0.021773,51.475437],[-0.02212,51.475418],[-0.022348,51.475337],[-0.022484,51.475296],[-0.022686,51.475286],[-0.022687,51.475284],[-0.022905,51.475082],[-0.022805,51.474731],[-0.022776,51.474533],[-0.022777,51.474464],[-0.022785,51.474283],[-0.02262,51.474271],[-0.022586,51.4741],[-0.022592,51.474088],[-0.022647,51.473986],[-0.022481,51.473967],[-0.022424,51.474087],[-0.022316,51.474086],[-0.022163,51.474061],[-0.022076,51.47404],[-0.022006,51.474016],[-0.021859,51.473952],[-0.021845,51.473948],[-0.021747,51.474026],[-0.021552,51.473934],[-0.021619,51.473876],[-0.021209,51.473744],[-0.021115,51.473706],[-0.021026,51.473662],[-0.020909,51.473589],[-0.020811,51.473521],[-0.020771,51.473483],[-0.020742,51.473445],[-0.020725,51.473411],[-0.02071,51.473348],[-0.02064,51.473214],[-0.020622,51.473198],[-0.020595,51.473184],[-0.020528,51.47317],[-0.020302,51.473174],[-0.0202,51.47316],[-0.020092,51.473124],[-0.020025,51.473083],[-0.019979,51.473018],[-0.019964,51.472988],[-0.019953,51.472922],[-0.019957,51.472848],[-0.01998,51.472782],[-0.020016,51.472725],[-0.020057,51.472677],[-0.02013,51.472613],[-0.020311,51.472417],[-0.020302,51.472371],[-0.020274,51.472287],[-0.020219,51.472185],[-0.020119,51.472098],[-0.020084,51.472079],[-0.020026,51.472056],[-0.019974,51.472042],[-0.019868,51.472028],[-0.019373,51.472047],[-0.01932,51.472011],[-0.019293,51.471986],[-0.01926,51.471938],[-0.019127,51.471468],[-0.019084,51.471229],[-0.018998,51.471138],[-0.018859,51.47119],[-0.018802,51.471102],[-0.018933,51.471069],[-0.018956,51.471063],[-0.018919,51.470879],[-0.018767,51.470748],[-0.018646,51.470646],[-0.018912,51.470525],[-0.019006,51.470611],[-0.019065,51.470587],[-0.019174,51.47055],[-0.019247,51.4705],[-0.019141,51.470251],[-0.018995,51.470062],[-0.018993,51.47006],[-0.019092,51.469949],[-0.018675,51.469713],[-0.018448,51.469605],[-0.018175,51.469526],[-0.017862,51.469478],[-0.017718,51.469462],[-0.017483,51.469433],[-0.017248,51.469411],[-0.017136,51.469342],[-0.017115,51.469299],[-0.017088,51.469248],[-0.016924,51.469056],[-0.016533,51.469228],[-0.016442,51.469049],[-0.016391,51.468996],[-0.016244,51.46886],[-0.015879,51.468549],[-0.015781,51.46848],[-0.015534,51.46833],[-0.015431,51.468262],[-0.015276,51.468151],[-0.015065,51.468036],[-0.015001,51.46804],[-0.014627,51.468234],[-0.014468,51.468308],[-0.014082,51.468472],[-0.01345,51.468767],[-0.013103,51.468937],[-0.013448,51.469379],[-0.013691,51.469656],[-0.013815,51.469782],[-0.014021,51.47005],[-0.014071,51.470119],[-0.014397,51.470672],[-0.014835,51.471399],[-0.01512,51.471731],[-0.014673,51.471887],[-0.014505,51.471893],[-0.014532,51.472113],[-0.014132,51.472578],[-0.014051,51.47264],[-0.013484,51.472407],[-0.013118,51.47237],[-0.012848,51.472352],[-0.012493,51.472341],[-0.011653,51.472389],[-0.010297,51.472553],[-0.008932,51.472698],[-0.008902,51.4727],[-0.008104,51.472681],[-0.007564,51.472621],[-0.005267,51.472343],[-0.002529,51.471948],[-0.00183,51.471851],[-0.000945,51.471803],[-0.000017,51.471825],[0.000685,51.471881],[0.001413,51.471965],[0.004057,51.47227],[0.005102,51.472389],[0.009829,51.472896],[0.012114,51.473173],[0.014418,51.473453],[0.014419,51.473453],[0.018355,51.473915],[0.014936,51.473093],[0.014912,51.472912],[0.014929,51.472698],[0.014993,51.472418],[0.015116,51.472056],[0.015272,51.471624],[0.015553,51.471102],[0.016189,51.470093],[0.016443,51.469811],[0.016675,51.469495],[0.016336,51.469009],[0.015897,51.469248],[0.015288,51.469457],[0.014256,51.469745],[0.014254,51.469745],[0.014115,51.469743],[0.013631,51.46979],[0.013591,51.469882],[0.013559,51.469881],[0.01337,51.469875],[0.013018,51.469853],[0.012627,51.469807],[0.013139,51.468247],[0.013156,51.468139],[0.013149,51.468082],[0.013131,51.468026],[0.013054,51.467895],[0.012804,51.467668],[0.012757,51.467596],[0.012735,51.467512],[0.012739,51.467483],[-0.102388,51.469403],[-0.099922,51.528715],[0.022534,51.526667],[0.021209,51.496761],[0.020488,51.496973],[0.019802,51.497192],[0.018918,51.497497],[0.018088,51.49785],[0.016937,51.49844],[0.015558,51.499256],[0.015556,51.499257],[0.015077,51.499718],[0.013797,51.500777],[0.012621,51.501657],[0.012619,51.501657],[0.012446,51.501871],[0.011248,51.50291],[0.010587,51.503539],[0.010266,51.503812],[0.009951,51.504079],[0.009675,51.504282],[0.009166,51.504652],[0.00885,51.504865],[0.008607,51.505014],[0.008224,51.505232],[0.007625,51.505511]]]}},
{"type":"Feature","properties":{"Designated":"Outer","Source":"The London Plan consolidated with alterations since 2004","Shape_Leng":386483.894147,"Shape_Area":1266755577.53,"clipped_to_zone":true,"in_cw":false,"whole_in_zone":false},"geometry":{"type":"Polygon","coordinates":[[[0.022534,51.526667],[0.019909,51.467359],[-0.102388,51.469403],[-0.099922,51.528715],[0.022534,51.526667]],[[0.022534,51.526667],[-0.099922,51.528715],[-0.102388,51.469403],[0.012739,51.467483],[0.012735,51.467512],[0.012757,51.467596],[0.012804,51.467668],[0.013054,51.467895],[0.013131,51.468026],[0.013149,51.468082],[0.013156,51.468139],[0.013139,51.468247],[0.012627,51.469807],[0.013018,51.469853],[0.01337,51.469875],[0.013559,51.469881],[0.013591,51.469882],[0.013631,51.46979],[0.014115,51.469743],[0.014254,51.469745],[0.014256,51.469745],[0.015288,51.469457],[0.015897,51.469248],[0.016336,51.469009],[0.016675,51.469495],[0.016443,51.469811],[0.016189,51.470093],[0.015553,51.471102],[0.015272,51.471624],[0.015116,51.472056],[0.014993,51.472418],[0.014929,51.472698],[0.014912,51.472912],[0.014936,51.473093],[0.018355,51.473915],[0.014419,51.473453],[0.014418,51.473453],[0.012114,51.473173],[0.009829,51.472896],[0.005102,51.472389],[0.004057,51.47227],[0.001413,51.471965],[0.000685,51.471881],[-0.000017,51.471825],[-0.000945,51.471803],[-0.00183,51.471851],[-0.002529,51.471948],[-0.005267,51.472343],[-0.007564,51.472621],[-0.008104,51.472681],[-0.008902,51.4727],[-0.008932,51.472698],[-0.010297,51.472553],[-0.011653,51.472389],[-0.012493,51.472341],[-0.012848,51.472352],[-0.013118,51.47237],[-0.013484,51.472407],[-0.014051,51.47264],[-0.014132,51.472578],[-0.014532,51.472113],[-0.014505,51.471893],[-0.014673,51.471887],[-0.01512,51.471731],[-0.014835,51.471399],[-0.014397,51.470672],[-0.014071,51.470119],[-0.014021,51.47005],[-0.013815,51.469782],[-0.013691,51.469656],[-0.013448,51.469379],[-0.013103,51.468937],[-0.01345,51.468767],[-0.014082,51.468472],[-0.014468,51.468308],[-0.014627,51.468234],[-0.015001,51.46804],[-0.015065,51.468036],[-0.015276,51.468151],[-0.015431,51.468262],[-0.015534,51.46833],[-0.015781,51.46848],[-0.015879,51.468549],[-0.016244,51.46886],[-0.016391,51.468996],[-0.016442,51.469049],[-0.016533,51.469228],[-0.016924,51.469056],[-0.017088,51.469248],[-0.017115,51.469299],[-0.017136,51.469342],[-0.017248,51.469411],[-0.017483,51.469433],[-0.017718,51.469462],[-0.017862,51.469478],[-0.018175,51.469526],[-0.018448,51.469605],[-0.018675,51.469713],[-0.019092,51.469949],[-0.018993,51.47006],[-0.018995,51.470062],[-0.019141,51.470251],[-0.019247,51.4705],[-0.019174,51.47055],[-0.019065,51.470587],[-0.019006,51.470611],[-0.018912,51.470525],[-0.018646,51.470646],[-0.018767,51.470748],[-0.018919,51.470879],[-0.018956,51.471063],[-0.018933,51.471069],[-0.018802,51.471102],[-0.018859,51.47119],[-0.018998,51.471138],[-0.019084,51.471229],[-0.019127,51.471468],[-0.01926,51.471938],[-0.019293,51.471986],[-0.01932,51.472011],[-0.019373,51.472047],[-0.019868,51.472028],[-0.019974,51.472042],[-0.020026,51.472056],[-0.020084,51.472079],[-0.020119,51.472098],[-0.020219,51.472185],[-0.020274,51.472287],[-0.020302,51.472371],[-0.020311,51.472417],[-0.02013,51.472613],[-0.020057,51.472677],[-0.020016,51.472725],[-0.01998,51.472782],[-0.019957,51.472848],[-0.019953,51.472922],[-0.019964,51.472988],[-0.019979,51.473018],[-0.020025,51.473083],[-0.020092,51.473124],[-0.0202,51.47316],[-0.020302,51.473174],[-0.020528,51.47317],[-0.020595,51.473184],[-0.020622,51.473198],[-0.02064,51.473214],[-0.02071,51.473348],[-0.020725,51.473411],[-0.020742,51.473445],[-0.020771,51.473483],[-0.020811,51.473521],[-0.020909,51.473589],[-0.021026,51.473662],[-0.021115,51.473706],[-0.021209,51.473744],[-0.021619,51.473876],[-0.021552,51.473934],[-0.021747,51.474026],[-0.021845,51.473948],[-0.021859,51.473952],[-0.022006,51.474016],[-0.022076,51.47404],[-0.022163,51.474061],[-0.022316,51.474086],[-0.022424,51.474087],[-0.022481,51.473967],[-0.022647,51.473986],[-0.022592,51.474088],[-0.022586,51.4741],[-0.02262,51.474271],[-0.022785,51.474283],[-0.022777,51.474464],[-0.022776,51.474533],[-0.022805,51.474731],[-0.022905,51.475082],[-0.022687,51.475284],[-0.022686,51.475286],[-0.022484,51.475296],[-0.022348,51.475337],[-0.02212,51.475418],[-0.021773,51.475437],[-0.021578,51.475432],[-0.021327,51.475426],[-0.02089,51.475507],[-0.020838,51.475524],[-0.020794,51.475544],[-0.020757,51.475568],[-0.020704,51.475612],[-0.02066,51.475662],[-0.020626,51.47573],[-0.020576,51.475875],[-0.020755,51.476278],[-0.020791,51.476337],[-0.020802,51.476378],[-0.020801,51.476418],[-0.020784,51.476461],[-0.020758,51.476499],[-0.020691,51.476552],[-0.020129,51.476885],[-0.019932,51.476951],[-0.019854,51.47699],[-0.019761,51.47702],[-0.01971,51.477028],[-0.019615,51.477032],[-0.019424,51.477018],[-0.01938,51.477021],[-0.019298,51.477035],[-0.019218,51.477056],[-0.019147,51.477088],[-0.019082,51.477129],[-0.019034,51.477173],[-0.019017,51.477196],[-0.019079,51.477695],[-0.019121,51.47792],[-0.019128,51.477998],[-0.019129,51.478072],[-0.019117,51.478207],[-0.01906,51.478501],[-0.019066,51.478618],[-0.019102,51.478784],[-0.019105,51.478947],[-0.019036,51.479194],[-0.019003,51.479343],[-0.018972,51.479406],[-0.018938,51.479452],[-0.018872,51.479517],[-0.018607,51.479713],[-0.018547,51.479778],[-0.018492,51.479817],[-0.018418,51.479855],[-0.018351,51.479878],[-0.018266,51.479896],[-0.017926,51.479917],[-0.017743,51.479919],[-0.017618,51.479926],[-0.017438,51.479944],[-0.017205,51.479985],[-0.01708,51.480032],[-0.017001,51.480076],[-0.016936,51.480126],[-0.016884,51.480183],[-0.016834,51.48028],[-0.016834,51.480288],[-0.017041,51.480381],[-0.01709,51.48041],[-0.017618,51.48072],[-0.017849,51.48088],[-0.018135,51.480859],[-0.018375,51.480849],[-0.018558,51.480817],[-0.018702,51.480784],[-0.018909,51.480727],[-0.020392,51.480231],[-0.020341,51.479936],[-0.022498,51.4797],[-0.023045,51.479629],[-0.023095,51.480242],[-0.023135,51.480738],[-0.024694,51.481197],[-0.026383,51.48151],[-0.026342,51.481577],[-0.026039,51.481829],[-0.025926,51.481944],[-0.025857,51.482044],[-0.025793,51.482189],[-0.025713,51.482573],[-0.025552,51.483435],[-0.025351,51.484084],[-0.025255,51.484496],[-0.025206,51.484848],[-0.025162,51.48509],[-0.024959,51.485399],[-0.024857,51.485554],[-0.023491,51.486823],[-0.022992,51.486576],[-0.021858,51.486092],[-0.021365,51.485894],[-0.021055,51.485775],[-0.019994,51.485388],[-0.019447,51.485224],[-0.018788,51.485045],[-0.018391,51.48495],[-0.017953,51.484863],[-0.017535,51.484794],[-0.016695,51.484676],[-0.014632,51.484577],[-0.01367,51.484573],[-0.01315,51.484563],[-0.012858,51.484569],[-0.012772,51.484571],[-0.012525,51.484576],[-0.012317,51.484587],[-0.011032,51.484679],[-0.010806,51.484705],[-0.01058,51.484733],[-0.008711,51.485112],[-0.006568,51.485596],[-0.006232,51.485684],[-0.005901,51.485782],[-0.005624,51.485872],[-0.005529,51.485906],[-0.005355,51.48597],[-0.005056,51.486088],[-0.004758,51.486217],[-0.004529,51.486324],[-0.003384,51.486903],[-0.002927,51.487145],[-0.002021,51.487771],[-0.001694,51.488094],[-0.001383,51.488421],[-0.001177,51.488699],[-0.000818,51.489384],[-0.000665,51.48966],[-0.000564,51.48992],[-0.000527,51.490047],[-0.000485,51.490246],[-0.000389,51.49139],[-0.000651,51.492161],[-0.000776,51.492556],[-0.000984,51.493103],[-0.001055,51.493315],[-0.00128,51.493675],[-0.001442,51.493956],[-0.0016,51.4942],[-0.00205,51.494625],[-0.002116,51.494692],[-0.002184,51.494777],[-0.002238,51.494855],[-0.002293,51.494958],[-0.002595,51.495387],[-0.003632,51.497123],[-0.003979,51.497616],[-0.004137,51.497925],[-0.004305,51.498272],[-0.00435,51.498379],[-0.00445,51.498636],[-0.004577,51.499003],[-0.004859,51.499999],[-0.005071,51.500786],[-0.005162,51.50097],[-0.00514,51.501072],[-0.005108,51.50136],[-0.00508,51.501489],[-0.005054,51.501574],[-0.005009,51.501678],[-0.004825,51.501956],[-0.004795,51.502112],[-0.004582,51.502581],[-0.004445,51.502839],[-0.004349,51.502997],[-0.00423,51.503175],[-0.0039,51.503632],[-0.0038,51.503747],[-0.003579,51.503963],[-0.003215,51.504407],[-0.003075,51.504553],[-0.00289,51.504721],[-0.002781,51.504809],[-0.002605,51.504938],[-0.002401,51.505103],[-0.002009,51.505357],[-0.001581,51.50565],[-0.001185,51.505882],[-0.00089,51.506032],[-0.000737,51.506098],[-0.000467,51.506194],[-0.000296,51.506243],[0.000019,51.506316],[0.000503,51.506454],[0.00066,51.506488],[0.00098,51.506552],[0.001466,51.506633],[0.00224,51.506735],[0.002812,51.506736],[0.003356,51.506753],[0.003614,51.506751],[0.003814,51.506757],[0.003898,51.506754],[0.003982,51.506746],[0.004173,51.506712],[0.005201,51.506429],[0.005992,51.506163],[0.007348,51.505631],[0.007625,51.505511],[0.008224,51.505232],[0.008607,51.505014],[0.00885,51.504865],[0.009166,51.504652],[0.009675,51.504282],[0.009951,51.504079],[0.010266,51.503812],[0.010587,51.503539],[0.011248,51.50291],[0.012446,51.501871],[0.012619,51.501657],[0.012621,51.501657],[0.013797,51.500777],[0.015077,51.499718],[0.015556,51.499257],[0.015558,51.499256],[0.016937,51.49844],[0.018088,51.49785],[0.018918,51.497497],[0.019802,51.497192],[0.020488,51.496973],[0.021209,51.496761],[0.022534,51.526667]]]}}
]}
