{"type":"FeatureCollection","meta":{
 "source": "London Datastore: Low Carbon Generators (Greater London Authority)",
 "dataset": "2jkzj",
 "page": "https://data.london.gov.uk/dataset/low-carbon-generators-2jkzj",
 "resources": [
  {
   "resource": "cc8592d6-afaa-44ea-a3a6-35770a05acf0",
   "file": "gla-low-carbon-generators.csv",
   "url": "https://data.london.gov.uk/download/2jkzj/cc8592d6-afaa-44ea-a3a6-35770a05acf0/gla-low-carbon-generators.csv",
   "size": 219,
   "resource_date": "2018-11-15",
   "fetched": "2026-10-04"
  }
 ],
 "licence": "Open Government Licence v2",
 "licence_url": "https://www.nationalarchives.gov.uk/doc/open-government-licence/version/2/",
 "attribution": "Contains public sector information licensed under the Open Government Licence v2 (Greater London Authority). The GLA cannot warrant the quality or accuracy of the data (London Datastore terms).",
 "dataset_modified": "2017-08-07",
 "update_frequency": "Annually",
 "geo": "Point Location",
 "theme": "environment",
 "layers": [
  {
   "table": "gla-low-carbon-generators.csv",
   "srs": "per row",
   "columns": [
    "Easting",
    "Northing"
   ],
   "rows_read": 1
  }
 ],
 "crs_source": "EPSG:per row",
 "crs_output": "EPSG:4326 (WGS84), 6 decimal places; BNG to WGS84 through the OS OSTN15 grid (lib.mjs bngProjector)",
 "method": "lds-harvest-auto.mjs run 2jkzj: resources chosen by the written rules (harvest-log.json meta.rules: formats, dedupe, caps); every feature read (GeoPackage, GeoJSON, shapefile, or table rows with coordinate columns as points, the CRS judged per row by value); a feature is kept when it meets the zone (the 3D model box, BNG E 532400-539900, N 176700-182300): a vertex inside, an edge crossing or the box inside a polygon; whole geometries kept, whole_in_zone and in_cw added; WGS84 6 decimals through OSTN15; contact fields dropped.",
 "counts": {
  "source_features": 1,
  "no_geometry": 0,
  "in_zone": 1,
  "in_cw": 0,
  "table_rows_read": 1,
  "note": "features made from table rows: source_features counts the zone rows only; table_rows_read counts every row read"
 },
 "attributes_in_source": "yes",
 "fields_dropped": [],
 "harvest_rules": "tools/lds-harvest-auto.mjs AUTO_RULES (feeds/london-datastore/harvest-log.json meta.rules)",
 "selection_notes": [
  "1 format variants of a picked stem not read"
 ]
},
"features":[
{"type":"Feature","properties":{"Name":"City Hall","Address":"The Queen's Walk, London","Postcode":"SE1 2AA","PV":1,"PV_power":"67.0kWp","CHP":0,"CHP_power":0,"WT":0,"WT_power":0,"STU":0,"STU_power":0,"Easting":533420,"Northing":180200,"Longitude_WGS84":-0.079,"Latitude_WGS84":51.505,"in_cw":false,"whole_in_zone":true},"geometry":{"type":"Point","coordinates":[-0.079007,51.504993]}}
]}
