{"type":"FeatureCollection","meta":{
 "source": "London Datastore: Opportunity Areas (Planning Constraints Map)",
 "dataset": "epr7z",
 "page": "https://data.london.gov.uk/dataset/opportunity-areas-epr7z",
 "resources": [
  {
   "resource": "e2f069be-1ae6-491d-958a-d29d7155daa7",
   "file": "Opportunity_Areas.zip",
   "url": "https://data.london.gov.uk/download/epr7z/e2f069be-1ae6-491d-958a-d29d7155daa7/Opportunity_Areas.zip",
   "size": 140272,
   "resource_date": "2025-08-27",
   "fetched": "2026-10-04"
  }
 ],
 "licence": "Open Government Licence v3",
 "licence_url": "https://www.nationalarchives.gov.uk/doc/open-government-licence/version/3/",
 "attribution": "Contains public sector information licensed under the Open Government Licence v3 (Planning Constraints Map). The GLA cannot warrant the quality or accuracy of the data (London Datastore terms).",
 "dataset_modified": "2025-12-23",
 "update_frequency": null,
 "geo": "Custom Polygons",
 "theme": "buildings-places",
 "layers": [
  {
   "table": "adopted_opportunity_areas",
   "srs": 27700
  }
 ],
 "crs_source": "EPSG:27700",
 "crs_output": "EPSG:4326 (WGS84), 6 decimal places; BNG to WGS84 through the OS OSTN15 grid (lib.mjs bngProjector)",
 "method": "walk-london-datastore.mjs harvest opportunity-areas: download the newest matching resource (shpzip); read every feature; keep a feature whose geometry meets the zone (the 3D model box, BNG E 532400-539900, N 176700-182300; WGS84 -0.095, 51.474, 0.015, 51.522): a vertex inside, an edge crossing the box or the box inside a polygon. Whole geometries are kept (not cut at the box): whole_in_zone says whether all of it lies inside. in_cw: the geometry meets the Canary Wharf registry box -0.03, 51.498, -0.005, 51.51. Source attributes kept as published except fields matching e-?mail|phone|tel(ephone)?$|^tel|contact|^fax|mobile|website_contact|^owner_?name|person. uprn_suspect: a UPRN field that a spreadsheet rounded (an exponent, or 9+ digits ending in 5+ zeros); not a key (fault F22).",
 "counts": {
  "source_features": 35,
  "no_geometry": 0,
  "in_zone": 11,
  "in_cw": 2,
  "with_uprn": 0,
  "uprn_suspect": 0
 },
 "attributes_in_source": "yes",
 "fields_dropped": []
},
"features":[
{"type":"Feature","properties":{"objectid":1,"layerrefer":"OPA00000001","siterefere":"3","sitename":"Canada Water","address":null,"uprn":null,"borough":"Southwark","planning_a":null,"firstadded":null,"lastupdate":null,"removeddat":null,"status":"Adopted","hectares":310.982,"easting":535913,"northing":179657,"designatio":"Opportunity Area","boroughdes":null,"classifica":null,"notes":"Please note the GLA does not define boundaries. This OA has been adopted and its boundary finalised by the OAPF team. For further information please contact the Planning Data Team or the relevant Plan","source":"https://www.london.gov.uk/what-we-do/planning/implementing-london-plan/opportunity-areas/oa-monitoring/canada-water-opportunity-area","extrainfo1":"Document type: AAP","extrainfo2":"London Plan designation year: 2016","extrainfo3":"Relevant documents: Southwark Local Plan (2022), Canada Water AAP (2015)","missing":null,"gdb_geomat":null,"in_cw":true,"whole_in_zone":true},"geometry":{"type":"Polygon","coordinates":[[[-0.058939,51.497296],[-0.059221,51.497488],[-0.059314,51.498331],[-0.058562,51.498361],[-0.058564,51.498374],[-0.058572,51.498407],[-0.058573,51.498416],[-0.058577,51.498433],[-0.058581,51.498452],[-0.058585,51.498469],[-0.058612,51.498585],[-0.058661,51.498803],[-0.058521,51.498818],[-0.058405,51.498831],[-0.058742,51.499529],[-0.058751,51.499548],[-0.058761,51.499568],[-0.05789,51.499715],[-0.05871,51.501806],[-0.05737,51.502002],[-0.057022,51.502075],[-0.056787,51.502146],[-0.056629,51.502191],[-0.056377,51.502258],[-0.055446,51.502524],[-0.054867,51.502761],[-0.05385,51.503321],[-0.053055,51.503769],[-0.05252,51.504068],[-0.051443,51.504639],[-0.051004,51.504876],[-0.048979,51.506107],[-0.048659,51.506299],[-0.048245,51.506541],[-0.047071,51.507128],[-0.046697,51.50733],[-0.045675,51.507829],[-0.045508,51.507908],[-0.045024,51.508087],[-0.044832,51.508154],[-0.044564,51.508232],[-0.044366,51.508269],[-0.044106,51.508316],[-0.043936,51.508341],[-0.04362,51.508397],[-0.043307,51.508434],[-0.042984,51.508462],[-0.042193,51.508577],[-0.040998,51.508634],[-0.039156,51.508579],[-0.038936,51.508572],[-0.038635,51.508554],[-0.038316,51.50854],[-0.037798,51.508487],[-0.037473,51.508412],[-0.037213,51.508358],[-0.036255,51.508178],[-0.034263,51.507673],[-0.032447,51.507042],[-0.031866,51.506786],[-0.031049,51.506363],[-0.030902,51.506269],[-0.030795,51.506187],[-0.030706,51.50611],[-0.030622,51.506035],[-0.030582,51.505979],[-0.030483,51.505905],[-0.030285,51.505711],[-0.030096,51.505473],[-0.029906,51.505246],[-0.029762,51.504964],[-0.029636,51.504655],[-0.029572,51.504359],[-0.029565,51.504195],[-0.029502,51.503983],[-0.029494,51.503673],[-0.02948,51.503478],[-0.029415,51.50313],[-0.029359,51.502835],[-0.029367,51.502476],[-0.029387,51.502279],[-0.029486,51.501767],[-0.029506,51.50139],[-0.029534,51.501205],[-0.029572,51.500923],[-0.02964,51.500619],[-0.029685,51.500325],[-0.029717,51.500153],[-0.029731,51.500063],[-0.029771,51.499863],[-0.029813,51.499671],[-0.029867,51.499388],[-0.029888,51.499282],[-0.029923,51.499072],[-0.03,51.498505],[-0.030035,51.49811],[-0.030041,51.497696],[-0.030077,51.497405],[-0.030105,51.497206],[-0.030133,51.496909],[-0.030157,51.496618],[-0.030181,51.496419],[-0.030192,51.495741],[-0.030132,51.494553],[-0.030081,51.494295],[-0.030039,51.494113],[-0.029897,51.493534],[-0.030159,51.493486],[-0.030484,51.493428],[-0.030732,51.493386],[-0.031203,51.493298],[-0.031518,51.493237],[-0.031831,51.493166],[-0.032093,51.493101],[-0.03241,51.493037],[-0.032689,51.492923],[-0.033261,51.492828],[-0.03332,51.492934],[-0.033938,51.492799],[-0.036071,51.492421],[-0.037233,51.492169],[-0.037292,51.492154],[-0.037563,51.492154],[-0.037587,51.492195],[-0.037651,51.4922],[-0.037816,51.492235],[-0.038011,51.492297],[-0.038107,51.492334],[-0.038241,51.492395],[-0.038381,51.492484],[-0.038852,51.492806],[-0.038951,51.492845],[-0.039096,51.492895],[-0.039321,51.492942],[-0.039586,51.492956],[-0.039664,51.492957],[-0.039791,51.492946],[-0.039888,51.49293],[-0.040027,51.492901],[-0.040182,51.492861],[-0.040346,51.492806],[-0.040515,51.492762],[-0.041811,51.492396],[-0.044084,51.491921],[-0.044054,51.491863],[-0.043964,51.491785],[-0.044406,51.491594],[-0.044109,51.491375],[-0.04449,51.491149],[-0.044647,51.491252],[-0.044898,51.491566],[-0.045197,51.491533],[-0.045257,51.491608],[-0.045385,51.491694],[-0.0455,51.491731],[-0.046218,51.491696],[-0.049865,51.4911],[-0.050411,51.4911],[-0.05061,51.4911],[-0.051021,51.4911],[-0.051156,51.491111],[-0.05122,51.491143],[-0.05126,51.491207],[-0.051219,51.49129],[-0.051065,51.491411],[-0.050784,51.491635],[-0.051661,51.491634],[-0.051663,51.491649],[-0.051775,51.49165],[-0.052154,51.491645],[-0.0529,51.491653],[-0.053636,51.491646],[-0.05389,51.491723],[-0.054089,51.491728],[-0.054188,51.491805],[-0.054464,51.49203],[-0.054668,51.492062],[-0.054917,51.492271],[-0.055414,51.492678],[-0.055604,51.492845],[-0.055861,51.493051],[-0.057016,51.494001],[-0.057629,51.493826],[-0.057601,51.493975],[-0.05768,51.494156],[-0.057875,51.494303],[-0.058414,51.49451],[-0.05929,51.495005],[-0.059147,51.495003],[-0.058659,51.494995],[-0.058543,51.495005],[-0.058026,51.495167],[-0.057757,51.495151],[-0.057872,51.495413],[-0.058436,51.495432],[-0.05849,51.495629],[-0.058544,51.49577],[-0.058637,51.496037],[-0.058678,51.49615],[-0.058714,51.496297],[-0.058756,51.496497],[-0.05882,51.496736],[-0.058849,51.496881],[-0.058875,51.497011],[-0.058939,51.497296]]]}},
{"type":"Feature","properties":{"objectid":3,"layerrefer":"OPA00000003","siterefere":"5","sitename":"City Fringe/Tech City","address":null,"uprn":null,"borough":"Hackney, Islington, Tower Hamlets","planning_a":null,"firstadded":null,"lastupdate":null,"removeddat":null,"status":"Adopted","hectares":911.024,"easting":534000,"northing":182835,"designatio":"Opportunity Area","boroughdes":null,"classifica":null,"notes":"Please note the GLA does not define boundaries. This OA has been adopted and its boundary finalised by the OAPF team. For further information please contact the Planning Data Team or the relevant Plan","source":"https://www.london.gov.uk/what-we-do/planning/implementing-london-plan/opportunity-areas/oa-monitoring/city-fringe-opportunity-area","extrainfo1":"Document type: OAPF","extrainfo2":"London Plan designation year: 2004","extrainfo3":"Relevant documents: City Fringe OAPF (2015)","missing":null,"gdb_geomat":null,"in_cw":false,"whole_in_zone":false},"geometry":{"type":"Polygon","coordinates":[[[-0.091363,51.528164],[-0.091321,51.528186],[-0.091714,51.528295],[-0.09394,51.52887],[-0.094339,51.530059],[-0.094352,51.530098],[-0.094633,51.530064],[-0.094906,51.530039],[-0.094934,51.530026],[-0.095,51.53002],[-0.095022,51.530023],[-0.095069,51.530027],[-0.095105,51.530083],[-0.095154,51.530173],[-0.095207,51.53028],[-0.095259,51.530378],[-0.095398,51.530613],[-0.095558,51.530845],[-0.095763,51.531143],[-0.096087,51.531627],[-0.096364,51.53203],[-0.096465,51.532176],[-0.096372,51.532206],[-0.095827,51.532363],[-0.095607,51.532398],[-0.095724,51.532558],[-0.096015,51.532957],[-0.096065,51.533026],[-0.096073,51.533025],[-0.096067,51.533028],[-0.096067,51.533036],[-0.096065,51.533038],[-0.096062,51.533044],[-0.09606,51.533046],[-0.096051,51.533053],[-0.096049,51.533054],[-0.096044,51.533057],[-0.09598,51.533082],[-0.095822,51.533143],[-0.09581,51.533149],[-0.095795,51.533154],[-0.095782,51.533158],[-0.09578,51.533159],[-0.094188,51.533809],[-0.094189,51.533813],[-0.094085,51.533851],[-0.093306,51.534044],[-0.08972,51.53575],[-0.089737,51.535765],[-0.089737,51.535765],[-0.089742,51.535777],[-0.089721,51.535807],[-0.08972,51.535808],[-0.089695,51.535817],[-0.089657,51.535832],[-0.089658,51.535833],[-0.089457,51.535915],[-0.089453,51.535916],[-0.089451,51.535914],[-0.089421,51.535928],[-0.089392,51.53594],[-0.089377,51.535929],[-0.089085,51.536067],[-0.089091,51.536085],[-0.08884,51.536216],[-0.088792,51.536221],[-0.088442,51.53638],[-0.088385,51.536385],[-0.086349,51.537425],[-0.08636,51.537447],[-0.086044,51.538343],[-0.085123,51.538243],[-0.085139,51.538179],[-0.085233,51.537838],[-0.084903,51.537816],[-0.081379,51.537268],[-0.081353,51.53742],[-0.081112,51.537396],[-0.080919,51.537374],[-0.080422,51.537314],[-0.079711,51.537218],[-0.07916,51.537141],[-0.079075,51.537471],[-0.079021,51.537661],[-0.078999,51.537745],[-0.078812,51.538393],[-0.078703,51.538768],[-0.078636,51.538998],[-0.078617,51.539006],[-0.078435,51.539],[-0.07809,51.538979],[-0.078091,51.538975],[-0.077136,51.538918],[-0.077135,51.538924],[-0.076866,51.538909],[-0.076857,51.538902],[-0.076554,51.538861],[-0.076545,51.539356],[-0.076508,51.539354],[-0.076059,51.544144],[-0.076049,51.544201],[-0.075999,51.544583],[-0.075962,51.544809],[-0.075938,51.544969],[-0.075921,51.545041],[-0.076059,51.545061],[-0.076349,51.545088],[-0.07635,51.545086],[-0.078513,51.545315],[-0.0785,51.545368],[-0.078468,51.545396],[-0.078437,51.545447],[-0.078406,51.545559],[-0.07838,51.545555],[-0.077846,51.545497],[-0.077827,51.545495],[-0.077653,51.545476],[-0.077471,51.545457],[-0.077455,51.545456],[-0.077459,51.54544],[-0.077366,51.545431],[-0.077276,51.545421],[-0.077169,51.545411],[-0.077099,51.545698],[-0.077159,51.54571],[-0.077205,51.545715],[-0.077264,51.54572],[-0.077254,51.545758],[-0.077251,51.545768],[-0.077247,51.54578],[-0.077247,51.545782],[-0.077245,51.545789],[-0.077237,51.545815],[-0.077233,51.545834],[-0.077173,51.545829],[-0.077107,51.545828],[-0.077117,51.545835],[-0.077141,51.545861],[-0.077145,51.546104],[-0.077073,51.546101],[-0.076699,51.546079],[-0.076643,51.546156],[-0.076635,51.546165],[-0.076628,51.546174],[-0.07662,51.546182],[-0.076608,51.546189],[-0.076598,51.546193],[-0.076444,51.546269],[-0.076324,51.54632],[-0.076306,51.546369],[-0.076313,51.54641],[-0.076324,51.546506],[-0.07638,51.547057],[-0.076381,51.547062],[-0.076382,51.547079],[-0.076325,51.547185],[-0.076423,51.547456],[-0.076489,51.547653],[-0.076562,51.547812],[-0.076672,51.548106],[-0.076858,51.548412],[-0.076948,51.548562],[-0.076994,51.548623],[-0.077071,51.548727],[-0.077221,51.548917],[-0.077109,51.548928],[-0.076937,51.548939],[-0.076937,51.548998],[-0.076957,51.549158],[-0.077153,51.549312],[-0.076545,51.549389],[-0.075988,51.549458],[-0.075959,51.549459],[-0.075927,51.549464],[-0.075852,51.549472],[-0.075852,51.549481],[-0.075867,51.549481],[-0.075863,51.549532],[-0.07576,51.549527],[-0.075757,51.549573],[-0.075758,51.549608],[-0.075772,51.549695],[-0.075777,51.549711],[-0.075782,51.549863],[-0.075776,51.549932],[-0.075734,51.549934],[-0.075733,51.549988],[-0.075697,51.549987],[-0.075676,51.550221],[-0.075658,51.550385],[-0.075653,51.550452],[-0.07557,51.550479],[-0.075531,51.550494],[-0.075487,51.550507],[-0.075462,51.550515],[-0.075407,51.550531],[-0.075385,51.550539],[-0.075342,51.550553],[-0.075153,51.550586],[-0.075152,51.550621],[-0.074963,51.550654],[-0.074785,51.550675],[-0.074765,51.55062],[-0.074723,51.5505],[-0.074665,51.550323],[-0.074682,51.550115],[-0.074698,51.550117],[-0.074706,51.550067],[-0.074658,51.550065],[-0.07438,51.550055],[-0.074101,51.550043],[-0.074118,51.549818],[-0.074105,51.549689],[-0.074138,51.549519],[-0.074163,51.549359],[-0.074165,51.549327],[-0.074177,51.549327],[-0.074265,51.548922],[-0.074292,51.54881],[-0.074302,51.548776],[-0.074311,51.548733],[-0.074312,51.548699],[-0.074317,51.548592],[-0.07418,51.548518],[-0.074031,51.548457],[-0.073836,51.548607],[-0.073755,51.548561],[-0.07362,51.54848],[-0.073522,51.548422],[-0.073197,51.548469],[-0.073106,51.548483],[-0.073047,51.548492],[-0.072903,51.548511],[-0.072805,51.548512],[-0.072562,51.548509],[-0.072151,51.548509],[-0.071782,51.548509],[-0.071456,51.548509],[-0.07145,51.548433],[-0.071026,51.54844],[-0.070907,51.548443],[-0.070782,51.54844],[-0.0708,51.548653],[-0.070392,51.548666],[-0.070278,51.548055],[-0.070096,51.548056],[-0.069606,51.548072],[-0.069605,51.548064],[-0.068824,51.548039],[-0.068812,51.548012],[-0.06895,51.547761],[-0.068936,51.547759],[-0.068816,51.547752],[-0.068758,51.547747],[-0.068641,51.547737],[-0.06839,51.547738],[-0.068108,51.547738],[-0.068106,51.547722],[-0.067914,51.547714],[-0.067839,51.547711],[-0.067775,51.547709],[-0.067708,51.547706],[-0.06769,51.547705],[-0.067641,51.547703],[-0.067574,51.5477],[-0.067477,51.547697],[-0.067147,51.547682],[-0.067145,51.547682],[-0.067137,51.547682],[-0.06713,51.54768],[-0.067122,51.547677],[-0.067118,51.547674],[-0.067113,51.547671],[-0.067109,51.547666],[-0.067107,51.547661],[-0.066934,51.547644],[-0.066639,51.54763],[-0.066423,51.547621],[-0.066372,51.547619],[-0.066153,51.547609],[-0.066116,51.547607],[-0.065765,51.547591],[-0.065664,51.547587],[-0.065603,51.547584],[-0.065541,51.547581],[-0.065479,51.547578],[-0.065418,51.547575],[-0.065356,51.547572],[-0.065297,51.54757],[-0.065209,51.547566],[-0.065187,51.547565],[-0.064905,51.547552],[-0.064724,51.547544],[-0.064686,51.547542],[-0.064631,51.54754],[-0.064417,51.547521],[-0.064007,51.547504],[-0.063833,51.547495],[-0.063821,51.547494],[-0.063673,51.547486],[-0.063622,51.547484],[-0.063585,51.547483],[-0.06332,51.547388],[-0.063326,51.547396],[-0.063152,51.54742],[-0.0631,51.547421],[-0.06306,51.547421],[-0.063005,51.547422],[-0.062874,51.547425],[-0.062816,51.547426],[-0.06281,51.547426],[-0.062652,51.547416],[-0.062623,51.547415],[-0.062567,51.547411],[-0.062534,51.54741],[-0.062297,51.547397],[-0.06221,51.547392],[-0.062024,51.547398],[-0.061992,51.5474],[-0.06194,51.547401],[-0.061922,51.547402],[-0.061921,51.547399],[-0.06183,51.547395],[-0.061694,51.547385],[-0.061644,51.547381],[-0.06161,51.547381],[-0.061584,51.547378],[-0.061539,51.547375],[-0.061423,51.547367],[-0.061205,51.547351],[-0.060968,51.547336],[-0.06045,51.547304],[-0.06042,51.547252],[-0.060132,51.547247],[-0.060009,51.547254],[-0.059908,51.547249],[-0.059876,51.547247],[-0.059876,51.547247],[-0.05957,51.547223],[-0.060018,51.547798],[-0.059811,51.548188],[-0.060477,51.547973],[-0.061097,51.549029],[-0.060594,51.549256],[-0.060558,51.549277],[-0.060416,51.549352],[-0.060188,51.549479],[-0.060189,51.549484],[-0.060238,51.549489],[-0.059727,51.549656],[-0.059695,51.549668],[-0.059666,51.54968],[-0.059636,51.549692],[-0.059586,51.549712],[-0.059561,51.549724],[-0.059556,51.549729],[-0.059553,51.549732],[-0.059551,51.549735],[-0.059551,51.549739],[-0.059437,51.549807],[-0.059426,51.54981],[-0.059416,51.549813],[-0.059409,51.549817],[-0.059406,51.54982],[-0.059401,51.549823],[-0.059394,51.549831],[-0.059384,51.549841],[-0.059379,51.549848],[-0.059375,51.549855],[-0.059371,51.549862],[-0.059367,51.549869],[-0.059362,51.549876],[-0.059358,51.549883],[-0.059332,51.549924],[-0.059075,51.550513],[-0.058173,51.55062],[-0.058109,51.550453],[-0.05797,51.549952],[-0.057502,51.549985],[-0.057498,51.549984],[-0.057368,51.550004],[-0.057323,51.54983],[-0.057116,51.549854],[-0.057106,51.549558],[-0.054813,51.549537],[-0.05532,51.55078],[-0.055327,51.550796],[-0.055344,51.550835],[-0.055361,51.550877],[-0.055379,51.55092],[-0.055395,51.550955],[-0.055412,51.550995],[-0.055429,51.551038],[-0.055446,51.551077],[-0.055462,51.551115],[-0.05548,51.551158],[-0.055496,51.551196],[-0.055514,51.551238],[-0.055529,51.551275],[-0.055551,51.551326],[-0.055564,51.551356],[-0.055573,51.551377],[-0.055584,51.551404],[-0.054561,51.551582],[-0.054393,51.551604],[-0.05439,51.551606],[-0.054377,51.551615],[-0.054356,51.551622],[-0.054321,51.551628],[-0.054251,51.551641],[-0.054138,51.551663],[-0.053949,51.551696],[-0.053816,51.55172],[-0.053806,51.551722],[-0.053794,51.551723],[-0.053786,51.551723],[-0.053778,51.551723],[-0.053766,51.551722],[-0.053756,51.55172],[-0.053746,51.551718],[-0.053736,51.551713],[-0.053729,51.551709],[-0.053725,51.551704],[-0.053723,51.551699],[-0.053702,51.551644],[-0.053689,51.551607],[-0.05369,51.551607],[-0.053349,51.550651],[-0.053061,51.550137],[-0.052513,51.548898],[-0.052363,51.548518],[-0.05223,51.548357],[-0.052092,51.548191],[-0.052027,51.54811],[-0.051944,51.548062],[-0.051861,51.548016],[-0.051506,51.547535],[-0.051434,51.547437],[-0.051434,51.547437],[-0.051325,51.547439],[-0.05128,51.547441],[-0.051093,51.54744],[-0.051067,51.547443],[-0.051006,51.547449],[-0.050929,51.547452],[-0.050858,51.547453],[-0.050639,51.547452],[-0.050566,51.547452],[-0.050492,51.547451],[-0.050349,51.547445],[-0.050142,51.547433],[-0.049879,51.547414],[-0.049772,51.547406],[-0.049367,51.547395],[-0.049256,51.547411],[-0.049029,51.547403],[-0.048894,51.547398],[-0.048771,51.547394],[-0.048525,51.547385],[-0.048335,51.547379],[-0.048206,51.547374],[-0.047997,51.547366],[-0.047959,51.547365],[-0.047815,51.547953],[-0.047147,51.547953],[-0.047141,51.547933],[-0.046713,51.547502],[-0.04658,51.547324],[-0.046329,51.547173],[-0.046002,51.547183],[-0.045975,51.547112],[-0.04583,51.54694],[-0.045716,51.546774],[-0.045688,51.54674],[-0.045683,51.546742],[-0.045663,51.546717],[-0.045623,51.546666],[-0.045606,51.546644],[-0.045543,51.546561],[-0.045531,51.546546],[-0.045518,51.54653],[-0.045509,51.546519],[-0.045503,51.546511],[-0.045477,51.546478],[-0.045473,51.546473],[-0.045444,51.546434],[-0.045641,51.546387],[-0.045791,51.54635],[-0.045792,51.546347],[-0.045908,51.546319],[-0.045907,51.546317],[-0.045936,51.54631],[-0.045992,51.546296],[-0.045997,51.546296],[-0.046314,51.546219],[-0.046491,51.546176],[-0.046513,51.54617],[-0.046553,51.546233],[-0.046568,51.546259],[-0.046584,51.546286],[-0.046602,51.546314],[-0.046616,51.546337],[-0.046646,51.546385],[-0.046659,51.546405],[-0.046663,51.546413],[-0.046668,51.546422],[-0.04668,51.546436],[-0.046691,51.546448],[-0.046713,51.546476],[-0.04673,51.546497],[-0.046734,51.546505],[-0.046741,51.546512],[-0.046749,51.54651],[-0.046763,51.546509],[-0.046775,51.54651],[-0.046785,51.546511],[-0.046799,51.546512],[-0.046804,51.546513],[-0.04681,51.546516],[-0.046814,51.546521],[-0.046815,51.546523],[-0.046832,51.546542],[-0.046839,51.546551],[-0.046868,51.546581],[-0.046877,51.546591],[-0.046903,51.546616],[-0.04691,51.546626],[-0.046925,51.546637],[-0.046937,51.546644],[-0.046946,51.546649],[-0.046959,51.546659],[-0.046964,51.546663],[-0.046965,51.546665],[-0.046967,51.54667],[-0.047004,51.546691],[-0.04706,51.546723],[-0.047092,51.546741],[-0.047092,51.546774],[-0.047108,51.54678],[-0.047137,51.546791],[-0.047153,51.546797],[-0.047229,51.546819],[-0.047243,51.546824],[-0.047333,51.546854],[-0.047379,51.54687],[-0.047496,51.546908],[-0.047552,51.546926],[-0.047982,51.546875],[-0.048002,51.546869],[-0.048009,51.546868],[-0.048063,51.546864],[-0.048082,51.546863],[-0.048162,51.546868],[-0.048231,51.546873],[-0.048256,51.546876],[-0.048359,51.546885],[-0.048411,51.546886],[-0.04857,51.546916],[-0.048638,51.546929],[-0.048739,51.546952],[-0.048756,51.546932],[-0.048822,51.546842],[-0.048859,51.546824],[-0.048836,51.54674],[-0.048945,51.54674],[-0.049018,51.546739],[-0.049057,51.546741],[-0.049078,51.54674],[-0.049086,51.54678],[-0.049196,51.546776],[-0.049248,51.546775],[-0.049257,51.546774],[-0.04941,51.546767],[-0.049403,51.546718],[-0.049518,51.54671],[-0.049627,51.546763],[-0.049588,51.546798],[-0.049584,51.5468],[-0.049581,51.546802],[-0.04958,51.546804],[-0.049581,51.546806],[-0.049581,51.546807],[-0.049582,51.546809],[-0.049585,51.546811],[-0.049589,51.546812],[-0.049593,51.546811],[-0.049594,51.546811],[-0.049698,51.5468],[-0.049692,51.546776],[-0.049941,51.54675],[-0.049984,51.546746],[-0.050042,51.54674],[-0.050036,51.546718],[-0.050136,51.546708],[-0.050148,51.546751],[-0.050746,51.546684],[-0.050878,51.54667],[-0.050887,51.546688],[-0.05089,51.546686],[-0.050898,51.546682],[-0.050903,51.546679],[-0.050907,51.546676],[-0.050911,51.546673],[-0.050914,51.546668],[-0.050914,51.546666],[-0.051125,51.546642],[-0.051117,51.546604],[-0.051058,51.546298],[-0.051045,51.546231],[-0.051026,51.546128],[-0.051022,51.546109],[-0.051015,51.546074],[-0.051015,51.546072],[-0.050994,51.545962],[-0.050983,51.545897],[-0.050969,51.545825],[-0.050963,51.54579],[-0.050955,51.545744],[-0.050951,51.545721],[-0.050947,51.545703],[-0.050945,51.54569],[-0.050942,51.545675],[-0.050939,51.545658],[-0.050935,51.545636],[-0.051534,51.545564],[-0.05156,51.545638],[-0.051676,51.545993],[-0.051695,51.545991],[-0.051709,51.546028],[-0.051927,51.545998],[-0.05205,51.546379],[-0.052105,51.546543],[-0.052136,51.546563],[-0.052254,51.546545],[-0.052192,51.546354],[-0.051956,51.545638],[-0.0519,51.54546],[-0.051747,51.54497],[-0.051732,51.544923],[-0.051779,51.544912],[-0.052295,51.544811],[-0.052299,51.54481],[-0.052315,51.544806],[-0.052317,51.544806],[-0.052329,51.544803],[-0.052344,51.544801],[-0.052359,51.544799],[-0.052374,51.544797],[-0.052405,51.544795],[-0.05242,51.544795],[-0.052451,51.544796],[-0.052482,51.544798],[-0.052507,51.544801],[-0.052524,51.544803],[-0.05254,51.544806],[-0.052593,51.544816],[-0.05262,51.544821],[-0.052698,51.544839],[-0.052746,51.54485],[-0.052806,51.544862],[-0.052854,51.54487],[-0.052889,51.544875],[-0.052915,51.544877],[-0.05293,51.544877],[-0.052943,51.544877],[-0.052969,51.544876],[-0.052996,51.544873],[-0.053016,51.544872],[-0.053036,51.544869],[-0.053292,51.544831],[-0.053451,51.544769],[-0.053624,51.544741],[-0.053812,51.544715],[-0.054059,51.544681],[-0.054426,51.544629],[-0.054447,51.544626],[-0.054495,51.544619],[-0.054505,51.544618],[-0.054584,51.54458],[-0.054664,51.544501],[-0.054552,51.544073],[-0.05455,51.544019],[-0.054527,51.543989],[-0.054744,51.543967],[-0.054824,51.543958],[-0.054875,51.543952],[-0.054878,51.543952],[-0.054927,51.543947],[-0.054928,51.543947],[-0.05498,51.543941],[-0.055032,51.543936],[-0.055183,51.543921],[-0.055208,51.543919],[-0.055216,51.543917],[-0.055225,51.543918],[-0.055233,51.543919],[-0.055238,51.54392],[-0.055245,51.543923],[-0.055252,51.543927],[-0.055255,51.54393],[-0.055259,51.543939],[-0.055457,51.543918],[-0.055487,51.543589],[-0.055517,51.543555],[-0.055503,51.543296],[-0.055513,51.543216],[-0.055513,51.543182],[-0.0555,51.542967],[-0.055492,51.54292],[-0.055471,51.542702],[-0.05543,51.542577],[-0.055427,51.542495],[-0.055423,51.542401],[-0.05542,51.542355],[-0.055407,51.542109],[-0.055403,51.541871],[-0.05539,51.541526],[-0.055382,51.541292],[-0.055373,51.540962],[-0.055371,51.540857],[-0.05537,51.54085],[-0.055373,51.540821],[-0.055193,51.540556],[-0.054918,51.54049],[-0.054927,51.540475],[-0.054433,51.540324],[-0.054436,51.540271],[-0.054442,51.540243],[-0.054445,51.540248],[-0.054481,51.540242],[-0.054492,51.540241],[-0.054514,51.540237],[-0.05454,51.540233],[-0.054544,51.540223],[-0.054612,51.540194],[-0.054652,51.540187],[-0.054693,51.540164],[-0.054716,51.540149],[-0.05477,51.540051],[-0.054758,51.539983],[-0.054855,51.53993],[-0.054852,51.53985],[-0.054852,51.539816],[-0.054849,51.539783],[-0.054846,51.539736],[-0.054548,51.539773],[-0.054488,51.539783],[-0.054429,51.539635],[-0.054391,51.539544],[-0.054358,51.539461],[-0.054306,51.539332],[-0.054141,51.539368],[-0.053996,51.539428],[-0.053787,51.539454],[-0.053452,51.539499],[-0.053211,51.539531],[-0.053212,51.539533],[-0.053078,51.539552],[-0.053139,51.53971],[-0.053256,51.540007],[-0.053177,51.540021],[-0.053177,51.54002],[-0.053131,51.54003],[-0.05275,51.540092],[-0.052699,51.539964],[-0.052606,51.539734],[-0.052521,51.539525],[-0.052452,51.539358],[-0.052417,51.539279],[-0.052372,51.539181],[-0.052299,51.539012],[-0.052253,51.5389],[-0.05261,51.538828],[-0.052613,51.538832],[-0.05273,51.538812],[-0.052768,51.538806],[-0.052798,51.538801],[-0.052813,51.538826],[-0.052883,51.538818],[-0.052907,51.538815],[-0.052907,51.538818],[-0.053119,51.538795],[-0.053407,51.538763],[-0.054099,51.538685],[-0.054308,51.538661],[-0.054396,51.538649],[-0.054526,51.538636],[-0.054614,51.538633],[-0.054717,51.538632],[-0.054788,51.538634],[-0.054851,51.538637],[-0.054987,51.538642],[-0.055271,51.538652],[-0.055274,51.538435],[-0.055274,51.538165],[-0.055277,51.537998],[-0.055275,51.537944],[-0.055687,51.537934],[-0.055697,51.53799],[-0.056245,51.53775],[-0.056276,51.537302],[-0.057018,51.537347],[-0.057163,51.536433],[-0.057163,51.536429],[-0.057163,51.536425],[-0.057165,51.536412],[-0.057171,51.536383],[-0.057177,51.536361],[-0.057187,51.536328],[-0.057195,51.536303],[-0.057227,51.536146],[-0.057229,51.536132],[-0.057232,51.536108],[-0.057234,51.536081],[-0.057236,51.536061],[-0.057239,51.536033],[-0.05724,51.536011],[-0.057242,51.535979],[-0.057247,51.535956],[-0.05725,51.535937],[-0.057252,51.535927],[-0.057257,51.535915],[-0.05726,51.535908],[-0.057272,51.535658],[-0.057269,51.535637],[-0.057268,51.535629],[-0.057291,51.535194],[-0.057291,51.535188],[-0.057292,51.535107],[-0.057303,51.534934],[-0.057367,51.53495],[-0.05722,51.534422],[-0.055784,51.534859],[-0.055317,51.534982],[-0.054838,51.535059],[-0.054281,51.535101],[-0.053861,51.53503],[-0.053858,51.534925],[-0.05406,51.534817],[-0.054049,51.534598],[-0.054026,51.534471],[-0.055425,51.534149],[-0.056521,51.533914],[-0.057235,51.53387],[-0.057238,51.533726],[-0.057222,51.533554],[-0.057811,51.533521],[-0.057382,51.533545],[-0.057382,51.533499],[-0.057276,51.532923],[-0.057243,51.53274],[-0.057121,51.532417],[-0.057073,51.532279],[-0.057021,51.532089],[-0.056995,51.531998],[-0.056984,51.531936],[-0.056965,51.531875],[-0.056943,51.531807],[-0.05693,51.53175],[-0.056903,51.531691],[-0.056883,51.531624],[-0.056867,51.531558],[-0.05685,51.531503],[-0.056821,51.531418],[-0.056812,51.531366],[-0.056761,51.531281],[-0.056713,51.531186],[-0.056647,51.531049],[-0.056566,51.530894],[-0.056518,51.530795],[-0.05643,51.530638],[-0.056407,51.530567],[-0.056395,51.530525],[-0.056347,51.530373],[-0.056291,51.530239],[-0.056285,51.5302],[-0.056269,51.530166],[-0.056194,51.529963],[-0.056137,51.529805],[-0.056091,51.529671],[-0.056082,51.52964],[-0.056019,51.52947],[-0.055918,51.529229],[-0.055873,51.529129],[-0.055807,51.528991],[-0.055771,51.528916],[-0.05574,51.528833],[-0.055711,51.528761],[-0.055655,51.528586],[-0.055611,51.528426],[-0.055597,51.528213],[-0.05559,51.528015],[-0.055593,51.527769],[-0.055607,51.527631],[-0.055653,51.527336],[-0.055612,51.527089],[-0.055593,51.526916],[-0.055584,51.526854],[-0.05547,51.526456],[-0.055359,51.526065],[-0.055331,51.525956],[-0.055316,51.525889],[-0.05522,51.525535],[-0.055167,51.525411],[-0.055072,51.525165],[-0.05502,51.525009],[-0.055011,51.524962],[-0.054957,51.524736],[-0.054955,51.524586],[-0.054968,51.52448],[-0.054976,51.524271],[-0.055014,51.524264],[-0.054754,51.524314],[-0.054127,51.524419],[-0.054101,51.524369],[-0.053925,51.524396],[-0.053942,51.524196],[-0.05394,51.523733],[-0.053926,51.523385],[-0.053923,51.523192],[-0.053887,51.522864],[-0.053874,51.522709],[-0.054163,51.522698],[-0.054148,51.522645],[-0.054099,51.522611],[-0.052955,51.52186],[-0.052543,51.521584],[-0.052371,51.521408],[-0.052187,51.520883],[-0.052054,51.520495],[-0.052837,51.520329],[-0.052548,51.51981],[-0.052523,51.519765],[-0.052705,51.519774],[-0.052717,51.519653],[-0.052726,51.519572],[-0.052717,51.519459],[-0.052769,51.519391],[-0.052839,51.51939],[-0.052856,51.518785],[-0.052857,51.518586],[-0.05285,51.518217],[-0.052905,51.517223],[-0.052859,51.517067],[-0.053191,51.514138],[-0.053246,51.514019],[-0.053508,51.512315],[-0.053546,51.512025],[-0.053519,51.511749],[-0.053562,51.511631],[-0.053563,51.511324],[-0.053579,51.510939],[-0.053606,51.50972],[-0.055109,51.509682],[-0.056617,51.509801],[-0.056883,51.509782],[-0.05764,51.509771],[-0.058792,51.509672],[-0.05871,51.509521],[-0.058575,51.508834],[-0.058486,51.507675],[-0.066564,51.507487],[-0.066555,51.506887],[-0.066663,51.506616],[-0.066881,51.506505],[-0.067207,51.506365],[-0.067382,51.506155],[-0.067533,51.506013],[-0.067895,51.505734],[-0.068073,51.505179],[-0.068068,51.505172],[-0.06778,51.505058],[-0.067916,51.504957],[-0.067908,51.504946],[-0.068299,51.504478],[-0.068389,51.504374],[-0.068777,51.504479],[-0.072239,51.505725],[-0.072243,51.505722],[-0.074707,51.506433],[-0.074099,51.507499],[-0.073771,51.509325],[-0.073052,51.510022],[-0.073035,51.510025],[-0.073014,51.510029],[-0.072994,51.510034],[-0.072974,51.510038],[-0.072955,51.510044],[-0.072934,51.510049],[-0.072917,51.510056],[-0.072898,51.510063],[-0.072883,51.510068],[-0.072873,51.510072],[-0.072861,51.510077],[-0.072849,51.510081],[-0.072839,51.510086],[-0.072827,51.51009],[-0.072817,51.510096],[-0.072807,51.510101],[-0.072796,51.510106],[-0.072786,51.510111],[-0.072776,51.510117],[-0.072767,51.510123],[-0.072758,51.510128],[-0.072749,51.510134],[-0.07274,51.51014],[-0.072733,51.510146],[-0.072727,51.510154],[-0.07272,51.510161],[-0.072714,51.510168],[-0.07271,51.510175],[-0.072705,51.510182],[-0.072702,51.51019],[-0.072699,51.510195],[-0.072697,51.510203],[-0.072695,51.510211],[-0.072693,51.510219],[-0.072693,51.510228],[-0.072693,51.510237],[-0.072694,51.510245],[-0.072695,51.510253],[-0.072696,51.510261],[-0.072699,51.510269],[-0.072701,51.510276],[-0.072705,51.510284],[-0.072709,51.510293],[-0.072713,51.5103],[-0.072703,51.510402],[-0.072723,51.510642],[-0.072738,51.510806],[-0.072745,51.510874],[-0.072801,51.511085],[-0.07289,51.511255],[-0.072957,51.511443],[-0.073018,51.511683],[-0.073037,51.51181],[-0.073117,51.512342],[-0.073241,51.512946],[-0.073363,51.513373],[-0.073366,51.513378],[-0.073461,51.513677],[-0.073638,51.514133],[-0.073943,51.514455],[-0.07428,51.514689],[-0.074416,51.514792],[-0.074788,51.515101],[-0.07512,51.515356],[-0.076408,51.516259],[-0.076793,51.516593],[-0.076831,51.516638],[-0.076892,51.516708],[-0.077344,51.517397],[-0.077377,51.517447],[-0.077617,51.517867],[-0.07766,51.517975],[-0.077708,51.518038],[-0.077777,51.51811],[-0.07794,51.518252],[-0.078121,51.51847],[-0.078022,51.518487],[-0.078056,51.518969],[-0.078308,51.518947],[-0.079404,51.518847],[-0.079147,51.519453],[-0.078964,51.520115],[-0.078814,51.520654],[-0.078817,51.520658],[-0.078785,51.52074],[-0.078704,51.521041],[-0.078445,51.521512],[-0.079743,51.521672],[-0.080733,51.521891],[-0.081024,51.521955],[-0.081258,51.521434],[-0.081523,51.521023],[-0.081736,51.520759],[-0.081769,51.520734],[-0.081991,51.520557],[-0.0823,51.520316],[-0.082708,51.52007],[-0.083299,51.519816],[-0.085192,51.520336],[-0.085299,51.520127],[-0.085728,51.519446],[-0.086147,51.518801],[-0.086161,51.518738],[-0.08677,51.518902],[-0.087998,51.519372],[-0.08812,51.519412],[-0.088314,51.519476],[-0.089709,51.519898],[-0.089984,51.519973],[-0.089701,51.520694],[-0.090545,51.520818],[-0.091234,51.520888],[-0.092302,51.520997],[-0.092345,51.521027],[-0.092352,51.521028],[-0.092482,51.521419],[-0.092528,51.52164],[-0.092486,51.521644],[-0.092486,51.521646],[-0.0922,51.521673],[-0.092173,51.521675],[-0.091739,51.521716],[-0.091473,51.521739],[-0.091498,51.521853],[-0.091353,51.521868],[-0.091429,51.522179],[-0.091446,51.522189],[-0.09147,51.522193],[-0.09147,51.522193],[-0.091474,51.522217],[-0.091492,51.522294],[-0.091138,51.522366],[-0.09099,51.522391],[-0.090911,51.522223],[-0.090844,51.522181],[-0.090266,51.522277],[-0.090352,51.522384],[-0.090797,51.522605],[-0.090885,51.522763],[-0.09054,51.522841],[-0.090568,51.522881],[-0.090433,51.522911],[-0.09051,51.523054],[-0.090521,51.523052],[-0.090556,51.523109],[-0.090585,51.523156],[-0.090049,51.523301],[-0.08991,51.523314],[-0.08994,51.523428],[-0.090085,51.523689],[-0.090292,51.524082],[-0.090484,51.524537],[-0.090738,51.525202],[-0.090768,51.525379],[-0.090848,51.52564],[-0.091154,51.526777],[-0.091306,51.527222],[-0.091475,51.527768],[-0.091544,51.528004],[-0.091525,51.528055],[-0.091493,51.528095],[-0.091363,51.528164]],[[-0.054394,51.551603],[-0.054344,51.55161],[-0.054393,51.551604],[-0.054394,51.551603]],[[-0.055699,51.538004],[-0.055714,51.538],[-0.055697,51.53799],[-0.055699,51.538004]]]}},
{"type":"Feature","properties":{"objectid":7,"layerrefer":"OPA00000007","siterefere":"10","sitename":"Deptford Creek/Greenwich Riverside","address":null,"uprn":null,"borough":"Lewisham, Greenwich","planning_a":null,"firstadded":null,"lastupdate":null,"removeddat":null,"status":"Adopted","hectares":163.362,"easting":537368,"northing":177606,"designatio":"Opportunity Area","boroughdes":null,"classifica":null,"notes":"Please note the GLA does not define boundaries. This OA has been adopted and its boundary finalised by the OAPF team. For further information please contact the Planning Data Team or the relevant Plan","source":"https://www.london.gov.uk/what-we-do/planning/implementing-london-plan/opportunity-areas/oa-monitoring/deptford","extrainfo1":"Document type: Local Plan","extrainfo2":"London Plan designation year: 2004","extrainfo3":"Relevant documents: Lewisham Local Plan Reg 19 consultation draft (2021)","missing":null,"gdb_geomat":null,"in_cw":false,"whole_in_zone":true},"geometry":{"type":"Polygon","coordinates":[[[-0.022536,51.48461],[-0.022423,51.484576],[-0.022311,51.484673],[-0.020518,51.483979],[-0.018748,51.483503],[-0.017739,51.483267],[-0.016192,51.483245],[-0.013812,51.483161],[-0.013834,51.482955],[-0.012045,51.482916],[-0.012068,51.482988],[-0.01112,51.483084],[-0.011139,51.482957],[-0.010831,51.482987],[-0.010976,51.483332],[-0.010328,51.48342],[-0.009841,51.483336],[-0.009857,51.48356],[-0.00969,51.483596],[-0.009246,51.48282],[-0.008854,51.482167],[-0.008008,51.481162],[-0.007796,51.480805],[-0.009224,51.480241],[-0.009612,51.479861],[-0.010686,51.478625],[-0.01195,51.478009],[-0.012099,51.477845],[-0.013121,51.477798],[-0.014298,51.477459],[-0.016772,51.476688],[-0.018447,51.476034],[-0.01914,51.475722],[-0.019779,51.475309],[-0.020632,51.474755],[-0.021301,51.474213],[-0.022778,51.47444],[-0.022779,51.47444],[-0.022779,51.47444],[-0.024457,51.474697],[-0.025932,51.474923],[-0.027077,51.475065],[-0.028254,51.475272],[-0.029419,51.4755],[-0.031227,51.475746],[-0.032234,51.475885],[-0.033314,51.477542],[-0.034714,51.479245],[-0.033242,51.4797],[-0.030898,51.480531],[-0.031587,51.481507],[-0.031817,51.483748],[-0.031693,51.485703],[-0.034278,51.488033],[-0.030019,51.489614],[-0.029954,51.48962],[-0.029171,51.48872],[-0.028693,51.488278],[-0.02879,51.488236],[-0.027688,51.487358],[-0.025351,51.485974],[-0.024702,51.485669],[-0.024702,51.485513],[-0.022512,51.484729],[-0.022536,51.48461]]]}},
{"type":"Feature","properties":{"objectid":9,"layerrefer":"OPA00000009","siterefere":"12","sitename":"Elephant and Castle","address":null,"uprn":null,"borough":"Southwark","planning_a":null,"firstadded":null,"lastupdate":null,"removeddat":null,"status":"Adopted","hectares":123.466,"easting":532078,"northing":178870,"designatio":"Opportunity Area","boroughdes":null,"classifica":null,"notes":"Please note the GLA does not define boundaries. This OA has been adopted and its boundary finalised by the OAPF team. For further information please contact the Planning Data Team or the relevant Plan","source":"https://www.london.gov.uk/what-we-do/planning/implementing-london-plan/opportunity-areas/oa-monitoring/elephant-castle","extrainfo1":"Document type: SPD / OAPF","extrainfo2":"London Plan designation year: 2004","extrainfo3":"Relevant documents: Elephant and Castle SPD/OAPF (2012)","missing":null,"gdb_geomat":null,"in_cw":false,"whole_in_zone":false},"geometry":{"type":"Polygon","coordinates":[[[-0.09553,51.482564],[-0.095593,51.483233],[-0.095608,51.483526],[-0.095616,51.48368],[-0.095231,51.483673],[-0.094737,51.483636],[-0.094541,51.483623],[-0.094607,51.483711],[-0.094439,51.484054],[-0.094342,51.484201],[-0.094273,51.484348],[-0.094434,51.484844],[-0.094693,51.4855],[-0.095237,51.486063],[-0.095467,51.486421],[-0.095764,51.48685],[-0.096035,51.487243],[-0.096303,51.487796],[-0.09686,51.487624],[-0.097096,51.487968],[-0.098152,51.487657],[-0.098501,51.488008],[-0.098486,51.488047],[-0.098682,51.488204],[-0.098898,51.488391],[-0.099179,51.488295],[-0.099393,51.48825],[-0.099527,51.488222],[-0.100904,51.488965],[-0.101763,51.489383],[-0.102805,51.489995],[-0.103778,51.490462],[-0.103135,51.491181],[-0.103371,51.491322],[-0.103131,51.491475],[-0.103502,51.491694],[-0.10338,51.491781],[-0.103687,51.491998],[-0.103918,51.491953],[-0.10408,51.492249],[-0.104674,51.493072],[-0.104871,51.493528],[-0.105313,51.493615],[-0.105717,51.493697],[-0.107134,51.494164],[-0.108478,51.49464],[-0.110061,51.495215],[-0.110948,51.495578],[-0.111417,51.496449],[-0.11027,51.496779],[-0.11027,51.496876],[-0.109808,51.496902],[-0.109427,51.497005],[-0.108535,51.497244],[-0.107093,51.497631],[-0.105744,51.49811],[-0.106315,51.498464],[-0.106918,51.498872],[-0.106703,51.498953],[-0.106549,51.498857],[-0.105991,51.499109],[-0.105576,51.49934],[-0.104974,51.499742],[-0.104961,51.49933],[-0.104646,51.499391],[-0.10449,51.499426],[-0.103727,51.499617],[-0.103615,51.499492],[-0.10313,51.499645],[-0.102679,51.499306],[-0.103062,51.499163],[-0.102883,51.498994],[-0.102757,51.498916],[-0.102033,51.498967],[-0.10055,51.499072],[-0.099941,51.499115],[-0.099162,51.49917],[-0.098009,51.499251],[-0.097168,51.499311],[-0.096865,51.499012],[-0.096565,51.498888],[-0.096304,51.498741],[-0.096082,51.498595],[-0.095637,51.498278],[-0.094792,51.497527],[-0.094568,51.497404],[-0.094346,51.497258],[-0.093906,51.496846],[-0.093649,51.496604],[-0.092987,51.496022],[-0.092727,51.495851],[-0.092742,51.495495],[-0.092802,51.494972],[-0.092912,51.494165],[-0.091846,51.494148],[-0.091817,51.493909],[-0.091741,51.493312],[-0.091701,51.493],[-0.091458,51.492476],[-0.090639,51.491541],[-0.090167,51.491455],[-0.089448,51.491325],[-0.088129,51.49097],[-0.086858,51.489488],[-0.08766,51.489514],[-0.088948,51.489535],[-0.089528,51.489399],[-0.090143,51.48929],[-0.09095,51.489113],[-0.091643,51.488957],[-0.093074,51.488457],[-0.093997,51.488111],[-0.095017,51.487846],[-0.093196,51.485322],[-0.09336,51.48525],[-0.093259,51.484939],[-0.093105,51.484495],[-0.093257,51.484214],[-0.09347,51.483793],[-0.093844,51.483039],[-0.094188,51.483018],[-0.094461,51.483005],[-0.094488,51.482889],[-0.094459,51.482385],[-0.094454,51.482175],[-0.095516,51.48223],[-0.09553,51.482564]]]}},
{"type":"Feature","properties":{"objectid":11,"layerrefer":"OPA00000011","siterefere":"15","sitename":"Greenwich Peninsula","address":null,"uprn":null,"borough":"Greenwich","planning_a":null,"firstadded":null,"lastupdate":null,"removeddat":null,"status":"Adopted","hectares":166.131,"easting":539458,"northing":179328,"designatio":"Opportunity Area","boroughdes":null,"classifica":null,"notes":"Please note the GLA does not define boundaries. This OA has been adopted and its boundary finalised by the OAPF team. For further information please contact the Planning Data Team or the relevant Plan","source":"https://www.london.gov.uk/what-we-do/planning/implementing-london-plan/opportunity-areas/oa-monitoring/greenwich-peninsula","extrainfo1":"Document type: SPD","extrainfo2":"London Plan designation year: 2004","extrainfo3":"Relevant documents: Greenwich Peninsula West Masterplan SPD (2012)","missing":null,"gdb_geomat":null,"in_cw":false,"whole_in_zone":false},"geometry":{"type":"Polygon","coordinates":[[[0.004904,51.504484],[0.006112,51.50354],[0.00761,51.502208],[0.007938,51.502123],[0.007905,51.501948],[0.009597,51.500374],[0.010633,51.499576],[0.011247,51.499024],[0.011942,51.498598],[0.012437,51.498239],[0.01295,51.497737],[0.013276,51.497604],[0.013699,51.497358],[0.013835,51.496957],[0.014337,51.496773],[0.014429,51.496549],[0.015228,51.496153],[0.017258,51.495322],[0.017911,51.495087],[0.01799,51.49515],[0.019203,51.494758],[0.019041,51.494625],[0.01883,51.494069],[0.019502,51.493948],[0.019123,51.492043],[0.018662,51.490269],[0.018018,51.490335],[0.017888,51.490061],[0.017601,51.488909],[0.017532,51.488009],[0.017571,51.487625],[0.01744,51.487167],[0.0169,51.487476],[0.016467,51.487713],[0.016178,51.487857],[0.015816,51.488001],[0.014946,51.488362],[0.014364,51.488556],[0.013965,51.488724],[0.013603,51.488892],[0.013096,51.489108],[0.012267,51.48956],[0.011591,51.490125],[0.011089,51.490479],[0.009585,51.491613],[0.009016,51.492012],[0.008802,51.492177],[0.00866,51.491372],[0.0086,51.490002],[0.008591,51.489229],[0.006953,51.489289],[0.006957,51.489383],[0.005219,51.489476],[0.004762,51.489485],[0.004751,51.489363],[0.004457,51.489379],[0.004461,51.489473],[0.004284,51.489461],[0.004147,51.489101],[0.004594,51.489061],[0.00457,51.488813],[0.004428,51.488376],[0.004359,51.487479],[0.003065,51.48759],[0.002145,51.486754],[0.000227,51.48692],[0.000707,51.487346],[0.001157,51.487827],[0.001338,51.487935],[0.001468,51.488011],[0.001295,51.488093],[0.001618,51.488545],[0.00197,51.488507],[0.001946,51.488555],[0.002146,51.489087],[0.002324,51.4891],[0.002396,51.489587],[0.002471,51.489586],[0.002449,51.48965],[0.00249,51.490011],[0.002567,51.490042],[0.002635,51.490435],[0.002438,51.490548],[0.002424,51.491541],[0.002662,51.491738],[0.002762,51.491922],[0.002545,51.492213],[0.002381,51.492659],[0.002377,51.492819],[0.002372,51.492975],[0.002049,51.492937],[0.001554,51.49369],[0.001693,51.493717],[0.001521,51.493978],[0.00166,51.494004],[0.001528,51.494135],[0.001392,51.494166],[0.000947,51.494489],[0.000975,51.494603],[0.001281,51.494769],[0.001206,51.495157],[0.001053,51.495332],[0.000944,51.495463],[0.000017,51.495264],[-0.000236,51.495254],[-0.000818,51.496094],[-0.001479,51.497409],[-0.000968,51.497529],[-0.001279,51.497916],[-0.001503,51.498197],[-0.001584,51.498298],[-0.001315,51.498318],[-0.00133,51.498491],[-0.001492,51.498876],[-0.001847,51.498929],[-0.00211,51.499902],[-0.002179,51.501244],[-0.001693,51.501179],[-0.001702,51.501666],[-0.001852,51.501733],[-0.001819,51.501907],[-0.001513,51.501902],[-0.001374,51.502154],[-0.00155,51.502205],[-0.001706,51.502144],[-0.002011,51.502181],[-0.001567,51.502986],[-0.000744,51.50372],[0.000094,51.5042],[0.000404,51.504306],[0.000607,51.504271],[0.001357,51.504497],[0.001796,51.504617],[0.001952,51.504678],[0.001982,51.504789],[0.00247,51.50486],[0.002982,51.504899],[0.003694,51.504823],[0.0041,51.504784],[0.004904,51.504484]]]}},
{"type":"Feature","properties":{"objectid":14,"layerrefer":"OPA00000014","siterefere":"20","sitename":"Isle of Dogs","address":null,"uprn":null,"borough":"Tower Hamlets","planning_a":null,"firstadded":null,"lastupdate":null,"removeddat":null,"status":"Adopted","hectares":488.039,"easting":537878,"northing":179870,"designatio":"Opportunity Area","boroughdes":null,"classifica":null,"notes":"Please note the GLA does not define boundaries. This OA has been adopted and its boundary finalised by the OAPF team. For further information please contact the Planning Data Team or the relevant Plan","source":"https://www.london.gov.uk/what-we-do/planning/implementing-london-plan/opportunity-areas/oa-monitoring/isle-dogs-and-south-poplar-opportunity-area","extrainfo1":"Document type: OAPF, SPD","extrainfo2":"London Plan designation year: 2004","extrainfo3":"Relevant documents: Isle of Dogs OAPF (2019), South Poplar Masterplan SPD (2021)","missing":null,"gdb_geomat":null,"in_cw":true,"whole_in_zone":true},"geometry":{"type":"Polygon","coordinates":[[[0.006971,51.510729],[0.006692,51.510308],[0.00669,51.510305],[0.006694,51.51028],[0.00674,51.509956],[0.007019,51.509853],[0.007546,51.509657],[0.008479,51.509293],[0.008936,51.509162],[0.009158,51.509098],[0.009667,51.508762],[0.00985,51.508452],[0.009851,51.508411],[0.00986,51.508132],[0.009864,51.508023],[0.009618,51.50766],[0.009563,51.507643],[0.008557,51.507351],[0.006878,51.50787],[0.006679,51.507812],[0.006004,51.50811],[0.006108,51.50823],[0.005848,51.508276],[0.005678,51.508136],[0.003627,51.508396],[0.003448,51.508051],[0.002799,51.508185],[0.001683,51.508122],[0.000526,51.507856],[-0.001685,51.507465],[-0.001782,51.507487],[-0.002146,51.507411],[-0.002718,51.507053],[-0.003161,51.506652],[-0.003626,51.506377],[-0.00449,51.505754],[-0.005496,51.505054],[-0.005795,51.505174],[-0.005865,51.505136],[-0.005639,51.504899],[-0.006603,51.503954],[-0.006736,51.503671],[-0.007186,51.50311],[-0.007322,51.50288],[-0.007414,51.502607],[-0.007422,51.502515],[-0.007474,51.502332],[-0.007634,51.501505],[-0.007719,51.500733],[-0.007607,51.500188],[-0.007577,51.500009],[-0.007615,51.500003],[-0.007437,51.499168],[-0.00749,51.49916],[-0.007277,51.498307],[-0.006956,51.498342],[-0.006847,51.497962],[-0.006862,51.497951],[-0.006409,51.497021],[-0.006304,51.496898],[-0.005606,51.495837],[-0.006119,51.495708],[-0.005424,51.494644],[-0.005144,51.494715],[-0.004993,51.494483],[-0.00476,51.494543],[-0.004181,51.49364],[-0.00335,51.492393],[-0.003205,51.492048],[-0.003188,51.491992],[-0.003142,51.491821],[-0.003093,51.491569],[-0.00311,51.491568],[-0.003058,51.490876],[-0.003081,51.490557],[-0.003146,51.490202],[-0.003289,51.489772],[-0.003688,51.48907],[-0.003684,51.489048],[-0.003695,51.488957],[-0.003837,51.488883],[-0.003957,51.488737],[-0.00406,51.488628],[-0.004438,51.488264],[-0.005126,51.488607],[-0.005291,51.488481],[-0.004621,51.488137],[-0.00546,51.487521],[-0.005701,51.48742],[-0.006692,51.487047],[-0.008541,51.486591],[-0.00973,51.486363],[-0.009804,51.486472],[-0.010224,51.486459],[-0.010179,51.486285],[-0.013085,51.485978],[-0.013816,51.486039],[-0.013894,51.485949],[-0.015442,51.486038],[-0.01748,51.486396],[-0.017525,51.486331],[-0.019137,51.486741],[-0.021075,51.487366],[-0.021756,51.487624],[-0.023076,51.488372],[-0.024647,51.489622],[-0.025096,51.490023],[-0.025714,51.490642],[-0.026284,51.491604],[-0.026761,51.492623],[-0.027392,51.493739],[-0.026779,51.493918],[-0.026105,51.493907],[-0.026113,51.494137],[-0.026886,51.494179],[-0.027718,51.494296],[-0.02783,51.494431],[-0.027743,51.496212],[-0.027472,51.49787],[-0.027452,51.500154],[-0.027442,51.502199],[-0.027202,51.502794],[-0.027011,51.503448],[-0.027327,51.503653],[-0.027777,51.504655],[-0.028055,51.505135],[-0.02822,51.505314],[-0.028427,51.505535],[-0.028685,51.505973],[-0.028886,51.506368],[-0.029679,51.507106],[-0.029572,51.507156],[-0.029983,51.507467],[-0.030244,51.507259],[-0.031108,51.507702],[-0.031504,51.507952],[-0.031516,51.508272],[-0.032399,51.508231],[-0.032986,51.508362],[-0.033163,51.508569],[-0.035218,51.509117],[-0.035983,51.509158],[-0.037321,51.50938],[-0.035575,51.510598],[-0.034254,51.510969],[-0.034541,51.512498],[-0.032946,51.512443],[-0.032348,51.512404],[-0.031553,51.512314],[-0.0312,51.512308],[-0.030551,51.512383],[-0.030228,51.512407],[-0.029921,51.512382],[-0.02951,51.512299],[-0.028038,51.511871],[-0.025643,51.511476],[-0.021047,51.510814],[-0.01766,51.510968],[-0.01495,51.511104],[-0.013367,51.511177],[-0.013301,51.511189],[-0.013118,51.511189],[-0.010279,51.511217],[-0.009607,51.511236],[-0.008902,51.511275],[-0.008295,51.511296],[-0.007474,51.511363],[-0.006599,51.511512],[-0.005923,51.511633],[-0.005279,51.511765],[-0.00475,51.511869],[-0.002524,51.51224],[-0.000905,51.512559],[-0.000349,51.51255],[0.000073,51.512481],[0.000802,51.512673],[0.001569,51.512987],[0.001872,51.513166],[0.002056,51.513632],[0.002529,51.513972],[0.003229,51.514246],[0.004369,51.514508],[0.004386,51.514512],[0.004076,51.514112],[0.004074,51.514109],[0.003785,51.513501],[0.003411,51.512926],[0.003364,51.512854],[0.003141,51.512245],[0.002871,51.51187],[0.002792,51.511761],[0.002749,51.511668],[0.002575,51.511294],[0.002619,51.510831],[0.00262,51.510824],[0.002725,51.510786],[0.003079,51.510661],[0.003104,51.510652],[0.003167,51.510677],[0.003673,51.510881],[0.003737,51.510907],[0.003811,51.511013],[0.003957,51.511225],[0.004087,51.511412],[0.004201,51.511777],[0.004183,51.511934],[0.004153,51.512187],[0.004278,51.512777],[0.004328,51.512891],[0.004459,51.513183],[0.004645,51.513513],[0.004779,51.513749],[0.005222,51.51415],[0.00536,51.51422],[0.005578,51.514331],[0.00572,51.514403],[0.005999,51.514441],[0.006152,51.514461],[0.006427,51.514485],[0.006744,51.514512],[0.006777,51.5145],[0.006981,51.51442],[0.007291,51.514299],[0.007435,51.514136],[0.007603,51.513946],[0.007946,51.513552],[0.008218,51.513037],[0.008219,51.513031],[0.00824,51.512791],[0.008221,51.512615],[0.008188,51.512324],[0.008186,51.512302],[0.008033,51.5121],[0.007803,51.511797],[0.00769,51.511589],[0.007518,51.511271],[0.006971,51.510729]]]}},
{"type":"Feature","properties":{"objectid":17,"layerrefer":"OPA00000017","siterefere":"24","sitename":"London Bridge/Bankside","address":null,"uprn":null,"borough":"Southwark","planning_a":null,"firstadded":null,"lastupdate":null,"removeddat":null,"status":"Adopted","hectares":216.817,"easting":532405,"northing":180060,"designatio":"Opportunity Area","boroughdes":null,"classifica":null,"notes":"Please note the GLA does not define boundaries. This OA has been adopted and its boundary finalised by the OAPF team. For further information please contact the Planning Data Team or the relevant Plan","source":"https://www.london.gov.uk/what-we-do/planning/implementing-london-plan/opportunity-areas/oa-monitoring/london-bridge","extrainfo1":"Document type: Others","extrainfo2":"London Plan designation year: 2004","extrainfo3":"Relevant documents: LB Southwark Core Strategy (2011), Southwark Local Plan (2022)","missing":null,"gdb_geomat":null,"in_cw":false,"whole_in_zone":false},"geometry":{"type":"Polygon","coordinates":[[[-0.109153,51.509827],[-0.108469,51.509888],[-0.107334,51.509906],[-0.106487,51.509909],[-0.105562,51.509888],[-0.105154,51.509876],[-0.104615,51.509876],[-0.104154,51.509855],[-0.103588,51.509854],[-0.102634,51.509815],[-0.101562,51.509808],[-0.100185,51.509728],[-0.099291,51.509674],[-0.09852,51.509607],[-0.097707,51.509535],[-0.096824,51.509448],[-0.09599,51.509334],[-0.095704,51.509286],[-0.094923,51.509109],[-0.093988,51.508897],[-0.093145,51.508657],[-0.092335,51.508447],[-0.091509,51.508313],[-0.090484,51.508185],[-0.089909,51.508125],[-0.089477,51.508086],[-0.088598,51.507987],[-0.087634,51.507878],[-0.086742,51.507816],[-0.086076,51.507755],[-0.085162,51.507692],[-0.084865,51.507648],[-0.084181,51.507532],[-0.083441,51.507426],[-0.082643,51.507305],[-0.081895,51.507195],[-0.081034,51.507052],[-0.080751,51.507001],[-0.080269,51.506899],[-0.079796,51.506752],[-0.078481,51.506393],[-0.077219,51.506039],[-0.076312,51.505775],[-0.075531,51.505547],[-0.077065,51.5032],[-0.078118,51.501089],[-0.07902,51.499264],[-0.079493,51.49829],[-0.079755,51.497681],[-0.080653,51.497818],[-0.081393,51.497978],[-0.081979,51.498061],[-0.082331,51.498091],[-0.082762,51.498123],[-0.083269,51.498229],[-0.084006,51.498462],[-0.084857,51.498795],[-0.085859,51.499253],[-0.086245,51.499431],[-0.086977,51.499786],[-0.087436,51.500088],[-0.087819,51.500315],[-0.088207,51.500444],[-0.088516,51.500572],[-0.088903,51.500725],[-0.08937,51.500831],[-0.089679,51.500959],[-0.090342,51.501092],[-0.091047,51.501153],[-0.091791,51.501214],[-0.092227,51.501123],[-0.093053,51.501034],[-0.093587,51.500702],[-0.094271,51.50032],[-0.094636,51.500136],[-0.095435,51.499605],[-0.095778,51.499436],[-0.095916,51.499367],[-0.096254,51.499374],[-0.096549,51.499392],[-0.097168,51.499311],[-0.098009,51.499251],[-0.099941,51.499115],[-0.101609,51.498997],[-0.102757,51.498916],[-0.102883,51.498994],[-0.103062,51.499163],[-0.102679,51.499306],[-0.10313,51.499645],[-0.103578,51.499453],[-0.103615,51.499492],[-0.103727,51.499617],[-0.10449,51.499426],[-0.104646,51.499391],[-0.104961,51.49933],[-0.104974,51.499742],[-0.105252,51.49952],[-0.105991,51.499109],[-0.106549,51.498857],[-0.106703,51.498953],[-0.106918,51.498872],[-0.106789,51.498758],[-0.105744,51.49811],[-0.107093,51.497631],[-0.107948,51.497402],[-0.109095,51.497094],[-0.109808,51.496902],[-0.11027,51.496876],[-0.109722,51.497925],[-0.109445,51.498499],[-0.109096,51.499107],[-0.1088,51.499587],[-0.108504,51.500065],[-0.108164,51.500536],[-0.107821,51.5008],[-0.107418,51.501108],[-0.107141,51.50132],[-0.1068,51.50158],[-0.106679,51.501667],[-0.106502,51.501585],[-0.105961,51.502012],[-0.10609,51.502134],[-0.106025,51.502274],[-0.106111,51.502524],[-0.106726,51.502224],[-0.107385,51.50303],[-0.10637,51.503373],[-0.106493,51.503642],[-0.106541,51.504256],[-0.106442,51.504497],[-0.106409,51.504831],[-0.106567,51.505292],[-0.106934,51.506132],[-0.10714,51.506608],[-0.107338,51.507065],[-0.107338,51.507065],[-0.10815,51.50691],[-0.108266,51.507116],[-0.108381,51.507426],[-0.108481,51.50776],[-0.108774,51.507706],[-0.108896,51.508418],[-0.109153,51.509827]]]}},
{"type":"Feature","properties":{"objectid":18,"layerrefer":"OPA00000019","siterefere":"26","sitename":"New Cross/Lewisham/Catford","address":null,"uprn":null,"borough":"Lewisham","planning_a":null,"firstadded":null,"lastupdate":null,"removeddat":null,"status":"Adopted","hectares":817.844,"easting":537118,"northing":176104,"designatio":"Opportunity Area","boroughdes":null,"classifica":null,"notes":"Please note the GLA does not define boundaries. This OA has been adopted and its boundary finalised by the OAPF team. For further information please contact the Planning Data Team or the relevant Plan","source":"https://www.london.gov.uk/what-we-do/planning/implementing-london-plan/opportunity-areas/oa-monitoring/lewisham-catford","extrainfo1":"Document type: Local Plan, SPD, Others","extrainfo2":"London Plan designation year: 2008","extrainfo3":"Relevant documents: Lewisham Local Plan Reg 19 consultation draft (2021), Surrey Canal Triangle Design Framework SPD (2020),  New Cross Area Framework and Station Opportunity Study (2019), Catford Tow","missing":null,"gdb_geomat":null,"in_cw":false,"whole_in_zone":false},"geometry":{"type":"Polygon","coordinates":[[[-0.032423,51.493015],[-0.032283,51.492659],[-0.031972,51.492483],[-0.031068,51.490972],[-0.02996,51.489636],[-0.034278,51.488033],[-0.031693,51.485703],[-0.031817,51.483748],[-0.031587,51.481507],[-0.030898,51.480531],[-0.033242,51.4797],[-0.034714,51.479245],[-0.033314,51.477542],[-0.032234,51.475885],[-0.031227,51.475746],[-0.029419,51.4755],[-0.028254,51.475272],[-0.027077,51.475065],[-0.025932,51.474923],[-0.024457,51.474697],[-0.022779,51.47444],[-0.022779,51.47444],[-0.022778,51.47444],[-0.021301,51.474213],[-0.020632,51.474755],[-0.019779,51.475309],[-0.01914,51.475722],[-0.018447,51.476034],[-0.016772,51.476688],[-0.014298,51.477459],[-0.013121,51.477798],[-0.012099,51.477845],[-0.012209,51.477724],[-0.012417,51.477225],[-0.01295,51.475632],[-0.013475,51.474926],[-0.012599,51.473753],[-0.011881,51.472409],[-0.011841,51.472378],[-0.011841,51.472378],[-0.009047,51.470226],[-0.008734,51.469001],[-0.007424,51.468242],[-0.003079,51.464498],[-0.002874,51.464243],[-0.002584,51.463814],[-0.002449,51.463367],[-0.002531,51.462886],[-0.003329,51.459482],[-0.004224,51.458608],[-0.003972,51.456927],[-0.007617,51.455404],[-0.008077,51.453261],[-0.008753,51.452663],[-0.008496,51.451109],[-0.008963,51.450659],[-0.010246,51.449207],[-0.011227,51.448156],[-0.012242,51.445378],[-0.012214,51.444158],[-0.01264,51.442768],[-0.013071,51.441276],[-0.016025,51.440665],[-0.02029,51.439823],[-0.021809,51.439467],[-0.023679,51.439473],[-0.025055,51.439624],[-0.026188,51.439744],[-0.029047,51.441342],[-0.030778,51.442693],[-0.031966,51.44439],[-0.031219,51.445673],[-0.031447,51.446998],[-0.029759,51.448418],[-0.028615,51.449492],[-0.028909,51.450208],[-0.02675,51.452179],[-0.025542,51.452845],[-0.025981,51.453996],[-0.023052,51.455878],[-0.022495,51.456529],[-0.019645,51.456608],[-0.01861,51.457023],[-0.017497,51.4583],[-0.016594,51.459428],[-0.016245,51.460921],[-0.016553,51.462248],[-0.017419,51.464803],[-0.032876,51.468805],[-0.035674,51.469141],[-0.036151,51.468841],[-0.039592,51.468609],[-0.043957,51.468273],[-0.045896,51.474302],[-0.046459,51.474255],[-0.047758,51.473926],[-0.048563,51.473864],[-0.049161,51.473899],[-0.049172,51.473897],[-0.051306,51.473351],[-0.052731,51.472934],[-0.052731,51.472934],[-0.052737,51.47384],[-0.052722,51.476302],[-0.052674,51.478009],[-0.054303,51.478606],[-0.05391,51.479237],[-0.054069,51.479291],[-0.053766,51.479806],[-0.053642,51.479778],[-0.053483,51.480061],[-0.053572,51.480235],[-0.053523,51.48031],[-0.053397,51.480301],[-0.053344,51.480397],[-0.053476,51.480414],[-0.053458,51.480532],[-0.05326,51.480917],[-0.053182,51.480924],[-0.053136,51.481049],[-0.053259,51.481059],[-0.053072,51.481871],[-0.05296,51.482671],[-0.052831,51.482676],[-0.052832,51.482769],[-0.05293,51.482784],[-0.05298,51.483461],[-0.052826,51.483466],[-0.052867,51.483576],[-0.052959,51.483581],[-0.053078,51.48437],[-0.052988,51.484389],[-0.053012,51.484608],[-0.053036,51.484825],[-0.053172,51.485102],[-0.053224,51.485214],[-0.053375,51.485299],[-0.053492,51.485579],[-0.053514,51.485777],[-0.053009,51.485858],[-0.053064,51.486011],[-0.052928,51.486031],[-0.052911,51.486193],[-0.052798,51.486206],[-0.052848,51.486359],[-0.052818,51.486373],[-0.052867,51.486678],[-0.053077,51.486968],[-0.053241,51.486972],[-0.053607,51.487336],[-0.053629,51.487357],[-0.05399,51.48797],[-0.052684,51.487589],[-0.052548,51.487549],[-0.052451,51.48766],[-0.052329,51.487737],[-0.051932,51.487773],[-0.051203,51.487754],[-0.050689,51.487866],[-0.050654,51.487892],[-0.050571,51.487832],[-0.050328,51.487923],[-0.050367,51.48796],[-0.050227,51.488072],[-0.049961,51.488283],[-0.050144,51.488362],[-0.051933,51.489136],[-0.05144,51.489439],[-0.051126,51.489551],[-0.050791,51.489618],[-0.050319,51.489748],[-0.049631,51.489865],[-0.049687,51.489946],[-0.049332,51.490022],[-0.049235,51.490043],[-0.049194,51.489986],[-0.047524,51.49037],[-0.04757,51.490447],[-0.046541,51.490745],[-0.04654,51.490473],[-0.046541,51.490342],[-0.046138,51.490367],[-0.045901,51.49022],[-0.045806,51.490163],[-0.045496,51.490236],[-0.04509,51.490333],[-0.045109,51.490378],[-0.044732,51.490443],[-0.044711,51.490363],[-0.04455,51.490143],[-0.044527,51.490127],[-0.044473,51.490107],[-0.042715,51.490022],[-0.042331,51.490029],[-0.0422,51.490036],[-0.042482,51.490241],[-0.040318,51.491063],[-0.041029,51.491829],[-0.040044,51.492164],[-0.040537,51.492795],[-0.040527,51.4928],[-0.040344,51.492831],[-0.03994,51.492946],[-0.039908,51.492953],[-0.039876,51.49296],[-0.039844,51.492965],[-0.039811,51.492971],[-0.039777,51.492975],[-0.039746,51.492979],[-0.039711,51.492983],[-0.039678,51.492985],[-0.039662,51.492986],[-0.039629,51.492987],[-0.039594,51.492988],[-0.039561,51.492988],[-0.039528,51.492986],[-0.039493,51.492985],[-0.03946,51.492982],[-0.039427,51.492979],[-0.039394,51.492976],[-0.03936,51.492972],[-0.039327,51.492967],[-0.039294,51.492962],[-0.039261,51.492956],[-0.03923,51.49295],[-0.039197,51.492943],[-0.039165,51.492936],[-0.039148,51.492933],[-0.039107,51.492923],[-0.039067,51.492913],[-0.039026,51.492901],[-0.038987,51.492889],[-0.038948,51.492876],[-0.038909,51.492863],[-0.038872,51.492848],[-0.038834,51.492833],[-0.038797,51.492817],[-0.038762,51.492802],[-0.038725,51.492785],[-0.038691,51.492768],[-0.038682,51.492763],[-0.038641,51.492743],[-0.038601,51.492722],[-0.038563,51.492698],[-0.038525,51.492676],[-0.038488,51.492652],[-0.038453,51.492627],[-0.038418,51.492602],[-0.038384,51.492578],[-0.038361,51.492557],[-0.038209,51.492469],[-0.038098,51.492403],[-0.038065,51.492387],[-0.038031,51.492372],[-0.037997,51.492357],[-0.037964,51.492343],[-0.037928,51.492329],[-0.037891,51.492317],[-0.037857,51.492305],[-0.03782,51.492293],[-0.037783,51.492282],[-0.037745,51.492272],[-0.037706,51.492262],[-0.037668,51.492254],[-0.037628,51.492248],[-0.037625,51.492247],[-0.037595,51.492242],[-0.037565,51.492239],[-0.037534,51.492237],[-0.037504,51.492235],[-0.037474,51.492232],[-0.03745,51.492231],[-0.037351,51.492224],[-0.037289,51.49222],[-0.035212,51.492634],[-0.03331,51.493014],[-0.03321,51.492825],[-0.032611,51.492932],[-0.032624,51.492968],[-0.032423,51.493015]]]}},
{"type":"Feature","properties":{"objectid":20,"layerrefer":"OPA00000020","siterefere":"28","sitename":"Old Kent Road","address":null,"uprn":null,"borough":"Southwark","planning_a":null,"firstadded":null,"lastupdate":null,"removeddat":null,"status":"Adopted","hectares":282.291,"easting":534206,"northing":178174,"designatio":"Opportunity Area","boroughdes":null,"classifica":null,"notes":"Please note the GLA does not define boundaries. This OA has been adopted and its boundary finalised by the OAPF team. For further information please contact the Planning Data Team or the relevant Plan","source":"https://www.london.gov.uk/what-we-do/planning/implementing-london-plan/opportunity-areas/oa-monitoring/old-kent-road-opportunity-area","extrainfo1":"Document type: AAP","extrainfo2":"London Plan designation year: 2016","extrainfo3":"Relevant documents: Southwark Local Plan (2022) Old Kent Road AAP consultation draft (2020)","missing":null,"gdb_geomat":null,"in_cw":false,"whole_in_zone":true},"geometry":{"type":"Polygon","coordinates":[[[-0.080845,51.496451],[-0.077951,51.495523],[-0.076965,51.495212],[-0.076496,51.494981],[-0.075558,51.494239],[-0.074928,51.493928],[-0.07378,51.493286],[-0.073279,51.492892],[-0.072633,51.49266],[-0.072067,51.492651],[-0.072202,51.491558],[-0.072624,51.49037],[-0.07105,51.490067],[-0.069272,51.489815],[-0.067736,51.489635],[-0.06641,51.489564],[-0.065488,51.489524],[-0.063063,51.489513],[-0.062869,51.489543],[-0.061931,51.489793],[-0.059747,51.490334],[-0.06062,51.491853],[-0.05982,51.492349],[-0.05959,51.492345],[-0.05745,51.491414],[-0.05517,51.490458],[-0.053566,51.489845],[-0.051937,51.489134],[-0.050392,51.488469],[-0.050144,51.488362],[-0.050038,51.488317],[-0.050693,51.487869],[-0.051209,51.487755],[-0.051928,51.487775],[-0.052331,51.487742],[-0.05235,51.487724],[-0.052451,51.48766],[-0.052548,51.487549],[-0.052684,51.487589],[-0.05399,51.48797],[-0.053977,51.487948],[-0.053982,51.487949],[-0.053844,51.487721],[-0.053629,51.487357],[-0.053607,51.487336],[-0.053241,51.486972],[-0.053133,51.486968],[-0.052867,51.486678],[-0.052831,51.48645],[-0.052868,51.486418],[-0.052888,51.486366],[-0.052911,51.486193],[-0.052928,51.486031],[-0.053064,51.486011],[-0.053155,51.485968],[-0.053124,51.485852],[-0.053542,51.485807],[-0.053537,51.485519],[-0.053391,51.485273],[-0.053224,51.485214],[-0.053172,51.485102],[-0.053036,51.484825],[-0.053012,51.484608],[-0.052988,51.48439],[-0.053078,51.48437],[-0.052981,51.483564],[-0.052862,51.483562],[-0.052826,51.483466],[-0.05298,51.483461],[-0.05296,51.483193],[-0.05293,51.482749],[-0.052832,51.482741],[-0.052831,51.482676],[-0.05296,51.482671],[-0.053072,51.481871],[-0.053259,51.481059],[-0.053226,51.481057],[-0.053235,51.481027],[-0.053145,51.481024],[-0.053182,51.480924],[-0.05326,51.480917],[-0.053458,51.480532],[-0.053464,51.480493],[-0.053507,51.480477],[-0.053475,51.48038],[-0.053363,51.480362],[-0.053388,51.480316],[-0.053543,51.480338],[-0.053547,51.480274],[-0.053572,51.480235],[-0.053483,51.480061],[-0.053627,51.479805],[-0.053685,51.479807],[-0.053694,51.47979],[-0.053766,51.479806],[-0.054069,51.479291],[-0.053978,51.47926],[-0.053999,51.479222],[-0.05393,51.479205],[-0.054303,51.478606],[-0.053117,51.478172],[-0.052687,51.478009],[-0.052691,51.477578],[-0.052781,51.477577],[-0.053459,51.477788],[-0.053467,51.47779],[-0.053481,51.47779],[-0.053822,51.477883],[-0.053927,51.477745],[-0.053991,51.477662],[-0.054153,51.477707],[-0.054472,51.477715],[-0.054472,51.477719],[-0.054501,51.477721],[-0.054617,51.477728],[-0.054639,51.477553],[-0.054647,51.477495],[-0.054657,51.477418],[-0.054662,51.477384],[-0.054651,51.477383],[-0.05465,51.477383],[-0.054657,51.477325],[-0.055126,51.477341],[-0.058521,51.477485],[-0.060998,51.476697],[-0.062514,51.478633],[-0.062964,51.479207],[-0.064342,51.478865],[-0.068729,51.478152],[-0.070328,51.477603],[-0.071444,51.479701],[-0.072403,51.480059],[-0.074082,51.481403],[-0.074074,51.483283],[-0.074119,51.484323],[-0.075851,51.484418],[-0.0759,51.484087],[-0.076924,51.48417],[-0.076863,51.484346],[-0.077835,51.484395],[-0.077702,51.485046],[-0.076749,51.484953],[-0.076235,51.487079],[-0.075793,51.48747],[-0.076386,51.487879],[-0.076646,51.487725],[-0.078018,51.48835],[-0.078116,51.488475],[-0.078606,51.488647],[-0.078603,51.488705],[-0.078996,51.488964],[-0.07929,51.488875],[-0.080695,51.4896],[-0.080952,51.489505],[-0.081904,51.490065],[-0.082027,51.490038],[-0.082234,51.490285],[-0.083176,51.490002],[-0.086654,51.489337],[-0.088196,51.491089],[-0.090496,51.491502],[-0.091032,51.492102],[-0.091437,51.492629],[-0.091555,51.493221],[-0.091806,51.494146],[-0.092838,51.494165],[-0.09279,51.494575],[-0.090868,51.494733],[-0.090615,51.494927],[-0.090406,51.494692],[-0.090249,51.494582],[-0.089658,51.494733],[-0.089501,51.494289],[-0.086942,51.495444],[-0.08594,51.495504],[-0.084856,51.495835],[-0.084614,51.495614],[-0.084055,51.494722],[-0.083363,51.495014],[-0.083051,51.495292],[-0.083116,51.49536],[-0.082541,51.495715],[-0.08216,51.495475],[-0.081454,51.495969],[-0.081258,51.495917],[-0.080845,51.496451]]]}},
{"type":"Feature","properties":{"objectid":22,"layerrefer":"OPA00000022","siterefere":"30","sitename":"Olympic Legacy","address":null,"uprn":null,"borough":"Hackney, Newham, Tower Hamlets, Waltham Forest","planning_a":null,"firstadded":null,"lastupdate":null,"removeddat":null,"status":"Adopted","hectares":1983.915,"easting":537516,"northing":185235,"designatio":"Opportunity Area","boroughdes":null,"classifica":null,"notes":"Please note the GLA does not define boundaries. This OA has been adopted and its boundary finalised by the OAPF team. For further information please contact the Planning Data Team or the relevant Plan","source":"https://www.london.gov.uk/what-we-do/planning/implementing-london-plan/opportunity-areas/londons-opportunity-areas/olympic-legacy-opportunity-area","extrainfo1":"Document type: Local Plan, SPG","extrainfo2":"London Plan designation year: 2004","extrainfo3":"Relevant documents: Local Plan (2020), Olympic Legacy SPG (2012)","missing":null,"gdb_geomat":null,"in_cw":false,"whole_in_zone":false},"geometry":{"type":"Polygon","coordinates":[[[0.010796,51.540547],[0.01058,51.540514],[0.01089,51.539566],[0.011293,51.539537],[0.011321,51.539243],[0.011455,51.539176],[0.011631,51.539126],[0.011366,51.538843],[0.011242,51.538727],[0.011113,51.5386],[0.010929,51.538395],[0.010441,51.537809],[0.010231,51.537429],[0.010169,51.537186],[0.011238,51.537178],[0.01133,51.537177],[0.012033,51.537165],[0.012039,51.536891],[0.011871,51.53628],[0.011748,51.535876],[0.011593,51.53556],[0.011802,51.535561],[0.011736,51.535207],[0.011174,51.535227],[0.011027,51.534286],[0.011392,51.534181],[0.011187,51.533933],[0.008807,51.533446],[0.008677,51.533427],[0.008452,51.53338],[0.008674,51.533014],[0.008999,51.532117],[0.00889,51.531334],[0.008882,51.530633],[0.009879,51.530687],[0.010005,51.53027],[0.010699,51.530297],[0.010977,51.530309],[0.011331,51.530121],[0.011563,51.530073],[0.009904,51.529692],[0.007308,51.529117],[0.005143,51.528705],[0.004957,51.528658],[0.004912,51.527646],[0.00493,51.525409],[0.002409,51.525623],[-0.001029,51.525846],[-0.001553,51.525724],[-0.002394,51.526322],[-0.002705,51.526498],[-0.002788,51.526684],[-0.004514,51.52631],[-0.005075,51.526178],[-0.006302,51.525954],[-0.00736,51.525843],[-0.007418,51.525696],[-0.007578,51.525409],[-0.007822,51.525094],[-0.007907,51.524858],[-0.008064,51.523984],[-0.008049,51.523982],[-0.008064,51.523981],[-0.008224,51.523978],[-0.00823,51.523965],[-0.008747,51.523949],[-0.009813,51.523733],[-0.010834,51.523544],[-0.010841,51.523565],[-0.01259,51.52333],[-0.015043,51.523039],[-0.015218,51.52302],[-0.01663,51.522926],[-0.017438,51.522691],[-0.01808,51.522356],[-0.018657,51.521876],[-0.018939,51.521527],[-0.018987,51.521315],[-0.020065,51.521186],[-0.020202,51.521402],[-0.020422,51.521798],[-0.021091,51.521713],[-0.022493,51.521517],[-0.023147,51.521547],[-0.023179,51.521516],[-0.024034,51.521741],[-0.024503,51.521862],[-0.02484,51.521953],[-0.025431,51.522053],[-0.027421,51.520812],[-0.027472,51.520783],[-0.027673,51.520835],[-0.02764,51.521041],[-0.027444,51.521188],[-0.0273,51.52133],[-0.027333,51.521404],[-0.027569,51.521726],[-0.027772,51.521919],[-0.027831,51.522111],[-0.027997,51.522394],[-0.028352,51.522594],[-0.028431,51.522777],[-0.02829,51.522816],[-0.028092,51.522909],[-0.028285,51.523424],[-0.027278,51.523615],[-0.027121,51.523551],[-0.026534,51.524012],[-0.025926,51.524167],[-0.025709,51.524056],[-0.025483,51.524062],[-0.025165,51.524135],[-0.025076,51.524383],[-0.025115,51.524601],[-0.025212,51.524691],[-0.025294,51.524732],[-0.025558,51.524746],[-0.025772,51.524735],[-0.025958,51.524655],[-0.026058,51.524737],[-0.027837,51.524341],[-0.028759,51.526004],[-0.029114,51.526306],[-0.029759,51.526196],[-0.030033,51.526567],[-0.030813,51.527916],[-0.033032,51.527388],[-0.033653,51.52824],[-0.033963,51.52871],[-0.037168,51.527869],[-0.038291,51.528947],[-0.037031,51.529486],[-0.035432,51.530064],[-0.035077,51.530199],[-0.036577,51.531628],[-0.033005,51.532317],[-0.0332,51.532534],[-0.03347,51.532472],[-0.03361,51.532722],[-0.032617,51.532967],[-0.034046,51.534948],[-0.033635,51.535067],[-0.034233,51.535923],[-0.034704,51.536394],[-0.034829,51.536569],[-0.0351,51.536734],[-0.035579,51.536895],[-0.036242,51.53747],[-0.036686,51.537793],[-0.037062,51.537978],[-0.037843,51.537992],[-0.03837,51.537943],[-0.038853,51.537894],[-0.039284,51.538038],[-0.039544,51.538116],[-0.040693,51.538112],[-0.038139,51.540489],[-0.037311,51.541259],[-0.038165,51.541427],[-0.03962,51.541572],[-0.040037,51.541689],[-0.041508,51.542668],[-0.041686,51.543439],[-0.042222,51.544479],[-0.042299,51.545138],[-0.041663,51.545205],[-0.041979,51.54645],[-0.042024,51.547011],[-0.043503,51.547065],[-0.046066,51.547143],[-0.046072,51.547219],[-0.046262,51.547434],[-0.046405,51.547619],[-0.046437,51.547961],[-0.04701,51.548017],[-0.047503,51.54916],[-0.047507,51.549208],[-0.047992,51.549127],[-0.048735,51.550694],[-0.048933,51.551005],[-0.049297,51.552122],[-0.049473,51.551982],[-0.049933,51.551819],[-0.05018,51.551794],[-0.050188,51.551824],[-0.051609,51.551465],[-0.05215,51.552062],[-0.052585,51.552481],[-0.053284,51.553575],[-0.054209,51.554673],[-0.054727,51.555582],[-0.05524,51.556179],[-0.055534,51.556572],[-0.055762,51.557217],[-0.055767,51.55752],[-0.055723,51.557859],[-0.055513,51.55806],[-0.055099,51.558336],[-0.054371,51.55864],[-0.053175,51.558912],[-0.051718,51.559515],[-0.050899,51.559859],[-0.049919,51.560298],[-0.049031,51.560678],[-0.048664,51.56086],[-0.047812,51.561202],[-0.047118,51.561502],[-0.046025,51.561961],[-0.045698,51.562097],[-0.045568,51.562139],[-0.045679,51.562234],[-0.04568,51.562234],[-0.046038,51.562313],[-0.046542,51.562387],[-0.046554,51.56239],[-0.046591,51.562397],[-0.04663,51.562405],[-0.046667,51.562414],[-0.046702,51.562423],[-0.04674,51.562434],[-0.046775,51.562444],[-0.046809,51.562456],[-0.046845,51.562468],[-0.046877,51.562481],[-0.046887,51.562485],[-0.046911,51.562494],[-0.046934,51.562504],[-0.046957,51.562513],[-0.046979,51.562523],[-0.047002,51.562533],[-0.047025,51.562545],[-0.047046,51.562556],[-0.047066,51.562567],[-0.047087,51.562579],[-0.047106,51.562591],[-0.047125,51.562603],[-0.047141,51.562617],[-0.04716,51.56263],[-0.047161,51.562632],[-0.047178,51.562647],[-0.047193,51.562662],[-0.047208,51.562677],[-0.047222,51.562693],[-0.047234,51.562709],[-0.047246,51.562725],[-0.047257,51.562742],[-0.047268,51.562759],[-0.047276,51.562775],[-0.047285,51.562793],[-0.047292,51.56281],[-0.047298,51.562828],[-0.047305,51.562845],[-0.047306,51.562851],[-0.047311,51.562871],[-0.047313,51.56289],[-0.047315,51.56291],[-0.047316,51.56293],[-0.047315,51.56295],[-0.047314,51.56297],[-0.047312,51.562989],[-0.047306,51.56301],[-0.047303,51.563029],[-0.047296,51.563048],[-0.047289,51.563068],[-0.047285,51.563081],[-0.047277,51.563101],[-0.047273,51.563108],[-0.047267,51.56312],[-0.047256,51.563138],[-0.047245,51.563157],[-0.047233,51.563175],[-0.047219,51.563194],[-0.047205,51.563211],[-0.04719,51.563228],[-0.047174,51.563246],[-0.047002,51.563418],[-0.046828,51.563613],[-0.046822,51.563618],[-0.046798,51.563639],[-0.046776,51.56366],[-0.046755,51.563681],[-0.046736,51.563703],[-0.046716,51.563726],[-0.046699,51.563749],[-0.046691,51.563758],[-0.046679,51.563776],[-0.046667,51.563795],[-0.046654,51.563813],[-0.046644,51.563831],[-0.046634,51.56385],[-0.046625,51.563869],[-0.046617,51.563888],[-0.046609,51.563906],[-0.046602,51.563926],[-0.046597,51.563945],[-0.046593,51.563965],[-0.046591,51.56397],[-0.046589,51.563998],[-0.046589,51.564025],[-0.046591,51.564052],[-0.046594,51.56408],[-0.046599,51.564107],[-0.046605,51.564134],[-0.046612,51.564161],[-0.046617,51.564179],[-0.046626,51.564206],[-0.046636,51.564232],[-0.046647,51.564259],[-0.04666,51.564285],[-0.046675,51.564311],[-0.046701,51.564381],[-0.046744,51.56442],[-0.046774,51.564458],[-0.04681,51.564519],[-0.047457,51.565185],[-0.047521,51.56524],[-0.04764,51.565325],[-0.048213,51.565668],[-0.04828,51.565715],[-0.048407,51.565808],[-0.048541,51.565914],[-0.048933,51.56623],[-0.049028,51.566319],[-0.049124,51.566394],[-0.049826,51.566855],[-0.050421,51.567216],[-0.050662,51.567468],[-0.050762,51.56754],[-0.050827,51.567578],[-0.05115,51.567723],[-0.051908,51.567993],[-0.052799,51.568395],[-0.053133,51.568575],[-0.053268,51.568664],[-0.053358,51.568745],[-0.053509,51.569007],[-0.05415,51.570075],[-0.054266,51.570198],[-0.054413,51.5703],[-0.05453,51.570364],[-0.054653,51.570421],[-0.054766,51.570459],[-0.054954,51.570501],[-0.055265,51.57054],[-0.05555,51.570539],[-0.055755,51.57055],[-0.055844,51.57056],[-0.055985,51.57061],[-0.056146,51.570673],[-0.056373,51.570796],[-0.056596,51.570995],[-0.056745,51.571357],[-0.05708,51.571612],[-0.057565,51.571899],[-0.057963,51.572167],[-0.0582,51.572326],[-0.058405,51.572526],[-0.05842,51.572567],[-0.058425,51.572581],[-0.058448,51.572649],[-0.058471,51.572716],[-0.058507,51.572941],[-0.05856,51.573169],[-0.05856,51.573169],[-0.058449,51.573174],[-0.058434,51.573175],[-0.058419,51.573176],[-0.058404,51.573177],[-0.05839,51.573177],[-0.058375,51.573178],[-0.05836,51.573179],[-0.058345,51.57318],[-0.058331,51.57318],[-0.058315,51.573181],[-0.058301,51.573182],[-0.058299,51.573182],[-0.058237,51.573185],[-0.058202,51.573189],[-0.058055,51.573197],[-0.05729,51.573244],[-0.056925,51.573323],[-0.056512,51.573377],[-0.056396,51.573405],[-0.056364,51.573413],[-0.05621,51.573449],[-0.056029,51.573533],[-0.055727,51.5737],[-0.055613,51.573763],[-0.055547,51.57382],[-0.055512,51.573853],[-0.055394,51.573981],[-0.055389,51.573977],[-0.055379,51.573971],[-0.054475,51.574528],[-0.053736,51.574948],[-0.053697,51.574972],[-0.053685,51.574981],[-0.053661,51.575005],[-0.053649,51.575022],[-0.053644,51.575029],[-0.053639,51.575044],[-0.053601,51.575128],[-0.053572,51.57515],[-0.053494,51.575169],[-0.053354,51.575317],[-0.053255,51.57542],[-0.053236,51.575443],[-0.053162,51.57552],[-0.053061,51.575626],[-0.052921,51.575772],[-0.052769,51.575805],[-0.05262,51.575962],[-0.052481,51.576107],[-0.052375,51.57622],[-0.052355,51.576242],[-0.052337,51.576265],[-0.052321,51.576288],[-0.052307,51.57631],[-0.0523,51.576324],[-0.052213,51.576296],[-0.052109,51.576134],[-0.0521,51.576116],[-0.052092,51.576102],[-0.052096,51.575971],[-0.052079,51.575954],[-0.051964,51.575876],[-0.051803,51.575765],[-0.051727,51.575715],[-0.051438,51.575522],[-0.051306,51.575374],[-0.051128,51.575175],[-0.051064,51.575102],[-0.050672,51.574668],[-0.050603,51.574589],[-0.050504,51.574479],[-0.050335,51.574288],[-0.050209,51.57415],[-0.049917,51.573822],[-0.049864,51.573769],[-0.049789,51.573759],[-0.049648,51.573728],[-0.049532,51.573685],[-0.049388,51.573625],[-0.049267,51.573581],[-0.049154,51.573548],[-0.049143,51.573549],[-0.049055,51.573551],[-0.048967,51.573554],[-0.048857,51.573559],[-0.048747,51.573564],[-0.048664,51.573568],[-0.048645,51.573569],[-0.048565,51.573574],[-0.048543,51.573575],[-0.04852,51.573576],[-0.048499,51.573578],[-0.04848,51.57358],[-0.04842,51.573586],[-0.04836,51.57359],[-0.048308,51.573595],[-0.048255,51.5736],[-0.048233,51.573602],[-0.048212,51.573604],[-0.048204,51.573605],[-0.048197,51.573606],[-0.048189,51.573606],[-0.048183,51.573606],[-0.04816,51.573609],[-0.048138,51.573612],[-0.048112,51.573616],[-0.048084,51.57362],[-0.048067,51.573622],[-0.048049,51.573624],[-0.048023,51.573628],[-0.047997,51.573631],[-0.047974,51.573634],[-0.04795,51.573637],[-0.047927,51.57364],[-0.047905,51.573644],[-0.047887,51.573646],[-0.047869,51.573649],[-0.047862,51.573651],[-0.047857,51.573651],[-0.047848,51.573653],[-0.047839,51.573654],[-0.047784,51.573663],[-0.04773,51.573671],[-0.047688,51.573678],[-0.047646,51.573685],[-0.047613,51.57369],[-0.047579,51.573696],[-0.04751,51.573709],[-0.047441,51.573722],[-0.047394,51.573731],[-0.047347,51.573741],[-0.047335,51.573743],[-0.047322,51.573745],[-0.047307,51.573749],[-0.047292,51.573752],[-0.047228,51.573767],[-0.047166,51.573782],[-0.04715,51.573785],[-0.047135,51.573789],[-0.047123,51.573792],[-0.047111,51.573794],[-0.047067,51.573806],[-0.047024,51.573817],[-0.046915,51.573848],[-0.046805,51.57388],[-0.046722,51.573904],[-0.04664,51.57393],[-0.046605,51.57394],[-0.046571,51.573951],[-0.046552,51.573956],[-0.046534,51.573962],[-0.046484,51.57398],[-0.046433,51.573998],[-0.046392,51.574013],[-0.04635,51.574028],[-0.046312,51.574041],[-0.046275,51.574054],[-0.046244,51.574065],[-0.046213,51.574077],[-0.046186,51.574088],[-0.046158,51.574099],[-0.046122,51.574114],[-0.046088,51.574128],[-0.046075,51.574133],[-0.04595,51.574187],[-0.045827,51.574243],[-0.045765,51.574271],[-0.045705,51.574298],[-0.045671,51.574313],[-0.045652,51.574323],[-0.045625,51.574334],[-0.045598,51.574348],[-0.045568,51.574361],[-0.045542,51.574372],[-0.045532,51.574378],[-0.045523,51.574382],[-0.04551,51.57439],[-0.045471,51.574414],[-0.04543,51.574439],[-0.045412,51.574451],[-0.045377,51.574475],[-0.045337,51.574501],[-0.045297,51.574529],[-0.045261,51.574552],[-0.045226,51.574578],[-0.045119,51.574649],[-0.044952,51.574764],[-0.0448,51.574865],[-0.044771,51.574884],[-0.044704,51.574923],[-0.044504,51.575039],[-0.044061,51.575297],[-0.043892,51.575395],[-0.043727,51.575491],[-0.043548,51.575589],[-0.043017,51.575875],[-0.042723,51.57603],[-0.042209,51.576305],[-0.041972,51.576432],[-0.041627,51.576618],[-0.041382,51.576749],[-0.041194,51.576848],[-0.04107,51.576914],[-0.041029,51.576936],[-0.041008,51.576894],[-0.040948,51.576893],[-0.04094,51.576897],[-0.04092,51.576908],[-0.040856,51.576942],[-0.040846,51.576947],[-0.04079,51.576976],[-0.040769,51.576986],[-0.040767,51.576987],[-0.040765,51.576985],[-0.040765,51.576985],[-0.040647,51.577047],[-0.040634,51.577054],[-0.040632,51.577055],[-0.040581,51.577045],[-0.040539,51.577013],[-0.040456,51.576953],[-0.040412,51.576921],[-0.040389,51.576905],[-0.040329,51.576866],[-0.040317,51.576858],[-0.04027,51.576809],[-0.040257,51.576829],[-0.04023,51.576825],[-0.040234,51.576771],[-0.040203,51.576735],[-0.04019,51.576721],[-0.040143,51.576663],[-0.040112,51.576624],[-0.040092,51.576601],[-0.040076,51.576578],[-0.040059,51.576549],[-0.040045,51.576527],[-0.040016,51.576482],[-0.039997,51.576452],[-0.039982,51.576431],[-0.039919,51.576366],[-0.039897,51.576354],[-0.039878,51.576343],[-0.039849,51.576328],[-0.039803,51.576309],[-0.039764,51.576294],[-0.039714,51.576274],[-0.039683,51.576262],[-0.03966,51.576253],[-0.039625,51.576239],[-0.039588,51.576223],[-0.039535,51.5762],[-0.039478,51.576177],[-0.039418,51.57615],[-0.039364,51.576128],[-0.039318,51.576108],[-0.039282,51.576092],[-0.039271,51.576087],[-0.03926,51.576082],[-0.039242,51.576074],[-0.039225,51.576066],[-0.039202,51.576056],[-0.039181,51.576045],[-0.039135,51.576022],[-0.039101,51.576005],[-0.039065,51.575985],[-0.039005,51.575953],[-0.038941,51.57592],[-0.038879,51.575888],[-0.038822,51.575858],[-0.038786,51.575838],[-0.038756,51.575819],[-0.038675,51.575776],[-0.038547,51.575708],[-0.038527,51.575698],[-0.038456,51.575664],[-0.038393,51.575632],[-0.038343,51.575608],[-0.038342,51.575608],[-0.038333,51.575604],[-0.038324,51.5756],[-0.038296,51.575588],[-0.038277,51.575582],[-0.038269,51.575579],[-0.03826,51.575578],[-0.038251,51.575577],[-0.038243,51.575577],[-0.03823,51.575576],[-0.038216,51.575576],[-0.038197,51.575578],[-0.038186,51.575579],[-0.038175,51.57558],[-0.038148,51.575584],[-0.038126,51.575588],[-0.038106,51.575592],[-0.038096,51.575595],[-0.038086,51.575598],[-0.038078,51.5756],[-0.038069,51.575602],[-0.038047,51.575609],[-0.038034,51.575611],[-0.038022,51.575614],[-0.038007,51.575617],[-0.037994,51.57562],[-0.03798,51.575622],[-0.037967,51.575623],[-0.037941,51.575625],[-0.037908,51.575624],[-0.037898,51.575623],[-0.037728,51.575617],[-0.037587,51.575613],[-0.037561,51.575614],[-0.037489,51.575611],[-0.037479,51.575609],[-0.037469,51.575607],[-0.037462,51.575606],[-0.037455,51.575604],[-0.037447,51.575601],[-0.037439,51.575598],[-0.037432,51.575595],[-0.037426,51.575592],[-0.03742,51.575588],[-0.037415,51.575585],[-0.037328,51.575533],[-0.037298,51.575515],[-0.037236,51.575507],[-0.035597,51.576612],[-0.035441,51.576713],[-0.035189,51.576904],[-0.034846,51.577128],[-0.034722,51.577195],[-0.034638,51.577143],[-0.034429,51.576957],[-0.034053,51.576665],[-0.034137,51.576594],[-0.034455,51.576354],[-0.034498,51.576304],[-0.034207,51.576136],[-0.033883,51.575923],[-0.033791,51.575839],[-0.033688,51.575662],[-0.033574,51.57549],[-0.03418,51.574965],[-0.034167,51.574959],[-0.034321,51.574844],[-0.03511,51.57421],[-0.035056,51.574153],[-0.034972,51.574067],[-0.035008,51.57405],[-0.03485,51.573862],[-0.034665,51.573778],[-0.035806,51.573141],[-0.035047,51.572063],[-0.036816,51.571621],[-0.036804,51.571605],[-0.036782,51.57158],[-0.036759,51.571555],[-0.036733,51.571529],[-0.036706,51.571504],[-0.036689,51.571488],[-0.03667,51.571473],[-0.036651,51.571458],[-0.036632,51.571443],[-0.036557,51.571384],[-0.036459,51.571305],[-0.036439,51.571289],[-0.036346,51.571216],[-0.036305,51.571186],[-0.036238,51.571134],[-0.036159,51.571073],[-0.036093,51.571022],[-0.036059,51.570992],[-0.036039,51.570976],[-0.036019,51.57096],[-0.036015,51.570957],[-0.036011,51.570953],[-0.036008,51.570949],[-0.035142,51.569943],[-0.034978,51.569465],[-0.032975,51.567495],[-0.032823,51.567561],[-0.031895,51.5679],[-0.031134,51.568195],[-0.030441,51.568429],[-0.030258,51.568502],[-0.027888,51.569379],[-0.02785,51.569393],[-0.025431,51.570288],[-0.025328,51.570333],[-0.024838,51.570481],[-0.024515,51.570204],[-0.024509,51.570207],[-0.024477,51.570172],[-0.024477,51.570172],[-0.024291,51.569966],[-0.024207,51.569873],[-0.024098,51.569728],[-0.023883,51.569373],[-0.023829,51.569291],[-0.023788,51.569237],[-0.023774,51.569219],[-0.023663,51.569109],[-0.023567,51.568999],[-0.023494,51.568929],[-0.023494,51.568928],[-0.023359,51.568798],[-0.023041,51.568496],[-0.02304,51.568495],[-0.02304,51.568495],[-0.022847,51.568304],[-0.022806,51.568249],[-0.022785,51.568223],[-0.019947,51.569195],[-0.017584,51.570099],[-0.017048,51.570287],[-0.015126,51.567929],[-0.013123,51.568652],[-0.012711,51.568404],[-0.011805,51.568992],[-0.011195,51.56885],[-0.010386,51.569242],[-0.009495,51.569501],[-0.008323,51.569734],[-0.008333,51.569898],[-0.00528,51.568859],[-0.003368,51.569518],[-0.001716,51.568645],[-0.001008,51.567942],[0.00031,51.567491],[0.000265,51.567262],[0.001828,51.566774],[0.002344,51.566491],[0.002638,51.566376],[0.00226,51.566196],[0.003542,51.565725],[0.003781,51.565615],[0.003827,51.565549],[0.005974,51.56459],[0.007398,51.56403],[0.007803,51.563833],[0.008379,51.563552],[0.009393,51.562983],[0.008743,51.561667],[0.007924,51.560539],[0.008002,51.560439],[0.00718,51.55919],[0.007563,51.559046],[0.00808,51.558845],[0.008606,51.558408],[0.00908,51.557994],[0.008146,51.557561],[0.007875,51.557401],[0.00874,51.556676],[0.008346,51.556504],[0.008093,51.556355],[0.009602,51.555045],[0.009893,51.554876],[0.010968,51.555296],[0.011242,51.554798],[0.01204,51.554071],[0.012962,51.554381],[0.014612,51.554937],[0.01622,51.553296],[0.016281,51.553224],[0.016289,51.553227],[0.016296,51.553219],[0.016318,51.55316],[0.01675,51.553343],[0.017586,51.552556],[0.016801,51.552202],[0.016898,51.551972],[0.017188,51.55144],[0.017729,51.550605],[0.017826,51.550542],[0.018703,51.550742],[0.019356,51.549596],[0.019603,51.549224],[0.019911,51.548615],[0.02486,51.549517],[0.024824,51.548695],[0.023071,51.548451],[0.023447,51.547402],[0.019404,51.546704],[0.019785,51.54616],[0.020043,51.54564],[0.016893,51.544816],[0.01561,51.544465],[0.017344,51.541495],[0.016267,51.541404],[0.014485,51.541292],[0.013865,51.541204],[0.013599,51.541165],[0.013317,51.541137],[0.011165,51.540603],[0.010796,51.540547]]]}},
{"type":"Feature","properties":{"objectid":26,"layerrefer":"OPA00000024","siterefere":"34","sitename":"Royal Docks and Beckton Riverside","address":null,"uprn":null,"borough":"Newham","planning_a":null,"firstadded":null,"lastupdate":null,"removeddat":null,"status":"Adopted","hectares":937.245,"easting":542364,"northing":181051,"designatio":"Opportunity Area","boroughdes":null,"classifica":null,"notes":"Please note the GLA does not define boundaries. This OA has been adopted and its boundary finalised by the OAPF team. For further information please contact the Planning Data Team or the relevant Plan","source":"https://www.london.gov.uk/what-we-do/planning/implementing-london-plan/opportunity-areas/oa-monitoring/royal-docks-beckton-riverside-opportunity-area","extrainfo1":"Document type: Local Plan, OAPF","extrainfo2":"London Plan designation year: 2004","extrainfo3":"Relevant documents: Royal Docks and Beckton Riverside OAPF (2023), Newham Local Plan Reg 18 (2023)","missing":null,"gdb_geomat":null,"in_cw":false,"whole_in_zone":false},"geometry":{"type":"Polygon","coordinates":[[[0.097643,51.515457],[0.096877,51.515013],[0.096058,51.515409],[0.095441,51.51528],[0.093847,51.514926],[0.091737,51.514542],[0.0892,51.513965],[0.087699,51.51351],[0.0856,51.512663],[0.083624,51.511674],[0.083585,51.511514],[0.083576,51.511314],[0.083884,51.511027],[0.083484,51.510713],[0.081304,51.508783],[0.080878,51.50861],[0.080613,51.508454],[0.080109,51.507981],[0.079217,51.506772],[0.078145,51.505144],[0.076816,51.503521],[0.076262,51.50335],[0.075346,51.502322],[0.073578,51.500244],[0.07283,51.500057],[0.07064,51.499312],[0.069801,51.499247],[0.066468,51.498844],[0.064144,51.498664],[0.061562,51.498488],[0.060048,51.498455],[0.05841,51.498523],[0.057256,51.498624],[0.056331,51.498801],[0.054572,51.499033],[0.053166,51.499258],[0.051916,51.49936],[0.049965,51.499615],[0.047882,51.499812],[0.0465,51.499837],[0.044506,51.499871],[0.042127,51.499913],[0.039455,51.499879],[0.038906,51.499828],[0.03639,51.499691],[0.035196,51.499632],[0.035006,51.499695],[0.034713,51.49962],[0.034415,51.499424],[0.034319,51.499426],[0.033609,51.499378],[0.032672,51.499294],[0.031344,51.499096],[0.030664,51.499007],[0.02898,51.498755],[0.027755,51.498716],[0.027046,51.498688],[0.02589,51.498728],[0.024959,51.498785],[0.024848,51.498465],[0.024656,51.498469],[0.024336,51.498514],[0.024048,51.498559],[0.023634,51.498647],[0.023679,51.498947],[0.023265,51.499035],[0.022659,51.499146],[0.022523,51.498987],[0.021948,51.499078],[0.021183,51.499251],[0.020453,51.499485],[0.019788,51.499717],[0.018934,51.500053],[0.018434,51.500383],[0.017804,51.500695],[0.017213,51.501147],[0.016871,51.501414],[0.016275,51.501766],[0.015903,51.502094],[0.016102,51.502231],[0.015547,51.502763],[0.015221,51.502668],[0.014541,51.503302],[0.014898,51.503376],[0.01474,51.503439],[0.014383,51.503365],[0.013552,51.504223],[0.013149,51.504571],[0.013159,51.504812],[0.013493,51.505087],[0.013369,51.50519],[0.012975,51.505181],[0.012324,51.50528],[0.011862,51.505434],[0.011046,51.506032],[0.010226,51.506543],[0.010096,51.506779],[0.00982,51.506901],[0.009205,51.506971],[0.009373,51.507276],[0.009552,51.507626],[0.009675,51.507753],[0.009842,51.508078],[0.009891,51.508206],[0.00989,51.508322],[0.009841,51.508425],[0.009761,51.508541],[0.009692,51.508629],[0.009616,51.508716],[0.009438,51.508888],[0.009232,51.509024],[0.009077,51.509099],[0.008869,51.509182],[0.008481,51.509287],[0.008082,51.509375],[0.00785,51.509424],[0.007715,51.509432],[0.007676,51.509433],[0.007277,51.509483],[0.006803,51.509554],[0.006509,51.509632],[0.006267,51.509716],[0.006168,51.509767],[0.006023,51.509875],[0.005958,51.509983],[0.005962,51.510071],[0.006026,51.510219],[0.006135,51.510406],[0.006195,51.510461],[0.006204,51.51052],[0.006238,51.510582],[0.006661,51.510926],[0.006941,51.511116],[0.00722,51.511561],[0.007301,51.511745],[0.007433,51.511822],[0.0076,51.512014],[0.007667,51.512101],[0.007717,51.512167],[0.007882,51.512303],[0.008017,51.512707],[0.008056,51.512981],[0.008018,51.513223],[0.007924,51.51335],[0.007914,51.513492],[0.007874,51.513573],[0.007661,51.513758],[0.00757,51.513862],[0.00746,51.514003],[0.007389,51.51411],[0.007319,51.514187],[0.007131,51.514263],[0.006937,51.514306],[0.006674,51.514337],[0.006431,51.514344],[0.006302,51.514327],[0.006133,51.514327],[0.005586,51.514167],[0.005505,51.514125],[0.00528,51.513891],[0.005103,51.513781],[0.004945,51.513583],[0.004904,51.513482],[0.004848,51.513416],[0.004782,51.513278],[0.004709,51.513091],[0.004642,51.512792],[0.004652,51.512524],[0.004691,51.512202],[0.004647,51.511916],[0.004551,51.511473],[0.004457,51.511246],[0.004407,51.511094],[0.004346,51.510981],[0.004285,51.510898],[0.004107,51.510714],[0.00403,51.510662],[0.003965,51.51063],[0.003896,51.510601],[0.003738,51.51056],[0.003566,51.510541],[0.003312,51.510538],[0.003096,51.510538],[0.002616,51.510605],[0.002529,51.510631],[0.00248,51.510654],[0.00241,51.510696],[0.002333,51.51079],[0.002285,51.510877],[0.002249,51.511012],[0.00226,51.511193],[0.002281,51.511277],[0.002331,51.511425],[0.002381,51.511543],[0.002508,51.511792],[0.002789,51.512307],[0.003312,51.513098],[0.003522,51.513478],[0.003637,51.513668],[0.003834,51.513974],[0.004007,51.514224],[0.004051,51.5143],[0.004085,51.514379],[0.004117,51.514481],[0.00413,51.514569],[0.004139,51.514632],[0.004086,51.51477],[0.004075,51.514801],[0.004026,51.514886],[0.003925,51.515034],[0.003835,51.515124],[0.003641,51.515273],[0.003204,51.515566],[0.00301,51.515671],[0.00276,51.51579],[0.002692,51.515822],[0.002572,51.515874],[0.002337,51.515972],[0.00198,51.516108],[0.001739,51.516198],[0.000598,51.516581],[-0.000636,51.517168],[-0.001427,51.517562],[-0.002054,51.517891],[-0.00219,51.517941],[-0.002275,51.51796],[-0.002333,51.517974],[0.001618,51.520474],[0.0017,51.520874],[0.001714,51.521195],[0.004628,51.520844],[0.004886,51.519393],[0.00505,51.518728],[0.005237,51.518261],[0.005772,51.517791],[0.006222,51.517561],[0.006617,51.517434],[0.008087,51.517258],[0.008732,51.517182],[0.008713,51.516734],[0.008777,51.516621],[0.009209,51.516224],[0.0111,51.517048],[0.011167,51.516915],[0.011428,51.516937],[0.011612,51.516992],[0.011592,51.517011],[0.012979,51.517624],[0.01319,51.517438],[0.01393,51.517788],[0.014695,51.517471],[0.015165,51.517328],[0.015218,51.517356],[0.015268,51.517362],[0.015373,51.517344],[0.01538,51.517337],[0.015375,51.517316],[0.015463,51.517291],[0.015602,51.517274],[0.015933,51.517256],[0.016448,51.517254],[0.016779,51.517253],[0.017237,51.517263],[0.017396,51.51697],[0.018202,51.517048],[0.018555,51.517068],[0.022907,51.517142],[0.024996,51.517167],[0.02647,51.517069],[0.028837,51.516907],[0.030319,51.516864],[0.031921,51.516978],[0.031883,51.516411],[0.031845,51.516057],[0.031686,51.515257],[0.031583,51.51445],[0.031559,51.513707],[0.031666,51.513217],[0.031934,51.512647],[0.032554,51.511892],[0.033292,51.511086],[0.033678,51.510533],[0.034076,51.50988],[0.036794,51.509396],[0.037531,51.509391],[0.040456,51.50932],[0.044152,51.509196],[0.048395,51.509082],[0.052571,51.508908],[0.05479,51.508889],[0.060574,51.508688],[0.065392,51.508482],[0.066803,51.508377],[0.069591,51.508107],[0.069602,51.508327],[0.069739,51.508487],[0.06993,51.508645],[0.070183,51.508742],[0.070423,51.508715],[0.070647,51.508714],[0.070686,51.508831],[0.070729,51.509091],[0.070808,51.5094],[0.070885,51.510128],[0.070999,51.511457],[0.071043,51.512428],[0.070859,51.513148],[0.070643,51.513638],[0.070521,51.514038],[0.070581,51.514402],[0.070826,51.51456],[0.070961,51.514672],[0.071041,51.514772],[0.071434,51.515076],[0.071821,51.515398],[0.072137,51.516016],[0.072566,51.517129],[0.072881,51.518103],[0.073132,51.518869],[0.073491,51.519586],[0.073575,51.520006],[0.073536,51.520569],[0.073519,51.520911],[0.073292,51.521362],[0.073139,51.521761],[0.072967,51.522226],[0.072765,51.522731],[0.072727,51.522921],[0.072617,51.523158],[0.072636,51.523434],[0.072719,51.523671],[0.072883,51.523914],[0.072924,51.524114],[0.072802,51.524257],[0.072653,51.524375],[0.072491,51.524504],[0.072246,51.524728],[0.07219,51.524991],[0.072182,51.525095],[0.072177,51.525162],[0.072187,51.525324],[0.072248,51.525525],[0.072278,51.525627],[0.072293,51.525676],[0.072426,51.525798],[0.072561,51.52586],[0.072655,51.525987],[0.072793,51.526185],[0.072901,51.526444],[0.072827,51.526928],[0.072849,51.527409],[0.072749,51.528054],[0.072766,51.528435],[0.07278,51.528736],[0.072792,51.528997],[0.07274,51.529267],[0.072837,51.529282],[0.072953,51.529298],[0.073049,51.529326],[0.073187,51.529363],[0.073192,51.529364],[0.073412,51.529431],[0.07413,51.529633],[0.074281,51.529624],[0.07447,51.529683],[0.074524,51.529692],[0.07458,51.529686],[0.074635,51.529665],[0.074719,51.529671],[0.074811,51.529695],[0.075123,51.529754],[0.075325,51.529871],[0.075413,51.52988],[0.075486,51.529862],[0.075516,51.529834],[0.075514,51.529818],[0.075498,51.529712],[0.075534,51.529689],[0.075598,51.529675],[0.075688,51.529656],[0.076093,51.529647],[0.07617,51.529598],[0.076229,51.529562],[0.076283,51.529544],[0.076525,51.529469],[0.076858,51.529402],[0.077263,51.529373],[0.077731,51.529365],[0.077823,51.529348],[0.077946,51.529326],[0.07827,51.529238],[0.078456,51.52916],[0.078881,51.528887],[0.079318,51.528496],[0.079581,51.528289],[0.079915,51.528033],[0.080162,51.52785],[0.08039,51.527691],[0.080504,51.527627],[0.080581,51.527576],[0.080724,51.527519],[0.08095,51.52745],[0.081054,51.527418],[0.081372,51.527319],[0.081667,51.527252],[0.081977,51.527185],[0.082605,51.52701],[0.082902,51.526916],[0.08319,51.526812],[0.083629,51.526632],[0.084124,51.526347],[0.084592,51.526106],[0.084856,51.525988],[0.08516,51.525886],[0.085619,51.525799],[0.085988,51.525789],[0.086176,51.525802],[0.086353,51.525827],[0.086487,51.525876],[0.086708,51.525959],[0.086841,51.526011],[0.087006,51.526064],[0.08759,51.526251],[0.088114,51.526383],[0.088507,51.526434],[0.088842,51.526478],[0.088843,51.526478],[0.089187,51.526483],[0.089256,51.526484],[0.089428,51.52647],[0.089558,51.526441],[0.08967,51.526399],[0.089877,51.526283],[0.089959,51.526227],[0.090154,51.526071],[0.090215,51.526032],[0.0903,51.525988],[0.090399,51.525947],[0.090486,51.525919],[0.09059,51.525896],[0.090703,51.525876],[0.090803,51.525867],[0.090905,51.525861],[0.091034,51.525864],[0.091186,51.525878],[0.091306,51.525897],[0.091692,51.525949],[0.091904,51.525945],[0.092133,51.525908],[0.092259,51.525867],[0.092381,51.525807],[0.092539,51.525736],[0.092619,51.525684],[0.092763,51.525535],[0.092875,51.525184],[0.092885,51.525024],[0.092854,51.524812],[0.092762,51.524534],[0.092594,51.523979],[0.092542,51.523897],[0.092451,51.523752],[0.092436,51.523521],[0.092419,51.523252],[0.09239,51.523014],[0.092378,51.522921],[0.092455,51.522737],[0.092512,51.522474],[0.092595,51.522377],[0.093079,51.521974],[0.093886,51.52134],[0.094391,51.520953],[0.094634,51.520795],[0.094637,51.520793],[0.094749,51.520721],[0.094812,51.52067],[0.094846,51.520636],[0.09492,51.520573],[0.095041,51.520424],[0.095076,51.520297],[0.095056,51.520186],[0.09504,51.520148],[0.094968,51.519989],[0.09492,51.519825],[0.094689,51.51858],[0.094636,51.518415],[0.094603,51.518251],[0.094589,51.518128],[0.094603,51.517881],[0.09465,51.517679],[0.094757,51.517425],[0.094905,51.517045],[0.095049,51.516856],[0.095155,51.516735],[0.095278,51.516606],[0.095507,51.516396],[0.095598,51.516322],[0.095848,51.51615],[0.096393,51.515854],[0.097094,51.515623],[0.097643,51.515457]]]}}
]}
