<?xml version="1.0" encoding="UTF-8"?>
<kml xmlns="http://www.opengis.net/kml/2.2" xmlns:gx="http://www.google.com/kml/ext/2.2">
<Document>
  <name>Canal &amp; River Trust locks in the zone</name>
  <open>1</open>
  <description>Canal &amp; River Trust locks in the zone. Source: Canal &amp; River Trust, https://data-canalrivertrust.opendata.arcgis.com/. Licence: Open Government Licence (item licence of Canal_And_River_Trust_Locks_View). Attribution: Contains Canal &amp; River Trust data licensed under the Open Government Licence v3.0. Fetched 2026-10-05 from https://services.arcgis.com/DknzyjEEie5tEW0u/arcgis/rest/services/Canal_And_River_Trust_Locks_View/FeatureServer/0/query?where=1%3D1&amp;geometry=-0.095,51.47,0.08,51.53&amp;geometryType=esriGeometryEnvelope&amp;inSR=4326&amp;spatialRel=esriSpatialRelIntersects&amp;outFields=*&amp;outSR=4326&amp;f=geojson&amp;resultRecordCount=4000; clipped to WGS84 -0.095, 51.47, 0.08, 51.53 (features that meet the box; lines cut at the edge) by magpie/cwplans/tools/find-kml.mjs for https://danbri.github.io/glitchcan-minigam/magpie/cwplans/docklands/ .</description>
  <Style id="layer"><IconStyle><color>ffcc4d1a</color><scale>1</scale></IconStyle></Style>
  <Placemark><name>West India Dock Entrance Lock</name><styleUrl>#layer</styleUrl><ExtendedData><Data name="sap_description"><displayName>sap_description</displayName><value>West India Dock Entrance Lock</value></Data><Data name="waterway_name"><displayName>waterway_name</displayName><value>South Dock</value></Data><Data name="sap_func_loc"><displayName>sap_func_loc</displayName><value>SD-001-052</value></Data></ExtendedData><Point><coordinates>-0.0105169,51.5013507,0</coordinates></Point></Placemark>
  <Placemark><name>Lock 11 Bypass Weir, Salmons Lane Lock</name><styleUrl>#layer</styleUrl><ExtendedData><Data name="sap_description"><displayName>sap_description</displayName><value>Lock 11 Bypass Weir, Salmons Lane Lock</value></Data><Data name="waterway_name"><displayName>waterway_name</displayName><value>Regent&apos;s Canal</value></Data><Data name="sap_func_loc"><displayName>sap_func_loc</displayName><value>RE-014-007</value></Data></ExtendedData><Point><coordinates>-0.0349345,51.5148562,0</coordinates></Point></Placemark>
  <Placemark><name>Lock 12 Bypass Weir, Commercial Rd. Lock</name><styleUrl>#layer</styleUrl><ExtendedData><Data name="sap_description"><displayName>sap_description</displayName><value>Lock 12 Bypass Weir, Commercial Rd. Lock</value></Data><Data name="waterway_name"><displayName>waterway_name</displayName><value>Regent&apos;s Canal</value></Data><Data name="sap_func_loc"><displayName>sap_func_loc</displayName><value>RE-014-013</value></Data></ExtendedData><Point><coordinates>-0.0366446,51.512295,0</coordinates></Point></Placemark>
  <Placemark><name>Lock 1, Limehouse Ship Lock</name><styleUrl>#layer</styleUrl><ExtendedData><Data name="sap_description"><displayName>sap_description</displayName><value>Lock 1, Limehouse Ship Lock</value></Data><Data name="waterway_name"><displayName>waterway_name</displayName><value>Limehouse Basin</value></Data><Data name="sap_func_loc"><displayName>sap_func_loc</displayName><value>LB-001-007</value></Data></ExtendedData><Point><coordinates>-0.0366821,51.5100834,0</coordinates></Point></Placemark>
  <Placemark><name>Lock 9 Bypass Weir, Mile End Lock</name><styleUrl>#layer</styleUrl><ExtendedData><Data name="sap_description"><displayName>sap_description</displayName><value>Lock 9 Bypass Weir, Mile End Lock</value></Data><Data name="waterway_name"><displayName>waterway_name</displayName><value>Regent&apos;s Canal</value></Data><Data name="sap_func_loc"><displayName>sap_func_loc</displayName><value>RE-013-002</value></Data></ExtendedData><Point><coordinates>-0.0379985,51.5250512,0</coordinates></Point></Placemark>
  <Placemark><name>Lock 10 Bypass Weir, Johnsons Lock</name><styleUrl>#layer</styleUrl><ExtendedData><Data name="sap_description"><displayName>sap_description</displayName><value>Lock 10 Bypass Weir, Johnsons Lock</value></Data><Data name="waterway_name"><displayName>waterway_name</displayName><value>Regent&apos;s Canal</value></Data><Data name="sap_func_loc"><displayName>sap_func_loc</displayName><value>RE-014-002</value></Data></ExtendedData><Point><coordinates>-0.0363715,51.5196465,0</coordinates></Point></Placemark>
  <Placemark><name>Lock 9, Mile End Lock</name><styleUrl>#layer</styleUrl><ExtendedData><Data name="sap_description"><displayName>sap_description</displayName><value>Lock 9, Mile End Lock</value></Data><Data name="waterway_name"><displayName>waterway_name</displayName><value>Regent&apos;s Canal</value></Data><Data name="sap_func_loc"><displayName>sap_func_loc</displayName><value>RE-013-003</value></Data></ExtendedData><Point><coordinates>-0.0378957,51.5250945,0</coordinates></Point></Placemark>
  <Placemark><name>Lock 10, Johnsons Lock</name><styleUrl>#layer</styleUrl><ExtendedData><Data name="sap_description"><displayName>sap_description</displayName><value>Lock 10, Johnsons Lock</value></Data><Data name="waterway_name"><displayName>waterway_name</displayName><value>Regent&apos;s Canal</value></Data><Data name="sap_func_loc"><displayName>sap_func_loc</displayName><value>RE-014-001</value></Data></ExtendedData><Point><coordinates>-0.0362562,51.5196446,0</coordinates></Point></Placemark>
  <Placemark><name>Lock 11, Salmons Lane Lock</name><styleUrl>#layer</styleUrl><ExtendedData><Data name="sap_description"><displayName>sap_description</displayName><value>Lock 11, Salmons Lane Lock</value></Data><Data name="waterway_name"><displayName>waterway_name</displayName><value>Regent&apos;s Canal</value></Data><Data name="sap_func_loc"><displayName>sap_func_loc</displayName><value>RE-014-005</value></Data></ExtendedData><Point><coordinates>-0.0348349,51.5148276,0</coordinates></Point></Placemark>
  <Placemark><name>Lock 12, Commercial Road Lock</name><styleUrl>#layer</styleUrl><ExtendedData><Data name="sap_description"><displayName>sap_description</displayName><value>Lock 12, Commercial Road Lock</value></Data><Data name="waterway_name"><displayName>waterway_name</displayName><value>Regent&apos;s Canal</value></Data><Data name="sap_func_loc"><displayName>sap_func_loc</displayName><value>RE-014-012</value></Data></ExtendedData><Point><coordinates>-0.0365298,51.512284,0</coordinates></Point></Placemark>
  <Placemark><name>Lock 2012, Three Mills Lock</name><styleUrl>#layer</styleUrl><ExtendedData><Data name="sap_description"><displayName>sap_description</displayName><value>Lock 2012, Three Mills Lock</value></Data><Data name="waterway_name"><displayName>waterway_name</displayName><value>Prescott Channel</value></Data><Data name="sap_func_loc"><displayName>sap_func_loc</displayName><value>PC-001-006</value></Data></ExtendedData><Point><coordinates>-0.0042825,51.5282687,0</coordinates></Point></Placemark>
  <Placemark><name>Lock 20, Bow, Bow Creek Side</name><styleUrl>#layer</styleUrl><ExtendedData><Data name="sap_description"><displayName>sap_description</displayName><value>Lock 20, Bow, Bow Creek Side</value></Data><Data name="waterway_name"><displayName>waterway_name</displayName><value>Lee Navigation</value></Data><Data name="sap_func_loc"><displayName>sap_func_loc</displayName><value>LN-001-004</value></Data></ExtendedData><Point><coordinates>-0.0080139,51.5230444,0</coordinates></Point></Placemark>
  <Placemark><name>Lock 20, Bow, River Lee Side</name><styleUrl>#layer</styleUrl><ExtendedData><Data name="sap_description"><displayName>sap_description</displayName><value>Lock 20, Bow, River Lee Side</value></Data><Data name="waterway_name"><displayName>waterway_name</displayName><value>Lee Navigation</value></Data><Data name="sap_func_loc"><displayName>sap_func_loc</displayName><value>LN-001-003</value></Data></ExtendedData><Point><coordinates>-0.0082156,51.5230479,0</coordinates></Point></Placemark>
</Document>
</kml>
