<?xml version="1.0" encoding="UTF-8"?>
<kml xmlns="http://www.opengis.net/kml/2.2" xmlns:gx="http://www.google.com/kml/ext/2.2">
<Document>
  <name>World Heritage Sites and buffer zone in the model box (Tower of London, Maritime Greenwich)</name>
  <open>1</open>
  <description>World Heritage Sites and buffer zone in the model box (Tower of London, Maritime Greenwich). Source: Historic England / MHCLG planning.data.gov.uk, https://www.planning.data.gov.uk/dataset/world-heritage-site. Licence: Open Government Licence v3.0. Attribution: © Historic England 2026. Contains Ordnance Survey data © Crown copyright and database right 2026. Open Government Licence v3.0 (via planning.data.gov.uk). Fetched 2026-10-05 from the project harvest in danbri/londat: cwplans/feeds/portals/pdg/world-heritage-site/world-heritage-site.geojson, cwplans/feeds/portals/pdg/world-heritage-site-buffer-zone/world-heritage-site-buffer-zone.geojson; clipped to WGS84 -0.095, 51.474, 0.015, 51.522 (features that meet the box; lines cut at the edge) by magpie/cwplans/tools/find-kml.mjs for https://danbri.github.io/glitchcan-minigam/magpie/cwplans/docklands/ .</description>
  <Style id="layer"><LineStyle><color>ff1ab3e6</color><width>3</width></LineStyle><PolyStyle><color>401ab3e6</color><fill>1</fill><outline>1</outline></PolyStyle></Style>
  <Placemark><name>Tower of London: Core Area</name><styleUrl>#layer</styleUrl><ExtendedData><Data name="reference"><displayName>reference</displayName><value>1000092</value></Data><Data name="notes"><displayName>notes</displayName><value>Core Area</value></Data><Data name="documentation-url"><displayName>documentation-url</displayName><value>https://historicengland.org.uk/listing/the-list/list-entry/1000092</value></Data></ExtendedData><Polygon><tessellate>1</tessellate><outerBoundaryIs><LinearRing><coordinates>-0.074372,51.507533,0 -0.074307,51.50783,0 -0.074213,51.508289,0 -0.074122,51.508719,0 -0.07403,51.509145,0 -0.074021,51.509177,0 -0.074021,51.509183,0 -0.074024,51.509196,0 -0.074038,51.509225,0 -0.074046,51.509238,0 -0.074067,51.509256,0 -0.07407,51.509257,0 -0.074375,51.509496,0 -0.074406,51.509516,0 -0.074445,51.509527,0 -0.074493,51.509537,0 -0.074554,51.509541,0 -0.074615,51.509539,0 -0.074754,51.509531,0 -0.076015,51.509441,0 -0.07623,51.509428,0 -0.076429,51.509419,0 -0.077025,51.509386,0 -0.077491,51.509362,0 -0.077577,51.50935,0 -0.077643,51.509334,0 -0.077705,51.509312,0 -0.07776,51.509283,0 -0.077809,51.509251,0 -0.077848,51.509213,0 -0.077879,51.509173,0 -0.077898,51.50913,0 -0.077946,51.509032,0 -0.078308,51.508376,0 -0.078955,51.508243,0 -0.079113,51.507876,0 -0.079103,51.507872,0 -0.079104,51.507856,0 -0.079099,51.507852,0 -0.079078,51.507843,0 -0.079061,51.507832,0 -0.078978,51.507787,0 -0.07892,51.507754,0 -0.078856,51.507714,0 -0.078792,51.507679,0 -0.078701,51.507632,0 -0.078636,51.507585,0 -0.078461,51.50754,0 -0.078068,51.507432,0 -0.078044,51.507446,0 -0.078001,51.507435,0 -0.078004,51.507414,0 -0.077865,51.507385,0 -0.077809,51.507404,0 -0.077633,51.507371,0 -0.077316,51.507303,0 -0.076884,51.507216,0 -0.076835,51.507203,0 -0.076707,51.507175,0 -0.076191,51.507066,0 -0.075944,51.506973,0 -0.07587,51.506948,0 -0.075863,51.506943,0 -0.075715,51.50689,0 -0.074761,51.50671,0 -0.074704,51.506792,0 -0.074672,51.506784,0 -0.074668,51.506789,0 -0.074458,51.507101,0 -0.074449,51.507153,0 -0.074372,51.507533,0</coordinates></LinearRing></outerBoundaryIs></Polygon></Placemark>
  <Placemark><name>Maritime Greenwich: Core Area</name><styleUrl>#layer</styleUrl><ExtendedData><Data name="reference"><displayName>reference</displayName><value>1000096</value></Data><Data name="notes"><displayName>notes</displayName><value>Core Area</value></Data><Data name="documentation-url"><displayName>documentation-url</displayName><value>https://historicengland.org.uk/listing/the-list/list-entry/1000096</value></Data></ExtendedData><Polygon><tessellate>1</tessellate><outerBoundaryIs><LinearRing><coordinates>-0.004156,51.484677,0 -0.004158,51.484679,0 -0.004254,51.484646,0 -0.004277,51.484648,0 -0.004283,51.484653,0 -0.004333,51.484634,0 -0.004329,51.484629,0 -0.004337,51.484616,0 -0.004423,51.484584,0 -0.004453,51.48457,0 -0.00447,51.484565,0 -0.00467,51.48466,0 -0.0047,51.48468,0 -0.004973,51.484585,0 -0.004984,51.484559,0 -0.00502,51.484546,0 -0.005008,51.484531,0 -0.00623,51.484117,0 -0.00625,51.484141,0 -0.006373,51.484099,0 -0.006353,51.484075,0 -0.007256,51.483775,0 -0.007347,51.483812,0 -0.008289,51.483586,0 -0.008308,51.483586,0 -0.008323,51.483598,0 -0.008361,51.483652,0 -0.008486,51.483839,0 -0.008501,51.483853,0 -0.008519,51.483863,0 -0.008534,51.483866,0 -0.008585,51.483861,0 -0.008659,51.48385,0 -0.009003,51.483789,0 -0.009121,51.483765,0 -0.00923,51.48374,0 -0.009361,51.483716,0 -0.00944,51.483699,0 -0.00974,51.48364,0 -0.010048,51.483593,0 -0.010011,51.483427,0 -0.010388,51.483396,0 -0.010438,51.483399,0 -0.010962,51.48333,0 -0.011043,51.483317,0 -0.010934,51.483065,0 -0.010934,51.483062,0 -0.010835,51.483002,0 -0.010732,51.48296,0 -0.010656,51.48294,0 -0.010449,51.482881,0 -0.010444,51.48278,0 -0.010359,51.48278,0 -0.010117,51.482442,0 -0.010169,51.4823,0 -0.010171,51.48229,0 -0.010131,51.482197,0 -0.010154,51.482065,0 -0.010157,51.481996,0 -0.010369,51.482003,0 -0.01037,51.481981,0 -0.010389,51.481933,0 -0.010407,51.481828,0 -0.010417,51.481829,0 -0.01042,51.481815,0 -0.010438,51.481817,0 -0.010447,51.481789,0 -0.010483,51.481792,0 -0.010499,51.481737,0 -0.010472,51.481734,0 -0.010479,51.481708,0 -0.010474,51.481707,0 -0.010481,51.481682,0 -0.010478,51.481672,0 -0.010484,51.481618,0 -0.010439,51.481614,0 -0.010439,51.481603,0 -0.010427,51.481603,0 -0.010431,51.481575,0 -0.010426,51.481501,0 -0.010322,51.481502,0 -0.01031,51.48136,0 -0.010306,51.48134,0 -0.010278,51.481338,0 -0.010291,51.481313,0 -0.010276,51.481308,0 -0.010282,51.481298,0 -0.010236,51.481275,0 -0.010211,51.48122,0 -0.010205,51.481199,0 -0.010216,51.481196,0 -0.010194,51.481164,0 -0.010209,51.481153,0 -0.010183,51.481123,0 -0.010202,51.481119,0 -0.010184,51.481097,0 -0.010235,51.481082,0 -0.010206,51.481044,0 -0.010324,51.481012,0 -0.010301,51.480978,0 -0.010258,51.480905,0 -0.010316,51.480888,0 -0.010289,51.480851,0 -0.01039,51.480818,0 -0.01042,51.48081,0 -0.010425,51.480817,0 -0.010753,51.480742,0 -0.010754,51.480739,0 -0.010715,51.480603,0 -0.010687,51.480554,0 -0.010669,51.480512,0 -0.010911,51.480207,0 -0.010906,51.480068,0 -0.010714,51.480079,0 -0.010225,51.480087,0 -0.009866,51.480076,0 -0.009688,51.479989,0 -0.009336,51.479968,0 -0.009327,51.47997,0 -0.009294,51.47996,0 -0.009247,51.479942,0 -0.008945,51.479778,0 -0.008862,51.479749,0 -0.008851,51.47975,0 -0.008839,51.479747,0 -0.00872,51.479682,0 -0.00852,51.479562,0 -0.008476,51.47954,0 -0.008383,51.479497,0 -0.008161,51.479372,0 -0.008104,51.479333,0 -0.00807,51.479306,0 -0.008293,51.479192,0 -0.008282,51.479183,0 -0.008268,51.479177,0 -0.008253,51.479165,0 -0.008355,51.479115,0 -0.008325,51.479091,0 -0.008611,51.478946,0 -0.008538,51.478898,0 -0.0086,51.478866,0 -0.008454,51.478772,0 -0.008701,51.478616,0 -0.008394,51.478418,0 -0.008162,51.47855,0 -0.007685,51.478223,0 -0.007461,51.478066,0 -0.007429,51.478057,0 -0.007451,51.478041,0 -0.007298,51.477955,0 -0.00718,51.477896,0 -0.007148,51.477859,0 -0.007003,51.477958,0 -0.006924,51.477911,0 -0.006877,51.477879,0 -0.006859,51.477876,0 -0.006822,51.477848,0 -0.006815,51.477836,0 -0.00685,51.477816,0 -0.006595,51.477621,0 -0.006406,51.477712,0 -0.006255,51.477598,0 -0.006341,51.477556,0 -0.006298,51.477502,0 -0.006272,51.477483,0 -0.006294,51.477469,0 -0.006452,51.477393,0 -0.006708,51.477266,0 -0.006722,51.477275,0 -0.006788,51.477243,0 -0.006519,51.477063,0 -0.006742,51.476938,0 -0.006617,51.476858,0 -0.006586,51.476876,0 -0.006349,51.476711,0 -0.006329,51.476719,0 -0.006251,51.476664,0 -0.00621,51.476648,0 -0.006215,51.476639,0 -0.006215,51.476637,0 -0.006211,51.476633,0 -0.006202,51.476628,0 -0.006194,51.476626,0 -0.006179,51.476627,0 -0.006075,51.476549,0 -0.006053,51.476458,0 -0.006561,51.476183,0 -0.006375,51.476078,0 -0.006373,51.476069,0 -0.006408,51.476043,0 -0.006327,51.475968,0 -0.006307,51.475953,0 -0.006157,51.475863,0 -0.006113,51.475861,0 -0.006028,51.475814,0 -0.006003,51.475831,0 -0.005732,51.475681,0 -0.005698,51.475705,0 -0.005675,51.475693,0 -0.005657,51.475707,0 -0.005589,51.47567,0 -0.00557,51.475673,0 -0.005502,51.475635,0 -0.005471,51.475569,0 -0.005496,51.475362,0 -0.005138,51.475483,0 -0.005009,51.475514,0 -0.004791,51.47551,0 -0.004636,51.47546,0 -0.004493,51.475458,0 -0.00435,51.47547,0 -0.004004,51.47514,0 -0.003853,51.474814,0 -0.003631,51.474376,0 -0.002198,51.471924,0 -0.001444,51.47183,0 -0.001343,51.47182,0 -0.001067,51.471806,0 -0.000876,51.471804,0 -0.000649,51.471815,0 -0.000396,51.47183,0 -0.000031,51.471841,0 0.000183,51.471861,0 0.000246,51.472048,0 0.003412,51.472988,0 0.005026,51.473477,0 0.006656,51.473993,0 0.008456,51.474582,0 0.009567,51.474929,0 0.009873,51.475046,0 0.009907,51.475129,0 0.009882,51.475261,0 0.009812,51.475356,0 0.009018,51.476096,0 0.008612,51.47645,0 0.005459,51.479353,0 0.005248,51.479565,0 0.005092,51.479678,0 0.004947,51.479805,0 0.004912,51.479866,0 0.004906,51.480041,0 0.00491,51.48011,0 0.004957,51.480122,0 0.004914,51.480201,0 0.004922,51.480209,0 0.004985,51.480225,0 0.005095,51.480231,0 0.005092,51.480267,0 0.005077,51.48033,0 0.005056,51.480449,0 0.005042,51.480515,0 0.005043,51.480553,0 0.005187,51.480563,0 0.005159,51.480714,0 0.005,51.480702,0 0.004918,51.48069,0 0.004574,51.480656,0 0.004562,51.480651,0 0.004354,51.480473,0 0.004358,51.480471,0 0.004109,51.480316,0 0.004032,51.480274,0 0.003754,51.480436,0 0.003608,51.480533,0 0.002795,51.481361,0 0.002472,51.481686,0 0.001918,51.482202,0 0.001784,51.482325,0 0.001721,51.48238,0 0.001707,51.482398,0 0.001674,51.482527,0 0.00166,51.482596,0 0.001642,51.482641,0 0.001622,51.482706,0 0.001449,51.482696,0 0.000495,51.482621,0 0.000494,51.482619,0 0.000497,51.482607,0 0.000516,51.482579,0 0.000548,51.482526,0 0.000102,51.482409,0 -0.000051,51.482367,0 -0.00006,51.482361,0 -0.00012,51.482458,0 -0.000123,51.482458,0 -0.000555,51.482361,0 -0.000866,51.482289,0 -0.000864,51.482277,0 -0.000828,51.482216,0 -0.001033,51.482169,0 -0.001056,51.482206,0 -0.001121,51.48219,0 -0.001124,51.482187,0 -0.0011,51.482146,0 -0.001236,51.482112,0 -0.001225,51.482086,0 -0.001585,51.482003,0 -0.001729,51.482006,0 -0.001969,51.481947,0 -0.002058,51.482138,0 -0.002075,51.482171,0 -0.002119,51.482245,0 -0.00212,51.482249,0 -0.002103,51.482254,0 -0.002108,51.482257,0 -0.002208,51.482406,0 -0.00265,51.482371,0 -0.00273,51.482352,0 -0.003103,51.48286,0 -0.00334,51.483147,0 -0.003636,51.483526,0 -0.003534,51.483556,0 -0.003349,51.483602,0 -0.00325,51.483629,0 -0.003149,51.483653,0 -0.002962,51.483718,0 -0.002867,51.483753,0 -0.002853,51.48376,0 -0.002845,51.483767,0 -0.002841,51.483777,0 -0.002842,51.483794,0 -0.002861,51.483833,0 -0.002872,51.48385,0 -0.002953,51.484014,0 -0.002989,51.484076,0 -0.003032,51.484125,0 -0.00313,51.484219,0 -0.003165,51.484255,0 -0.003192,51.484293,0 -0.003413,51.484559,0 -0.003465,51.484542,0 -0.003445,51.484511,0 -0.003593,51.484452,0 -0.003761,51.484647,0 -0.004034,51.484544,0 -0.004054,51.484562,0 -0.004156,51.484677,0</coordinates></LinearRing></outerBoundaryIs></Polygon></Placemark>
  <Placemark><name>Maritime Greenwich: Buffer Zone</name><styleUrl>#layer</styleUrl><ExtendedData><Data name="reference"><displayName>reference</displayName><value>1000096</value></Data><Data name="notes"><displayName>notes</displayName><value>Buffer Zone</value></Data><Data name="documentation-url"><displayName>documentation-url</displayName><value>https://historicengland.org.uk/listing/the-list/list-entry/1000096</value></Data></ExtendedData><Polygon><tessellate>1</tessellate><outerBoundaryIs><LinearRing><coordinates>-0.007073,51.487631,0 -0.007343,51.487547,0 -0.007954,51.487369,0 -0.008653,51.487182,0 -0.0096,51.486999,0 -0.009471,51.486709,0 -0.009519,51.486422,0 -0.011427,51.483083,0 -0.011544,51.482258,0 -0.01155,51.481468,0 -0.011454,51.480178,0 -0.011005,51.480036,0 -0.011389,51.479647,0 -0.011485,51.479475,0 -0.012136,51.479051,0 -0.013075,51.478427,0 -0.013952,51.478332,0 -0.01374,51.477688,0 -0.013612,51.477417,0 -0.013484,51.476877,0 -0.012476,51.477042,0 -0.012408,51.477175,0 -0.01178,51.477069,0 -0.011477,51.477041,0 -0.011034,51.477033,0 -0.010881,51.475892,0 -0.010576,51.475658,0 -0.010433,51.475735,0 -0.010164,51.475216,0 -0.009994,51.474747,0 -0.009781,51.474412,0 -0.008975,51.473742,0 -0.008616,51.47327,0 -0.008327,51.47264,0 -0.008542,51.472067,0 -0.007302,51.471753,0 -0.006202,51.471466,0 -0.006488,51.470996,0 -0.006595,51.470856,0 -0.007376,51.469786,0 -0.007545,51.469687,0 -0.007853,51.469558,0 -0.008256,51.469319,0 -0.008562,51.468985,0 -0.008237,51.468892,0 -0.007912,51.468792,0 -0.007653,51.468637,0 -0.007291,51.468228,0 -0.006897,51.468277,0 -0.006514,51.468349,0 -0.005057,51.46868,0 -0.004173,51.468934,0 -0.003021,51.46923,0 -0.00238,51.469409,0 -0.001576,51.469577,0 -0.001318,51.469691,0 -0.000185,51.469253,0 0.001572,51.468638,0 0.002447,51.468386,0 0.003173,51.468208,0 0.003614,51.468161,0 0.004191,51.468032,0 0.004482,51.468328,0 0.00464,51.468191,0 0.005241,51.467754,0 0.005448,51.46756,0 0.006477,51.467069,0 0.006657,51.467152,0 0.007761,51.467774,0 0.008752,51.468176,0 0.009219,51.468429,0 0.009758,51.46917,0 0.010099,51.469441,0 0.010268,51.469549,0 0.010358,51.469579,0 0.010842,51.469657,0 0.012649,51.469879,0 0.013436,51.469945,0 0.014184,51.469956,0 0.016335,51.469974,0 0.015549,51.471363,0 0.015387,51.471722,0 0.015057,51.472557,0 0.015027,51.473024,0 0.015722,51.473573,0 0.018988,51.476726,0 0.019156,51.477379,0 0.019216,51.477876,0 0.019145,51.478296,0 0.019161,51.478659,0 0.018561,51.478828,0 0.018235,51.478873,0 0.017541,51.478932,0 0.016859,51.47896,0 0.016377,51.478952,0 0.014964,51.478771,0 0.012934,51.478679,0 0.012328,51.478674,0 0.011835,51.478714,0 0.011081,51.478838,0 0.010431,51.479023,0 0.009785,51.479287,0 0.008522,51.479941,0 0.006866,51.479993,0 0.006828,51.480278,0 0.006681,51.480684,0 0.005604,51.480631,0 0.005524,51.481146,0 0.005093,51.48113,0 0.005097,51.481209,0 0.005176,51.481263,0 0.005077,51.481336,0 0.004939,51.481362,0 0.004882,51.481408,0 0.004317,51.481827,0 0.004082,51.48172,0 0.003417,51.48192,0 0.003071,51.482114,0 0.002509,51.482223,0 0.002837,51.48245,0 0.002542,51.482576,0 0.002261,51.482625,0 0.0018,51.482622,0 0.001772,51.482822,0 0.000314,51.482692,0 -0.00075,51.484303,0 -0.000695,51.484347,0 -0.002236,51.485988,0 -0.003431,51.4854,0 -0.003867,51.485175,0 -0.004281,51.485016,0 -0.004803,51.484837,0 -0.007073,51.487631,0</coordinates></LinearRing></outerBoundaryIs><innerBoundaryIs><LinearRing><coordinates>-0.004158,51.484679,0 -0.004054,51.484562,0 -0.004034,51.484544,0 -0.003761,51.484647,0 -0.003593,51.484452,0 -0.003445,51.484511,0 -0.003465,51.484542,0 -0.003413,51.484559,0 -0.003192,51.484293,0 -0.003165,51.484255,0 -0.00313,51.484219,0 -0.003032,51.484125,0 -0.002989,51.484076,0 -0.002953,51.484014,0 -0.002872,51.48385,0 -0.002861,51.483833,0 -0.002842,51.483794,0 -0.002841,51.483777,0 -0.002845,51.483767,0 -0.002853,51.48376,0 -0.002867,51.483753,0 -0.002962,51.483718,0 -0.003149,51.483653,0 -0.00325,51.483629,0 -0.003349,51.483602,0 -0.003534,51.483556,0 -0.003636,51.483526,0 -0.00334,51.483147,0 -0.003103,51.48286,0 -0.00273,51.482352,0 -0.00265,51.482371,0 -0.002208,51.482406,0 -0.002108,51.482257,0 -0.002103,51.482254,0 -0.00212,51.482249,0 -0.002119,51.482245,0 -0.002075,51.482171,0 -0.002058,51.482138,0 -0.001969,51.481947,0 -0.001729,51.482006,0 -0.001585,51.482003,0 -0.001225,51.482086,0 -0.001236,51.482112,0 -0.0011,51.482146,0 -0.001124,51.482187,0 -0.001121,51.48219,0 -0.001056,51.482206,0 -0.001033,51.482169,0 -0.000828,51.482216,0 -0.000864,51.482277,0 -0.000866,51.482289,0 -0.000555,51.482361,0 -0.00012,51.482458,0 -0.00006,51.482361,0 -0.000051,51.482367,0 0.000102,51.482409,0 0.000548,51.482526,0 0.000516,51.482579,0 0.000497,51.482607,0 0.000494,51.482619,0 0.000495,51.482621,0 0.001449,51.482696,0 0.001622,51.482706,0 0.001642,51.482641,0 0.00166,51.482596,0 0.001674,51.482527,0 0.001707,51.482398,0 0.001721,51.48238,0 0.001784,51.482325,0 0.001918,51.482202,0 0.002472,51.481686,0 0.002795,51.481361,0 0.003608,51.480533,0 0.003754,51.480436,0 0.004032,51.480274,0 0.004109,51.480316,0 0.004358,51.480471,0 0.004354,51.480473,0 0.004562,51.480651,0 0.004574,51.480656,0 0.004918,51.48069,0 0.005,51.480702,0 0.005159,51.480714,0 0.005187,51.480563,0 0.005043,51.480553,0 0.005042,51.480515,0 0.005056,51.480449,0 0.005077,51.48033,0 0.005092,51.480267,0 0.005095,51.480231,0 0.004985,51.480225,0 0.004922,51.480209,0 0.004914,51.480201,0 0.004957,51.480122,0 0.00491,51.48011,0 0.004906,51.480041,0 0.004912,51.479866,0 0.004947,51.479805,0 0.005092,51.479678,0 0.005248,51.479565,0 0.005459,51.479353,0 0.008612,51.47645,0 0.009018,51.476096,0 0.009812,51.475356,0 0.009882,51.475261,0 0.009907,51.475129,0 0.009873,51.475046,0 0.009567,51.474929,0 0.008456,51.474582,0 0.006656,51.473993,0 0.005026,51.473477,0 0.003412,51.472988,0 0.000246,51.472048,0 0.000183,51.471861,0 -0.000031,51.471841,0 -0.000396,51.47183,0 -0.000649,51.471815,0 -0.000876,51.471804,0 -0.001067,51.471806,0 -0.001343,51.47182,0 -0.001444,51.47183,0 -0.002198,51.471924,0 -0.003631,51.474376,0 -0.003853,51.474814,0 -0.004004,51.47514,0 -0.00435,51.47547,0 -0.004493,51.475458,0 -0.004636,51.47546,0 -0.004791,51.47551,0 -0.005009,51.475514,0 -0.005138,51.475483,0 -0.005496,51.475362,0 -0.005471,51.475569,0 -0.005502,51.475635,0 -0.00557,51.475673,0 -0.005589,51.47567,0 -0.005657,51.475707,0 -0.005675,51.475693,0 -0.005698,51.475705,0 -0.005732,51.475681,0 -0.006003,51.475831,0 -0.006028,51.475814,0 -0.006113,51.475861,0 -0.006157,51.475863,0 -0.006307,51.475953,0 -0.006327,51.475968,0 -0.006408,51.476043,0 -0.006373,51.476069,0 -0.006375,51.476078,0 -0.006561,51.476183,0 -0.006053,51.476458,0 -0.006075,51.476549,0 -0.006179,51.476627,0 -0.006194,51.476626,0 -0.006202,51.476628,0 -0.006211,51.476633,0 -0.006215,51.476637,0 -0.006215,51.476639,0 -0.00621,51.476648,0 -0.006251,51.476664,0 -0.006329,51.476719,0 -0.006349,51.476711,0 -0.006586,51.476876,0 -0.006617,51.476858,0 -0.006742,51.476938,0 -0.006519,51.477063,0 -0.006788,51.477243,0 -0.006722,51.477275,0 -0.006708,51.477266,0 -0.006452,51.477393,0 -0.006294,51.477469,0 -0.006272,51.477483,0 -0.006298,51.477502,0 -0.006341,51.477556,0 -0.006255,51.477598,0 -0.006406,51.477712,0 -0.006595,51.477621,0 -0.00685,51.477816,0 -0.006815,51.477836,0 -0.006822,51.477848,0 -0.006859,51.477876,0 -0.006877,51.477879,0 -0.006924,51.477911,0 -0.007003,51.477958,0 -0.007148,51.477859,0 -0.00718,51.477896,0 -0.007298,51.477955,0 -0.007451,51.478041,0 -0.007429,51.478057,0 -0.007461,51.478066,0 -0.007685,51.478223,0 -0.008162,51.47855,0 -0.008394,51.478418,0 -0.008701,51.478616,0 -0.008454,51.478772,0 -0.0086,51.478866,0 -0.008538,51.478898,0 -0.008611,51.478946,0 -0.008325,51.479091,0 -0.008355,51.479115,0 -0.008253,51.479165,0 -0.008268,51.479177,0 -0.008282,51.479183,0 -0.008293,51.479192,0 -0.00807,51.479306,0 -0.008104,51.479333,0 -0.008161,51.479372,0 -0.008383,51.479497,0 -0.008476,51.47954,0 -0.00852,51.479562,0 -0.00872,51.479682,0 -0.008839,51.479747,0 -0.008851,51.47975,0 -0.008862,51.479749,0 -0.008945,51.479778,0 -0.009247,51.479942,0 -0.009294,51.47996,0 -0.009327,51.47997,0 -0.009336,51.479968,0 -0.009688,51.479989,0 -0.009866,51.480076,0 -0.010225,51.480087,0 -0.010714,51.480079,0 -0.010906,51.480068,0 -0.010911,51.480207,0 -0.010669,51.480512,0 -0.010687,51.480554,0 -0.010715,51.480603,0 -0.010754,51.480739,0 -0.010753,51.480742,0 -0.010425,51.480817,0 -0.01042,51.48081,0 -0.01039,51.480818,0 -0.010289,51.480851,0 -0.010316,51.480888,0 -0.010258,51.480905,0 -0.010301,51.480978,0 -0.010324,51.481012,0 -0.010206,51.481044,0 -0.010235,51.481082,0 -0.010184,51.481097,0 -0.010202,51.481119,0 -0.010183,51.481123,0 -0.010209,51.481153,0 -0.010194,51.481164,0 -0.010216,51.481196,0 -0.010205,51.481199,0 -0.010211,51.48122,0 -0.010236,51.481275,0 -0.010282,51.481298,0 -0.010276,51.481308,0 -0.010291,51.481313,0 -0.010278,51.481338,0 -0.010306,51.48134,0 -0.01031,51.48136,0 -0.010322,51.481502,0 -0.010426,51.481501,0 -0.010431,51.481575,0 -0.010427,51.481603,0 -0.010439,51.481603,0 -0.010439,51.481614,0 -0.010484,51.481618,0 -0.010478,51.481672,0 -0.010481,51.481682,0 -0.010474,51.481707,0 -0.010479,51.481708,0 -0.010472,51.481734,0 -0.010499,51.481737,0 -0.010483,51.481792,0 -0.010447,51.481789,0 -0.010438,51.481817,0 -0.01042,51.481815,0 -0.010417,51.481829,0 -0.010407,51.481828,0 -0.010389,51.481933,0 -0.01037,51.481981,0 -0.010369,51.482003,0 -0.010157,51.481996,0 -0.010154,51.482065,0 -0.010131,51.482197,0 -0.010171,51.48229,0 -0.010169,51.4823,0 -0.010117,51.482442,0 -0.010359,51.48278,0 -0.010444,51.48278,0 -0.010449,51.482881,0 -0.010656,51.48294,0 -0.010732,51.48296,0 -0.010835,51.483002,0 -0.010934,51.483062,0 -0.010934,51.483065,0 -0.011043,51.483317,0 -0.010962,51.48333,0 -0.010438,51.483399,0 -0.010388,51.483396,0 -0.010011,51.483427,0 -0.010048,51.483593,0 -0.00974,51.48364,0 -0.00944,51.483699,0 -0.009361,51.483716,0 -0.00923,51.48374,0 -0.009121,51.483765,0 -0.009003,51.483789,0 -0.008659,51.48385,0 -0.008585,51.483861,0 -0.008534,51.483866,0 -0.008519,51.483863,0 -0.008501,51.483853,0 -0.008486,51.483839,0 -0.008361,51.483652,0 -0.008323,51.483598,0 -0.008308,51.483586,0 -0.008289,51.483586,0 -0.007347,51.483812,0 -0.007256,51.483775,0 -0.006353,51.484075,0 -0.006373,51.484099,0 -0.00625,51.484141,0 -0.00623,51.484117,0 -0.005008,51.484531,0 -0.00502,51.484546,0 -0.004984,51.484559,0 -0.004973,51.484585,0 -0.0047,51.48468,0 -0.00467,51.48466,0 -0.00447,51.484565,0 -0.004453,51.48457,0 -0.004423,51.484584,0 -0.004337,51.484616,0 -0.004329,51.484629,0 -0.004333,51.484634,0 -0.004283,51.484653,0 -0.004277,51.484648,0 -0.004254,51.484646,0 -0.004158,51.484679,0</coordinates></LinearRing></innerBoundaryIs></Polygon></Placemark>
</Document>
</kml>
