<?xml version="1.0" encoding="UTF-8"?>
<kml xmlns="http://www.opengis.net/kml/2.2" xmlns:gx="http://www.google.com/kml/ext/2.2">
<Document>
  <name>Thames Path National Trail in the model box</name>
  <open>1</open>
  <description>Thames Path National Trail in the model box. Source: Natural England (National Trails (England), via data.gov.uk), https://www.data.gov.uk/dataset/ac8c851c-99a0-4488-8973-6c8863529c45/national-trails-england3. Licence: Open Government Licence v3.0. Attribution: Contains public sector information licensed under the Open Government Licence v3.0 (Natural England). Fetched 2026-10-05 from the project harvest in danbri/londat: cwplans/feeds/portals/dgu/national-trails-england3/national-trails-england3.geojson; clipped to WGS84 -0.095, 51.474, 0.015, 51.522 (features that meet the box; lines cut at the edge) by magpie/cwplans/tools/find-kml.mjs for https://danbri.github.io/glitchcan-minigam/magpie/cwplans/docklands/ .</description>
  <Style id="layer"><LineStyle><color>ff33b333</color><width>3</width></LineStyle></Style>
  <Placemark><name>Thames Path</name><styleUrl>#layer</styleUrl><ExtendedData><Data name="name"><displayName>name</displayName><value>Thames Path</value></Data><Data name="start"><displayName>start</displayName><value>Source of the Thames, Kemble</value></Data><Data name="End"><displayName>End</displayName><value>Thames Barrier, London</value></Data><Data name="length_km"><displayName>length_km</displayName><value>344</value></Data><Data name="opened"><displayName>opened</displayName><value>1996-07-24Z</value></Data></ExtendedData><MultiGeometry><LineString><tessellate>1</tessellate><coordinates>-0.01016,51.483333,0 -0.009413,51.483397,0 -0.009415,51.48346,0 -0.009359,51.483479,0 -0.008421,51.483646,0 -0.008384,51.483634,0 -0.008283,51.483531,0 -0.008222,51.483503,0 -0.008072,51.483492,0 -0.00508,51.484492,0 -0.004756,51.484628,0 -0.004709,51.484636,0 -0.004613,51.4846,0 -0.004387,51.484427,0 -0.004324,51.484441,0 -0.003848,51.484607,0 -0.003169,51.484881,0 -0.002794,51.485077,0 -0.00261,51.485196,0 -0.002595,51.485309,0 -0.001993,51.485621,0 -0.001954,51.485683,0 -0.001487,51.485935,0 -0.001308,51.486004,0 -0.001204,51.486015,0 -0.001128,51.486232,0 -0.001074,51.486289,0 -0.000811,51.486414,0 -0.000721,51.486424,0 -0.000601,51.486412,0 -0.000574,51.486394,0 -0.000464,51.486458,0 -0.000288,51.486527,0 0.000264,51.486644,0 0.000416,51.486787,0 0.000299,51.486826,0 0.000321,51.486859,0 0.000286,51.486908,0 0.000299,51.486935,0 0.00111,51.487736,0 0.00117,51.487746,0 0.001294,51.487721,0 0.00134,51.487737,0 0.001373,51.487771,0 0.0015,51.48795,0 0.001471,51.487996,0 0.001345,51.488033,0 0.001675,51.488462,0 0.002035,51.48843,0 0.002083,51.488465,0 0.002351,51.489061,0 0.002544,51.48981,0 0.002623,51.489976,0 0.00266,51.490372,0 0.002631,51.490516,0 0.002566,51.490639,0 0.002543,51.49074,0 0.002511,51.491124,0 0.002561,51.491202,0 0.002537,51.491456,0 0.002727,51.491757,0 0.002756,51.491893,0 0.002735,51.491975,0 0.002611,51.492187,0 0.002423,51.49263,0 0.002402,51.492993,0 0.002381,51.493004,0 0.002336,51.492996,0 0.002133,51.492944,0 0.001977,51.492939,0 0.001847,51.493225,0 0.001634,51.493613,0 0.001626,51.49365,0 0.001684,51.493678,0 0.001696,51.493714,0 0.001558,51.493951,0 0.001635,51.493988,0 0.001632,51.494009,0 0.001527,51.494125,0 0.001091,51.494435,0 0.001077,51.494507,0 0.001278,51.494661,0 0.001259,51.49491,0 0.000888,51.495524,0 0.000498,51.495402,0 0.000269,51.495454,0 -0.000242,51.495331,0 -0.000905,51.496356,0 -0.001393,51.497323,0 -0.000966,51.497408,0 -0.000891,51.497471,0 -0.001365,51.498361,0 -0.001512,51.498831,0 -0.001822,51.498899,0 -0.001917,51.498966,0 -0.002045,51.499377,0 -0.002061,51.499508,0 -0.002122,51.49964,0 -0.00216,51.499838,0 -0.002145,51.500167,0 -0.002197,51.500632,0 -0.002201,51.500765,0 -0.002168,51.500856,0 -0.002203,51.50088,0 -0.002189,51.501245,0 -0.001817,51.501248,0 -0.001705,51.501306,0 -0.001559,51.501441,0 -0.001517,51.501509,0 -0.001442,51.501763,0 -0.001257,51.501837,0 -0.000771,51.501822,0 -0.000702,51.502009,0 -0.00194,51.502129,0 -0.002004,51.502153,0 -0.002009,51.502196,0 -0.001951,51.502346,0 -0.001726,51.502785,0 -0.001614,51.502957,0 -0.001504,51.503093,0 -0.001256,51.503335,0 -0.000693,51.503784,0 -0.000522,51.503866,0 0.000008,51.504189,0 0.000187,51.504258,0 0.000293,51.504268,0 0.000421,51.504227,0 0.000539,51.504215,0 0.001005,51.504389,0 0.001498,51.504528,0 0.001948,51.504625,0 0.002094,51.504802,0 0.002174,51.504835,0 0.002698,51.504895,0 0.003156,51.504887,0 0.003277,51.504904,0 0.003637,51.50485,0 0.003571,51.504635,0 0.003958,51.504581,0 0.004331,51.504497,0 0.004683,51.504377,0 0.005002,51.504228,0 0.005372,51.503984,0 0.006598,51.503048,0 0.006507,51.502979,0 0.006536,51.502943,0 0.007258,51.502329,0 0.007355,51.502209,0 0.007587,51.502038,0 0.007867,51.501807,0 0.007987,51.501685,0 0.008098,51.501607,0 0.008152,51.501539,0 0.009067,51.500734,0 0.009104,51.500712,0 0.009154,51.500712,0 0.009206,51.500677,0 0.009268,51.500681,0 0.009338,51.500632,0 0.009379,51.500569,0 0.009354,51.500528,0 0.009405,51.500493,0 0.009458,51.500506,0 0.0095,51.50049,0 0.009604,51.500389,0 0.009608,51.500354,0 0.009777,51.500246,0 0.010718,51.49941,0 0.010812,51.499277,0 0.010883,51.499253,0 0.011004,51.499148,0 0.011036,51.499102,0 0.011006,51.499071,0 0.011135,51.498953,0 0.011181,51.498871,0 0.011688,51.498421,0 0.01173,51.498336,0 0.011862,51.498273,0 0.012228,51.497988,0 0.012462,51.49777,0 0.012689,51.497616,0 0.012754,51.49759,0 0.012932,51.497437,0 0.013517,51.497035,0 0.014434,51.496465,0 0.014476,51.496415,0 0.014716,51.496284,0 0.014792,51.496266,0 0.015213,51.496058,0</coordinates></LineString><LineString><tessellate>1</tessellate><coordinates>-0.01016,51.483333,0 -0.010843,51.483232,0 -0.010765,51.482845,0 -0.01145,51.482933,0 -0.012239,51.482845,0 -0.013158,51.482838,0 -0.013378,51.482289,0 -0.014728,51.482375,0 -0.014813,51.481414,0 -0.015476,51.481399,0 -0.015721,51.481412,0 -0.016657,51.481401,0 -0.017005,51.481353,0 -0.017698,51.481319,0 -0.017788,51.481555,0 -0.01787,51.481655,0 -0.018055,51.481712,0 -0.018442,51.481764,0 -0.018619,51.482333,0 -0.018775,51.482722,0 -0.018782,51.482893,0 -0.01887,51.483183,0 -0.018897,51.48321,0 -0.018954,51.483229,0 -0.019113,51.483232,0 -0.019169,51.483251,0 -0.01928,51.483351,0 -0.019245,51.483495,0 -0.019258,51.483522,0 -0.019301,51.483541,0 -0.019852,51.483683,0 -0.019987,51.483672,0 -0.020054,51.483731,0 -0.020952,51.484,0 -0.021915,51.484376,0 -0.022131,51.484371,0 -0.022192,51.484354,0 -0.022503,51.484092,0 -0.022586,51.484105,0 -0.022787,51.484171,0 -0.022856,51.484117,0 -0.02299,51.48417,0 -0.02433,51.48448,0 -0.024371,51.484526,0 -0.024407,51.484697,0 -0.024519,51.48478,0 -0.025192,51.484863,0 -0.025311,51.484119,0 -0.025567,51.483414,0 -0.026552,51.483393,0 -0.027,51.483347,0 -0.027144,51.483358,0 -0.02783,51.483469,0 -0.027917,51.48347,0 -0.030069,51.483413,0 -0.030484,51.483396,0 -0.030571,51.48338,0 -0.030634,51.484262,0 -0.030645,51.484676,0 -0.031208,51.484686,0 -0.031235,51.485065,0 -0.031667,51.4851,0 -0.031753,51.4853,0 -0.031734,51.485459,0 -0.031767,51.485702,0 -0.032869,51.486692,0 -0.033281,51.487041,0 -0.032215,51.487492,0 -0.032301,51.487981,0 -0.03169,51.488197,0 -0.031734,51.488282,0 -0.031224,51.488482,0 -0.031164,51.488724,0 -0.030557,51.488905,0 -0.029891,51.489124,0 -0.030048,51.489296,0 -0.03047,51.48998,0 -0.03081,51.490159,0 -0.031006,51.490309,0 -0.031102,51.490491,0 -0.031179,51.490487,0 -0.031115,51.490714,0 -0.03137,51.490992,0 -0.032147,51.492499,0 -0.032354,51.492689,0 -0.03252,51.49303,0 -0.032424,51.493169,0 -0.032645,51.493624,0 -0.032807,51.494068,0 -0.033277,51.493982,0 -0.0334,51.494266,0 -0.032944,51.494381,0 -0.033112,51.494653,0 -0.03291,51.494704,0 -0.032845,51.494776,0 -0.03269,51.495367,0 -0.032688,51.49543,0 -0.032714,51.495475,0 -0.032799,51.495513,0 -0.032871,51.495514,0 -0.033845,51.495324,0 -0.034098,51.495804,0 -0.032964,51.496028,0 -0.032875,51.496099,0 -0.032866,51.496305,0 -0.03289,51.496414,0 -0.032931,51.496468,0 -0.033226,51.496653,0 -0.033254,51.496663,0 -0.033226,51.49672,0 -0.033261,51.496828,0 -0.033789,51.496762,0 -0.033914,51.496986,0 -0.033859,51.497008,0 -0.033707,51.49819,0 -0.033707,51.498321,0 -0.032595,51.498274,0 -0.032505,51.499315,0 -0.03258,51.499326,0 -0.032832,51.500119,0 -0.032381,51.500112,0 -0.032367,51.501135,0 -0.032304,51.501548,0 -0.032363,51.502166,0 -0.032307,51.502525,0 -0.032488,51.503918,0 -0.032311,51.504169,0 -0.032408,51.504368,0 -0.032966,51.50434,0 -0.033099,51.504755,0 -0.032871,51.504799,0 -0.033142,51.505141,0 -0.033381,51.50554,0 -0.033766,51.505862,0 -0.034015,51.506091,0 -0.034365,51.506339,0 -0.034661,51.506488,0 -0.034831,51.506554,0 -0.034904,51.506528,0 -0.034973,51.506675,0 -0.035625,51.506912,0 -0.036701,51.507118,0 -0.036897,51.507039,0 -0.037169,51.507073,0 -0.037154,51.507142,0 -0.037211,51.50717,0 -0.038543,51.507363,0 -0.039361,51.50743,0 -0.039937,51.507458,0 -0.040859,51.507464,0 -0.041335,51.507436,0 -0.041726,51.507389,0 -0.041829,51.507355,0 -0.041845,51.50731,0 -0.041719,51.506894,0 -0.042037,51.506864,0 -0.042284,51.506823,0 -0.042788,51.506697,0 -0.042836,51.506765,0 -0.043016,51.507209,0 -0.043662,51.507102,0 -0.044064,51.507071,0 -0.044496,51.506834,0 -0.045161,51.506432,0 -0.045155,51.506216,0 -0.045305,51.506218,0 -0.046554,51.505544,0 -0.047553,51.505063,0 -0.047897,51.504749,0 -0.047788,51.504494,0 -0.047719,51.504258,0 -0.048244,51.504071,0 -0.04955,51.503374,0 -0.049848,51.503154,0 -0.050719,51.502647,0 -0.051555,51.502301,0 -0.05182,51.50217,0 -0.052113,51.502067,0 -0.053439,51.501721,0 -0.054325,51.501547,0 -0.054758,51.501312,0 -0.055095,51.501186,0 -0.055577,51.50092,0 -0.055691,51.50094,0 -0.055808,51.500915,0 -0.056043,51.500811,0 -0.056417,51.500817,0 -0.056983,51.500718,0 -0.057116,51.500633,0 -0.057322,51.500695,0 -0.057511,51.500702,0 -0.05779,51.50067,0 -0.057858,51.500679,0 -0.058021,51.500668,0 -0.058195,51.500598,0 -0.058657,51.500597,0 -0.059113,51.500504,0 -0.059181,51.500539,0 -0.059296,51.500541,0 -0.059904,51.500479,0 -0.060998,51.500497,0 -0.061691,51.500473,0 -0.061744,51.500563,0 -0.061816,51.500583,0 -0.062291,51.50059,0 -0.06261,51.500542,0 -0.062833,51.50044,0 -0.063244,51.500334,0 -0.063857,51.500336,0 -0.064046,51.500314,0 -0.064233,51.500317,0 -0.064347,51.500337,0 -0.064547,51.500394,0 -0.065015,51.500563,0 -0.065557,51.500006,0 -0.065855,51.500119,0 -0.067561,51.500659,0 -0.067379,51.501075,0 -0.068028,51.501207,0 -0.068341,51.501302,0 -0.068815,51.501546,0 -0.069417,51.501759,0 -0.069917,51.501849,0 -0.070164,51.501913,0 -0.070396,51.502078,0 -0.070871,51.502226,0 -0.071104,51.502427,0 -0.070965,51.50251,0 -0.071196,51.502739,0 -0.071855,51.503182,0 -0.072995,51.503633,0 -0.073739,51.503842,0 -0.075512,51.504266,0 -0.07607,51.504244,0 -0.07643,51.504275,0 -0.076411,51.504315,0 -0.076425,51.504398,0 -0.076512,51.504463,0 -0.076847,51.50454,0 -0.077508,51.504733,0 -0.078165,51.504991,0 -0.078249,51.505012,0 -0.078295,51.505002,0 -0.078504,51.505081,0 -0.078764,51.505132,0 -0.078801,51.505171,0 -0.078856,51.505194,0 -0.079084,51.505266,0 -0.079439,51.505331,0 -0.079586,51.505308,0 -0.079633,51.50536,0 -0.079688,51.505383,0 -0.079857,51.505407,0 -0.079889,51.505475,0 -0.079963,51.505527,0 -0.08013,51.505603,0 -0.080208,51.505606,0 -0.080235,51.50563,0 -0.080339,51.505653,0 -0.080445,51.505633,0 -0.080733,51.505754,0 -0.081191,51.50589,0 -0.081369,51.505912,0 -0.081414,51.505952,0 -0.081728,51.505971,0 -0.082185,51.50605,0 -0.082584,51.506152,0 -0.082588,51.506194,0 -0.083054,51.506268,0 -0.083109,51.506294,0 -0.083157,51.506298,0 -0.083182,51.506285,0 -0.083208,51.506242,0 -0.083269,51.506242,0 -0.083385,51.506268,0 -0.083398,51.506326,0 -0.083653,51.506373,0 -0.083699,51.506374,0 -0.083734,51.506342,0 -0.083794,51.506341,0 -0.083953,51.506363,0 -0.084057,51.506402,0 -0.084351,51.506439,0 -0.084406,51.50644,0 -0.084746,51.506472,0 -0.084759,51.506512,0 -0.084805,51.506476,0 -0.085123,51.506499,0 -0.085409,51.506509,0 -0.085534,51.506532,0 -0.086136,51.506535,0 -0.086515,51.506587,0 -0.086791,51.50628,0 -0.087058,51.506363,0 -0.087452,51.506404,0 -0.087688,51.50639,0 -0.088371,51.506492,0 -0.088901,51.506583,0 -0.089853,51.506728,0 -0.089978,51.506713,0 -0.090038,51.50661,0 -0.090216,51.506332,0 -0.090311,51.506451,0 -0.090368,51.506555,0 -0.090535,51.506666,0 -0.090521,51.506848,0 -0.090613,51.50689,0 -0.091644,51.507061,0 -0.091715,51.507089,0 -0.091873,51.50711,0 -0.092176,51.507097,0 -0.092809,51.507119,0 -0.092781,51.507309,0 -0.093084,51.507458,0 -0.09315,51.507627,0 -0.094328,51.507899,0 -0.095744,51.508261,0</coordinates></LineString><LineString><tessellate>1</tessellate><coordinates>-0.095421,51.510852,0 -0.094935,51.510765,0 -0.095222,51.510197,0 -0.095067,51.510134,0 -0.094702,51.510047,0 -0.094499,51.509903,0 -0.094314,51.50987,0 -0.09406,51.509824,0 -0.093876,51.509791,0 -0.093547,51.509819,0 -0.093358,51.509843,0 -0.093352,51.509789,0 -0.092886,51.509666,0 -0.092586,51.509605,0 -0.091862,51.509444,0 -0.091638,51.509519,0 -0.090759,51.509345,0 -0.090809,51.509253,0 -0.090728,51.509231,0 -0.090723,51.509188,0 -0.090235,51.509101,0 -0.0898,51.509025,0 -0.089574,51.509049,0 -0.089537,51.509061,0 -0.089457,51.509048,0 -0.0894,51.50906,0 -0.089327,51.509045,0 -0.088744,51.509015,0 -0.088633,51.509049,0 -0.088535,51.509053,0 -0.08852,51.509023,0 -0.088376,51.509019,0 -0.088175,51.509035,0 -0.088018,51.509095,0 -0.087404,51.509017,0 -0.087277,51.50897,0 -0.086978,51.508917,0 -0.086984,51.508828,0 -0.086962,51.508809,0 -0.086581,51.508757,0 -0.086374,51.508757,0 -0.086284,51.508735,0 -0.085916,51.508691,0 -0.08529,51.508614,0 -0.085076,51.508586,0 -0.084999,51.508592,0 -0.084608,51.508537,0 -0.084548,51.508535,0 -0.084382,51.508499,0 -0.083746,51.508428,0 -0.083699,51.508532,0 -0.083653,51.508616,0 -0.083628,51.50862,0 -0.081637,51.508388,0 -0.081169,51.508311,0 -0.080447,51.508117,0 -0.080089,51.507999,0 -0.079455,51.507836,0 -0.079409,51.507832,0 -0.07932,51.507932,0 -0.07916,51.507915,0 -0.079122,51.507929,0 -0.079066,51.507886,0 -0.079055,51.507838,0 -0.078905,51.507713,0 -0.078722,51.507863,0 -0.078728,51.507825,0 -0.078681,51.507739,0 -0.07856,51.507657,0 -0.078259,51.507577,0 -0.078095,51.50756,0 -0.078076,51.507516,0 -0.077999,51.50749,0 -0.077923,51.507497,0 -0.076772,51.507249,0 -0.076482,51.50722,0 -0.076457,51.50723,0 -0.076409,51.507197,0 -0.075976,51.507092,0 -0.075924,51.507016,0 -0.075728,51.506948,0 -0.075647,51.506967,0 -0.075595,51.507001,0 -0.075505,51.506984,0 -0.075446,51.506995,0 -0.075404,51.506947,0 -0.075126,51.506888,0 -0.075109,51.506833,0 -0.075079,51.506817,0 -0.074804,51.50676,0 -0.074758,51.506764,0 -0.074731,51.506783,0 -0.074389,51.506651,0 -0.074208,51.506668,0 -0.074134,51.506543,0 -0.074005,51.506472,0 -0.073894,51.506452,0 -0.072796,51.506285,0 -0.072579,51.506334,0 -0.072538,51.506376,0 -0.072284,51.506412,0 -0.072162,51.506597,0 -0.071782,51.506493,0 -0.071682,51.506465,0 -0.071572,51.506346,0 -0.071487,51.506291,0 -0.070942,51.506148,0 -0.070858,51.506144,0 -0.070766,51.506112,0 -0.070705,51.506002,0 -0.070714,51.505837,0 -0.070645,51.505764,0 -0.070303,51.505582,0 -0.07014,51.505432,0 -0.069957,51.50533,0 -0.069499,51.50518,0 -0.069702,51.504969,0 -0.068693,51.504605,0 -0.068511,51.50464,0 -0.068293,51.504824,0 -0.067966,51.504715,0 -0.067642,51.504887,0 -0.067431,51.504758,0 -0.06712,51.504627,0 -0.063784,51.50378,0 -0.063253,51.503709,0 -0.06298,51.503695,0 -0.062522,51.503625,0 -0.06205,51.503536,0 -0.061637,51.503439,0 -0.060764,51.50329,0 -0.060107,51.503153,0 -0.059762,51.503129,0 -0.059517,51.503134,0 -0.058904,51.503313,0 -0.058468,51.503405,0 -0.058193,51.503445,0 -0.0578,51.503538,0 -0.057464,51.50364,0 -0.057082,51.503804,0 -0.056673,51.503951,0 -0.05657,51.503994,0 -0.056368,51.504162,0 -0.056269,51.504295,0 -0.056237,51.504375,0 -0.055939,51.504604,0 -0.055642,51.504797,0 -0.055288,51.504412,0 -0.054666,51.50488,0 -0.05382,51.505317,0 -0.05437,51.505619,0 -0.054298,51.505675,0 -0.054295,51.505707,0 -0.054366,51.505927,0 -0.05442,51.506089,0 -0.053519,51.506263,0 -0.052504,51.50675,0 -0.052061,51.506995,0 -0.05174,51.507097,0 -0.051427,51.507163,0 -0.051381,51.507193,0 -0.051178,51.507221,0 -0.051084,51.507309,0 -0.051101,51.507341,0 -0.05108,51.507374,0 -0.051036,51.507384,0 -0.050989,51.50748,0 -0.050778,51.50795,0 -0.049737,51.507861,0 -0.049624,51.508038,0 -0.049187,51.508031,0 -0.048967,51.508252,0 -0.048365,51.508507,0 -0.047282,51.50892,0 -0.04629,51.509251,0 -0.046191,51.509437,0 -0.045749,51.509561,0 -0.045511,51.509501,0 -0.044996,51.509586,0 -0.043978,51.509684,0 -0.043843,51.509694,0 -0.043515,51.509712,0 -0.043435,51.509814,0 -0.042469,51.509863,0 -0.042123,51.509858,0 -0.042053,51.510101,0 -0.041682,51.510152,0 -0.041579,51.51012,0 -0.040534,51.510065,0 -0.038878,51.509958,0 -0.037875,51.509816,0 -0.036859,51.509646,0 -0.036026,51.509466,0 -0.034987,51.509282,0 -0.034446,51.509138,0 -0.03392,51.508976,0 -0.033005,51.50879,0 -0.032247,51.50866,0 -0.031902,51.508645,0 -0.031757,51.508652,0 -0.031484,51.508345,0 -0.031435,51.508081,0 -0.031103,51.507747,0 -0.03105,51.507577,0 -0.030602,51.507586,0 -0.030424,51.507611,0 -0.030321,51.507603,0 -0.030086,51.507555,0 -0.03007,51.507526,0 -0.029971,51.507526,0 -0.029938,51.507484,0 -0.029849,51.507445,0 -0.029749,51.507319,0 -0.029561,51.507185,0 -0.029602,51.507153,0 -0.029551,51.507064,0 -0.029418,51.506917,0 -0.029259,51.506856,0 -0.029033,51.506566,0 -0.028946,51.506514,0 -0.028821,51.50638,0 -0.028576,51.506042,0 -0.028452,51.505966,0 -0.028343,51.505942,0 -0.028217,51.505804,0 -0.028218,51.505782,0 -0.028378,51.505688,0 -0.028347,51.505538,0 -0.028286,51.505413,0 -0.028189,51.505286,0 -0.027942,51.505085,0 -0.02764,51.504974,0 -0.027497,51.504455,0 -0.02723,51.503999,0 -0.026798,51.503541,0 -0.026815,51.503012,0 -0.026973,51.502996,0 -0.026988,51.502978,0 -0.02728,51.502228,0 -0.027341,51.502131,0 -0.027406,51.499943,0 -0.027372,51.499323,0 -0.027418,51.498253,0 -0.027403,51.497905,0 -0.027496,51.497502,0 -0.027532,51.497005,0 -0.027608,51.496659,0 -0.027638,51.495964,0 -0.027718,51.495495,0 -0.027477,51.495536,0 -0.027303,51.495514,0 -0.027288,51.495537,0 -0.027222,51.495563,0 -0.026556,51.495642,0 -0.026179,51.49568,0 -0.025674,51.495699,0 -0.025655,51.495471,0 -0.025559,51.49504,0 -0.024949,51.494472,0 -0.024858,51.493599,0 -0.024901,51.492916,0 -0.024877,51.492817,0 -0.024732,51.492508,0 -0.024477,51.492072,0 -0.024384,51.491976,0 -0.024246,51.491745,0 -0.024,51.491435,0 -0.023584,51.491059,0 -0.022874,51.49049,0 -0.023198,51.490355,0 -0.023684,51.490093,0 -0.02306,51.489522,0 -0.022506,51.489138,0 -0.023318,51.48875,0 -0.023183,51.488583,0 -0.022949,51.488431,0 -0.021671,51.487711,0 -0.020946,51.487425,0 -0.019732,51.486975,0 -0.018804,51.48667,0 -0.017509,51.486376,0 -0.016128,51.486168,0 -0.015382,51.486017,0 -0.013282,51.485981,0 -0.013483,51.486337,0 -0.013279,51.486414,0 -0.012807,51.48647,0 -0.010397,51.486906,0 -0.010422,51.486997,0 -0.009787,51.486981,0 -0.009594,51.487002,0 -0.009315,51.486428,0 -0.01016,51.483333,0</coordinates></LineString></MultiGeometry></Placemark>
</Document>
</kml>
