<?xml version="1.0" encoding="UTF-8"?>
<kml xmlns="http://www.opengis.net/kml/2.2" xmlns:gx="http://www.google.com/kml/ext/2.2">
<Document>
  <name>TfL River Services (with stops) in the zone</name>
  <open>1</open>
  <description>TfL River Services (with stops) in the zone. Source: Transport for London (GIS Open Data Hub), https://gis-tfl.opendata.arcgis.com/. Licence: Open Government Licence (item licence). Attribution: Contains Transport for London data licensed under the Open Government Licence v3.0. Powered by TfL Open Data. Fetched 2026-10-05 from https://services1.arcgis.com/YswvgzOodUvqkoCN/arcgis/rest/services/River_Services__with_stops_/FeatureServer/36/query?where=1%3D1&amp;geometry=-0.095,51.47,0.08,51.53&amp;geometryType=esriGeometryEnvelope&amp;inSR=4326&amp;spatialRel=esriSpatialRelIntersects&amp;outFields=*&amp;outSR=4326&amp;f=geojson&amp;resultRecordCount=4000; clipped to WGS84 -0.095, 51.47, 0.08, 51.53 (features that meet the box; lines cut at the edge) by magpie/cwplans/tools/find-kml.mjs for https://danbri.github.io/glitchcan-minigam/magpie/cwplans/docklands/ .</description>
  <Style id="layer"><LineStyle><color>ffd9bf00</color><width>3</width></LineStyle></Style>
  <Placemark><name>Westminster to Greenwich</name><styleUrl>#layer</styleUrl><ExtendedData><Data name="SERVICE"><displayName>SERVICE</displayName><value>Westminster to Greenwich</value></Data><Data name="OPERATOR"><displayName>OPERATOR</displayName><value>Thames River Services</value></Data><Data name="SERVICE_TY"><displayName>SERVICE_TY</displayName><value>River Tours</value></Data><Data name="FREQUENCY"><displayName>FREQUENCY</displayName><value>Year-round</value></Data><Data name="STATUS"><displayName>STATUS</displayName><value>Existing</value></Data></ExtendedData><LineString><tessellate>1</tessellate><coordinates>-0.0951677,51.5090253,0 -0.0948204,51.5089524,0 -0.094605,51.5089057,0 -0.0943662,51.5088515,0 -0.0935851,51.5086665,0 -0.0932986,51.5086002,0 -0.0930175,51.5085383,0 -0.0927616,51.5084859,0 -0.0924082,51.5084189,0 -0.0919133,51.5083298,0 -0.0911538,51.5081901,0 -0.090822,51.5081321,0 -0.0906461,51.5081036,0 -0.090481,51.5080789,0 -0.0903235,51.5080574,0 -0.090172,51.5080389,0 -0.0899989,51.5080201,0 -0.0897731,51.5079978,0 -0.0894542,51.5079693,0 -0.0890057,51.5079335,0 -0.0885196,51.5078991,0 -0.087589,51.5078423,0 -0.0872091,51.5078172,0 -0.0865407,51.5077699,0 -0.0861156,51.5077364,0 -0.0857964,51.5077078,0 -0.0854461,51.5076735,0 -0.0844864,51.507571,0 -0.0838326,51.507498,0 -0.0835009,51.5074578,0 -0.0832273,51.5074223,0 -0.0829631,51.5073854,0 -0.0826946,51.5073457,0 -0.0824538,51.507308,0 -0.0822008,51.5072661,0 -0.0816386,51.507167,0 -0.0813603,51.5071152,0 -0.0810803,51.5070612,0 -0.0807986,51.5070048,0 -0.0805152,51.5069461,0 -0.0800591,51.5068475,0 -0.0795846,51.5067388,0 -0.0790299,51.5066053,0 -0.078361,51.5064385,0 -0.0780904,51.506368,0 -0.0778416,51.5063008,0 -0.0776047,51.5062344,0 -0.0773634,51.5061649,0 -0.0768652,51.5060152,0 -0.0764406,51.5058817,0 -0.0759519,51.5057237,0 -0.0753705,51.5055296,0 -0.0753432,51.5055223,0 -0.0753125,51.5055178,0 -0.0752785,51.505516,0 -0.0752411,51.505517,0 -0.0752003,51.5055208,0 -0.0751559,51.5055274,0 -0.0751079,51.5055367,0 -0.0750559,51.5055489,0 -0.0749351,51.5055833,0 -0.0747922,51.5056312,0 -0.0746323,51.5056904,0 -0.0741654,51.5058701,0 -0.0740266,51.5059191,0 -0.0739087,51.5059563,0 -0.0738429,51.5059743,0 -0.0737827,51.5059885,0 -0.0737277,51.5059989,0 -0.0736776,51.5060056,0 -0.0736322,51.5060085,0 -0.0735913,51.5060078,0 -0.0735549,51.5060034,0 -0.0735229,51.5059952,0 -0.0734946,51.5059832,0 -0.0734695,51.505967,0 -0.0734474,51.5059467,0 -0.0734283,51.5059222,0 -0.0734122,51.5058935,0 -0.0733989,51.5058604,0 -0.0733885,51.5058228,0 -0.0733807,51.5057804,0 -0.0733739,51.5057019,0 -0.0733736,51.5056068,0 -0.0733781,51.5055113,0 -0.073394,51.5052793,0 -0.0733974,51.5051683,0 -0.0733933,51.5050714,0 -0.0733808,51.5049928,0 -0.0733715,51.5049601,0 -0.0733601,51.5049309,0 -0.0733464,51.5049051,0 -0.0733305,51.5048825,0 -0.0733123,51.5048632,0 -0.0732918,51.5048471,0 -0.0732689,51.5048341,0 -0.0732435,51.5048243,0 -0.072706,51.5046582,0 -0.0723439,51.5045503,0 -0.0719238,51.5044313,0 -0.0714832,51.5043139,0 -0.0710089,51.5041951,0 -0.0704485,51.5040637,0 -0.0701607,51.5039983,0 -0.0698431,51.5039283,0 -0.0684559,51.5036331,0 -0.0681296,51.503562,0 -0.0678381,51.5034966,0 -0.0674582,51.5034099,0 -0.0672254,51.5033553,0 -0.066846,51.5032616,0 -0.0664289,51.5031537,0 -0.0662354,51.5031014,0 -0.0660242,51.5030418,0 -0.0651036,51.5027698,0 -0.0648847,51.5027072,0 -0.0646872,51.5026528,0 -0.0642491,51.5025371,0 -0.0640324,51.5024839,0 -0.0637979,51.5024294,0 -0.0635398,51.5023722,0 -0.0632332,51.5023068,0 -0.0629121,51.5022401,0 -0.0626737,51.5021939,0 -0.0623799,51.502142,0 -0.0620839,51.5020949,0 -0.0617862,51.5020524,0 -0.0614873,51.5020148,0 -0.0612029,51.5019833,0 -0.0609507,51.5019596,0 -0.0607242,51.5019419,0 -0.060535,51.5019305,0 -0.0603538,51.5019234,0 -0.0601658,51.5019196,0 -0.0599705,51.501919,0 -0.0597667,51.5019217,0 -0.0595267,51.5019291,0 -0.059298,51.5019408,0 -0.0591584,51.5019505,0 -0.0590178,51.5019621,0 -0.0588762,51.5019756,0 -0.0587338,51.5019911,0 -0.0585893,51.5020086,0 -0.0584485,51.5020276,0 -0.0583114,51.5020479,0 -0.0581779,51.5020697,0 -0.0580453,51.5020933,0 -0.0579132,51.5021187,0 -0.0577819,51.5021459,0 -0.0576518,51.5021748,0 -0.057396,51.5022373,0 -0.0572727,51.5022703,0 -0.0571524,51.5023045,0 -0.0570283,51.5023418,0 -0.0569147,51.5023781,0 -0.0566977,51.5024538,0 -0.0565344,51.5025158,0 -0.0563648,51.502585,0 -0.0561861,51.5026626,0 -0.0559912,51.5027517,0 -0.0558188,51.5028341,0 -0.0556614,51.5029133,0 -0.0555139,51.5029923,0 -0.0553207,51.5031007,0 -0.0551261,51.5032136,0 -0.054922,51.5033372,0 -0.0547036,51.5034742,0 -0.0544544,51.5036351,0 -0.054141,51.5038428,0 -0.0538935,51.5040152,0 -0.0537422,51.5041277,0 -0.0533546,51.5044272,0 -0.053111,51.5046075,0 -0.0528823,51.5047736,0 -0.0526632,51.5049294,0 -0.0524513,51.5050764,0 -0.0521699,51.505266,0 -0.0518079,51.5055034,0 -0.051504,51.5056997,0 -0.0512482,51.5058615,0 -0.0509741,51.506031,0 -0.0507295,51.5061784,0 -0.0504917,51.5063177,0 -0.0502356,51.506464,0 -0.0499599,51.5066179,0 -0.0496893,51.5067653,0 -0.0494228,51.5069068,0 -0.0491596,51.5070425,0 -0.0488983,51.507174,0 -0.0486669,51.507287,0 -0.0484424,51.5073931,0 -0.0481911,51.5075085,0 -0.0478748,51.5076498,0 -0.0475618,51.5077848,0 -0.0472648,51.5079092,0 -0.0470224,51.5080067,0 -0.0468103,51.5080886,0 -0.0466061,51.5081646,0 -0.0464078,51.5082357,0 -0.0462143,51.508302,0 -0.0460387,51.5083597,0 -0.0458015,51.5084343,0 -0.0455465,51.5085104,0 -0.0453046,51.5085794,0 -0.0450849,51.5086389,0 -0.0448572,51.5086972,0 -0.0446475,51.5087475,0 -0.0444395,51.5087938,0 -0.0442298,51.5088372,0 -0.0439977,51.5088814,0 -0.0437533,51.508924,0 -0.0435131,51.5089622,0 -0.0432772,51.508996,0 -0.0430384,51.5090266,0 -0.0428064,51.5090526,0 -0.0425726,51.5090751,0 -0.0423448,51.5090935,0 -0.0421161,51.5091081,0 -0.0418809,51.5091194,0 -0.0416454,51.509127,0 -0.0414003,51.5091312,0 -0.041157,51.5091318,0 -0.0409061,51.5091288,0 -0.0406479,51.5091221,0 -0.040403,51.509112,0 -0.0401875,51.5090999,0 -0.0399738,51.5090849,0 -0.0397625,51.509067,0 -0.0395158,51.5090427,0 -0.0392665,51.5090154,0 -0.0390086,51.5089837,0 -0.0387405,51.5089476,0 -0.0384594,51.5089066,0 -0.0380584,51.5088426,0 -0.0376535,51.5087711,0 -0.0374398,51.5087305,0 -0.0372225,51.5086871,0 -0.0370012,51.5086409,0 -0.0367753,51.5085918,0 -0.0363831,51.5085014,0 -0.0359639,51.5083981,0 -0.0355372,51.5082859,0 -0.0350302,51.5081449,0 -0.0345528,51.5080071,0 -0.0341651,51.5078894,0 -0.0338144,51.5077767,0 -0.0334623,51.5076582,0 -0.0331949,51.5075654,0 -0.0329787,51.5074882,0 -0.0327844,51.5074161,0 -0.0326068,51.5073472,0 -0.032436,51.5072785,0 -0.0323086,51.5072249,0 -0.0321816,51.5071684,0 -0.0320515,51.5071077,0 -0.0319325,51.5070497,0 -0.031814,51.5069894,0 -0.0316962,51.506927,0 -0.0315791,51.5068624,0 -0.0313678,51.5067393,0 -0.0311769,51.5066191,0 -0.0310441,51.5065288,0 -0.0309087,51.5064306,0 -0.030769,51.5063234,0 -0.0306208,51.5062038,0 -0.0304284,51.506039,0 -0.0302935,51.5059159,0 -0.0301586,51.5057858,0 -0.0300227,51.5056477,0 -0.0298845,51.5055002,0 -0.0297942,51.5053997,0 -0.0296967,51.5052873,0 -0.0295184,51.5050726,0 -0.0293671,51.5048771,0 -0.0292329,51.5046891,0 -0.0291015,51.5044906,0 -0.0289588,51.5042603,0 -0.0289063,51.5041679,0 -0.0288613,51.5040823,0 -0.0287829,51.5039182,0 -0.0287549,51.5038516,0 -0.0287321,51.5037899,0 -0.0286988,51.5036754,0 -0.0286626,51.5035126,0 -0.0286333,51.503352,0 -0.0286109,51.5031835,0 -0.0285954,51.5030059,0 -0.0285865,51.5028163,0 -0.0285866,51.5026503,0 -0.0285974,51.502359,0 -0.0286089,51.5020546,0 -0.0286224,51.5017749,0 -0.0286385,51.5015119,0 -0.0286573,51.5012619,0 -0.0286952,51.5008713,0 -0.0287646,51.5002736,0 -0.0288065,51.4999447,0 -0.0289152,51.4991614,0 -0.028962,51.4987666,0 -0.0289977,51.4984116,0 -0.0290181,51.4981625,0 -0.029034,51.4978793,0 -0.0290437,51.4975887,0 -0.0290462,51.4973603,0 -0.0290436,51.4971132,0 -0.0290361,51.4968409,0 -0.0290225,51.4965035,0 -0.0290042,51.4961382,0 -0.0289837,51.4958465,0 -0.0289541,51.4955292,0 -0.0289209,51.495249,0 -0.0288798,51.4949682,0 -0.028824,51.4946565,0 -0.0287527,51.4943178,0 -0.028709,51.49413,0 -0.0286636,51.4939469,0 -0.0286161,51.4937682,0 -0.0285665,51.4935934,0 -0.0284591,51.493247,0 -0.0283912,51.4930439,0 -0.0283228,51.4928501,0 -0.0282535,51.4926639,0 -0.0281828,51.4924844,0 -0.0281075,51.4923024,0 -0.0280371,51.4921412,0 -0.027963,51.4919806,0 -0.0278837,51.491817,0 -0.0277993,51.4916508,0 -0.0277113,51.4914856,0 -0.0276198,51.4913212,0 -0.0275249,51.491158,0 -0.0274272,51.4909967,0 -0.0273311,51.4908444,0 -0.0272445,51.4907129,0 -0.027129,51.4905435,0 -0.0269617,51.4903033,0 -0.0268181,51.4901054,0 -0.0266505,51.4898821,0 -0.0265301,51.4897333,0 -0.0263896,51.4895748,0 -0.0262383,51.4894171,0 -0.0261356,51.4893168,0 -0.0260225,51.489212,0 -0.0258969,51.4891008,0 -0.0257532,51.4889781,0 -0.0255473,51.4888105,0 -0.0253037,51.4886227,0 -0.0251338,51.4884966,0 -0.0249435,51.4883599,0 -0.0247672,51.4882365,0 -0.0246044,51.4881257,0 -0.0244309,51.4880113,0 -0.0242601,51.4879022,0 -0.0240841,51.4877934,0 -0.0239114,51.4876901,0 -0.0237406,51.4875914,0 -0.0235605,51.4874907,0 -0.0232807,51.48734,0 -0.0230127,51.4872028,0 -0.0227544,51.4870775,0 -0.0226137,51.4870126,0 -0.0224739,51.4869505,0 -0.0223349,51.486891,0 -0.0221966,51.4868342,0 -0.022052,51.4867775,0 -0.0218586,51.4867045,0 -0.0216839,51.4866405,0 -0.0214899,51.486572,0 -0.0209482,51.4863877,0 -0.020638,51.4862838,0 -0.0203991,51.4862059,0 -0.0199841,51.4860762,0 -0.0195679,51.4859527,0 -0.019151,51.4858355,0 -0.0187337,51.4857247,0 -0.0183742,51.4856336,0 -0.0180954,51.4855675,0 -0.0178657,51.4855167,0 -0.0176494,51.4854716,0 -0.0174429,51.4854315,0 -0.0172441,51.4853958,0 -0.0170256,51.4853602,0 -0.0167824,51.4853241,0 -0.0164366,51.4852784,0 -0.0160514,51.4852344,0 -0.0158047,51.4852095,0 -0.0155201,51.4851837,0 -0.0153188,51.4851678,0 -0.014826,51.4851346,0 -0.0146015,51.4851173,0 -0.0143357,51.485094,0 -0.0141477,51.4850755,0 -0.0139029,51.4850476,0 -0.0136713,51.4850174,0 -0.0134385,51.4849831,0 -0.0132139,51.484946,0 -0.0129973,51.4849064,0 -0.0127801,51.4848628,0 -0.0125988,51.484823,0 -0.0123426,51.4847631,0 -0.0121758,51.484722,0 -0.0119916,51.4846733,0 -0.0114101,51.4845099,0 -0.0112087,51.4844549,0 -0.0110214,51.4844067,0 -0.0108494,51.4843661,0 -0.0106701,51.4843261,0 -0.0105515,51.4843016,0 -0.0104049,51.4842745,0 -0.0102668,51.4842518,0 -0.0100809,51.4842261,0 -0.0098949,51.4842057,0 -0.0097085,51.4841905,0 -0.009513,51.4841799,0 -0.0093203,51.4841745,0 -0.0091113,51.4841738,0 -0.0088975,51.484178,0 -0.0086838,51.4841874,0</coordinates></LineString></Placemark>
  <Placemark><name>Westminster to Greenwich</name><styleUrl>#layer</styleUrl><ExtendedData><Data name="SERVICE"><displayName>SERVICE</displayName><value>Westminster to Greenwich</value></Data><Data name="OPERATOR"><displayName>OPERATOR</displayName><value>City Cruises</value></Data><Data name="SERVICE_TY"><displayName>SERVICE_TY</displayName><value>River Tours</value></Data><Data name="FREQUENCY"><displayName>FREQUENCY</displayName><value>Year-round</value></Data><Data name="STATUS"><displayName>STATUS</displayName><value>Existing</value></Data></ExtendedData><LineString><tessellate>1</tessellate><coordinates>-0.0086838,51.4841874,0 -0.0089044,51.484205,0 -0.0091242,51.4842259,0 -0.0093431,51.48425,0 -0.0095611,51.4842774,0 -0.009778,51.4843079,0 -0.0099936,51.4843417,0 -0.010208,51.4843786,0 -0.0104208,51.4844187,0 -0.0106036,51.4844558,0 -0.0107852,51.4844953,0 -0.0109653,51.4845371,0 -0.0111441,51.4845812,0 -0.0113198,51.4846272,0 -0.011494,51.4846753,0 -0.0118375,51.4847781,0 -0.0121012,51.4848487,0 -0.012397,51.4849206,0 -0.0127007,51.4849882,0 -0.0129887,51.4850457,0 -0.0132233,51.4850874,0 -0.0134652,51.4851261,0 -0.0136276,51.4851494,0 -0.0138023,51.4851721,0 -0.0139932,51.4851947,0 -0.0142149,51.485219,0 -0.0143763,51.4852348,0 -0.014556,51.4852498,0 -0.0152184,51.4852955,0 -0.0154906,51.4853173,0 -0.0157962,51.4853453,0 -0.0160152,51.4853674,0 -0.0163949,51.4854107,0 -0.0167346,51.4854556,0 -0.0169711,51.4854908,0 -0.0171837,51.4855254,0 -0.0173751,51.4855597,0 -0.0175761,51.4855988,0 -0.0177897,51.4856432,0 -0.0180233,51.4856947,0 -0.0181904,51.4857333,0 -0.0183701,51.485777,0 -0.0188094,51.4858896,0 -0.019061,51.4859565,0 -0.0192878,51.4860191,0 -0.0195269,51.4860877,0 -0.0197838,51.4861642,0 -0.0200201,51.486237,0 -0.0203001,51.4863257,0 -0.0205951,51.4864213,0 -0.0208711,51.4865129,0 -0.0211325,51.486602,0 -0.0213816,51.4866894,0 -0.0218013,51.4868403,0 -0.0219483,51.4868957,0 -0.0220798,51.4869476,0 -0.0223567,51.4870641,0 -0.0226244,51.4871852,0 -0.0228779,51.4873082,0 -0.0231417,51.4874432,0 -0.0234174,51.4875916,0 -0.0235949,51.4876909,0 -0.0237633,51.4877882,0 -0.0239335,51.48789,0 -0.0241068,51.4879972,0 -0.0242753,51.4881048,0 -0.0244464,51.4882177,0 -0.0246072,51.4883271,0 -0.0247813,51.488449,0 -0.0249695,51.4885842,0 -0.0251374,51.4887088,0 -0.0253775,51.4888939,0 -0.0255798,51.4890586,0 -0.025721,51.4891791,0 -0.025844,51.489288,0 -0.0259547,51.4893905,0 -0.0260551,51.4894885,0 -0.0262022,51.489642,0 -0.0263389,51.4897961,0 -0.0264566,51.4899416,0 -0.0266211,51.4901608,0 -0.0267641,51.4903578,0 -0.0269308,51.4905971,0 -0.0270451,51.4907649,0 -0.0271307,51.4908948,0 -0.0272256,51.4910451,0 -0.0273221,51.4912045,0 -0.0274161,51.4913662,0 -0.0275067,51.4915289,0 -0.0275938,51.4916925,0 -0.0276774,51.491857,0 -0.0277558,51.4920187,0 -0.0278291,51.4921776,0 -0.0278987,51.492337,0 -0.0279733,51.4925173,0 -0.0280434,51.4926954,0 -0.0281122,51.4928801,0 -0.02818,51.4930724,0 -0.0282475,51.493274,0 -0.028354,51.4936176,0 -0.0284032,51.493791,0 -0.0284503,51.4939684,0 -0.0284954,51.4941501,0 -0.0285387,51.4943365,0 -0.0286095,51.4946726,0 -0.0286648,51.4949817,0 -0.0287056,51.4952601,0 -0.0287386,51.4955382,0 -0.028768,51.4958534,0 -0.0287883,51.4961434,0 -0.0288066,51.496507,0 -0.0288201,51.4968432,0 -0.0288276,51.4971143,0 -0.0288301,51.4973602,0 -0.0288277,51.4975874,0 -0.028818,51.4978757,0 -0.0288022,51.4981566,0 -0.028782,51.498404,0 -0.0287465,51.4987572,0 -0.0286996,51.4991519,0 -0.0285911,51.4999344,0 -0.0285492,51.5002628,0 -0.0284796,51.5008627,0 -0.0284416,51.5012551,0 -0.0284229,51.5015034,0 -0.0284068,51.5017658,0 -0.0283932,51.5020464,0 -0.0283814,51.5023554,0 -0.0283701,51.5026535,0 -0.02837,51.5028226,0 -0.028379,51.5030124,0 -0.0283949,51.503192,0 -0.0284178,51.5033634,0 -0.0284479,51.5035276,0 -0.0284857,51.5036978,0 -0.0285208,51.5038182,0 -0.0285448,51.5038832,0 -0.0285741,51.5039531,0 -0.0286558,51.504124,0 -0.0287018,51.5042115,0 -0.0287555,51.5043059,0 -0.0289006,51.5045402,0 -0.0290344,51.5047424,0 -0.0291712,51.504934,0 -0.029325,51.5051327,0 -0.0295062,51.5053509,0 -0.0296059,51.5054659,0 -0.0296983,51.5055687,0 -0.0298381,51.5057179,0 -0.0299758,51.5058578,0 -0.0301126,51.5059898,0 -0.0302495,51.5061148,0 -0.0303511,51.5062034,0 -0.0304504,51.5062868,0 -0.0306013,51.5064085,0 -0.0307436,51.5065177,0 -0.0308815,51.5066178,0 -0.0310169,51.5067099,0 -0.0311136,51.5067721,0 -0.0312152,51.5068348,0 -0.0314348,51.5069628,0 -0.0315548,51.507029,0 -0.0316755,51.507093,0 -0.0317969,51.5071547,0 -0.0319189,51.5072142,0 -0.0320538,51.5072771,0 -0.0321856,51.5073358,0 -0.0323172,51.5073912,0 -0.0324926,51.5074617,0 -0.0326724,51.5075314,0 -0.0328691,51.5076044,0 -0.0330877,51.5076825,0 -0.0333573,51.5077761,0 -0.0337138,51.5078961,0 -0.0340688,51.5080101,0 -0.0344599,51.5081289,0 -0.0349408,51.5082676,0 -0.0354516,51.5084097,0 -0.0358819,51.5085229,0 -0.0363056,51.5086273,0 -0.0367021,51.5087187,0 -0.0369306,51.5087684,0 -0.0371548,51.5088152,0 -0.037375,51.5088591,0 -0.0375916,51.5089003,0 -0.038002,51.5089728,0 -0.0384086,51.5090376,0 -0.038693,51.5090791,0 -0.0389643,51.5091157,0 -0.0392254,51.5091478,0 -0.039478,51.5091755,0 -0.0397302,51.5092003,0 -0.039947,51.5092187,0 -0.0401659,51.5092341,0 -0.0403865,51.5092464,0 -0.0406363,51.5092567,0 -0.0408994,51.5092635,0 -0.0411554,51.5092666,0 -0.0414036,51.509266,0 -0.041654,51.5092617,0 -0.0418947,51.5092539,0 -0.0421355,51.5092424,0 -0.0423696,51.5092274,0 -0.0426029,51.5092087,0 -0.042842,51.5091856,0 -0.0430792,51.509159,0 -0.0433231,51.5091278,0 -0.0435639,51.5090932,0 -0.043809,51.5090543,0 -0.0440583,51.5090109,0 -0.0442952,51.5089658,0 -0.0445098,51.5089213,0 -0.0447227,51.5088739,0 -0.0449368,51.5088225,0 -0.045169,51.5087632,0 -0.0453925,51.5087026,0 -0.0456382,51.5086325,0 -0.0458965,51.5085554,0 -0.0461375,51.5084797,0 -0.0463193,51.5084199,0 -0.0465149,51.5083528,0 -0.0467152,51.5082811,0 -0.0469216,51.5082042,0 -0.0471357,51.5081216,0 -0.0473821,51.5080224,0 -0.0476836,51.5078962,0 -0.0479991,51.5077601,0 -0.0483177,51.5076178,0 -0.0485717,51.5075012,0 -0.0487988,51.5073938,0 -0.0490327,51.5072796,0 -0.0492965,51.5071469,0 -0.0495615,51.5070101,0 -0.0498299,51.5068677,0 -0.0501024,51.5067193,0 -0.0503799,51.5065644,0 -0.0506384,51.5064167,0 -0.0508786,51.506276,0 -0.0511254,51.5061272,0 -0.0514017,51.5059565,0 -0.0516587,51.5057938,0 -0.0519639,51.5055966,0 -0.0523368,51.5053524,0 -0.0526102,51.5051679,0 -0.0528027,51.5050334,0 -0.0530385,51.5048652,0 -0.0532719,51.5046928,0 -0.0537996,51.5042903,0 -0.0539332,51.5041917,0 -0.0540565,51.5041037,0 -0.0543391,51.5039088,0 -0.0546093,51.5037291,0 -0.0548566,51.5035694,0 -0.055073,51.5034337,0 -0.0552752,51.5033112,0 -0.0554679,51.5031994,0 -0.0556566,51.5030936,0 -0.0557998,51.5030169,0 -0.0559512,51.5029407,0 -0.0561172,51.5028613,0 -0.0563087,51.5027738,0 -0.0564841,51.5026975,0 -0.0566507,51.5026295,0 -0.0568111,51.5025687,0 -0.0570154,51.5024974,0 -0.0571244,51.5024626,0 -0.0572441,51.5024266,0 -0.0574792,51.5023618,0 -0.0577263,51.5023014,0 -0.0579789,51.5022472,0 -0.0582347,51.5021998,0 -0.0583639,51.5021788,0 -0.0584965,51.5021591,0 -0.0587728,51.5021237,0 -0.0590482,51.5020956,0 -0.0591845,51.5020843,0 -0.0593197,51.502075,0 -0.059539,51.5020637,0 -0.0597692,51.5020566,0 -0.059969,51.5020539,0 -0.0601604,51.5020545,0 -0.0603447,51.5020582,0 -0.0605225,51.5020653,0 -0.0607037,51.5020762,0 -0.0609209,51.5020932,0 -0.0611674,51.5021163,0 -0.0614461,51.5021472,0 -0.0617402,51.5021842,0 -0.0620335,51.502226,0 -0.0623253,51.5022726,0 -0.0626151,51.5023237,0 -0.0628488,51.5023691,0 -0.063164,51.5024345,0 -0.0634674,51.5024993,0 -0.0637226,51.5025558,0 -0.0639544,51.5026097,0 -0.0641685,51.5026622,0 -0.0646004,51.5027763,0 -0.0647982,51.5028307,0 -0.0650173,51.5028935,0 -0.0659379,51.5031654,0 -0.0661484,51.5032248,0 -0.0663412,51.503277,0 -0.0667635,51.5033862,0 -0.0671481,51.5034812,0 -0.0673827,51.5035363,0 -0.0677648,51.5036234,0 -0.0680561,51.5036888,0 -0.0683821,51.5037598,0 -0.0697686,51.5040549,0 -0.0700864,51.5041249,0 -0.0703743,51.5041903,0 -0.07093,51.5043206,0 -0.0713961,51.5044374,0 -0.0718365,51.5045546,0 -0.0722323,51.5046667,0 -0.0726864,51.5048018,0 -0.0730172,51.5049043,0 -0.073541,51.5050715,0 -0.073862,51.5051754,0 -0.0742182,51.5052933,0 -0.0757065,51.505795,0 -0.0760383,51.5059041,0 -0.0763421,51.5060017,0 -0.07677,51.5061363,0 -0.0772731,51.5062873,0 -0.0775169,51.5063576,0 -0.0777564,51.5064247,0 -0.0781172,51.506524,0 -0.0784511,51.506607,0 -0.0784788,51.5066153,0 -0.078504,51.5066261,0 -0.0785269,51.5066394,0 -0.0785475,51.5066552,0 -0.0785658,51.5066736,0 -0.078582,51.5066946,0 -0.0785961,51.5067184,0 -0.0786082,51.5067451,0 -0.0786236,51.5067943,0 -0.0786349,51.5068537,0 -0.0786538,51.5070576,0 -0.0786634,51.5071266,0 -0.0786784,51.5071869,0 -0.078699,51.507236,0 -0.0787254,51.5072751,0 -0.0787411,51.5072915,0 -0.0787585,51.5073059,0 -0.0787777,51.5073183,0 -0.0787986,51.5073288,0 -0.0788214,51.5073374,0 -0.0788461,51.507344,0 -0.0788587,51.5073457,0 -0.0788739,51.5073457,0 -0.0789124,51.5073408,0 -0.0789618,51.5073293,0 -0.0790229,51.507311,0 -0.079099,51.5072848,0 -0.0791912,51.5072501,0 -0.0796026,51.5070845,0 -0.0797671,51.5070226,0 -0.0798447,51.5069972,0 -0.0799065,51.5069809,0 -0.0799536,51.5069734,0 -0.0799718,51.5069729,0 -0.0799865,51.5069745,0 -0.080951,51.5071738,0 -0.0813166,51.5072467,0 -0.0815777,51.5072964,0 -0.0821443,51.5073963,0 -0.0823994,51.5074385,0 -0.0826424,51.5074765,0 -0.0829146,51.5075168,0 -0.0831826,51.5075542,0 -0.0834585,51.50759,0 -0.0837924,51.5076305,0 -0.0844496,51.5077039,0 -0.085413,51.5078067,0 -0.0857649,51.5078412,0 -0.0860856,51.5078699,0 -0.086514,51.5079037,0 -0.0871865,51.5079513,0 -0.0875654,51.5079763,0 -0.0884945,51.508033,0 -0.0889801,51.5080674,0 -0.0894241,51.5081028,0 -0.0897404,51.5081311,0 -0.0901246,51.5081705,0 -0.0902749,51.5081888,0 -0.0904312,51.5082101,0 -0.0905951,51.5082346,0 -0.0907696,51.5082628,0 -0.0910981,51.5083203,0 -0.0918548,51.5084596,0 -0.0923451,51.5085479,0 -0.0926951,51.5086142,0 -0.0929507,51.5086666,0 -0.0932315,51.5087284,0 -0.0935176,51.5087946,0 -0.0942966,51.5089792,0 -0.0945346,51.5090332,0 -0.0947494,51.5090798,0 -0.0951002,51.5091534,0</coordinates></LineString></Placemark>
  <Placemark><name>RB1 - North Greenwich to Woolwich Royal Arsenal</name><styleUrl>#layer</styleUrl><ExtendedData><Data name="SERVICE"><displayName>SERVICE</displayName><value>RB1 - North Greenwich to Woolwich Royal Arsenal</value></Data><Data name="OPERATOR"><displayName>OPERATOR</displayName><value>MBNA Thames Clipper</value></Data><Data name="SERVICE_TY"><displayName>SERVICE_TY</displayName><value>River Bus</value></Data><Data name="FREQUENCY"><displayName>FREQUENCY</displayName><value>Daily (Morning and Evening Only)</value></Data><Data name="STATUS"><displayName>STATUS</displayName><value>Existing</value></Data></ExtendedData><LineString><tessellate>1</tessellate><coordinates>0.009191,51.5022186,0 0.0095319,51.5022127,0 0.0098723,51.5022007,0 0.010212,51.5021825,0 0.0105508,51.5021583,0 0.0108883,51.502128,0 0.0112243,51.5020917,0 0.0115585,51.5020493,0 0.0118906,51.502001,0 0.0122203,51.5019467,0 0.0125473,51.5018866,0 0.0128715,51.5018206,0 0.0131449,51.5017623,0 0.0134113,51.5016992,0 0.0136694,51.5016315,0 0.013918,51.5015595,0 0.0141704,51.5014809,0 0.0143852,51.50141,0 0.0145776,51.5013416,0 0.0147565,51.5012726,0 0.0149305,51.5011996,0 0.0151049,51.5011203,0 0.0152859,51.5010319,0 0.0154807,51.5009308,0 0.0155957,51.500867,0 0.0157113,51.5007977,0 0.0158284,51.5007222,0 0.015949,51.5006393,0 0.0160648,51.5005554,0 0.0161901,51.5004605,0 0.0166603,51.500089,0 0.0168635,51.4999343,0 0.0169771,51.4998525,0 0.017086,51.499778,0 0.0171923,51.4997094,0 0.0172972,51.4996458,0 0.0175802,51.4994835,0 0.0178572,51.4993313,0 0.0181298,51.4991886,0 0.0183987,51.4990549,0 0.0186652,51.4989295,0 0.0189293,51.4988125,0 0.0191917,51.4987036,0 0.0194525,51.4986026,0 0.019724,51.4985052,0 0.0200161,51.4984077,0 0.0203325,51.4983089,0 0.0206822,51.498206,0 0.0210079,51.4981164,0 0.0213636,51.4980259,0 0.0217582,51.4979321,0 0.0222367,51.4978243,0 0.0226931,51.4977259,0 0.0231107,51.4976409,0 0.0235039,51.4975666,0 0.0238785,51.4975019,0 0.0242753,51.4974393,0 0.0246561,51.4973846,0 0.0250237,51.4973373,0 0.0253798,51.4972973,0 0.0256094,51.4972745,0 0.0258404,51.4972539,0 0.0260727,51.4972354,0 0.0263059,51.4972191,0 0.0265399,51.497205,0 0.0267746,51.497193,0 0.0270097,51.4971833,0 0.0272449,51.4971757,0 0.0275312,51.4971687,0 0.0277868,51.4971645,0 0.028024,51.4971627,0 0.0282473,51.4971633,0 0.0284618,51.4971665,0 0.0286672,51.4971723,0 0.0288648,51.4971806,0 0.0290557,51.4971916,0 0.0293207,51.4972123,0 0.0296123,51.4972417,0 0.0299276,51.4972788,0 0.0304337,51.4973433,0 0.0306139,51.4973674,0 0.0308008,51.4973944,0 0.0309962,51.4974247,0 0.031203,51.4974588,0 0.0316278,51.4975334,0 0.0324749,51.4976901,0 0.0328326,51.4977543,0 0.0332093,51.4978177,0 0.0335492,51.4978692,0 0.0340295,51.4979359,0 0.0344957,51.4979975,0 0.0349498,51.4980541,0 0.0353931,51.498106,0 0.0358271,51.4981534,0 0.0362524,51.4981963,0 0.0366698,51.4982347,0 0.0370797,51.4982687,0 0.0374593,51.4982968,0 0.0378492,51.4983223,0 0.0382504,51.4983452,0 0.0386646,51.4983656,0 0.0390923,51.4983837,0 0.0395374,51.4983995,0 0.0400034,51.4984132,0 0.0404964,51.498425,0 0.0409519,51.4984334,0 0.0413998,51.498439,0 0.0418405,51.4984418,0 0.0422744,51.4984419,0 0.0427019,51.4984391,0 0.0431231,51.4984336,0 0.0435384,51.4984253,0 0.0439479,51.4984142,0 0.0443173,51.4984014,0 0.0446977,51.4983854,0 0.0450908,51.4983662,0 0.0454993,51.4983436,0 0.045923,51.4983176,0 0.0463706,51.4982877,0 0.0468491,51.4982536,0 0.047377,51.4982138,0 0.0477915,51.4981808,0 0.0482105,51.4981454,0 0.0486342,51.4981076,0 0.0490628,51.4980674,0 0.0494965,51.4980247,0 0.0499358,51.4979796,0 0.0503808,51.4979319,0 0.0508322,51.4978816,0 0.0525017,51.4976975,0 0.0532125,51.4976161,0 0.0535849,51.4975712,0 0.0539263,51.497528,0 0.0542423,51.4974858,0 0.0545355,51.4974442,0 0.0553384,51.4973245,0 0.0576142,51.4969778,0 0.058285,51.4968792,0 0.0588673,51.4967972,0 0.0593258,51.4967369,0 0.059854,51.496672,0 0.0604478,51.496603,0 0.0611002,51.4965309,0 0.0618127,51.4964554,0 0.0625564,51.4963797,0 0.0633053,51.4963065,0 0.0640111,51.4962404,0 0.0648899,51.4961627,0 0.0659166,51.4960755,0 0.0669354,51.4959923,0 0.0678882,51.4959175,0 0.068248,51.4958937,0 0.0686087,51.4958763,0 0.0689701,51.4958651,0 0.0693318,51.4958603,0 0.0696936,51.4958619,0 0.0700552,51.4958697,0 0.0704163,51.4958839,0 0.0707766,51.4959045,0</coordinates></LineString></Placemark>
  <Placemark><name>RB4 - Doubletree Docklands Nelson Dock to Canary Wharf</name><styleUrl>#layer</styleUrl><ExtendedData><Data name="SERVICE"><displayName>SERVICE</displayName><value>RB4 - Doubletree Docklands Nelson Dock to Canary Wharf</value></Data><Data name="OPERATOR"><displayName>OPERATOR</displayName><value>MBNA Thames Clipper</value></Data><Data name="SERVICE_TY"><displayName>SERVICE_TY</displayName><value>River Bus</value></Data><Data name="FREQUENCY"><displayName>FREQUENCY</displayName><value>Daily</value></Data><Data name="STATUS"><displayName>STATUS</displayName><value>Existing</value></Data></ExtendedData><LineString><tessellate>1</tessellate><coordinates>-0.0317748,51.504523,0 -0.0316427,51.5045188,0 -0.0315131,51.504521,0 -0.0313857,51.5045294,0 -0.0312607,51.5045441,0 -0.0311511,51.5045632,0 -0.0310354,51.5045899,0 -0.0309126,51.5046243,0 -0.0307797,51.5046673,0 -0.0307158,51.504692,0 -0.0306532,51.504722,0 -0.0305912,51.5047575,0 -0.0305286,51.5047993,0 -0.0304767,51.5048381,0 -0.0304209,51.5048834,0 -0.0302476,51.5050355,0 -0.0301853,51.505088,0 -0.0301237,51.5051358,0 -0.0300654,51.5051762,0 -0.0300059,51.505212,0 -0.0299463,51.5052421,0 -0.0298859,51.5052671,0 -0.029824,51.505287,0 -0.0297265,51.5053119,0 -0.0296259,51.5053331,0 -0.0295222,51.5053507,0 -0.0294153,51.5053646,0 -0.0293053,51.5053749,0 -0.0291922,51.5053816,0 -0.029076,51.5053846,0 -0.0289566,51.5053839,0</coordinates></LineString></Placemark>
  <Placemark><name>Thames Barrier Loop</name><styleUrl>#layer</styleUrl><ExtendedData><Data name="SERVICE"><displayName>SERVICE</displayName><value>Thames Barrier Loop</value></Data><Data name="OPERATOR"><displayName>OPERATOR</displayName><value>Thames River Services</value></Data><Data name="SERVICE_TY"><displayName>SERVICE_TY</displayName><value>River Tours</value></Data><Data name="FREQUENCY"><displayName>FREQUENCY</displayName><value>Summer Only</value></Data><Data name="STATUS"><displayName>STATUS</displayName><value>Existing</value></Data></ExtendedData><LineString><tessellate>1</tessellate><coordinates>-0.0086838,51.4841874,0 -0.0084776,51.4842315,0 -0.0082728,51.4842774,0 -0.0080692,51.4843251,0 -0.0078669,51.4843744,0 -0.0076659,51.4844255,0 -0.0074662,51.4844784,0 -0.0072678,51.4845329,0 -0.0070707,51.4845893,0 -0.0068765,51.4846468,0 -0.0066834,51.4847061,0 -0.0064918,51.4847671,0 -0.0063016,51.4848296,0 -0.0061132,51.4848938,0 -0.0059266,51.4849594,0 -0.0057419,51.4850265,0 -0.0055594,51.4850951,0 -0.0053744,51.4851668,0 -0.0051909,51.4852402,0 -0.0050091,51.4853153,0 -0.0048289,51.485392,0 -0.0046507,51.4854703,0 -0.0044745,51.48555,0 -0.0043005,51.4856312,0 -0.0041289,51.4857137,0 -0.0039609,51.4857968,0 -0.0037948,51.4858815,0 -0.0036305,51.4859677,0 -0.0034683,51.4860553,0 -0.0033082,51.4861442,0 -0.0031504,51.4862344,0 -0.0029951,51.4863258,0 -0.0028422,51.4864183,0 -0.0026854,51.486516,0 -0.0025321,51.4866141,0 -0.0023826,51.4867126,0 -0.0022368,51.4868116,0 -0.0020948,51.4869108,0 -0.0019566,51.4870103,0 -0.0018224,51.4871101,0 -0.0016921,51.4872102,0 -0.0015678,51.4873087,0 -0.0014458,51.4874083,0 -0.0013261,51.4875089,0 -0.001209,51.4876104,0 -0.0010945,51.4877128,0 -0.0009827,51.4878159,0 -0.0008736,51.4879197,0 -0.0007675,51.4880241,0 -0.0006345,51.4881592,0 -0.0005104,51.4882897,0 -0.0003942,51.4884166,0 -0.0002854,51.4885405,0 -0.0001834,51.4886621,0 -0.0000882,51.4887815,0 6e-7,51.488899,0 0.0000831,51.4890148,0 0.000169,51.4891418,0 0.0002466,51.4892619,0 0.0003172,51.4893769,0 0.0003812,51.4894878,0 0.0004393,51.4895956,0 0.0004916,51.4897006,0 0.0005382,51.4898031,0 0.0005793,51.4899034,0 0.0006343,51.4900597,0 0.0006828,51.4902273,0 0.0007256,51.4904089,0 0.0007645,51.4906121,0 0.0007927,51.4908062,0 0.0008119,51.491011,0 0.0008222,51.4912288,0 0.000824,51.4914645,0 0.0008183,51.4916908,0 0.0008057,51.4919055,0 0.0007862,51.4921105,0 0.0007595,51.4923071,0 0.0007256,51.4924965,0 0.0006843,51.4926789,0 0.0006355,51.4928548,0 0.0005792,51.4930244,0 0.0005193,51.4931769,0 0.0004479,51.4933344,0 0.0003645,51.4934981,0 0.0002678,51.4936702,0 0.0001618,51.4938452,0 0.0000386,51.4940363,0 -0.000102,51.4942449,0 -0.0003155,51.4945533,0 -0.0003827,51.4946475,0 -0.0004557,51.4947445,0 -0.000535,51.4948451,0 -0.0006216,51.4949507,0 -0.0008223,51.4951834,0 -0.0012592,51.4956694,0 -0.0014445,51.4958812,0 -0.0015424,51.4959977,0 -0.0016309,51.4961073,0 -0.0017119,51.4962122,0 -0.0017861,51.4963135,0 -0.0019532,51.4965505,0 -0.0020791,51.4967355,0 -0.0021878,51.4969039,0 -0.0022817,51.4970599,0 -0.0023724,51.4972234,0 -0.0024592,51.497394,0 -0.0025426,51.4975725,0 -0.0026233,51.4977603,0 -0.002701,51.4979568,0 -0.0027781,51.4981674,0 -0.0028562,51.4983965,0 -0.0029403,51.4986585,0 -0.0030156,51.4989062,0 -0.0030797,51.4991327,0 -0.0031348,51.4993454,0 -0.0031815,51.4995474,0 -0.0032206,51.4997423,0 -0.0032522,51.49993,0 -0.0032764,51.5001117,0 -0.0032932,51.500288,0 -0.0033049,51.5004777,0 -0.0033109,51.5006639,0 -0.0033113,51.5008468,0 -0.0033061,51.5010264,0 -0.0032953,51.5012025,0 -0.0032788,51.5013753,0 -0.0032567,51.5015447,0 -0.003229,51.5017107,0 -0.0031854,51.5019307,0 -0.0031402,51.5021287,0 -0.0030916,51.5023125,0 -0.0030389,51.5024849,0 -0.002981,51.5026492,0 -0.0029177,51.5028053,0 -0.0028488,51.5029539,0 -0.002774,51.5030959,0 -0.0026911,51.5032367,0 -0.0026001,51.5033778,0 -0.0025013,51.5035188,0 -0.002395,51.5036593,0 -0.0022815,51.5037992,0 -0.002161,51.5039378,0 -0.0020339,51.5040747,0 -0.0019007,51.5042097,0 -0.0017182,51.5043839,0 -0.0015478,51.5045354,0 -0.0014644,51.5046053,0 -0.0013817,51.5046715,0 -0.0012992,51.5047344,0 -0.0012169,51.5047943,0 -0.0010433,51.504914,0 -0.0008899,51.5050129,0 -0.0007441,51.5050987,0 -0.0006031,51.5051732,0 -0.000459,51.5052407,0 -0.000304,51.5053053,0 -0.0001382,51.5053671,0 0.0000381,51.505426,0 0.000225,51.5054818,0 0.0004221,51.5055347,0 0.0006293,51.5055845,0 0.0008463,51.5056311,0 0.0010358,51.5056669,0 0.0012312,51.5056984,0 0.0014316,51.5057257,0 0.001636,51.5057485,0 0.0018434,51.5057667,0 0.0020525,51.5057802,0 0.0022623,51.5057889,0 0.0024713,51.5057928,0 0.0026681,51.5057917,0 0.0028697,51.5057855,0 0.0030759,51.5057743,0 0.0032861,51.5057581,0 0.0034999,51.5057369,0 0.0037167,51.5057108,0 0.0039357,51.5056799,0 0.004156,51.5056443,0 0.0043443,51.5056097,0 0.004536,51.5055698,0 0.0047312,51.5055246,0 0.0049302,51.5054741,0 0.0051331,51.5054183,0 0.0053405,51.505357,0 0.0055527,51.50529,0 0.0057707,51.5052172,0 0.0059665,51.5051475,0 0.0061638,51.5050723,0 0.0063627,51.5049914,0 0.0065634,51.5049049,0 0.006766,51.5048126,0 0.006971,51.5047144,0 0.0071787,51.5046101,0 0.0073897,51.5044994,0 0.0075926,51.5043879,0 0.0077917,51.5042729,0 0.0079864,51.5041547,0 0.0081763,51.5040336,0 0.008361,51.5039097,0 0.00854,51.5037835,0 0.0087131,51.5036551,0 0.0088798,51.5035249,0 0.0089752,51.5034467,0 0.0090716,51.5033646,0 0.0092695,51.5031862,0 0.0094786,51.5029855,0 0.0097255,51.5027368,0 0.0098208,51.5026362,0 0.0099157,51.50253,0 0.0100109,51.5024172,0 0.0101079,51.5022961,0 0.0102011,51.5021742,0 0.0103013,51.5020383,0 0.0106766,51.5015095,0 0.0108405,51.5012862,0 0.0109331,51.5011661,0 0.0110227,51.5010549,0 0.0111109,51.5009506,0 0.0111988,51.5008519,0 0.0114386,51.5005922,0 0.0116232,51.5003989,0 0.0117959,51.5002268,0 0.0119608,51.5000721,0 0.0121322,51.49992,0 0.0123075,51.4997713,0 0.0124864,51.4996262,0 0.0126686,51.4994849,0 0.0128538,51.4993478,0 0.0130418,51.4992148,0 0.0132324,51.4990863,0 0.0134254,51.4989623,0 0.0136032,51.498854,0 0.0137931,51.4987447,0 0.0139964,51.4986336,0 0.0142154,51.4985194,0 0.0144457,51.4984041,0 0.0147003,51.498281,0 0.0149851,51.4981473,0 0.0153622,51.4979736,0 0.0156799,51.4978312,0 0.0160111,51.4976887,0 0.0163569,51.4975459,0 0.0167188,51.497402,0 0.0170973,51.4972568,0 0.0174968,51.4971086,0 0.0179213,51.4969559,0 0.0183787,51.4967959,0 0.018779,51.4966586,0 0.0191218,51.4965433,0 0.0194376,51.4964397,0 0.0197338,51.4963455,0 0.0200207,51.4962575,0 0.0202967,51.4961761,0 0.0205643,51.4961008,0 0.0208251,51.496031,0 0.0212599,51.4959173,0 0.021516,51.4958537,0 0.0217576,51.4957994,0 0.0219788,51.4957565,0 0.0221365,51.4957296,0 0.0222886,51.4957056,0 0.0224358,51.4956844,0 0.0225787,51.4956659,0 0.022718,51.49565,0 0.0228537,51.4956367,0 0.0229862,51.495626,0 0.0231156,51.4956179,0 0.0234065,51.4956018,0 0.0235642,51.4955946,0 0.0237144,51.4955908,0 0.0238486,51.4955909,0 0.0239802,51.4955955,0 0.0241017,51.4956048,0 0.0242146,51.495619,0 0.0243198,51.4956381,0 0.0244174,51.4956603,0 0.024512,51.4956848,0 0.0246023,51.4957113,0 0.0246877,51.4957395,0 0.0247673,51.4957693,0 0.024841,51.4958004,0 0.0249084,51.4958328,0 0.0249693,51.4958664,0 0.0250507,51.4959169,0 0.0251229,51.4959663,0 0.0251858,51.4960147,0 0.0252392,51.4960619,0 0.025283,51.4961078,0 0.0253172,51.4961525,0 0.0253417,51.4961957,0 0.0253566,51.4962375,0 0.0253622,51.4962713,0 0.0253632,51.4963074,0 0.0253595,51.4963457,0 0.0253511,51.4963861,0 0.0253381,51.4964285,0 0.0253206,51.4964721,0 0.0252989,51.4965166,0 0.0252733,51.4965609,0 0.0252462,51.4966012,0 0.0252155,51.4966409,0 0.0251816,51.4966793,0 0.0251451,51.4967161,0 0.0251063,51.4967505,0 0.0250657,51.4967825,0 0.0250236,51.4968117,0 0.0249803,51.4968378,0 0.0249423,51.4968575,0 0.0249,51.4968764,0 0.024853,51.4968946,0 0.0248008,51.4969124,0 0.0246841,51.496946,0 0.0244978,51.4969921,0 0.0244173,51.4970106,0 0.0243324,51.4970276,0 0.0242426,51.4970432,0 0.0241471,51.4970576,0 0.0239377,51.497083,0 0.023672,51.4971078,0 0.0235279,51.4971185,0 0.0233804,51.4971263,0 0.0232294,51.4971314,0 0.0230753,51.4971337,0 0.0229181,51.4971332,0 0.0227582,51.4971298,0 0.0225959,51.4971237,0 0.0224315,51.4971148,0 0.0223518,51.4971088,0 0.0222692,51.4971008,0 0.0220923,51.4970781,0 0.0218974,51.4970465,0 0.0214958,51.4969734,0 0.0213227,51.496944,0 0.0211393,51.496918,0 0.0209735,51.4969009,0 0.0207748,51.4968865,0 0.0205739,51.4968754,0 0.0203718,51.4968677,0 0.0201691,51.4968634,0 0.0200255,51.4968625,0 0.019878,51.4968638,0 0.0197263,51.4968672,0 0.0195697,51.4968726,0 0.019408,51.4968802,0 0.0192398,51.4968899,0 0.0188778,51.4969161,0 0.0185488,51.4969462,0 0.0182212,51.4969831,0 0.017895,51.4970267,0 0.0175703,51.4970771,0</coordinates></LineString></Placemark>
  <Placemark><name>RB5 - North Greenwich to Woolwich Royal Arsenal</name><styleUrl>#layer</styleUrl><ExtendedData><Data name="SERVICE"><displayName>SERVICE</displayName><value>RB5 - North Greenwich to Woolwich Royal Arsenal</value></Data><Data name="OPERATOR"><displayName>OPERATOR</displayName><value>MBNA Thames Clipper</value></Data><Data name="SERVICE_TY"><displayName>SERVICE_TY</displayName><value>River Bus</value></Data><Data name="FREQUENCY"><displayName>FREQUENCY</displayName><value>Weekends only</value></Data><Data name="STATUS"><displayName>STATUS</displayName><value>Existing</value></Data></ExtendedData><LineString><tessellate>1</tessellate><coordinates>0.009191,51.5022186,0 0.0094966,51.5022379,0 0.009802,51.5022511,0 0.0101074,51.5022583,0 0.0104127,51.5022594,0 0.0107156,51.5022546,0 0.0110182,51.5022438,0 0.0113194,51.5022272,0 0.011618,51.5022047,0 0.0119288,51.5021755,0 0.0122208,51.5021423,0 0.0124968,51.5021048,0 0.0127586,51.5020629,0 0.0130475,51.5020093,0 0.0133237,51.5019511,0 0.0135873,51.5018883,0 0.0137142,51.5018552,0 0.0138378,51.501821,0 0.0140695,51.5017512,0 0.0143046,51.5016731,0 0.0145435,51.5015865,0 0.0147864,51.5014913,0 0.0149986,51.5014016,0 0.0152156,51.5013027,0 0.015439,51.501194,0 0.0156716,51.5010741,0 0.0157929,51.501007,0 0.0159147,51.5009342,0 0.016038,51.5008548,0 0.0161649,51.5007677,0 0.0162849,51.5006807,0 0.0164149,51.5005823,0 0.0168969,51.5002014,0 0.017104,51.5000436,0 0.0172195,51.4999602,0 0.0173302,51.4998842,0 0.0174384,51.499814,0 0.0175451,51.4997489,0 0.0178195,51.4995894,0 0.0180646,51.4994529,0 0.0182956,51.4993307,0 0.0185169,51.4992205,0 0.0187688,51.4991029,0 0.0190256,51.4989901,0 0.0192863,51.4988826,0 0.0195495,51.4987808,0 0.0196853,51.4987315,0 0.0198337,51.4986803,0 0.0199942,51.4986273,0 0.0201665,51.4985727,0 0.0205448,51.4984592,0 0.0209628,51.4983414,0 0.0214202,51.4982196,0 0.0218955,51.4980998,0 0.0223693,51.4979868,0 0.0228111,51.4978879,0 0.0231921,51.4978077,0 0.0235223,51.4977426,0 0.0238231,51.4976881,0 0.0241118,51.4976412,0 0.0243998,51.4975998,0 0.0247127,51.4975602,0 0.0250742,51.4975191,0 0.0255486,51.4974694,0 0.0258106,51.4974442,0 0.0260864,51.4974205,0 0.0263681,51.4973991,0 0.0266486,51.4973805,0 0.0269201,51.4973651,0 0.0271795,51.4973532,0 0.0274227,51.497345,0 0.0276471,51.4973404,0 0.0278096,51.4973392,0 0.0279659,51.4973399,0 0.0281191,51.4973425,0 0.0282733,51.4973471,0 0.0285941,51.4973619,0 0.0290444,51.49739,0 0.0291885,51.4974004,0 0.0293357,51.4974132,0 0.0294864,51.4974281,0 0.0296409,51.4974455,0 0.0299632,51.4974872,0 0.0303082,51.4975391,0 0.030619,51.4975911,0 0.0309649,51.4976531,0 0.0313034,51.4977169,0 0.0321573,51.4978811,0 0.032619,51.4979657,0 0.0328613,51.4980073,0 0.0330875,51.4980437,0 0.0333018,51.4980756,0 0.0335062,51.4981033,0 0.0342688,51.4981998,0 0.0348918,51.4982756,0 0.0354587,51.4983409,0 0.0359843,51.4983974,0 0.0364918,51.4984472,0 0.0369759,51.4984899,0 0.0374416,51.4985257,0 0.0378918,51.498555,0 0.0382315,51.4985735,0 0.0385805,51.4985898,0 0.0389397,51.4986038,0 0.0393106,51.4986156,0 0.0396938,51.4986253,0 0.040093,51.498633,0 0.0405116,51.4986386,0 0.0409558,51.4986424,0 0.0413206,51.4986436,0 0.0416909,51.4986427,0 0.0420668,51.4986396,0 0.0424488,51.4986344,0 0.0428371,51.4986271,0 0.0432324,51.4986176,0 0.0436352,51.498606,0 0.0440462,51.4985922,0 0.0444182,51.4985778,0 0.0447977,51.4985611,0 0.0451855,51.4985419,0 0.0455827,51.4985204,0 0.0459897,51.4984964,0 0.0464088,51.4984698,0 0.0472914,51.4984083,0 0.0476807,51.4983788,0 0.0480794,51.4983466,0 0.0489112,51.4982739,0 0.0498,51.498189,0 0.0507801,51.4980886,0 0.0515764,51.4980015,0 0.0524345,51.4979013,0 0.0533766,51.4977854,0 0.0545237,51.497639,0 0.0551663,51.4975528,0 0.0558807,51.4974507,0 0.0565595,51.4973495,0 0.0581614,51.4971062,0 0.0589576,51.496989,0 0.0597023,51.4968855,0 0.0600478,51.4968402,0 0.0603802,51.4967986,0 0.0610848,51.4967142,0 0.0617852,51.4966338,0 0.0624814,51.4965574,0 0.0631734,51.4964849,0 0.0640784,51.4963958,0 0.0650093,51.4963104,0 0.0659691,51.4962286,0 0.0669624,51.4961499,0 0.0679143,51.49608,0 0.0688673,51.4960159,0 0.0698214,51.4959573,0 0.0707766,51.4959045,0</coordinates></LineString></Placemark>
  <Placemark><name>RBIX - Westminster to North Greenwich</name><styleUrl>#layer</styleUrl><ExtendedData><Data name="SERVICE"><displayName>SERVICE</displayName><value>RBIX - Westminster to North Greenwich</value></Data><Data name="OPERATOR"><displayName>OPERATOR</displayName><value>MBNA Thames Clipper</value></Data><Data name="SERVICE_TY"><displayName>SERVICE_TY</displayName><value>River Bus</value></Data><Data name="FREQUENCY"><displayName>FREQUENCY</displayName><value>Weekends Only</value></Data><Data name="STATUS"><displayName>STATUS</displayName><value>Existing</value></Data></ExtendedData><LineString><tessellate>1</tessellate><coordinates>0.009191,51.5022186,0 0.0092041,51.5024034,0 0.0092073,51.5025878,0 0.0092006,51.5027718,0 0.0091841,51.5029552,0 0.0091563,51.5031497,0 0.0091195,51.503336,0 0.0090737,51.5035146,0 0.0090187,51.5036858,0 0.0089511,51.5038608,0 0.008875,51.5040304,0 0.0087907,51.5041938,0 0.0086982,51.5043508,0 0.0085894,51.5045147,0 0.008472,51.5046732,0 0.0084102,51.5047501,0 0.0083465,51.5048255,0 0.008281,51.504899,0 0.0082137,51.5049708,0 0.0081448,51.5050405,0 0.0080717,51.5051107,0 0.0079946,51.5051813,0 0.0079132,51.5052524,0 0.0077377,51.5053964,0 0.0075443,51.5055433,0 0.0073666,51.5056684,0 0.0071727,51.5057951,0 0.006961,51.505924,0 0.006729,51.506057,0 0.0064946,51.5061833,0 0.0062515,51.5063058,0 0.0060005,51.5064241,0 0.0057427,51.5065377,0 0.0054756,51.5066475,0 0.005206,51.5067508,0 0.004935,51.506847,0 0.0046634,51.506936,0 0.0043802,51.5070212,0 0.0040953,51.5070997,0 0.00381,51.507171,0 0.0035253,51.5072351,0 0.0032303,51.5072942,0 0.0029351,51.5073463,0 0.0026409,51.5073913,0 0.0023489,51.5074289,0 0.0020306,51.5074627,0 0.0017316,51.5074877,0 0.0015879,51.507497,0 0.0014477,51.5075042,0 0.0013108,51.5075093,0 0.001177,51.5075123,0 0.0010293,51.5075137,0 0.0008851,51.5075132,0 0.0007441,51.5075108,0 0.0006065,51.5075067,0 0.000472,51.5075008,0 0.0003407,51.507493,0 0.0002125,51.5074834,0 0.0000875,51.507472,0 -0.0000398,51.5074584,0 -0.0001664,51.5074429,0 -0.0002919,51.5074258,0 -0.000416,51.5074069,0 -0.0005386,51.5073863,0 -0.0006593,51.5073641,0 -0.0007779,51.5073404,0 -0.0008943,51.5073151,0 -0.0010176,51.5072861,0 -0.0011382,51.5072558,0 -0.0012561,51.5072241,0 -0.001371,51.5071911,0 -0.0014826,51.5071569,0 -0.0015909,51.5071214,0 -0.0016957,51.5070848,0 -0.0017969,51.5070471,0 -0.0018925,51.5070089,0 -0.0019894,51.5069674,0 -0.0020879,51.5069226,0 -0.0021887,51.5068741,0 -0.0022916,51.506822,0 -0.0023987,51.5067654,0 -0.0026344,51.5066334,0 -0.0027749,51.506549,0 -0.0029249,51.5064519,0 -0.0030816,51.5063446,0 -0.0033403,51.506162,0 -0.0035649,51.5060009,0 -0.003785,51.5058372,0 -0.0040004,51.5056712,0 -0.0042108,51.505503,0 -0.0044161,51.5053328,0 -0.0046159,51.5051608,0 -0.0048102,51.5049872,0 -0.0049986,51.5048121,0 -0.0052708,51.5045522,0 -0.0054781,51.5043484,0 -0.00566,51.5041622,0 -0.0058205,51.5039889,0 -0.0059679,51.5038194,0 -0.0060993,51.5036565,0 -0.0062161,51.5034983,0 -0.006319,51.5033438,0 -0.0064138,51.5031856,0 -0.0065028,51.5030213,0 -0.0065859,51.5028509,0 -0.0066633,51.5026743,0 -0.006735,51.5024915,0 -0.006801,51.5023022,0 -0.0068614,51.5021064,0 -0.0069162,51.5019038,0 -0.0069568,51.5017283,0 -0.0069908,51.5015487,0 -0.0070182,51.5013649,0 -0.007039,51.501177,0 -0.0070533,51.500985,0 -0.0070609,51.5007888,0 -0.007062,51.5005885,0 -0.0070565,51.5003841,0 -0.007045,51.5001924,0 -0.0070268,51.4999999,0 -0.007002,51.499807,0 -0.0069705,51.499614,0 -0.0069325,51.4994214,0 -0.006888,51.4992293,0 -0.0068371,51.4990382,0 -0.0067799,51.4988484,0 -0.0067282,51.4986959,0 -0.006669,51.4985386,0 -0.0066019,51.4983757,0 -0.0065262,51.4982057,0 -0.0064428,51.4980297,0 -0.0063485,51.4978413,0 -0.0062414,51.4976361,0 -0.0061112,51.4973948,0 -0.0059881,51.497174,0 -0.0058613,51.4969568,0 -0.005731,51.4967431,0 -0.0055972,51.496533,0 -0.00546,51.4963266,0 -0.0053193,51.496124,0 -0.0051751,51.4959251,0 -0.0050276,51.49573,0 -0.0049544,51.495638,0 -0.0048742,51.495543,0 -0.0047863,51.495444,0 -0.004689,51.4953389,0 -0.004503,51.495147,0 -0.0040524,51.4946959,0 -0.0039375,51.4945769,0 -0.0038366,51.4944685,0 -0.0037375,51.4943569,0 -0.0036482,51.4942507,0 -0.0035676,51.4941481,0 -0.0034947,51.4940483,0 -0.0033798,51.4938791,0 -0.0032689,51.4937052,0 -0.0031621,51.4935265,0 -0.0030592,51.4933432,0 -0.0029603,51.4931551,0 -0.0028654,51.4929622,0 -0.0027744,51.4927645,0 -0.0026873,51.4925619,0 -0.0025809,51.4922963,0 -0.0024956,51.492061,0 -0.0024265,51.4918426,0 -0.0023722,51.4916368,0 -0.0023251,51.4914209,0 -0.002291,51.4912263,0 -0.0022682,51.4910451,0 -0.0022567,51.4908743,0 -0.0022544,51.4907709,0 -0.0022551,51.4906683,0 -0.0022589,51.4905668,0 -0.0022656,51.4904663,0 -0.0022754,51.490367,0 -0.0022882,51.4902689,0 -0.002304,51.4901722,0 -0.0023227,51.490077,0 -0.0023463,51.4899738,0 -0.0023725,51.4898731,0 -0.0024012,51.4897748,0 -0.0024325,51.4896789,0 -0.0024664,51.4895854,0 -0.0025028,51.4894943,0 -0.0025418,51.4894056,0 -0.0025834,51.4893192,0 -0.0026393,51.4892129,0 -0.0026994,51.4891079,0 -0.0027635,51.4890045,0 -0.0028315,51.4889029,0 -0.0029032,51.4888034,0 -0.0029783,51.4887062,0 -0.0030568,51.4886115,0 -0.0031385,51.4885196,0 -0.0032183,51.4884358,0 -0.0033044,51.4883512,0 -0.0033968,51.4882658,0 -0.0034959,51.4881793,0 -0.0036015,51.4880916,0 -0.0037143,51.4880025,0 -0.0038346,51.4879114,0 -0.0039632,51.4878179,0 -0.0040852,51.4877331,0 -0.0042125,51.4876487,0 -0.0043452,51.487565,0 -0.004483,51.4874818,0 -0.004626,51.4873993,0 -0.0047739,51.4873176,0 -0.0049267,51.4872367,0 -0.0050842,51.4871567,0 -0.0052352,51.4870831,0 -0.0053895,51.4870113,0 -0.0055467,51.4869411,0 -0.0057067,51.4868729,0 -0.0058691,51.4868067,0 -0.0060336,51.4867426,0 -0.0062,51.4866808,0 -0.0063678,51.4866213,0 -0.0065366,51.486565,0 -0.0067144,51.4865097,0 -0.0069026,51.4864548,0 -0.0071031,51.4863999,0 -0.0073129,51.4863457,0 -0.0075425,51.4862893,0 -0.0077976,51.4862292,0 -0.008123,51.4861548,0 -0.0081471,51.4861483,0 -0.00817,51.4861398,0 -0.0081917,51.4861294,0 -0.0082123,51.486117,0 -0.0082499,51.4860863,0 -0.008283,51.4860478,0 -0.0083117,51.4860013,0 -0.008336,51.4859466,0 -0.0083562,51.4858835,0 -0.0083723,51.4858115,0 -0.0083824,51.4857473,0 -0.0083901,51.4856765,0 -0.0083986,51.4855114,0 -0.0083993,51.4853443,0 -0.0083929,51.4849384,0 -0.0083967,51.4847453,0 -0.0084027,51.4846571,0 -0.0084116,51.4845784,0 -0.0084236,51.484508,0 -0.0084388,51.4844452,0 -0.0084571,51.4843902,0 -0.0084788,51.4843419,0 -0.0085039,51.4843003,0 -0.0085325,51.4842651,0 -0.0085647,51.4842362,0 -0.0086007,51.4842137,0 -0.0086403,51.4841974,0 -0.0086838,51.4841874,0 -0.0087328,51.4841834,0 -0.0087874,51.4841857,0 -0.0088477,51.4841941,0 -0.0089138,51.4842087,0 -0.0089859,51.4842295,0 -0.0090642,51.4842566,0 -0.0091489,51.48429,0 -0.0092404,51.48433,0 -0.0093392,51.4843767,0 -0.009446,51.4844305,0 -0.0095618,51.4844918,0 -0.0096883,51.4845616,0 -0.0099556,51.4847157,0 -0.0104969,51.4850379,0 -0.0107194,51.485168,0 -0.0109449,51.4852944,0 -0.0111371,51.4853948,0 -0.0112449,51.4854468,0 -0.0113438,51.4854908,0 -0.0114346,51.4855271,0 -0.0115177,51.4855558,0 -0.0115936,51.4855771,0 -0.0116623,51.4855911,0 -0.0117241,51.4855978,0 -0.0117525,51.4855984,0 -0.0117792,51.4855971,0 -0.0120743,51.4855735,0 -0.0123426,51.4855539,0 -0.0125938,51.4855378,0 -0.0128317,51.4855248,0 -0.0130609,51.4855148,0 -0.0132813,51.4855078,0 -0.0134943,51.4855037,0 -0.0137008,51.4855026,0 -0.0139023,51.4855041,0 -0.0141076,51.4855081,0 -0.0143169,51.4855146,0 -0.0145305,51.4855236,0 -0.0147483,51.485535,0 -0.0149709,51.485549,0 -0.0151985,51.4855654,0 -0.0154315,51.4855845,0 -0.0156929,51.4856082,0 -0.0159429,51.4856333,0 -0.0161832,51.48566,0 -0.0164149,51.4856884,0 -0.0166391,51.4857187,0 -0.0168561,51.4857508,0 -0.0170665,51.485785,0 -0.0172707,51.4858212,0 -0.0175629,51.485879,0 -0.0178765,51.4859483,0 -0.0182196,51.4860307,0 -0.018642,51.4861382,0 -0.0188743,51.4861997,0 -0.0191103,51.4862649,0 -0.0193504,51.4863339,0 -0.0195953,51.4864069,0 -0.0198454,51.4864839,0 -0.0201021,51.4865654,0 -0.0203666,51.4866519,0 -0.0206409,51.4867439,0 -0.0211707,51.4869248,0 -0.0215279,51.4870524,0 -0.0216925,51.4871144,0 -0.0218461,51.4871745,0 -0.0219908,51.4872338,0 -0.0221278,51.4872927,0 -0.0223644,51.4874006,0 -0.0226082,51.4875189,0 -0.0228618,51.4876489,0 -0.023131,51.4877936,0 -0.0232994,51.4878876,0 -0.0234671,51.4879846,0 -0.0236341,51.4880845,0 -0.0238004,51.4881873,0 -0.0239658,51.488293,0 -0.0241304,51.4884016,0 -0.0242941,51.488513,0 -0.0244569,51.4886271,0 -0.0246395,51.4887586,0 -0.024805,51.488881,0 -0.0249577,51.4889976,0 -0.0250997,51.4891098,0 -0.0252331,51.4892195,0 -0.025358,51.4893266,0 -0.0254749,51.4894318,0 -0.0255843,51.4895354,0 -0.0256976,51.4896491,0 -0.0258099,51.4897691,0 -0.0259219,51.489896,0 -0.0260346,51.4900311,0 -0.0261472,51.4901731,0 -0.0262642,51.4903276,0 -0.0263887,51.4904983,0 -0.0265345,51.4907044,0 -0.0266333,51.4908485,0 -0.0267299,51.4909954,0 -0.0268244,51.4911452,0 -0.0269167,51.4912978,0 -0.0270069,51.4914532,0 -0.027095,51.4916116,0 -0.0271809,51.4917728,0 -0.0272648,51.491937,0 -0.0273399,51.4920914,0 -0.0274131,51.4922503,0 -0.0274845,51.492414,0 -0.0275543,51.4925831,0 -0.0276227,51.4927577,0 -0.0276902,51.4929392,0 -0.0277571,51.4931287,0 -0.0278242,51.493328,0 -0.0278777,51.4934957,0 -0.027929,51.493666,0 -0.0279779,51.4938388,0 -0.0280245,51.4940144,0 -0.0280688,51.4941927,0 -0.0281108,51.4943739,0 -0.0281883,51.4947453,0 -0.028235,51.4950088,0 -0.028275,51.4952823,0 -0.0283088,51.4955675,0 -0.0283364,51.495867,0 -0.0283581,51.4961784,0 -0.0283747,51.4965139,0 -0.0283868,51.496882,0 -0.0283957,51.4973227,0 -0.0283956,51.4975848,0 -0.0283873,51.4978579,0 -0.0283706,51.4981447,0 -0.0283453,51.4984499,0 -0.0283155,51.4987386,0 -0.0282774,51.4990586,0 -0.0281185,51.5002413,0 -0.0280588,51.5007307,0 -0.0280314,51.5009946,0 -0.02801,51.5012414,0 -0.0279941,51.5014757,0 -0.0279837,51.5017,0 -0.0279495,51.5023481,0 -0.0279412,51.5025939,0 -0.0279405,51.5027305,0 -0.0279435,51.5028579,0 -0.02795,51.5029788,0 -0.0279602,51.5030943,0 -0.027991,51.503373,0 -0.0280184,51.5035577,0 -0.0280351,51.503644,0 -0.0280538,51.5037249,0 -0.0280748,51.5038017,0 -0.0280982,51.503875,0 -0.0281273,51.5039537,0 -0.0281612,51.5040349,0 -0.0282003,51.5041192,0 -0.0282448,51.5042074,0 -0.0283503,51.5043965,0 -0.0284987,51.5046393,0 -0.028563,51.5047398,0 -0.0286312,51.5048413,0 -0.0287794,51.5050479,0 -0.0289437,51.5052597,0 -0.029125,51.505478,0 -0.0293226,51.505702,0 -0.0295146,51.5059062,0 -0.0296099,51.5060024,0 -0.0297051,51.506095,0 -0.0298005,51.5061841,0 -0.0298961,51.5062701,0 -0.0301073,51.5064509,0 -0.0303085,51.5066126,0 -0.0304073,51.5066878,0 -0.0305053,51.5067595,0 -0.0306028,51.5068281,0 -0.0307001,51.5068935,0 -0.0308057,51.5069615,0 -0.0309152,51.5070292,0 -0.0310287,51.5070966,0 -0.0311462,51.5071636,0 -0.0312674,51.5072302,0 -0.0313925,51.5072963,0 -0.0315213,51.507362,0 -0.0316537,51.5074272,0 -0.0317925,51.5074923,0 -0.0319396,51.5075575,0 -0.0320963,51.5076234,0 -0.0322643,51.5076907,0 -0.0324397,51.507758,0 -0.0326336,51.5078296,0 -0.0331473,51.5080118,0 -0.0334977,51.5081307,0 -0.0338761,51.5082515,0 -0.0342898,51.5083766,0 -0.0347621,51.5085132,0 -0.0352617,51.508652,0 -0.035718,51.5087724,0 -0.0361479,51.5088789,0 -0.036355,51.5089274,0 -0.0365579,51.5089729,0 -0.0370238,51.5090718,0 -0.0372482,51.5091167,0 -0.0374677,51.5091587,0 -0.0376831,51.5091979,0 -0.0378945,51.5092345,0 -0.0381023,51.5092684,0 -0.0383069,51.5092998,0 -0.0386045,51.5093426,0 -0.0388841,51.5093801,0 -0.0391505,51.5094129,0 -0.0394061,51.5094415,0 -0.0396537,51.5094659,0 -0.0398935,51.5094864,0 -0.0401266,51.5095028,0 -0.0403535,51.5095154,0 -0.0406206,51.5095261,0 -0.0408861,51.5095331,0 -0.0411495,51.5095363,0 -0.0414104,51.5095357,0 -0.0416681,51.5095313,0 -0.0419224,51.5095231,0 -0.0421729,51.5095111,0 -0.0424192,51.5094953,0 -0.0426652,51.5094756,0 -0.0429134,51.5094516,0 -0.0431635,51.5094235,0 -0.043415,51.5093913,0 -0.0436675,51.5093551,0 -0.0439205,51.5093148,0 -0.0441735,51.5092707,0 -0.0444259,51.5092228,0 -0.0446476,51.5091771,0 -0.0448731,51.5091267,0 -0.0451028,51.5090716,0 -0.0453371,51.5090116,0 -0.0455764,51.5089468,0 -0.0458217,51.5088767,0 -0.046074,51.5088011,0 -0.046335,51.5087196,0 -0.0465839,51.5086377,0 -0.0468376,51.5085492,0 -0.0470972,51.5084537,0 -0.0473645,51.5083504,0 -0.0476391,51.5082396,0 -0.0479272,51.508119,0 -0.0482333,51.5079865,0 -0.0485709,51.5078364,0 -0.0488152,51.5077246,0 -0.0490626,51.5076074,0 -0.049314,51.5074846,0 -0.0495701,51.5073556,0 -0.0498315,51.5072203,0 -0.0501001,51.5070776,0 -0.050378,51.5069265,0 -0.0506685,51.5067652,0 -0.0509204,51.5066217,0 -0.0511768,51.5064712,0 -0.0514388,51.5063132,0 -0.0517085,51.5061464,0 -0.0519854,51.505971,0 -0.052276,51.5057832,0 -0.0525855,51.5055795,0 -0.0529278,51.5053507,0 -0.0531389,51.505205,0 -0.0533684,51.5050394,0 -0.0535849,51.5048781,0 -0.0541073,51.5044831,0 -0.0543825,51.5042807,0 -0.0545243,51.5041801,0 -0.0546596,51.5040869,0 -0.0547907,51.5039995,0 -0.054919,51.5039172,0 -0.0554332,51.5035939,0 -0.0556051,51.5034893,0 -0.0557623,51.5033968,0 -0.0559226,51.5033065,0 -0.0560766,51.503224,0 -0.0562267,51.5031482,0 -0.0563742,51.5030782,0 -0.0566233,51.5029663,0 -0.0568343,51.5028772,0 -0.0570307,51.502801,0 -0.057217,51.502736,0 -0.0574275,51.5026709,0 -0.0576473,51.5026103,0 -0.0578754,51.5025546,0 -0.0581102,51.5025041,0 -0.0583484,51.5024601,0 -0.0585956,51.5024217,0 -0.058851,51.502389,0 -0.0591131,51.5023624,0 -0.0593633,51.5023434,0 -0.059619,51.5023305,0 -0.0598788,51.5023237,0 -0.060141,51.5023232,0 -0.0603111,51.5023267,0 -0.0604871,51.5023341,0 -0.0606701,51.5023452,0 -0.0608613,51.5023603,0 -0.06106,51.5023792,0 -0.0612723,51.5024023,0 -0.0615028,51.5024302,0 -0.0617694,51.5024651,0 -0.0619585,51.502492,0 -0.0621537,51.5025229,0 -0.0623566,51.5025579,0 -0.0625693,51.5025974,0 -0.0627883,51.5026407,0 -0.0630255,51.50269,0 -0.0636244,51.5028214,0 -0.0638124,51.5028647,0 -0.0640072,51.5029125,0 -0.0642108,51.502965,0 -0.064427,51.5030233,0 -0.0648341,51.5031386,0 -0.0658676,51.5034403,0 -0.0661674,51.5035239,0 -0.066439,51.5035959,0 -0.0667094,51.5036641,0 -0.0669936,51.5037331,0 -0.0672945,51.5038036,0 -0.0676182,51.5038771,0 -0.0682134,51.5040077,0 -0.0695843,51.5043012,0 -0.0702259,51.5044436,0 -0.0705074,51.5045087,0 -0.0707728,51.5045719,0 -0.0710257,51.5046341,0 -0.0712678,51.5046958,0 -0.0716611,51.5048011,0 -0.0720638,51.5049155,0 -0.0724803,51.5050401,0 -0.072919,51.5051775,0 -0.0732926,51.5052986,0 -0.073705,51.5054358,0 -0.0750048,51.5058783,0 -0.0754541,51.5060295,0 -0.0758713,51.5061668,0 -0.0762546,51.5062893,0 -0.0766811,51.5064204,0 -0.0770892,51.5065398,0 -0.0774857,51.5066496,0 -0.0778741,51.5067508,0 -0.0779257,51.5067671,0 -0.0779811,51.506791,0 -0.0780409,51.5068228,0 -0.0781064,51.5068631,0 -0.0781639,51.5069022,0 -0.0782288,51.5069491,0 -0.0785141,51.5071652,0 -0.0785832,51.5072137,0 -0.078645,51.5072534,0 -0.0787006,51.5072854,0 -0.0787523,51.5073109,0 -0.0788006,51.5073304,0 -0.0788461,51.507344,0 -0.0789136,51.5073575,0 -0.0789864,51.5073669,0 -0.0790652,51.5073721,0 -0.0791511,51.5073732,0 -0.0792447,51.5073703,0 -0.0793503,51.5073634,0 -0.0794632,51.5073531,0 -0.0797836,51.5073202,0 -0.0798813,51.5073125,0 -0.0799676,51.5073079,0 -0.0800651,51.5073063,0 -0.0801534,51.5073094,0 -0.0802344,51.5073171,0 -0.0803088,51.5073296,0 -0.0808919,51.507448,0 -0.081456,51.5075552,0 -0.0817319,51.5076048,0 -0.082004,51.5076518,0 -0.0822726,51.5076963,0 -0.0825379,51.5077382,0 -0.0825828,51.5077431,0 -0.0826291,51.5077441,0 -0.0826769,51.5077412,0 -0.0827264,51.5077345,0 -0.0827777,51.5077238,0 -0.0828308,51.5077092,0 -0.082886,51.5076907,0 -0.0829436,51.5076681,0 -0.0830041,51.5076412,0 -0.0830676,51.5076098,0 -0.0831349,51.5075738,0 -0.0832068,51.5075326,0 -0.0833561,51.5074404,0 -0.0836567,51.507244,0 -0.083783,51.5071641,0 -0.0839143,51.5070869,0 -0.0840308,51.5070261,0 -0.0840986,51.5069951,0 -0.0841631,51.5069692,0 -0.0842247,51.5069483,0 -0.0842839,51.5069323,0 -0.0843408,51.506921,0 -0.0843956,51.5069145,0 -0.0844484,51.5069127,0 -0.0844994,51.5069158,0 -0.0845331,51.5069219,0 -0.0845666,51.5069331,0 -0.0846001,51.5069494,0 -0.0846336,51.5069709,0 -0.0846671,51.5069975,0 -0.084701,51.5070294,0 -0.0847353,51.5070668,0 -0.0847702,51.5071099,0 -0.0848281,51.5071913,0 -0.0848911,51.5072917,0 -0.0850882,51.5076425,0 -0.0851581,51.5077605,0 -0.0852253,51.5078616,0 -0.0852882,51.5079417,0 -0.0853178,51.5079739,0 -0.0853471,51.508002,0 -0.0853762,51.5080261,0 -0.0854051,51.5080463,0 -0.085434,51.5080626,0 -0.0854629,51.5080752,0 -0.0854919,51.5080839,0 -0.085521,51.5080888,0 -0.0857675,51.5081135,0 -0.0860256,51.508137,0 -0.0862979,51.5081597,0 -0.0865895,51.5081818,0 -0.0871413,51.5082195,0 -0.0885335,51.5083073,0 -0.0889289,51.5083352,0 -0.0892839,51.508363,0 -0.089675,51.5083977,0 -0.0900398,51.508435,0 -0.0903847,51.5084754,0 -0.0907133,51.5085194,0 -0.091015,51.5085652,0 -0.0913273,51.5086181,0 -0.0916533,51.5086784,0 -0.0919982,51.5087472,0 -0.0923268,51.5088168,0 -0.0926898,51.508897,0 -0.094042,51.5092086,0 -0.0946075,51.5093345,0 -0.0949144,51.5093994,0 -0.0952023,51.5094572,0</coordinates></LineString></Placemark>
  <Placemark><name>RB6 - Blackfriars to Canary Wharf</name><styleUrl>#layer</styleUrl><ExtendedData><Data name="SERVICE"><displayName>SERVICE</displayName><value>RB6 - Blackfriars to Canary Wharf</value></Data><Data name="OPERATOR"><displayName>OPERATOR</displayName><value>MBNA Thames Clipper</value></Data><Data name="SERVICE_TY"><displayName>SERVICE_TY</displayName><value>River Bus</value></Data><Data name="FREQUENCY"><displayName>FREQUENCY</displayName><value>Limited: Weekday Morning Peak and Evenings Only</value></Data><Data name="STATUS"><displayName>STATUS</displayName><value>Existing</value></Data></ExtendedData><LineString><tessellate>1</tessellate><coordinates>-0.0953649,51.5089224,0 -0.0948914,51.5088251,0 -0.0946689,51.5087773,0 -0.0944224,51.5087215,0 -0.0936293,51.5085334,0 -0.0933463,51.5084679,0 -0.0930753,51.5084083,0 -0.0928281,51.5083576,0 -0.0924713,51.50829,0 -0.0919718,51.5082,0 -0.0912095,51.5080599,0 -0.0908744,51.5080013,0 -0.0906972,51.5079726,0 -0.0905308,51.5079477,0 -0.0903721,51.5079259,0 -0.0902195,51.5079072,0 -0.0900392,51.5078877,0 -0.0898057,51.5078645,0 -0.0894841,51.5078357,0 -0.0890313,51.5077996,0 -0.0885448,51.5077652,0 -0.0876125,51.5077082,0 -0.0872317,51.5076831,0 -0.0865674,51.5076361,0 -0.0861456,51.5076028,0 -0.0858089,51.5075731,0 -0.0854903,51.5075424,0 -0.0851593,51.507508,0 -0.0847128,51.5074591,0 -0.0847046,51.5074571,0 -0.0846969,51.5074531,0 -0.0846828,51.5074387,0 -0.0846704,51.5074158,0 -0.0846593,51.5073839,0 -0.0846435,51.5073124,0 -0.0846086,51.5070992,0 -0.0845956,51.5070443,0 -0.0845812,51.5070005,0 -0.0845644,51.5069653,0 -0.0845453,51.5069396,0 -0.0845237,51.5069231,0 -0.0845119,51.5069183,0 -0.0844994,51.5069158,0 -0.0844866,51.5069155,0 -0.0844726,51.5069175,0 -0.0844411,51.506928,0 -0.0844047,51.5069475,0 -0.0843628,51.506976,0 -0.0843163,51.5070131,0 -0.0842626,51.5070605,0 -0.0840668,51.507248,0 -0.0839975,51.5073101,0 -0.083963,51.507337,0 -0.0839345,51.5073553,0 -0.0839111,51.5073654,0 -0.0839013,51.5073675,0 -0.0838927,51.5073676,0 -0.0835623,51.507328,0 -0.083272,51.5072903,0 -0.0830032,51.5072527,0 -0.0827468,51.5072148,0 -0.0825053,51.507177,0 -0.0822528,51.5071353,0 -0.0819863,51.5070892,0 -0.0816994,51.5070376,0 -0.0811515,51.5069335,0 -0.0808583,51.506875,0 -0.080584,51.5068183,0 -0.0801347,51.5067208,0 -0.0796445,51.5066087,0 -0.0791354,51.5064863,0 -0.0785553,51.5063403,0 -0.0780822,51.506218,0 -0.0777421,51.506126,0 -0.0775139,51.5060608,0 -0.0772632,51.5059861,0 -0.0765391,51.5057616,0 -0.0762049,51.5056556,0 -0.0758384,51.5055355,0 -0.0754548,51.5054068,0 -0.0743777,51.5050414,0 -0.0740427,51.5049302,0 -0.0737406,51.5048323,0 -0.0732112,51.5046633,0 -0.0728759,51.5045594,0 -0.0724143,51.5044221,0 -0.072011,51.5043079,0 -0.0715621,51.5041884,0 -0.0710878,51.5040696,0 -0.0705227,51.503937,0 -0.0702351,51.5038716,0 -0.0699176,51.5038017,0 -0.0685297,51.5035064,0 -0.0682031,51.5034352,0 -0.0679113,51.5033697,0 -0.0675337,51.5032836,0 -0.0673027,51.5032293,0 -0.0669285,51.503137,0 -0.0665165,51.5030304,0 -0.0663223,51.502978,0 -0.0661104,51.5029181,0 -0.0651899,51.5026462,0 -0.0649712,51.5025836,0 -0.0647739,51.5025293,0 -0.0643298,51.502412,0 -0.0641105,51.5023582,0 -0.0638732,51.502303,0 -0.0636122,51.5022452,0 -0.0633025,51.502179,0 -0.0629677,51.5021094,0 -0.0627323,51.502064,0 -0.0625646,51.5020348,0 -0.06238,51.5020053,0 -0.0618914,51.5019345,0 -0.0615368,51.5018856,0 -0.0612914,51.501856,0 -0.0610268,51.5018298,0 -0.0607663,51.5018092,0 -0.0605476,51.5017958,0 -0.0603648,51.5017885,0 -0.0601743,51.5017846,0 -0.0599749,51.5017841,0 -0.0597642,51.5017869,0 -0.0595144,51.5017944,0 -0.0592762,51.5018066,0 -0.0591323,51.5018166,0 -0.0589873,51.5018286,0 -0.0588414,51.5018425,0 -0.0586947,51.5018584,0 -0.0585457,51.5018765,0 -0.0584005,51.5018961,0 -0.0582589,51.5019171,0 -0.0581211,51.5019396,0 -0.057984,51.501964,0 -0.0578475,51.5019902,0 -0.0577118,51.5020183,0 -0.0575772,51.5020482,0 -0.0574417,51.5020803,0 -0.0573105,51.5021133,0 -0.0571835,51.5021473,0 -0.0570607,51.5021823,0 -0.056942,51.5022183,0 -0.0568229,51.5022564,0 -0.0565843,51.5023389,0 -0.0564232,51.5023998,0 -0.056254,51.5024689,0 -0.0560728,51.5025476,0 -0.0558653,51.5026421,0 -0.055693,51.5027238,0 -0.0555328,51.5028048,0 -0.0553515,51.5029016,0 -0.0551326,51.5030259,0 -0.0548272,51.5032092,0 -0.0545987,51.5033492,0 -0.0543924,51.5034788,0 -0.0542019,51.5036022,0 -0.0540243,51.5037211,0 -0.0538734,51.5038252,0 -0.0537304,51.5039267,0 -0.053573,51.5040437,0 -0.0531599,51.5043618,0 -0.0529208,51.5045384,0 -0.0527009,51.504698,0 -0.0524925,51.5048461,0 -0.0522925,51.504985,0 -0.0520134,51.505173,0 -0.0516518,51.5054101,0 -0.0513493,51.5056056,0 -0.0510948,51.5057665,0 -0.0508229,51.5059347,0 -0.0505804,51.5060808,0 -0.0503443,51.5062191,0 -0.0500914,51.5063636,0 -0.0497002,51.5065806,0 -0.0493101,51.506789,0 -0.0488993,51.5070006,0 -0.048535,51.5071802,0 -0.0481554,51.5073579,0 -0.0477363,51.5075452,0 -0.0472823,51.5077404,0 -0.0470899,51.5078198,0 -0.0469091,51.5078919,0 -0.0466919,51.5079755,0 -0.046489,51.5080511,0 -0.0462955,51.5081203,0 -0.0461093,51.5081841,0 -0.0459101,51.5082491,0 -0.0456935,51.5083168,0 -0.0453349,51.5084231,0 -0.0451655,51.5084706,0 -0.0450009,51.5085147,0 -0.0447757,51.5085723,0 -0.0445722,51.508621,0 -0.0443701,51.5086661,0 -0.0441645,51.5087087,0 -0.0439938,51.5087417,0 -0.0438202,51.508773,0 -0.0436435,51.5088027,0 -0.0434639,51.5088308,0 -0.0432854,51.5088568,0 -0.0431106,51.5088802,0 -0.042939,51.5089011,0 -0.0427707,51.5089196,0 -0.0426005,51.5089363,0 -0.0424312,51.5089508,0 -0.0422629,51.5089634,0 -0.0420958,51.5089738,0 -0.0419282,51.5089823,0 -0.0417561,51.5089888,0 -0.0415792,51.5089935,0 -0.0413969,51.5089964,0 -0.0412178,51.5089972,0 -0.0410364,51.508996,0 -0.0408526,51.5089928,0 -0.0406667,51.5089875,0 -0.0404312,51.5089781,0 -0.0402133,51.5089661,0 -0.0400093,51.5089517,0 -0.0397797,51.5089323,0 -0.0395572,51.5089106,0 -0.0393218,51.5088844,0 -0.0390696,51.5088532,0 -0.0387889,51.5088156,0 -0.0384473,51.508766,0 -0.0381192,51.5087136,0 -0.0379248,51.5086801,0 -0.0377234,51.5086433,0 -0.0372923,51.5085591,0 -0.0370685,51.5085126,0 -0.0368486,51.5084649,0 -0.0364625,51.508376,0 -0.0360458,51.5082733,0 -0.0356322,51.5081645,0 -0.0351195,51.5080221,0 -0.0345853,51.5078679,0 -0.0340971,51.5077202,0 -0.0338144,51.5076319,0 -0.0336206,51.5075687,0 -0.0333865,51.5074881,0 -0.0331554,51.5074042,0 -0.0329023,51.5073073,0 -0.0326532,51.5072066,0 -0.032408,51.5071022,0 -0.0321671,51.5069939,0 -0.0319616,51.5068987,0 -0.031822,51.5068318,0 -0.0316979,51.506769,0 -0.0315882,51.5067096,0 -0.0313614,51.5065742,0 -0.0312675,51.5065228,0 -0.0311895,51.5064828,0 -0.0310982,51.5064394,0 -0.031011,51.5064012,0 -0.0309194,51.5063646,0 -0.0308303,51.5063323,0 -0.0307632,51.5063103,0 -0.0306897,51.5062885,0 -0.0305122,51.5062416,0 -0.0304412,51.5062253,0 -0.0303618,51.5062098,0 -0.0299978,51.506152,0 -0.0299122,51.5061362,0 -0.0298367,51.5061198,0 -0.0297506,51.5060994,0 -0.0296993,51.5060855,0 -0.0296369,51.5060654,0 -0.0295816,51.5060446,0 -0.0295325,51.5060231,0 -0.0294854,51.5059996,0 -0.0294422,51.5059748,0 -0.029397,51.5059457,0 -0.0293582,51.5059177,0 -0.0293194,51.505886,0 -0.0292797,51.5058502,0 -0.0292366,51.5058076,0 -0.0292025,51.5057707,0 -0.0291683,51.5057293,0 -0.0290913,51.5056223,0 -0.0290531,51.5055639,0 -0.029018,51.5055047,0 -0.0289858,51.5054447,0 -0.0289566,51.5053839,0</coordinates></LineString></Placemark>
  <Placemark><name>RB1 - Westminster to North Greenwich</name><styleUrl>#layer</styleUrl><ExtendedData><Data name="SERVICE"><displayName>SERVICE</displayName><value>RB1 - Westminster to North Greenwich</value></Data><Data name="OPERATOR"><displayName>OPERATOR</displayName><value>MBNA Thames Clipper</value></Data><Data name="SERVICE_TY"><displayName>SERVICE_TY</displayName><value>River Bus</value></Data><Data name="FREQUENCY"><displayName>FREQUENCY</displayName><value>Daily</value></Data><Data name="STATUS"><displayName>STATUS</displayName><value>Existing</value></Data></ExtendedData><LineString><tessellate>1</tessellate><coordinates>-0.0952668,51.5093285,0 -0.0949822,51.5092713,0 -0.094818,51.5092366,0 -0.0945257,51.5091732,0 -0.0941158,51.5090818,0 -0.0938508,51.509021,0 -0.093172,51.508861,0 -0.0927948,51.5087775,0 -0.0925682,51.5087306,0 -0.0923946,51.5086971,0 -0.0921332,51.5086492,0 -0.0915482,51.5085464,0 -0.0908251,51.5084243,0 -0.0903364,51.5083397,0 -0.0902001,51.5083186,0 -0.0900772,51.5083022,0 -0.0899329,51.5082862,0 -0.0897077,51.5082644,0 -0.0893126,51.5082293,0 -0.0889545,51.5082013,0 -0.0885565,51.5081732,0 -0.0871639,51.5080854,0 -0.0866149,51.5080479,0 -0.0863086,51.5080246,0 -0.0860556,51.5080035,0 -0.0855551,51.5079557,0 -0.0853185,51.5079335,0 -0.0851079,51.5079106,0 -0.0850917,51.5079072,0 -0.0850754,51.5079004,0 -0.085059,51.5078903,0 -0.0850424,51.5078769,0 -0.0850086,51.5078398,0 -0.0849737,51.5077886,0 -0.0849359,51.5077204,0 -0.0848947,51.5076339,0 -0.0848515,51.5075327,0 -0.084729,51.5072323,0 -0.0846904,51.5071466,0 -0.0846554,51.5070773,0 -0.0846142,51.5070091,0 -0.0845944,51.5069822,0 -0.0845749,51.50696,0 -0.0845557,51.5069423,0 -0.0845368,51.506929,0 -0.084518,51.5069202,0 -0.0844994,51.5069158,0 -0.0844802,51.5069157,0 -0.084457,51.5069196,0 -0.08443,51.5069275,0 -0.0843988,51.5069394,0 -0.0843241,51.5069753,0 -0.0842315,51.5070281,0 -0.0841431,51.5070833,0 -0.0840375,51.5071526,0 -0.0835548,51.5074809,0 -0.0834459,51.5075507,0 -0.0833555,51.5076046,0 -0.0832821,51.5076435,0 -0.0832218,51.5076699,0 -0.0831963,51.5076785,0 -0.0831739,51.5076841,0 -0.0831544,51.5076866,0 -0.0831379,51.5076861,0 -0.0828578,51.5076473,0 -0.0825901,51.5076074,0 -0.0823382,51.5075677,0 -0.0820605,51.5075216,0 -0.0817951,51.5074758,0 -0.0815169,51.5074258,0 -0.0809568,51.5073193,0 -0.0806589,51.5072599,0 -0.0803776,51.5072018,0 -0.0801346,51.50715,0 -0.0800985,51.5071465,0 -0.0800462,51.5071486,0 -0.0799769,51.5071562,0 -0.0798894,51.5071696,0 -0.0797035,51.5072041,0 -0.0792362,51.507299,0 -0.0791312,51.5073185,0 -0.0790449,51.5073327,0 -0.0789756,51.507342,0 -0.0789197,51.5073469,0 -0.0788767,51.5073476,0 -0.0788461,51.507344,0 -0.0788178,51.5073337,0 -0.0787864,51.5073155,0 -0.0787517,51.5072891,0 -0.0787131,51.5072542,0 -0.0786688,51.5072089,0 -0.0786183,51.5071524,0 -0.0784046,51.5068945,0 -0.0783147,51.5067939,0 -0.078268,51.5067485,0 -0.0782268,51.5067145,0 -0.0781901,51.5066913,0 -0.0781733,51.5066837,0 -0.0781576,51.5066786,0 -0.077999,51.5066402,0 -0.0780054,51.5066415,0 -0.0780042,51.5066407,0 -0.0779794,51.5066333,0 -0.0778506,51.506598,0 -0.0774748,51.5064945,0 -0.0770845,51.5063814,0 -0.0766742,51.5062572,0 -0.0762436,51.5061217,0 -0.0757704,51.5059681,0 -0.0752972,51.5058115,0 -0.0743066,51.5054775,0 -0.0738766,51.5053342,0 -0.0734413,51.5051911,0 -0.0730483,51.5050649,0 -0.0725917,51.504923,0 -0.0721615,51.5047948,0 -0.0717492,51.504678,0 -0.0715467,51.5046238,0 -0.0711819,51.5045288,0 -0.0708511,51.5044462,0 -0.0706048,51.5043874,0 -0.0703001,51.504317,0 -0.0696556,51.5041739,0 -0.0682842,51.5038803,0 -0.0676915,51.5037503,0 -0.0673506,51.5036728,0 -0.0670709,51.5036071,0 -0.0667698,51.503534,0 -0.0665211,51.5034711,0 -0.0662536,51.5034003,0 -0.0660647,51.5033484,0 -0.0658554,51.5032888,0 -0.0649245,51.5030161,0 -0.0645137,51.5028998,0 -0.0642817,51.5028373,0 -0.0640879,51.5027874,0 -0.0639164,51.5027456,0 -0.0636988,51.5026947,0 -0.0634124,51.5026304,0 -0.0630948,51.5025623,0 -0.062807,51.5025027,0 -0.0625736,51.5024568,0 -0.0623742,51.5024198,0 -0.0621836,51.5023871,0 -0.0619882,51.5023567,0 -0.0617629,51.5023252,0 -0.0615165,51.5022932,0 -0.0612919,51.5022666,0 -0.0611144,51.5022478,0 -0.0608911,51.5022268,0 -0.0606941,51.5022112,0 -0.0605048,51.5021997,0 -0.0602887,51.5021913,0 -0.0600668,51.5021878,0 -0.0598392,51.5021893,0 -0.0596058,51.5021958,0 -0.0593415,51.5022092,0 -0.0590826,51.5022288,0 -0.0588119,51.5022564,0 -0.0585479,51.5022901,0 -0.0582916,51.50233,0 -0.0580443,51.5023757,0 -0.0578009,51.502428,0 -0.0575643,51.5024858,0 -0.0573358,51.5025487,0 -0.0572213,51.5025832,0 -0.0571162,51.5026167,0 -0.0569209,51.5026849,0 -0.0567167,51.5027641,0 -0.0564996,51.5028557,0 -0.0562457,51.5029698,0 -0.0560933,51.5030421,0 -0.0559382,51.5031205,0 -0.0557798,51.5032053,0 -0.0556151,51.5032981,0 -0.055475,51.5033805,0 -0.0552817,51.5034977,0 -0.055031,51.5036531,0 -0.0547641,51.5038232,0 -0.0545007,51.5039954,0 -0.0543717,51.5040842,0 -0.0542195,51.5041922,0 -0.0539417,51.5043965,0 -0.0533955,51.5048098,0 -0.0532035,51.5049523,0 -0.0529771,51.5051157,0 -0.052769,51.5052593,0 -0.0524788,51.5054545,0 -0.05212,51.5056899,0 -0.0518165,51.5058859,0 -0.0515551,51.5060514,0 -0.0512877,51.5062168,0 -0.0510277,51.5063736,0 -0.0507735,51.5065227,0 -0.0505242,51.5066648,0 -0.0501312,51.5068824,0 -0.0497315,51.5070964,0 -0.0494333,51.5072513,0 -0.0491795,51.507379,0 -0.0489307,51.5075006,0 -0.048686,51.5076165,0 -0.0484443,51.5077271,0 -0.0481091,51.5078762,0 -0.0478054,51.5080076,0 -0.0475203,51.508127,0 -0.0472489,51.5082365,0 -0.0470374,51.5083183,0 -0.0468298,51.5083956,0 -0.0466256,51.5084687,0 -0.0464243,51.5085378,0 -0.0462362,51.5085996,0 -0.0459789,51.50868,0 -0.0457299,51.5087546,0 -0.0454883,51.5088236,0 -0.0452531,51.5088874,0 -0.045023,51.5089463,0 -0.0447979,51.5090003,0 -0.0445773,51.5090496,0 -0.0443605,51.5090943,0 -0.044113,51.5091413,0 -0.0438648,51.5091846,0 -0.0436166,51.509224,0 -0.043369,51.5092595,0 -0.0431226,51.5092911,0 -0.0428777,51.5093186,0 -0.0426349,51.5093421,0 -0.0423944,51.5093614,0 -0.0421536,51.5093768,0 -0.0419086,51.5093885,0 -0.0416596,51.5093965,0 -0.041407,51.5094009,0 -0.0411512,51.5094015,0 -0.0408928,51.5093983,0 -0.0406321,51.5093915,0 -0.04037,51.5093809,0 -0.0401482,51.5093686,0 -0.0399203,51.5093525,0 -0.0396852,51.5093325,0 -0.039442,51.5093085,0 -0.0391905,51.5092804,0 -0.0389278,51.509248,0 -0.0386515,51.5092109,0 -0.0383577,51.5091687,0 -0.0379507,51.5091043,0 -0.0377468,51.509069,0 -0.0375296,51.5090295,0 -0.0373184,51.5089891,0 -0.0370909,51.5089436,0 -0.0368435,51.5088923,0 -0.03663,51.5088458,0 -0.0364007,51.5087932,0 -0.0361481,51.5087331,0 -0.0358892,51.5086691,0 -0.0356229,51.5086009,0 -0.0353478,51.5085283,0 -0.0348825,51.5084,0 -0.0343824,51.5082548,0 -0.0339724,51.5081308,0 -0.0335985,51.5080114,0 -0.0332523,51.507894,0 -0.0329798,51.5077987,0 -0.0327427,51.5077132,0 -0.0325354,51.5076364,0 -0.0323785,51.5075762,0 -0.032215,51.5075107,0 -0.0320626,51.5074466,0 -0.03192,51.5073834,0 -0.0317863,51.5073207,0 -0.0316618,51.5072596,0 -0.0315308,51.5071927,0 -0.0314069,51.5071271,0 -0.0312905,51.5070632,0 -0.0311744,51.506997,0 -0.0310658,51.5069325,0 -0.0309591,51.5068665,0 -0.030857,51.5068007,0 -0.0307192,51.506707,0 -0.0305788,51.5066051,0 -0.0304339,51.5064939,0 -0.03028,51.5063698,0 -0.0301782,51.5062843,0 -0.0300728,51.5061924,0 -0.0298859,51.5060211,0 -0.0297953,51.505933,0 -0.0296992,51.5058362,0 -0.0295104,51.5056354,0 -0.0294957,51.5056226,0 -0.0294738,51.5056087,0 -0.0294069,51.5055766,0 -0.0293268,51.5055448,0 -0.0291241,51.5054699,0 -0.029041,51.5054356,0 -0.0289869,51.5054078,0 -0.0289689,51.5053954,0 -0.0289566,51.5053839,0 -0.0289492,51.5053723,0 -0.0289449,51.5053584,0 -0.0289439,51.5053423,0 -0.0289459,51.5053236,0 -0.0289602,51.505276,0 -0.0290087,51.5051652,0 -0.0290245,51.5051196,0 -0.0290289,51.5050968,0 -0.0290293,51.5050774,0 -0.0290257,51.5050611,0 -0.029018,51.5050475,0 -0.0289939,51.5050177,0 -0.0289753,51.504991,0 -0.0288299,51.5047882,0 -0.0286996,51.5045898,0 -0.0286214,51.5044645,0 -0.0285533,51.5043503,0 -0.0284503,51.5041657,0 -0.0284051,51.504076,0 -0.0283697,51.5039993,0 -0.0283364,51.5039193,0 -0.0283095,51.5038466,0 -0.0282877,51.5037781,0 -0.0282673,51.5037038,0 -0.0282503,51.5036308,0 -0.0282331,51.5035427,0 -0.0282063,51.5033621,0 -0.0281898,51.5032263,0 -0.0281759,51.5030866,0 -0.0281736,51.5029327,0 -0.0281688,51.5028945,0 -0.0281599,51.5028606,0 -0.0281557,51.5028488,0 -0.0281538,51.5028281,0 -0.0281585,51.5027424,0 -0.0281519,51.5026896,0 -0.028151,51.5026639,0 -0.0281531,51.5026476,0 -0.0281576,51.5026342,0 -0.0281678,51.5025908,0 -0.0281721,51.5025418,0 -0.0281655,51.5023518,0 -0.0281828,51.5019482,0 -0.0282101,51.5014805,0 -0.0282258,51.5012482,0 -0.0282459,51.5010153,0 -0.0282743,51.5007398,0 -0.0283339,51.5002521,0 -0.0284566,51.4993496,0 -0.0284928,51.4990692,0 -0.028531,51.4987479,0 -0.0285609,51.4984577,0 -0.0285864,51.4981506,0 -0.0286032,51.4978617,0 -0.0286116,51.4975861,0 -0.0286117,51.4973219,0 -0.0286028,51.4968798,0 -0.0285906,51.4965105,0 -0.0285739,51.4961734,0 -0.0285522,51.4958602,0 -0.0285243,51.4955586,0 -0.0285129,51.4954545,0 -0.0285144,51.4954504,0 -0.0285198,51.4954458,0 -0.0285424,51.4954351,0 -0.0285809,51.4954224,0 -0.0286354,51.4954077,0 -0.0287927,51.4953721,0 -0.0290176,51.4953275,0 -0.0292495,51.4952848,0 -0.0295387,51.4952336,0 -0.0308996,51.4949996,0 -0.03119,51.4949473,0 -0.0314165,51.494904,0 -0.0315828,51.4948692,0 -0.0316997,51.4948408,0 -0.0317402,51.4948289,0 -0.0317687,51.4948186,0 -0.0317853,51.4948096,0 -0.0317902,51.4948022,0 -0.031783,51.4947955,0 -0.0317637,51.4947883,0 -0.0317322,51.4947807,0 -0.0316885,51.4947727,0 -0.0315638,51.4947551,0 -0.0313883,51.4947354,0 -0.0311507,51.4947125,0 -0.030847,51.4946861,0 -0.0294281,51.4945733,0 -0.0288835,51.4945259,0 -0.0286473,51.4945017,0 -0.0284806,51.4944805,0 -0.0284221,51.4944709,0 -0.0283801,51.494462,0 -0.0283543,51.4944536,0 -0.0283475,51.4944496,0 -0.0283448,51.4944458,0 -0.0283353,51.4943947,0 -0.0283371,51.4944057,0 -0.0283358,51.4944023,0 -0.0283248,51.4943552,0 -0.0282818,51.4941701,0 -0.0282378,51.493993,0 -0.0281901,51.4938137,0 -0.0281415,51.4936418,0 -0.0280358,51.493301,0 -0.0279698,51.4931041,0 -0.0279008,51.4929094,0 -0.0278304,51.49272,0 -0.0277638,51.4925502,0 -0.0276912,51.4923746,0 -0.0276211,51.4922139,0 -0.027546,51.492051,0 -0.0274711,51.491897,0 -0.0273384,51.4916428,0 -0.0272222,51.49143,0 -0.0271193,51.491251,0 -0.027026,51.4910966,0 -0.0269303,51.4909451,0 -0.0268357,51.4908014,0 -0.0267327,51.4906507,0 -0.0265499,51.4903959,0 -0.0264039,51.490188,0 -0.0263212,51.4900765,0 -0.0262402,51.489972,0 -0.0261431,51.4898533,0 -0.0260459,51.4897418,0 -0.0259477,51.4896365,0 -0.0258481,51.4895367,0 -0.0256538,51.4893562,0 -0.025534,51.4892485,0 -0.0254065,51.489139,0 -0.0252699,51.4890268,0 -0.0251322,51.4889179,0 -0.0249712,51.4887949,0 -0.0248027,51.48867,0 -0.0246191,51.488538,0 -0.0244471,51.4884176,0 -0.0242884,51.4883096,0 -0.0241196,51.4881983,0 -0.0239536,51.4880923,0 -0.0237828,51.4879867,0 -0.0236152,51.4878864,0 -0.0234491,51.4877904,0 -0.0232742,51.4876926,0 -0.0230008,51.4875457,0 -0.0227431,51.4874135,0 -0.0225758,51.4873316,0 -0.0225623,51.4873268,0 -0.0225456,51.4873237,0 -0.0225017,51.4873223,0 -0.0224397,51.4873276,0 -0.022293,51.4873482,0 -0.0222332,51.4873544,0 -0.0222039,51.4873556,0 -0.0221795,51.4873547,0 -0.0221594,51.4873518,0 -0.0221436,51.4873468,0 -0.0221284,51.4873382,0 -0.0221145,51.4873262,0 -0.0221017,51.4873106,0 -0.0220897,51.4872912,0 -0.0220713,51.4872505,0 -0.0220342,51.4871486,0 -0.022013,51.4871064,0 -0.0219899,51.4870782,0 -0.0219769,51.4870683,0 -0.021963,51.4870611,0 -0.0218153,51.4870032,0 -0.0216381,51.4869365,0 -0.0212761,51.4868071,0 -0.0207433,51.4866252,0 -0.0204342,51.4865218,0 -0.0202011,51.4864456,0 -0.0199339,51.4863607,0 -0.0196896,51.4862855,0 -0.0194355,51.4862099,0 -0.019199,51.486142,0 -0.0189755,51.4860804,0 -0.0187257,51.4860139,0 -0.0182991,51.4859054,0 -0.0179513,51.4858218,0 -0.0177313,51.4857729,0 -0.0175214,51.4857291,0 -0.0173192,51.4856898,0 -0.0171232,51.4856549,0 -0.0169083,51.48562,0 -0.0166869,51.4855871,0 -0.0164575,51.4855562,0 -0.0162287,51.4855281,0 -0.0159791,51.4855003,0 -0.0157283,51.485475,0 -0.015461,51.4854509,0 -0.0152198,51.4854312,0 -0.014994,51.4854149,0 -0.014763,51.4854005,0 -0.0145467,51.4853891,0 -0.0143249,51.4853798,0 -0.0141163,51.4853734,0 -0.0139027,51.4853692,0 -0.0137022,51.4853677,0 -0.01349,51.4853689,0 -0.0132714,51.4853731,0 -0.0130547,51.4853799,0 -0.0128149,51.4853903,0 -0.0125878,51.4854027,0 -0.0123192,51.4854198,0 -0.0120438,51.4854397,0 -0.0117503,51.4854635,0 -0.0115001,51.4854855,0 -0.0112747,51.4855071,0 -0.011109,51.4855235,0 -0.0109801,51.4855382,0 -0.0109625,51.4855364,0 -0.010936,51.485528,0 -0.0109004,51.4855129,0 -0.0108557,51.4854911,0 -0.0107385,51.4854271,0 -0.0105822,51.4853348,0 -0.010236,51.4851197,0 -0.0093481,51.4845541,0 -0.009153,51.4844329,0 -0.0089965,51.4843387,0 -0.0088758,51.4842697,0 -0.0087841,51.4842218,0 -0.0087203,51.4841944,0 -0.0086986,51.4841884,0 -0.0086838,51.4841874,0 -0.0086733,51.4841918,0 -0.0086643,51.4842022,0 -0.0086567,51.4842184,0 -0.0086506,51.4842406,0 -0.0086428,51.484303,0 -0.0086408,51.48439,0 -0.0086446,51.4845071,0 -0.0086546,51.4846563,0 -0.00872,51.485352,0 -0.0087316,51.4855003,0 -0.008738,51.4856197,0 -0.0087393,51.4857365,0 -0.008733,51.4858196,0 -0.0087269,51.4858491,0 -0.008719,51.4858707,0 -0.008709,51.4858844,0 -0.0086971,51.4858903,0 -0.0086234,51.4859027,0 -0.0085707,51.4859171,0 -0.0084996,51.4859304,0 -0.0084253,51.485944,0 -0.0083757,51.4859574,0 -0.0083061,51.4859715,0 -0.0082178,51.4859892,0 -0.0081245,51.4860118,0 -0.00805,51.4860279,0 -0.0079369,51.4860524,0 -0.0077034,51.4861067,0 -0.0075906,51.486132,0 -0.0074645,51.4861635,0 -0.0072151,51.486225,0 -0.0070193,51.4862756,0 -0.0068136,51.486332,0 -0.0066206,51.4863882,0 -0.0064375,51.4864452,0 -0.0062627,51.4865035,0 -0.0060967,51.4865622,0 -0.0059212,51.4866274,0 -0.005753,51.486693,0 -0.0055867,51.4867608,0 -0.0054226,51.4868308,0 -0.0052621,51.4869023,0 -0.0051059,51.4869751,0 -0.0049496,51.4870512,0 -0.0047895,51.4871324,0 -0.0046324,51.4872157,0 -0.0044799,51.4872999,0 -0.0043355,51.4873833,0 -0.0041933,51.4874691,0 -0.0040571,51.4875551,0 -0.0039262,51.4876418,0 -0.0038002,51.4877294,0 -0.0036701,51.4878238,0 -0.0035461,51.4879178,0 -0.0034278,51.4880115,0 -0.0033224,51.4880989,0 -0.0032195,51.4881888,0 -0.0031237,51.4882773,0 -0.0030343,51.4883652,0 -0.0029512,51.4884524,0 -0.0028664,51.4885478,0 -0.0027851,51.4886459,0 -0.0027074,51.4887464,0 -0.0026333,51.4888493,0 -0.0025631,51.4889542,0 -0.002497,51.4890609,0 -0.002435,51.4891692,0 -0.002377,51.4892795,0 -0.0023339,51.489369,0 -0.0022938,51.4894601,0 -0.002257,51.4895522,0 -0.0022213,51.4896506,0 -0.0021897,51.4897471,0 -0.0021596,51.4898501,0 -0.0021323,51.4899549,0 -0.0021085,51.4900593,0 -0.002089,51.490159,0 -0.002073,51.4902566,0 -0.00206,51.4903562,0 -0.0020499,51.4904593,0 -0.002043,51.4905613,0 -0.0020391,51.4906665,0 -0.0020382,51.4907743,0 -0.0020407,51.4908775,0 -0.0020526,51.4910532,0 -0.0020759,51.4912389,0 -0.0021107,51.4914373,0 -0.0021585,51.4916569,0 -0.0022139,51.4918666,0 -0.0022843,51.4920889,0 -0.0023708,51.4923275,0 -0.0024782,51.4925958,0 -0.0025662,51.4928006,0 -0.0026583,51.4930007,0 -0.002779,51.4932426,0 -0.0029234,51.4935098,0 -0.0029952,51.4936342,0 -0.0030674,51.4937537,0 -0.00318,51.4939303,0 -0.0032969,51.4941026,0 -0.0033723,51.4942058,0 -0.0034556,51.4943117,0 -0.0035473,51.4944209,0 -0.0036492,51.4945355,0 -0.0037377,51.4946306,0 -0.0038678,51.494766,0 -0.0039821,51.4948818,0 -0.0043402,51.4952367,0 -0.00449,51.4953908,0 -0.0045768,51.4954847,0 -0.0046563,51.4955746,0 -0.0047451,51.4956796,0 -0.0048338,51.4957895,0 -0.004979,51.4959816,0 -0.0051217,51.4961786,0 -0.0052611,51.4963793,0 -0.0053971,51.4965838,0 -0.0055297,51.496792,0 -0.0056589,51.4970038,0 -0.0057846,51.4972193,0 -0.0059067,51.4974382,0 -0.0060335,51.4976725,0 -0.0061429,51.4978826,0 -0.0062361,51.4980689,0 -0.0063186,51.4982429,0 -0.0063931,51.4984105,0 -0.0064592,51.4985708,0 -0.0065174,51.4987253,0 -0.0065681,51.4988748,0 -0.0066244,51.4990617,0 -0.0066746,51.49925,0 -0.0067184,51.4994393,0 -0.0067558,51.4996291,0 -0.0067868,51.4998192,0 -0.0068113,51.5000093,0 -0.0068292,51.5001988,0 -0.0068405,51.5003877,0 -0.0068464,51.5006052,0 -0.0068454,51.5007966,0 -0.0068379,51.5009842,0 -0.0068241,51.5011682,0 -0.0068038,51.501349,0 -0.0067759,51.5015346,0 -0.0067426,51.5017108,0 -0.0067028,51.5018829,0 -0.0066487,51.5020825,0 -0.0066264,51.5021573,0 -0.0065598,51.5023638,0 -0.0064868,51.5025613,0 -0.0064436,51.5026671,0 -0.0063982,51.5027707,0 -0.0063483,51.5028773,0 -0.006297,51.50298,0 -0.0062102,51.5031404,0 -0.006118,51.5032943,0 -0.0060181,51.5034442,0 -0.0059373,51.5035554,0 -0.005847,51.503671,0 -0.0057461,51.5037925,0 -0.005632,51.503923,0 -0.0054742,51.5040933,0 -0.0052946,51.5042772,0 -0.0050891,51.5044791,0 -0.0048185,51.5047376,0 -0.0046319,51.504911,0 -0.0044399,51.5050826,0 -0.0042423,51.5052527,0 -0.0040394,51.5054209,0 -0.0038313,51.5055873,0 -0.0036183,51.5057514,0 -0.0034006,51.5059133,0 -0.0031779,51.5060731,0 -0.0029209,51.5062545,0 -0.0027672,51.5063596,0 -0.0026221,51.5064536,0 -0.0024873,51.5065347,0 -0.0023755,51.5065986,0 -0.0022575,51.5066633,0 -0.0021479,51.5067212,0 -0.0020548,51.5067683,0 -0.0019544,51.5068165,0 -0.0018647,51.5068572,0 -0.0017731,51.5068963,0 -0.001683,51.5069324,0 -0.00159,51.5069672,0 -0.0014878,51.5070029,0 -0.0013864,51.5070361,0 -0.001278,51.5070693,0 -0.0011697,51.5071005,0 -0.001055,51.5071313,0 -0.0009379,51.5071608,0 -0.0008208,51.5071882,0 -0.0005957,51.5072352,0 -0.0004809,51.5072563,0 -0.0003624,51.5072762,0 -0.0001225,51.5073109,0 0.0000013,51.507326,0 0.0001212,51.5073388,0 0.000242,51.5073497,0 0.0003639,51.5073589,0 0.0004872,51.5073662,0 0.0006194,51.5073721,0 0.0007493,51.507376,0 0.0008886,51.5073783,0 0.0010321,51.5073789,0 0.0011713,51.5073775,0 0.0014325,51.5073697,0 0.0015644,51.5073629,0 0.0017072,51.5073537,0 0.0019981,51.5073294,0 0.0023089,51.5072963,0 0.0025933,51.5072597,0 0.00288,51.5072159,0 0.0031679,51.5071651,0 0.0034556,51.5071074,0 0.0037331,51.507045,0 0.0040115,51.5069754,0 0.0042896,51.5068988,0 0.0045663,51.5068155,0 0.0048313,51.5067287,0 0.005096,51.5066347,0 0.0053596,51.5065338,0 0.0056209,51.5064263,0 0.005873,51.5063152,0 0.006055,51.5062301,0 0.0062345,51.5061418,0 0.0064114,51.5060505,0 0.0065853,51.5059563,0 0.0068124,51.5058261,0 0.007019,51.5057002,0 0.0072076,51.5055771,0 0.0073799,51.5054558,0 0.007474,51.5053857,0 0.0075681,51.5053127,0 0.0077385,51.5051729,0 0.0078918,51.5050359,0 0.0080285,51.5049013,0 0.0080924,51.5048331,0 0.0081565,51.5047612,0 0.0082778,51.504614,0 0.0083915,51.5044605,0 0.0084686,51.504346,0 0.0085405,51.5042294,0 0.0086071,51.5041112,0 0.0086681,51.5039915,0 0.008742,51.5038268,0 0.0088076,51.5036567,0 0.008861,51.5034907,0 0.0089056,51.5033171,0 0.0089414,51.5031354,0 0.0089933,51.5029053,0 0.0090521,51.5026757,0 0.0091181,51.5024468,0 0.009191,51.5022186,0</coordinates></LineString></Placemark>
  <Placemark><name>Woolwich Ferry</name><styleUrl>#layer</styleUrl><ExtendedData><Data name="SERVICE"><displayName>SERVICE</displayName><value>Woolwich Ferry</value></Data><Data name="OPERATOR"><displayName>OPERATOR</displayName><value>Briggs Marine</value></Data><Data name="SERVICE_TY"><displayName>SERVICE_TY</displayName><value>Ferry</value></Data><Data name="FREQUENCY"><displayName>FREQUENCY</displayName><value>Daily</value></Data><Data name="STATUS"><displayName>STATUS</displayName><value>Existing</value></Data></ExtendedData><LineString><tessellate>1</tessellate><coordinates>0.0607959,51.497746,0 0.0608935,51.4977501,0 0.0609901,51.4977517,0 0.0610858,51.4977509,0 0.0611804,51.4977476,0 0.0612741,51.497742,0 0.0613668,51.4977338,0 0.0614585,51.4977232,0 0.0615492,51.4977102,0 0.0616389,51.4976947,0 0.0617289,51.4976765,0 0.0618185,51.4976557,0 0.0619072,51.4976324,0 0.0619942,51.4976068,0 0.0620789,51.4975791,0 0.0621608,51.4975495,0 0.0622392,51.4975183,0 0.0623154,51.4974848,0 0.0623903,51.4974488,0 0.0624634,51.4974103,0 0.0625344,51.4973698,0 0.0626025,51.4973274,0 0.0626674,51.4972835,0 0.0627286,51.4972385,0 0.0627856,51.4971926,0 0.0628392,51.4971451,0 0.0628903,51.4970954,0 0.0629385,51.4970438,0 0.0629834,51.4969907,0 0.0630248,51.4969365,0 0.0630622,51.4968816,0 0.0630955,51.4968264,0 0.0631245,51.4967711,0 0.0631494,51.4967152,0 0.0631707,51.4966576,0 0.0631883,51.4965989,0 0.063202,51.4965395,0 0.0632117,51.4964798,0 0.0632173,51.4964202,0 0.0632189,51.4963612,0 0.0632164,51.4963031,0 0.0632097,51.4962451,0 0.0631987,51.4961865,0 0.0631836,51.4961275,0 0.0631645,51.4960687,0 0.0631414,51.4960104,0 0.0631147,51.4959531,0 0.0630843,51.4958972,0 0.0630506,51.495843,0 0.0630131,51.4957899,0 0.0629712,51.4957369,0 0.0629252,51.4956846,0 0.0628754,51.4956332,0 0.0628223,51.4955832,0 0.0627662,51.4955348,0 0.0627074,51.4954885,0 0.0626465,51.4954446,0 0.0625826,51.4954024,0 0.0625156,51.4953619,0 0.0624457,51.4953231,0 0.0623728,51.4952859,0 0.0622969,51.4952505,0 0.062218,51.4952167,0 0.0621361,51.4951847,0 0.0620512,51.4951543,0</coordinates></LineString></Placemark>
  <Placemark><name>Westminster/St. Katharine Circular Cruise</name><styleUrl>#layer</styleUrl><ExtendedData><Data name="SERVICE"><displayName>SERVICE</displayName><value>Westminster/St. Katharine Circular Cruise</value></Data><Data name="OPERATOR"><displayName>OPERATOR</displayName><value>Circular Cruise Westminster</value></Data><Data name="SERVICE_TY"><displayName>SERVICE_TY</displayName><value>River Tours</value></Data><Data name="FREQUENCY"><displayName>FREQUENCY</displayName><value>Year-round</value></Data><Data name="STATUS"><displayName>STATUS</displayName><value>Existing</value></Data></ExtendedData><LineString><tessellate>1</tessellate><coordinates>-0.0735229,51.5059952,0 -0.0736757,51.5060035,0 -0.0738286,51.5060086,0 -0.073932,51.506009,0 -0.0741904,51.5060031,0 -0.0743089,51.5060032,0 -0.0744287,51.506006,0 -0.0745108,51.50601,0 -0.0746398,51.5060218,0 -0.0747954,51.5060423,0 -0.0749412,51.5060667,0 -0.0751373,51.5061058,0 -0.0753494,51.5061525,0 -0.0755686,51.5062066,0 -0.0757022,51.5062435,0 -0.0758485,51.5062884,0 -0.0763146,51.506445,0 -0.0764826,51.5064989,0 -0.0769225,51.506632,0 -0.0772966,51.5067402,0 -0.077647,51.5068363,0 -0.0780526,51.5069427,0 -0.0783457,51.5070168,0 -0.0787134,51.5071072,0 -0.0792973,51.5072475,0 -0.0797685,51.5073555,0 -0.08024,51.5074575,0 -0.0805276,51.507517,0 -0.0808161,51.5075747,0 -0.0811053,51.5076306,0 -0.0813951,51.5076845,0 -0.0816832,51.5077363,0 -0.0819475,51.507782,0 -0.0823723,51.5078514,0 -0.0827607,51.5079101,0 -0.0831485,51.5079629,0 -0.0836715,51.508028,0 -0.0840964,51.5080781,0 -0.0845381,51.5081268,0 -0.0849999,51.5081746,0 -0.0854869,51.508222,0 -0.0860379,51.508272,0 -0.0865641,51.5083157,0 -0.0868068,51.5083339,0 -0.087076,51.5083521,0 -0.088088,51.5084133,0 -0.0885105,51.5084414,0 -0.0889735,51.5084744,0 -0.0892552,51.5084966,0 -0.089665,51.5085332,0 -0.0900024,51.5085678,0 -0.0903541,51.5086092,0 -0.0906651,51.5086508,0 -0.0909568,51.5086953,0 -0.0912683,51.5087478,0 -0.09157,51.5088035,0 -0.0919306,51.5088753,0 -0.092189,51.5089299,0 -0.0926163,51.5090238,0 -0.0930278,51.5091168,0 -0.0940207,51.5093486,0 -0.0942913,51.5094092,0 -0.0945365,51.5094619,0 -0.0947279,51.5094998,0 -0.0950448,51.5095597,0</coordinates></LineString></Placemark>
</Document>
</kml>
