<?xml version="1.0" encoding="UTF-8"?>
<kml xmlns="http://www.opengis.net/kml/2.2" xmlns:gx="http://www.google.com/kml/ext/2.2">
<Document>
  <name>TfL River Piers in the zone</name>
  <open>1</open>
  <description>TfL River Piers in the zone. Source: Transport for London (GIS Open Data Hub), https://gis-tfl.opendata.arcgis.com/. Licence: Open Government Licence (item licence). Attribution: Contains Transport for London data licensed under the Open Government Licence v3.0. Powered by TfL Open Data. Fetched 2026-10-05 from https://services1.arcgis.com/YswvgzOodUvqkoCN/arcgis/rest/services/River_Piers/FeatureServer/34/query?where=1%3D1&amp;geometry=-0.095,51.47,0.08,51.53&amp;geometryType=esriGeometryEnvelope&amp;inSR=4326&amp;spatialRel=esriSpatialRelIntersects&amp;outFields=*&amp;outSR=4326&amp;f=geojson&amp;resultRecordCount=4000; clipped to WGS84 -0.095, 51.47, 0.08, 51.53 (features that meet the box; lines cut at the edge) by magpie/cwplans/tools/find-kml.mjs for https://danbri.github.io/glitchcan-minigam/magpie/cwplans/docklands/ .</description>
  <Style id="layer"><IconStyle><color>ffe69900</color><scale>1.2</scale></IconStyle></Style>
  <Placemark><name>Woolwich Royal Arsenal Pier</name><styleUrl>#layer</styleUrl><ExtendedData><Data name="NAME"><displayName>NAME</displayName><value>Woolwich Royal Arsenal Pier</value></Data><Data name="STATUS"><displayName>STATUS</displayName><value>Current</value></Data></ExtendedData><Point><coordinates>0.0707766,51.4959045,0</coordinates></Point></Placemark>
  <Placemark><name>North Greenwich Pier</name><styleUrl>#layer</styleUrl><ExtendedData><Data name="NAME"><displayName>NAME</displayName><value>North Greenwich Pier</value></Data><Data name="STATUS"><displayName>STATUS</displayName><value>Current</value></Data></ExtendedData><Point><coordinates>0.009191,51.5022186,0</coordinates></Point></Placemark>
  <Placemark><name>Greenwich Pier</name><styleUrl>#layer</styleUrl><ExtendedData><Data name="NAME"><displayName>NAME</displayName><value>Greenwich Pier</value></Data><Data name="STATUS"><displayName>STATUS</displayName><value>Current</value></Data></ExtendedData><Point><coordinates>-0.0086838,51.4841874,0</coordinates></Point></Placemark>
  <Placemark><name>Masthouse Terrace Pier</name><styleUrl>#layer</styleUrl><ExtendedData><Data name="NAME"><displayName>NAME</displayName><value>Masthouse Terrace Pier</value></Data><Data name="STATUS"><displayName>STATUS</displayName><value>Current</value></Data></ExtendedData><Point><coordinates>-0.0221436,51.4873468,0</coordinates></Point></Placemark>
  <Placemark><name>Greenland Pier</name><styleUrl>#layer</styleUrl><ExtendedData><Data name="NAME"><displayName>NAME</displayName><value>Greenland Pier</value></Data><Data name="STATUS"><displayName>STATUS</displayName><value>Current</value></Data></ExtendedData><Point><coordinates>-0.0317902,51.4948022,0</coordinates></Point></Placemark>
  <Placemark><name>Tower Pier</name><styleUrl>#layer</styleUrl><ExtendedData><Data name="NAME"><displayName>NAME</displayName><value>Tower Pier</value></Data><Data name="STATUS"><displayName>STATUS</displayName><value>Current</value></Data></ExtendedData><Point><coordinates>-0.0788461,51.507344,0</coordinates></Point></Placemark>
  <Placemark><name>London Bridge City Pier</name><styleUrl>#layer</styleUrl><ExtendedData><Data name="NAME"><displayName>NAME</displayName><value>London Bridge City Pier</value></Data><Data name="STATUS"><displayName>STATUS</displayName><value>Current</value></Data></ExtendedData><Point><coordinates>-0.0844994,51.5069158,0</coordinates></Point></Placemark>
  <Placemark><name>Canary Wharf Pier</name><styleUrl>#layer</styleUrl><ExtendedData><Data name="NAME"><displayName>NAME</displayName><value>Canary Wharf Pier</value></Data><Data name="STATUS"><displayName>STATUS</displayName><value>Current</value></Data></ExtendedData><Point><coordinates>-0.0289566,51.5053839,0</coordinates></Point></Placemark>
  <Placemark><name>Wapping Pier</name><styleUrl>#layer</styleUrl><ExtendedData><Data name="NAME"><displayName>NAME</displayName><value>Wapping Pier</value></Data><Data name="STATUS"><displayName>STATUS</displayName><value>Current</value></Data></ExtendedData><Point><coordinates>-0.0569371,51.5030737,0</coordinates></Point></Placemark>
  <Placemark><name>Doubletree Docklands Nelson Dock Pier</name><styleUrl>#layer</styleUrl><ExtendedData><Data name="NAME"><displayName>NAME</displayName><value>Doubletree Docklands Nelson Dock Pier</value></Data><Data name="STATUS"><displayName>STATUS</displayName><value>Current</value></Data></ExtendedData><Point><coordinates>-0.0317748,51.504523,0</coordinates></Point></Placemark>
  <Placemark><name>New Providence Wharf Pier</name><styleUrl>#layer</styleUrl><ExtendedData><Data name="NAME"><displayName>NAME</displayName><value>New Providence Wharf Pier</value></Data><Data name="STATUS"><displayName>STATUS</displayName><value>Proposed</value></Data></ExtendedData><Point><coordinates>-0.0017395,51.5068023,0</coordinates></Point></Placemark>
  <Placemark><name>North Grenwich West Pier</name><styleUrl>#layer</styleUrl><ExtendedData><Data name="NAME"><displayName>NAME</displayName><value>North Grenwich West Pier</value></Data><Data name="STATUS"><displayName>STATUS</displayName><value>Proposed</value></Data></ExtendedData><Point><coordinates>-0.0029432,51.500081,0</coordinates></Point></Placemark>
  <Placemark><name>St Katharine Pier</name><styleUrl>#layer</styleUrl><ExtendedData><Data name="NAME"><displayName>NAME</displayName><value>St Katharine Pier</value></Data><Data name="STATUS"><displayName>STATUS</displayName><value>Current</value></Data></ExtendedData><Point><coordinates>-0.0735229,51.5059952,0</coordinates></Point></Placemark>
  <Placemark><name>Woolwich Ferry South Terminal</name><styleUrl>#layer</styleUrl><ExtendedData><Data name="NAME"><displayName>NAME</displayName><value>Woolwich Ferry South Terminal</value></Data><Data name="STATUS"><displayName>STATUS</displayName><value>Current</value></Data></ExtendedData><Point><coordinates>0.0620512,51.4951543,0</coordinates></Point></Placemark>
  <Placemark><name>Woolwich Ferry North Terminal</name><styleUrl>#layer</styleUrl><ExtendedData><Data name="NAME"><displayName>NAME</displayName><value>Woolwich Ferry North Terminal</value></Data><Data name="STATUS"><displayName>STATUS</displayName><value>Current</value></Data></ExtendedData><Point><coordinates>0.0607959,51.497746,0</coordinates></Point></Placemark>
</Document>
</kml>
