{"type":"FeatureCollection","meta":{
 "source": "London Datastore: Air Quality Monitoring Sites (Greater London Authority)",
 "dataset": "23n41",
 "page": "https://data.london.gov.uk/dataset/air-quality-monitoring-sites-23n41",
 "resources": [
  {
   "resource": "b22020b1-c42a-4653-afb0-7f52fd658635",
   "file": "Air_quality_monitoring_sites.gpkg",
   "url": "https://data.london.gov.uk/download/23n41/b22020b1-c42a-4653-afb0-7f52fd658635/Air_quality_monitoring_sites.gpkg",
   "size": 159744,
   "resource_date": "2023-02-09",
   "fetched": "2026-10-04"
  }
 ],
 "licence": "Creative Commons Attribution",
 "licence_url": "https://creativecommons.org/licenses/by/4.0/",
 "attribution": "Greater London Authority, Creative Commons Attribution. The GLA cannot warrant the quality or accuracy of the data (London Datastore terms).",
 "dataset_modified": "2023-02-09",
 "update_frequency": "Annually",
 "geo": "Coordinates",
 "theme": "environment",
 "layers": [
  {
   "table": "aq_monitoring_sites",
   "srs": 27700
  }
 ],
 "crs_source": "EPSG:27700",
 "crs_output": "EPSG:4326 (WGS84), 6 decimal places; BNG to WGS84 through the OS OSTN15 grid (lib.mjs bngProjector)",
 "method": "walk-london-datastore.mjs harvest air-quality-monitoring-sites: download the newest matching resource (gpkg); read every feature; keep a feature whose geometry meets the zone (the 3D model box, BNG E 532400-539900, N 176700-182300; WGS84 -0.095, 51.474, 0.015, 51.522): a vertex inside, an edge crossing the box or the box inside a polygon. Whole geometries are kept (not cut at the box): whole_in_zone says whether all of it lies inside. in_cw: the geometry meets the Canary Wharf registry box -0.03, 51.498, -0.005, 51.51. Source attributes kept as published except fields matching e-?mail|phone|tel(ephone)?$|^tel|contact|^fax|mobile|website_contact|^owner_?name|person. uprn_suspect: a UPRN field that a spreadsheet rounded (an exponent, or 9+ digits ending in 5+ zeros); not a key (fault F22).",
 "counts": {
  "source_features": 239,
  "no_geometry": 0,
  "in_zone": 28,
  "in_cw": 0
 },
 "attributes_in_source": "yes",
 "fields_dropped": []
},
"features":[
{"type":"Feature","properties":{"id":3,"objectid":3,"siteid":"2450071","sitename":"Beaumont Grove, Tower Hamlets","sitetype":null,"latitude":"51.5210179999999","longitude":"-0.0466729999999999","url":"https://www.breathelondon.org/","dataowner":null,"sitemanager":null,"pollutant_no2":null,"pollutant_pm10":null,"pollutant_o3":null,"pollutant_so2":null,"pollutant_pm25":null,"pollutant_co":null,"easting":"535618.123762073","northing":"182041.584548921","classification":"Breathe London","ozonepod":"No","in_cw":false,"whole_in_zone":true},"geometry":{"type":"Point","coordinates":[-0.046646,51.521019]}},
{"type":"Feature","properties":{"id":10,"objectid":10,"siteid":"2450007","sitename":"Greenwich Church Street, Greenwich","sitetype":null,"latitude":"51.4812999999999","longitude":"-0.00986","url":"https://www.breathelondon.org/","dataowner":null,"sitemanager":null,"pollutant_no2":null,"pollutant_pm10":null,"pollutant_o3":null,"pollutant_so2":null,"pollutant_pm25":null,"pollutant_co":null,"easting":"538292.069314869","northing":"177693.698221435","classification":"Breathe London","ozonepod":"No","in_cw":false,"whole_in_zone":true},"geometry":{"type":"Point","coordinates":[-0.009834,51.4813]}},
{"type":"Feature","properties":{"id":33,"objectid":33,"siteid":"2450031","sitename":"Tower Bridge Road, Southwark","sitetype":null,"latitude":"51.50195","longitude":"-0.07756","url":"https://www.breathelondon.org/","dataowner":null,"sitemanager":null,"pollutant_no2":null,"pollutant_pm10":null,"pollutant_o3":null,"pollutant_so2":null,"pollutant_pm25":null,"pollutant_co":null,"easting":"533531.072633558","northing":"179864.422150156","classification":"Breathe London","ozonepod":"No","in_cw":false,"whole_in_zone":true},"geometry":{"type":"Point","coordinates":[-0.077534,51.501951]}},
{"type":"Feature","properties":{"id":38,"objectid":38,"siteid":"2450036","sitename":"Black Horse Court, Southwark","sitetype":null,"latitude":"51.4965059999999","longitude":"-0.0881819999999999","url":"https://www.breathelondon.org/","dataowner":null,"sitemanager":null,"pollutant_no2":null,"pollutant_pm10":null,"pollutant_o3":null,"pollutant_so2":null,"pollutant_pm25":null,"pollutant_co":null,"easting":"532809.685149561","northing":"179239.725178012","classification":"Breathe London","ozonepod":"No","in_cw":false,"whole_in_zone":true},"geometry":{"type":"Point","coordinates":[-0.088156,51.496507]}},
{"type":"Feature","properties":{"id":41,"objectid":41,"siteid":"2450039","sitename":"Galaisher Street, Greenwich","sitetype":null,"latitude":"51.4831","longitude":"-0.0188","url":"https://www.breathelondon.org/","dataowner":null,"sitemanager":null,"pollutant_no2":null,"pollutant_pm10":null,"pollutant_o3":null,"pollutant_so2":null,"pollutant_pm25":null,"pollutant_co":null,"easting":"537665.913854349","northing":"177877.024774049","classification":"Breathe London","ozonepod":"No","in_cw":false,"whole_in_zone":true},"geometry":{"type":"Point","coordinates":[-0.018774,51.4831]}},
{"type":"Feature","properties":{"id":49,"objectid":49,"siteid":"2450047","sitename":"Whitecross, Islington","sitetype":null,"latitude":"51.5214799999999","longitude":"-0.0926499999999999","url":"https://www.breathelondon.org/","dataowner":null,"sitemanager":null,"pollutant_no2":null,"pollutant_pm10":null,"pollutant_o3":null,"pollutant_so2":null,"pollutant_pm25":null,"pollutant_co":null,"easting":"532427.176562655","northing":"182008.816807641","classification":"Breathe London","ozonepod":"No","in_cw":false,"whole_in_zone":true},"geometry":{"type":"Point","coordinates":[-0.092624,51.521482]}},
{"type":"Feature","properties":{"id":50,"objectid":50,"siteid":"2450048","sitename":"Peckham Road, Southwark","sitetype":null,"latitude":"51.474307","longitude":"-0.0782179999999999","url":"https://www.breathelondon.org/","dataowner":null,"sitemanager":null,"pollutant_no2":null,"pollutant_pm10":null,"pollutant_o3":null,"pollutant_so2":null,"pollutant_pm25":null,"pollutant_co":null,"easting":"533566.101715462","northing":"176789.255584134","classification":"Breathe London","ozonepod":"No","in_cw":false,"whole_in_zone":true},"geometry":{"type":"Point","coordinates":[-0.078192,51.474308]}},
{"type":"Feature","properties":{"id":62,"objectid":62,"siteid":"2450060","sitename":"Camberwell Road, Southwark","sitetype":null,"latitude":"51.475714","longitude":"-0.0935679999999999","url":"https://www.breathelondon.org/","dataowner":null,"sitemanager":null,"pollutant_no2":null,"pollutant_pm10":null,"pollutant_o3":null,"pollutant_so2":null,"pollutant_pm25":null,"pollutant_co":null,"easting":"532496.044880505","northing":"176917.850868105","classification":"Breathe London","ozonepod":"No","in_cw":false,"whole_in_zone":true},"geometry":{"type":"Point","coordinates":[-0.093542,51.475715]}},
{"type":"Feature","properties":{"id":72,"objectid":72,"siteid":"2450070","sitename":"St James, New Cross, Lewisham","sitetype":null,"latitude":"51.474136","longitude":"-0.0385399999999999","url":"https://www.breathelondon.org/","dataowner":null,"sitemanager":null,"pollutant_no2":null,"pollutant_pm10":null,"pollutant_o3":null,"pollutant_so2":null,"pollutant_pm25":null,"pollutant_co":null,"easting":"536322.045822875","northing":"176843.307817354","classification":"Breathe London","ozonepod":"No","in_cw":false,"whole_in_zone":true},"geometry":{"type":"Point","coordinates":[-0.038514,51.474136]}},
{"type":"Feature","properties":{"id":87,"objectid":87,"siteid":"2450085","sitename":"Bank Junction, City of London","sitetype":null,"latitude":"51.513224","longitude":"-0.0888169999999999","url":"https://www.breathelondon.org/","dataowner":null,"sitemanager":null,"pollutant_no2":null,"pollutant_pm10":null,"pollutant_o3":null,"pollutant_so2":null,"pollutant_pm25":null,"pollutant_co":null,"easting":"532717.063116394","northing":"181097.662831275","classification":"Breathe London","ozonepod":"No","in_cw":false,"whole_in_zone":true},"geometry":{"type":"Point","coordinates":[-0.088791,51.513226]}},
{"type":"Feature","properties":{"id":88,"objectid":88,"siteid":"2450086","sitename":"Commercial Street, Tower Hamlets","sitetype":null,"latitude":"51.518126","longitude":"-0.0743039999999999","url":"https://www.breathelondon.org/","dataowner":null,"sitemanager":null,"pollutant_no2":null,"pollutant_pm10":null,"pollutant_o3":null,"pollutant_so2":null,"pollutant_pm25":null,"pollutant_co":null,"easting":"533709.716672366","northing":"181669.177298567","classification":"Breathe London","ozonepod":"No","in_cw":false,"whole_in_zone":true},"geometry":{"type":"Point","coordinates":[-0.074278,51.518127]}},
{"type":"Feature","properties":{"id":90,"objectid":90,"siteid":"2450088","sitename":"London Wall, City of London","sitetype":null,"latitude":"51.5167489999999","longitude":"-0.085346","url":"https://www.breathelondon.org/","dataowner":null,"sitemanager":null,"pollutant_no2":null,"pollutant_pm10":null,"pollutant_o3":null,"pollutant_so2":null,"pollutant_pm25":null,"pollutant_co":null,"easting":"532947.645970631","northing":"181495.948572618","classification":"Breathe London","ozonepod":"No","in_cw":false,"whole_in_zone":true},"geometry":{"type":"Point","coordinates":[-0.08532,51.516751]}},
{"type":"Feature","properties":{"id":103,"objectid":103,"siteid":"2450128","sitename":"Borough High Street, Southwark","sitetype":null,"latitude":"51.506213","longitude":"-0.0886259999999999","url":"https://www.breathelondon.org/","dataowner":null,"sitemanager":null,"pollutant_no2":null,"pollutant_pm10":null,"pollutant_o3":null,"pollutant_so2":null,"pollutant_pm25":null,"pollutant_co":null,"easting":"532750.677829293","northing":"180318.365459285","classification":"Breathe London","ozonepod":"No","in_cw":false,"whole_in_zone":true},"geometry":{"type":"Point","coordinates":[-0.0886,51.506214]}},
{"type":"Feature","properties":{"id":127,"objectid":127,"siteid":"CT3","sitename":"City of London - Sir John Cass School","sitetype":"Urban Background","latitude":"51.5138471799999","longitude":"-0.077765682","url":"http://www.londonair.org.uk/london/asp/publicstats.asp?site=CT3","dataowner":"City of London","sitemanager":"King's College London","pollutant_no2":"NO2","pollutant_pm10":"PM10","pollutant_o3":null,"pollutant_so2":null,"pollutant_pm25":"PM2.5","pollutant_co":null,"easting":"533482.049237126","northing":"181187.045830574","classification":"LAQN network","ozonepod":null,"in_cw":false,"whole_in_zone":true},"geometry":{"type":"Point","coordinates":[-0.07774,51.513849]}},
{"type":"Feature","properties":{"id":128,"objectid":128,"siteid":"CT8","sitename":"City of London - Upper Thames Street","sitetype":"Roadside","latitude":"51.50954369","longitude":"-0.0873571979999999","url":"http://www.londonair.org.uk/london/asp/publicstats.asp?site=CT8","dataowner":"City of London","sitemanager":"King's College London","pollutant_no2":null,"pollutant_pm10":"PM10","pollutant_o3":null,"pollutant_so2":null,"pollutant_pm25":null,"pollutant_co":null,"easting":"532829.048996571","northing":"180691.047936865","classification":"LAQN network","ozonepod":null,"in_cw":false,"whole_in_zone":true},"geometry":{"type":"Point","coordinates":[-0.087331,51.509545]}},
{"type":"Feature","properties":{"id":129,"objectid":129,"siteid":"CT6","sitename":"City of London - Walbrook Wharf","sitetype":"Roadside","latitude":"51.510499","longitude":"-0.0916339999999999","url":"http://www.londonair.org.uk/london/asp/publicstats.asp?site=CT6","dataowner":"City of London","sitemanager":"King's College London","pollutant_no2":"NO2","pollutant_pm10":null,"pollutant_o3":null,"pollutant_so2":null,"pollutant_pm25":null,"pollutant_co":null,"easting":"532529.504632517","northing":"180789.533903596","classification":"LAQN network","ozonepod":null,"in_cw":false,"whole_in_zone":true},"geometry":{"type":"Point","coordinates":[-0.091608,51.510501]}},
{"type":"Feature","properties":{"id":144,"objectid":144,"siteid":"GR7","sitename":"Greenwich - Blackheath","sitetype":"Roadside","latitude":"51.472504","longitude":"-0.012381","url":"http://www.londonair.org.uk/london/asp/publicstats.asp?site=GR7","dataowner":"Greenwich","sitemanager":"King's College London","pollutant_no2":"NO2","pollutant_pm10":"PM10","pollutant_o3":null,"pollutant_so2":null,"pollutant_pm25":null,"pollutant_co":null,"easting":"538143.580245964","northing":"176710.817098978","classification":"LAQN network","ozonepod":null,"in_cw":false,"whole_in_zone":true},"geometry":{"type":"Point","coordinates":[-0.012355,51.472504]}},
{"type":"Feature","properties":{"id":149,"objectid":149,"siteid":"GN6","sitename":"Greenwich - John Harrison Way","sitetype":"Roadside","latitude":"51.49377467","longitude":"0.010779624","url":"http://www.londonair.org.uk/london/asp/publicstats.asp?site=GN6","dataowner":"Greenwich","sitemanager":"King's College London","pollutant_no2":"NO2","pollutant_pm10":"PM10","pollutant_o3":null,"pollutant_so2":null,"pollutant_pm25":"PM2.5","pollutant_co":null,"easting":"539687.051531105","northing":"179120.053075424","classification":"LAQN network","ozonepod":null,"in_cw":false,"whole_in_zone":true},"geometry":{"type":"Point","coordinates":[0.010806,51.493775]}},
{"type":"Feature","properties":{"id":151,"objectid":151,"siteid":"GN5","sitename":"Greenwich - Trafalgar Road (Hoskins St)","sitetype":"Roadside","latitude":"51.48390725","longitude":"0.000407396999999999","url":"http://www.londonair.org.uk/london/asp/publicstats.asp?site=GN5","dataowner":"Greenwich","sitemanager":"King's College London","pollutant_no2":"NO2","pollutant_pm10":"PM10","pollutant_o3":null,"pollutant_so2":null,"pollutant_pm25":null,"pollutant_co":null,"easting":"538997.051258897","northing":"178003.056643393","classification":"LAQN network","ozonepod":null,"in_cw":false,"whole_in_zone":true},"geometry":{"type":"Point","coordinates":[0.000433,51.483908]}},
{"type":"Feature","properties":{"id":195,"objectid":195,"siteid":"LW3","sitename":"Lewisham - Mercury Way","sitetype":"Industrial","latitude":"51.4811412199999","longitude":"-0.045670857","url":"http://www.londonair.org.uk/london/asp/publicstats.asp?site=LW3","dataowner":"Lewisham","sitemanager":"King's College London","pollutant_no2":null,"pollutant_pm10":"PM10","pollutant_o3":null,"pollutant_so2":null,"pollutant_pm25":null,"pollutant_co":null,"easting":"535806.050040534","northing":"177609.058592096","classification":"LAQN network","ozonepod":null,"in_cw":false,"whole_in_zone":true},"geometry":{"type":"Point","coordinates":[-0.045645,51.481142]}},
{"type":"Feature","properties":{"id":196,"objectid":196,"siteid":"LW2","sitename":"Lewisham - New Cross","sitetype":"Roadside","latitude":"51.4749539999999","longitude":"-0.039641","url":"http://www.londonair.org.uk/london/asp/publicstats.asp?site=LW2","dataowner":"Lewisham","sitemanager":"King's College London","pollutant_no2":"NO2","pollutant_pm10":"PM10","pollutant_o3":null,"pollutant_so2":null,"pollutant_pm25":"PM2.5","pollutant_co":null,"easting":"536243.151466878","northing":"176932.223041514","classification":"LAQN network","ozonepod":null,"in_cw":false,"whole_in_zone":true},"geometry":{"type":"Point","coordinates":[-0.039615,51.474954]}},
{"type":"Feature","properties":{"id":200,"objectid":200,"siteid":"NM3","sitename":"Wren Close","sitetype":"Urban Background","latitude":"51.514727","longitude":"0.0145539999999999","url":"http://www.londonair.org.uk/london/asp/publicstats.asp?site=NM3","dataowner":"Newham","sitemanager":"King's College London","pollutant_no2":"NO2","pollutant_pm10":"PM10","pollutant_o3":"O3","pollutant_so2":"SO2","pollutant_pm25":null,"pollutant_co":"CO","easting":"539884.914641866","northing":"181457.182538222","classification":"LAQN network","ozonepod":null,"in_cw":false,"whole_in_zone":true},"geometry":{"type":"Point","coordinates":[0.014581,51.514728]}},
{"type":"Feature","properties":{"id":207,"objectid":207,"siteid":"SK5","sitename":"Southwark - A2 Old Kent Road","sitetype":"Roadside","latitude":"51.48049949","longitude":"-0.059552893","url":"http://www.londonair.org.uk/london/asp/publicstats.asp?site=SK5","dataowner":"Southwark","sitemanager":"King's College London","pollutant_no2":"NO2","pollutant_pm10":"PM10","pollutant_o3":null,"pollutant_so2":null,"pollutant_pm25":null,"pollutant_co":null,"easting":"534844.049742555","northing":"177512.058364229","classification":"LAQN network","ozonepod":null,"in_cw":false,"whole_in_zone":true},"geometry":{"type":"Point","coordinates":[-0.059527,51.4805]}},
{"type":"Feature","properties":{"id":213,"objectid":213,"siteid":"TH004","sitename":"Tower Hamlets - Blackwall","sitetype":"Roadside","latitude":"51.5150459999999","longitude":"-0.008418","url":"http://www.airqualityengland.co.uk/site/latest?site_id=TH004","dataowner":"Tower Hamlets","sitemanager":"Ricardo-AEA","pollutant_no2":"NO2","pollutant_pm10":"PM10","pollutant_o3":"O3","pollutant_so2":null,"pollutant_pm25":"PM2.5","pollutant_co":null,"easting":"538290.085716812","northing":"181449.027036107","classification":"AQE network","ozonepod":null,"in_cw":false,"whole_in_zone":true},"geometry":{"type":"Point","coordinates":[-0.008391,51.515047]}},
{"type":"Feature","properties":{"id":214,"objectid":214,"siteid":"TH4","sitename":"Tower Hamlets - Blackwall","sitetype":"Roadside","latitude":"51.5150461699999","longitude":"-0.008418493","url":"http://www.londonair.org.uk/london/asp/publicstats.asp?site=TH4","dataowner":"Tower Hamlets","sitemanager":"King's College London","pollutant_no2":"NO2","pollutant_pm10":"PM10","pollutant_o3":"O3","pollutant_so2":null,"pollutant_pm25":"PM2.5","pollutant_co":null,"easting":"538290.050996738","northing":"181449.045009471","classification":"LAQN network","ozonepod":null,"in_cw":false,"whole_in_zone":true},"geometry":{"type":"Point","coordinates":[-0.008391,51.515047]}},
{"type":"Feature","properties":{"id":215,"objectid":215,"siteid":"TH2","sitename":"Tower Hamlets - Mile End Road","sitetype":"Roadside","latitude":"51.5225294899999","longitude":"-0.042155099","url":"http://www.londonair.org.uk/london/asp/publicstats.asp?site=TH2","dataowner":"Tower Hamlets","sitemanager":"King's College London","pollutant_no2":"NO2","pollutant_pm10":null,"pollutant_o3":null,"pollutant_so2":null,"pollutant_pm25":null,"pollutant_co":null,"easting":"535927.050171514","northing":"182218.042416015","classification":"LAQN network","ozonepod":null,"in_cw":false,"whole_in_zone":true},"geometry":{"type":"Point","coordinates":[-0.042128,51.522531]}},
{"type":"Feature","properties":{"id":216,"objectid":216,"siteid":"TH001","sitename":"Tower Hamlets - Millwall Park","sitetype":"Urban Background","latitude":"51.489134","longitude":"-0.012977","url":"http://www.airqualityengland.co.uk/site/latest?site_id=TH001","dataowner":"Tower Hamlets","sitemanager":"Ricardo-AEA","pollutant_no2":"NO2","pollutant_pm10":"PM10","pollutant_o3":"O3","pollutant_so2":null,"pollutant_pm25":null,"pollutant_co":null,"easting":"538051.998880193","northing":"178558.971074066","classification":"AQE network","ozonepod":null,"in_cw":false,"whole_in_zone":true},"geometry":{"type":"Point","coordinates":[-0.012951,51.489134]}},
{"type":"Feature","properties":{"id":237,"objectid":237,"siteid":"TL4","sitename":"Greenwich - Tunnel Avenue TFL","sitetype":"Roadside","latitude":"51.495057","longitude":"0.004107467","url":"http://www.londonair.org.uk/london/asp/publicdetails.asp?region=0&site=TL4","dataowner":"Greenwich","sitemanager":"King's College London","pollutant_no2":"NO2","pollutant_pm10":null,"pollutant_o3":null,"pollutant_so2":null,"pollutant_pm25":null,"pollutant_co":null,"easting":"539220","northing":"179250","classification":"LAQN network","ozonepod":null,"in_cw":false,"whole_in_zone":true},"geometry":{"type":"Point","coordinates":[0.004134,51.495058]}}
]}
