{"type":"FeatureCollection","meta":{
 "source": "London Datastore: London’s Urban Heat Island - During A Warm Summer (Greater London Authority)",
 "dataset": "vdjgm",
 "page": "https://data.london.gov.uk/dataset/londons-urban-heat-island-during-a-warm-summer-vdjgm",
 "resources": [
  {
   "resource": "b670c149-4c3a-4160-acde-cac4d6ed367b",
   "file": "GLA 2016 Summer Urban Heat Island.zip",
   "url": "https://data.london.gov.uk/download/vdjgm/b670c149-4c3a-4160-acde-cac4d6ed367b/GLA%202016%20Summer%20Urban%20Heat%20Island.zip",
   "size": 99070,
   "resource_date": "2016-09-02",
   "fetched": "2026-10-04"
  }
 ],
 "licence": "Open Government Licence v3",
 "licence_url": "https://www.nationalarchives.gov.uk/doc/open-government-licence/version/3/",
 "attribution": "Contains public sector information licensed under the Open Government Licence v3 (Greater London Authority). The GLA cannot warrant the quality or accuracy of the data (London Datastore terms).",
 "dataset_modified": "2017-02-22",
 "update_frequency": null,
 "geo": null,
 "theme": "environment",
 "layers": [
  {
   "table": "GLA_UHI_2016",
   "srs": 4326
  }
 ],
 "crs_source": "EPSG:4326",
 "crs_output": "EPSG:4326 (WGS84), 6 decimal places; BNG to WGS84 through the OS OSTN15 grid (lib.mjs bngProjector)",
 "method": "walk-london-datastore.mjs harvest urban-heat-island-2016: download the newest matching resource (shpzip); read every feature; keep a feature whose geometry meets the zone (the 3D model box, BNG E 532400-539900, N 176700-182300; WGS84 -0.095, 51.474, 0.015, 51.522): a vertex inside, an edge crossing the box or the box inside a polygon. Whole geometries are kept (not cut at the box): whole_in_zone says whether all of it lies inside. in_cw: the geometry meets the Canary Wharf registry box -0.03, 51.498, -0.005, 51.51. Source attributes kept as published except fields matching e-?mail|phone|tel(ephone)?$|^tel|contact|^fax|mobile|website_contact|^owner_?name|person. uprn_suspect: a UPRN field that a spreadsheet rounded (an exponent, or 9+ digits ending in 5+ zeros); not a key (fault F22).",
 "counts": {
  "source_features": 1732,
  "no_geometry": 0,
  "in_zone": 56,
  "in_cw": 9
 },
 "attributes_in_source": "yes",
 "fields_dropped": []
},
"features":[
{"type":"Feature","properties":{"X":56,"Y":49,"lon":-0.058172,"lat":51.4872624,"WSAVGMAX":22.363265306,"WSAVG":18.67315698,"WSAVGMIN":15.180612245,"HWAVGMAX":30.075,"HWAVG":23.261458333,"HWAVGMIN":17.05,"in_cw":false,"whole_in_zone":true},"geometry":{"type":"Polygon","coordinates":[[[-0.050714,51.482912],[-0.065628,51.482912],[-0.065628,51.491617],[-0.050714,51.491617],[-0.050714,51.482912]]]}},
{"type":"Feature","properties":{"X":59,"Y":49,"lon":-0.0134306,"lat":51.4872624,"WSAVGMAX":22.296938776,"WSAVG":18.657065217,"WSAVGMIN":15.22244898,"HWAVGMAX":29.775,"HWAVG":23.121875,"HWAVGMIN":17,"in_cw":false,"whole_in_zone":true},"geometry":{"type":"Polygon","coordinates":[[[-0.005974,51.482912],[-0.020887,51.482912],[-0.020887,51.491617],[-0.005974,51.491617],[-0.005974,51.482912]]]}},
{"type":"Feature","properties":{"X":61,"Y":49,"lon":0.016397,"lat":51.4872624,"WSAVGMAX":22.164285714,"WSAVG":18.580419994,"WSAVGMIN":15.158163265,"HWAVGMAX":29.45,"HWAVG":22.942708333,"HWAVGMIN":16.825,"in_cw":false,"whole_in_zone":false},"geometry":{"type":"Polygon","coordinates":[[[0.023855,51.482912],[0.00894,51.482912],[0.00894,51.491617],[0.023855,51.491617],[0.023855,51.482912]]]}},
{"type":"Feature","properties":{"X":58,"Y":49,"lon":-0.0283444,"lat":51.4872624,"WSAVGMAX":22.282653061,"WSAVG":18.655514271,"WSAVGMIN":15.219387755,"HWAVGMAX":29.775,"HWAVG":23.128125,"HWAVGMIN":17,"in_cw":false,"whole_in_zone":true},"geometry":{"type":"Polygon","coordinates":[[[-0.020887,51.482912],[-0.035801,51.482912],[-0.035801,51.491617],[-0.020887,51.491617],[-0.020887,51.482912]]]}},
{"type":"Feature","properties":{"X":54,"Y":49,"lon":-0.0879996,"lat":51.4872624,"WSAVGMAX":22.308163265,"WSAVG":18.697964729,"WSAVGMIN":15.27244898,"HWAVGMAX":29.95,"HWAVG":23.370833333,"HWAVGMIN":17.425,"in_cw":false,"whole_in_zone":false},"geometry":{"type":"Polygon","coordinates":[[[-0.080542,51.482912],[-0.095455,51.482912],[-0.095455,51.491617],[-0.080542,51.491617],[-0.080542,51.482912]]]}},
{"type":"Feature","properties":{"X":54,"Y":52,"lon":-0.0879996,"lat":51.51337445,"WSAVGMAX":22.145918367,"WSAVG":18.610547915,"WSAVGMIN":15.245918367,"HWAVGMAX":29.6,"HWAVG":23.217708333,"HWAVGMIN":17.375,"in_cw":false,"whole_in_zone":false},"geometry":{"type":"Polygon","coordinates":[[[-0.080542,51.509024],[-0.095455,51.509024],[-0.095455,51.517729],[-0.080542,51.517729],[-0.080542,51.509024]]]}},
{"type":"Feature","properties":{"X":56,"Y":52,"lon":-0.058172,"lat":51.51337445,"WSAVGMAX":22.128571429,"WSAVG":18.611300281,"WSAVGMIN":15.256122449,"HWAVGMAX":29.375,"HWAVG":23.083333333,"HWAVGMIN":17.2,"in_cw":false,"whole_in_zone":true},"geometry":{"type":"Polygon","coordinates":[[[-0.050714,51.509024],[-0.065628,51.509024],[-0.065628,51.517729],[-0.050714,51.517729],[-0.050714,51.509024]]]}},
{"type":"Feature","properties":{"X":58,"Y":52,"lon":-0.0283444,"lat":51.51337445,"WSAVGMAX":22.194897959,"WSAVG":18.602687814,"WSAVGMIN":15.17755102,"HWAVGMAX":29.425,"HWAVG":22.938541667,"HWAVGMIN":16.875,"in_cw":true,"whole_in_zone":true},"geometry":{"type":"Polygon","coordinates":[[[-0.020887,51.509024],[-0.035801,51.509024],[-0.035801,51.517729],[-0.020887,51.517729],[-0.020887,51.509024]]]}},
{"type":"Feature","properties":{"X":59,"Y":52,"lon":-0.0134306,"lat":51.51337445,"WSAVGMAX":22.255102041,"WSAVG":18.595491349,"WSAVGMIN":15.071428571,"HWAVGMAX":29.525,"HWAVG":22.882291667,"HWAVGMIN":16.425,"in_cw":true,"whole_in_zone":true},"geometry":{"type":"Polygon","coordinates":[[[-0.005974,51.509024],[-0.020887,51.509024],[-0.020887,51.517729],[-0.005974,51.517729],[-0.005974,51.509024]]]}},
{"type":"Feature","properties":{"X":61,"Y":52,"lon":0.016397,"lat":51.51337445,"WSAVGMAX":22.158163265,"WSAVG":18.583043109,"WSAVGMIN":15.134693878,"HWAVGMAX":29.25,"HWAVG":22.753125,"HWAVGMIN":16.525,"in_cw":false,"whole_in_zone":false},"geometry":{"type":"Polygon","coordinates":[[[0.023855,51.509024],[0.00894,51.509024],[0.00894,51.517729],[0.023855,51.517729],[0.023855,51.509024]]]}},
{"type":"Feature","properties":{"X":61,"Y":47,"lon":0.016397,"lat":51.46985435,"WSAVGMAX":22.119387755,"WSAVG":18.526319876,"WSAVGMIN":15.101020408,"HWAVGMAX":29.45,"HWAVG":22.914583333,"HWAVGMIN":16.825,"in_cw":false,"whole_in_zone":false},"geometry":{"type":"Polygon","coordinates":[[[0.023855,51.465502],[0.00894,51.465502],[0.00894,51.474207],[0.023855,51.474207],[0.023855,51.465502]]]}},
{"type":"Feature","properties":{"X":60,"Y":47,"lon":0.0014832,"lat":51.46985435,"WSAVGMAX":22.218367347,"WSAVG":18.467581707,"WSAVGMIN":14.892857143,"HWAVGMAX":29.9,"HWAVG":22.936458333,"HWAVGMIN":16.375,"in_cw":false,"whole_in_zone":false},"geometry":{"type":"Polygon","coordinates":[[[0.00894,51.465502],[-0.005974,51.465502],[-0.005974,51.474207],[0.00894,51.474207],[0.00894,51.465502]]]}},
{"type":"Feature","properties":{"X":59,"Y":47,"lon":-0.0134306,"lat":51.46985435,"WSAVGMAX":22.089795918,"WSAVG":18.415169329,"WSAVGMIN":14.941836735,"HWAVGMAX":29.675,"HWAVG":22.934375,"HWAVGMIN":16.775,"in_cw":false,"whole_in_zone":false},"geometry":{"type":"Polygon","coordinates":[[[-0.005974,51.465502],[-0.020887,51.465502],[-0.020887,51.474207],[-0.005974,51.474207],[-0.005974,51.465502]]]}},
{"type":"Feature","properties":{"X":58,"Y":47,"lon":-0.0283444,"lat":51.46985435,"WSAVGMAX":22.243877551,"WSAVG":18.42559339,"WSAVGMIN":14.775510204,"HWAVGMAX":29.975,"HWAVG":22.985416667,"HWAVGMIN":16.275,"in_cw":false,"whole_in_zone":false},"geometry":{"type":"Polygon","coordinates":[[[-0.020887,51.465502],[-0.035801,51.465502],[-0.035801,51.474207],[-0.020887,51.474207],[-0.020887,51.465502]]]}},
{"type":"Feature","properties":{"X":57,"Y":47,"lon":-0.0432582,"lat":51.46985435,"WSAVGMAX":22.147959184,"WSAVG":18.5108252,"WSAVGMIN":15.078571429,"HWAVGMAX":29.725,"HWAVG":23.069791667,"HWAVGMIN":17,"in_cw":false,"whole_in_zone":false},"geometry":{"type":"Polygon","coordinates":[[[-0.035801,51.465502],[-0.050714,51.465502],[-0.050714,51.474207],[-0.035801,51.474207],[-0.035801,51.465502]]]}},
{"type":"Feature","properties":{"X":56,"Y":47,"lon":-0.058172,"lat":51.46985435,"WSAVGMAX":22.27755102,"WSAVG":18.506375702,"WSAVGMIN":14.932653061,"HWAVGMAX":30.125,"HWAVG":23.154166667,"HWAVGMIN":16.65,"in_cw":false,"whole_in_zone":false},"geometry":{"type":"Polygon","coordinates":[[[-0.050714,51.465502],[-0.065628,51.465502],[-0.065628,51.474207],[-0.050714,51.474207],[-0.050714,51.465502]]]}},
{"type":"Feature","properties":{"X":55,"Y":47,"lon":-0.0730858,"lat":51.46985435,"WSAVGMAX":22.233673469,"WSAVG":18.563049024,"WSAVGMIN":15.104081633,"HWAVGMAX":30,"HWAVG":23.25,"HWAVGMIN":17.225,"in_cw":false,"whole_in_zone":false},"geometry":{"type":"Polygon","coordinates":[[[-0.065628,51.465502],[-0.080542,51.465502],[-0.080542,51.474207],[-0.065628,51.474207],[-0.065628,51.465502]]]}},
{"type":"Feature","properties":{"X":54,"Y":47,"lon":-0.0879996,"lat":51.46985435,"WSAVGMAX":22.163265306,"WSAVG":18.571735433,"WSAVGMIN":15.165306122,"HWAVGMAX":29.8,"HWAVG":23.241666667,"HWAVGMIN":17.35,"in_cw":false,"whole_in_zone":false},"geometry":{"type":"Polygon","coordinates":[[[-0.080542,51.465502],[-0.095455,51.465502],[-0.095455,51.474207],[-0.080542,51.474207],[-0.080542,51.465502]]]}},
{"type":"Feature","properties":{"X":55,"Y":50,"lon":-0.0730858,"lat":51.4959664,"WSAVGMAX":22.276530612,"WSAVG":18.698781795,"WSAVGMIN":15.286734694,"HWAVGMAX":29.875,"HWAVG":23.294791667,"HWAVGMIN":17.3,"in_cw":false,"whole_in_zone":true},"geometry":{"type":"Polygon","coordinates":[[[-0.065628,51.491617],[-0.080542,51.491617],[-0.080542,51.500319],[-0.065628,51.500319],[-0.065628,51.491617]]]}},
{"type":"Feature","properties":{"X":55,"Y":49,"lon":-0.0730858,"lat":51.4872624,"WSAVGMAX":22.28877551,"WSAVG":18.677220127,"WSAVGMIN":15.241836735,"HWAVGMAX":29.875,"HWAVG":23.289583333,"HWAVGMIN":17.3,"in_cw":false,"whole_in_zone":true},"geometry":{"type":"Polygon","coordinates":[[[-0.065628,51.482912],[-0.080542,51.482912],[-0.080542,51.491617],[-0.065628,51.491617],[-0.065628,51.482912]]]}},
{"type":"Feature","properties":{"X":55,"Y":48,"lon":-0.0730858,"lat":51.4785584,"WSAVGMAX":22.234693878,"WSAVG":18.63358289,"WSAVGMIN":15.209183673,"HWAVGMAX":29.8,"HWAVG":23.242708333,"HWAVGMIN":17.275,"in_cw":false,"whole_in_zone":true},"geometry":{"type":"Polygon","coordinates":[[[-0.065628,51.474207],[-0.080542,51.474207],[-0.080542,51.482912],[-0.065628,51.482912],[-0.065628,51.474207]]]}},
{"type":"Feature","properties":{"X":54,"Y":50,"lon":-0.0879996,"lat":51.4959664,"WSAVGMAX":22.259183673,"WSAVG":18.705310929,"WSAVGMIN":15.296938776,"HWAVGMAX":29.9,"HWAVG":23.369791667,"HWAVGMIN":17.425,"in_cw":false,"whole_in_zone":false},"geometry":{"type":"Polygon","coordinates":[[[-0.080542,51.491617],[-0.095455,51.491617],[-0.095455,51.500319],[-0.080542,51.500319],[-0.080542,51.491617]]]}},
{"type":"Feature","properties":{"X":54,"Y":48,"lon":-0.0879996,"lat":51.4785584,"WSAVGMAX":22.316326531,"WSAVG":18.684932343,"WSAVGMIN":15.231632653,"HWAVGMAX":30.025,"HWAVG":23.385416667,"HWAVGMIN":17.45,"in_cw":false,"whole_in_zone":false},"geometry":{"type":"Polygon","coordinates":[[[-0.080542,51.474207],[-0.095455,51.474207],[-0.095455,51.482912],[-0.080542,51.482912],[-0.080542,51.474207]]]}},
{"type":"Feature","properties":{"X":56,"Y":50,"lon":-0.058172,"lat":51.4959664,"WSAVGMAX":22.320408163,"WSAVG":18.691441142,"WSAVGMIN":15.241836735,"HWAVGMAX":29.925,"HWAVG":23.233333333,"HWAVGMIN":17.175,"in_cw":false,"whole_in_zone":true},"geometry":{"type":"Polygon","coordinates":[[[-0.050714,51.491617],[-0.065628,51.491617],[-0.065628,51.500319],[-0.050714,51.500319],[-0.050714,51.491617]]]}},
{"type":"Feature","properties":{"X":56,"Y":48,"lon":-0.058172,"lat":51.4785584,"WSAVGMAX":22.23877551,"WSAVG":18.617875629,"WSAVGMIN":15.173469388,"HWAVGMAX":29.875,"HWAVG":23.211458333,"HWAVGMIN":17.175,"in_cw":false,"whole_in_zone":true},"geometry":{"type":"Polygon","coordinates":[[[-0.050714,51.474207],[-0.065628,51.474207],[-0.065628,51.482912],[-0.050714,51.482912],[-0.050714,51.474207]]]}},
{"type":"Feature","properties":{"X":58,"Y":50,"lon":-0.0283444,"lat":51.4959664,"WSAVGMAX":22.316326531,"WSAVG":18.686413043,"WSAVGMIN":15.229591837,"HWAVGMAX":29.8,"HWAVG":23.127083333,"HWAVGMIN":16.975,"in_cw":true,"whole_in_zone":true},"geometry":{"type":"Polygon","coordinates":[[[-0.020887,51.491617],[-0.035801,51.491617],[-0.035801,51.500319],[-0.020887,51.500319],[-0.020887,51.491617]]]}},
{"type":"Feature","properties":{"X":58,"Y":48,"lon":-0.0283444,"lat":51.4785584,"WSAVGMAX":22.233673469,"WSAVG":18.602826457,"WSAVGMIN":15.157142857,"HWAVGMAX":29.775,"HWAVG":23.109375,"HWAVGMIN":17.025,"in_cw":false,"whole_in_zone":true},"geometry":{"type":"Polygon","coordinates":[[[-0.020887,51.474207],[-0.035801,51.474207],[-0.035801,51.482912],[-0.020887,51.482912],[-0.020887,51.474207]]]}},
{"type":"Feature","properties":{"X":57,"Y":50,"lon":-0.0432582,"lat":51.4959664,"WSAVGMAX":22.334693878,"WSAVG":18.704127847,"WSAVGMIN":15.243877551,"HWAVGMAX":29.9,"HWAVG":23.205208333,"HWAVGMIN":17.05,"in_cw":false,"whole_in_zone":true},"geometry":{"type":"Polygon","coordinates":[[[-0.035801,51.491617],[-0.050714,51.491617],[-0.050714,51.500319],[-0.035801,51.500319],[-0.035801,51.491617]]]}},
{"type":"Feature","properties":{"X":57,"Y":49,"lon":-0.0432582,"lat":51.4872624,"WSAVGMAX":22.325510204,"WSAVG":18.673253106,"WSAVGMIN":15.216326531,"HWAVGMAX":29.925,"HWAVG":23.2,"HWAVGMIN":17.075,"in_cw":false,"whole_in_zone":true},"geometry":{"type":"Polygon","coordinates":[[[-0.035801,51.482912],[-0.050714,51.482912],[-0.050714,51.491617],[-0.035801,51.491617],[-0.035801,51.482912]]]}},
{"type":"Feature","properties":{"X":57,"Y":48,"lon":-0.0432582,"lat":51.4785584,"WSAVGMAX":22.240816327,"WSAVG":18.633549615,"WSAVGMIN":15.192857143,"HWAVGMAX":29.775,"HWAVG":23.169791667,"HWAVGMIN":17.075,"in_cw":false,"whole_in_zone":true},"geometry":{"type":"Polygon","coordinates":[[[-0.035801,51.474207],[-0.050714,51.474207],[-0.050714,51.482912],[-0.035801,51.482912],[-0.035801,51.474207]]]}},
{"type":"Feature","properties":{"X":60,"Y":50,"lon":0.0014832,"lat":51.4959664,"WSAVGMAX":22.234693878,"WSAVG":18.612869713,"WSAVGMIN":15.13877551,"HWAVGMAX":29.5,"HWAVG":22.820833333,"HWAVGMIN":16.4,"in_cw":true,"whole_in_zone":true},"geometry":{"type":"Polygon","coordinates":[[[0.00894,51.491617],[-0.005974,51.491617],[-0.005974,51.500319],[0.00894,51.500319],[0.00894,51.491617]]]}},
{"type":"Feature","properties":{"X":60,"Y":49,"lon":0.0014832,"lat":51.4872624,"WSAVGMAX":22.274489796,"WSAVG":18.659673543,"WSAVGMIN":15.228571429,"HWAVGMAX":29.625,"HWAVG":23.075,"HWAVGMIN":16.925,"in_cw":false,"whole_in_zone":true},"geometry":{"type":"Polygon","coordinates":[[[0.00894,51.482912],[-0.005974,51.482912],[-0.005974,51.491617],[0.00894,51.491617],[0.00894,51.482912]]]}},
{"type":"Feature","properties":{"X":60,"Y":48,"lon":0.0014832,"lat":51.4785584,"WSAVGMAX":22.181632653,"WSAVG":18.576364241,"WSAVGMIN":15.132653061,"HWAVGMAX":29.65,"HWAVG":23.019791667,"HWAVGMIN":16.925,"in_cw":false,"whole_in_zone":true},"geometry":{"type":"Polygon","coordinates":[[[0.00894,51.474207],[-0.005974,51.474207],[-0.005974,51.482912],[0.00894,51.482912],[0.00894,51.474207]]]}},
{"type":"Feature","properties":{"X":59,"Y":50,"lon":-0.0134306,"lat":51.4959664,"WSAVGMAX":22.323469388,"WSAVG":18.692517007,"WSAVGMIN":15.231632653,"HWAVGMAX":29.725,"HWAVG":23.073958333,"HWAVGMIN":16.875,"in_cw":true,"whole_in_zone":true},"geometry":{"type":"Polygon","coordinates":[[[-0.005974,51.491617],[-0.020887,51.491617],[-0.020887,51.500319],[-0.005974,51.500319],[-0.005974,51.491617]]]}},
{"type":"Feature","properties":{"X":59,"Y":48,"lon":-0.0134306,"lat":51.4785584,"WSAVGMAX":22.224489796,"WSAVG":18.565208148,"WSAVGMIN":15.095918367,"HWAVGMAX":29.775,"HWAVG":23.066666667,"HWAVGMIN":16.9,"in_cw":false,"whole_in_zone":true},"geometry":{"type":"Polygon","coordinates":[[[-0.005974,51.474207],[-0.020887,51.474207],[-0.020887,51.482912],[-0.005974,51.482912],[-0.005974,51.474207]]]}},
{"type":"Feature","properties":{"X":61,"Y":50,"lon":0.016397,"lat":51.4959664,"WSAVGMAX":22.228571429,"WSAVG":18.56115979,"WSAVGMIN":15.004081633,"HWAVGMAX":29.55,"HWAVG":22.745833333,"HWAVGMIN":15.975,"in_cw":false,"whole_in_zone":false},"geometry":{"type":"Polygon","coordinates":[[[0.023855,51.491617],[0.00894,51.491617],[0.00894,51.500319],[0.023855,51.500319],[0.023855,51.491617]]]}},
{"type":"Feature","properties":{"X":61,"Y":48,"lon":0.016397,"lat":51.4785584,"WSAVGMAX":22.185714286,"WSAVG":18.541657424,"WSAVGMIN":15.070408163,"HWAVGMAX":29.675,"HWAVG":22.960416667,"HWAVGMIN":16.675,"in_cw":false,"whole_in_zone":false},"geometry":{"type":"Polygon","coordinates":[[[0.023855,51.474207],[0.00894,51.474207],[0.00894,51.482912],[0.023855,51.482912],[0.023855,51.474207]]]}},
{"type":"Feature","properties":{"X":61,"Y":53,"lon":0.016397,"lat":51.5220785,"WSAVGMAX":22.240816327,"WSAVG":18.642395001,"WSAVGMIN":15.192857143,"HWAVGMAX":29.525,"HWAVG":23.008333333,"HWAVGMIN":16.85,"in_cw":false,"whole_in_zone":false},"geometry":{"type":"Polygon","coordinates":[[[0.023855,51.517729],[0.00894,51.517729],[0.00894,51.52643],[0.023855,51.52643],[0.023855,51.517729]]]}},
{"type":"Feature","properties":{"X":61,"Y":51,"lon":0.016397,"lat":51.5046704,"WSAVGMAX":22.247959184,"WSAVG":18.613507468,"WSAVGMIN":15.112244898,"HWAVGMAX":29.5,"HWAVG":22.827083333,"HWAVGMIN":16.3,"in_cw":false,"whole_in_zone":false},"geometry":{"type":"Polygon","coordinates":[[[0.023855,51.500319],[0.00894,51.500319],[0.00894,51.509024],[0.023855,51.509024],[0.023855,51.500319]]]}},
{"type":"Feature","properties":{"X":60,"Y":53,"lon":0.0014832,"lat":51.5220785,"WSAVGMAX":22.278571429,"WSAVG":18.653283052,"WSAVGMIN":15.194897959,"HWAVGMAX":29.675,"HWAVG":23.109375,"HWAVGMIN":16.9,"in_cw":false,"whole_in_zone":false},"geometry":{"type":"Polygon","coordinates":[[[0.00894,51.517729],[-0.005974,51.517729],[-0.005974,51.52643],[0.00894,51.52643],[0.00894,51.517729]]]}},
{"type":"Feature","properties":{"X":60,"Y":52,"lon":0.0014832,"lat":51.51337445,"WSAVGMAX":22.073469388,"WSAVG":18.546635611,"WSAVGMIN":15.163265306,"HWAVGMAX":29.15,"HWAVG":22.74375,"HWAVGMIN":16.75,"in_cw":true,"whole_in_zone":true},"geometry":{"type":"Polygon","coordinates":[[[0.00894,51.509024],[-0.005974,51.509024],[-0.005974,51.517729],[0.00894,51.517729],[0.00894,51.509024]]]}},
{"type":"Feature","properties":{"X":60,"Y":51,"lon":0.0014832,"lat":51.5046704,"WSAVGMAX":22.183673469,"WSAVG":18.553723011,"WSAVGMIN":15.070408163,"HWAVGMAX":29.325,"HWAVG":22.685416667,"HWAVGMIN":16.15,"in_cw":true,"whole_in_zone":true},"geometry":{"type":"Polygon","coordinates":[[[0.00894,51.500319],[-0.005974,51.500319],[-0.005974,51.509024],[0.00894,51.509024],[0.00894,51.500319]]]}},
{"type":"Feature","properties":{"X":59,"Y":53,"lon":-0.0134306,"lat":51.5220785,"WSAVGMAX":22.257142857,"WSAVG":18.64466504,"WSAVGMIN":15.197959184,"HWAVGMAX":29.65,"HWAVG":23.151041667,"HWAVGMIN":16.925,"in_cw":false,"whole_in_zone":false},"geometry":{"type":"Polygon","coordinates":[[[-0.005974,51.517729],[-0.020887,51.517729],[-0.020887,51.52643],[-0.005974,51.52643],[-0.005974,51.517729]]]}},
{"type":"Feature","properties":{"X":59,"Y":51,"lon":-0.0134306,"lat":51.5046704,"WSAVGMAX":22.326530612,"WSAVG":18.662361358,"WSAVGMIN":15.192857143,"HWAVGMAX":29.65,"HWAVG":22.982291667,"HWAVGMIN":16.625,"in_cw":true,"whole_in_zone":true},"geometry":{"type":"Polygon","coordinates":[[[-0.005974,51.500319],[-0.020887,51.500319],[-0.020887,51.509024],[-0.005974,51.509024],[-0.005974,51.500319]]]}},
{"type":"Feature","properties":{"X":58,"Y":53,"lon":-0.0283444,"lat":51.5220785,"WSAVGMAX":22.214285714,"WSAVG":18.631549468,"WSAVGMIN":15.21122449,"HWAVGMAX":29.65,"HWAVG":23.172916667,"HWAVGMIN":16.975,"in_cw":false,"whole_in_zone":false},"geometry":{"type":"Polygon","coordinates":[[[-0.020887,51.517729],[-0.035801,51.517729],[-0.035801,51.52643],[-0.020887,51.52643],[-0.020887,51.517729]]]}},
{"type":"Feature","properties":{"X":58,"Y":51,"lon":-0.0283444,"lat":51.5046704,"WSAVGMAX":22.394897959,"WSAVG":18.694478335,"WSAVGMIN":15.192857143,"HWAVGMAX":29.875,"HWAVG":23.139583333,"HWAVGMIN":16.8,"in_cw":true,"whole_in_zone":true},"geometry":{"type":"Polygon","coordinates":[[[-0.020887,51.500319],[-0.035801,51.500319],[-0.035801,51.509024],[-0.020887,51.509024],[-0.020887,51.500319]]]}},
{"type":"Feature","properties":{"X":57,"Y":53,"lon":-0.0432582,"lat":51.5220785,"WSAVGMAX":22.112244898,"WSAVG":18.582669698,"WSAVGMIN":15.214285714,"HWAVGMAX":29.45,"HWAVG":23.13125,"HWAVGMIN":16.975,"in_cw":false,"whole_in_zone":false},"geometry":{"type":"Polygon","coordinates":[[[-0.035801,51.517729],[-0.050714,51.517729],[-0.050714,51.52643],[-0.035801,51.52643],[-0.035801,51.517729]]]}},
{"type":"Feature","properties":{"X":57,"Y":52,"lon":-0.0432582,"lat":51.51337445,"WSAVGMAX":22.162244898,"WSAVG":18.595755694,"WSAVGMIN":15.213265306,"HWAVGMAX":29.4,"HWAVG":22.988541667,"HWAVGMIN":17.025,"in_cw":false,"whole_in_zone":true},"geometry":{"type":"Polygon","coordinates":[[[-0.035801,51.509024],[-0.050714,51.509024],[-0.050714,51.517729],[-0.035801,51.517729],[-0.035801,51.509024]]]}},
{"type":"Feature","properties":{"X":57,"Y":51,"lon":-0.0432582,"lat":51.5046704,"WSAVGMAX":22.302040816,"WSAVG":18.697543256,"WSAVGMIN":15.279591837,"HWAVGMAX":29.7,"HWAVG":23.180208333,"HWAVGMIN":17.05,"in_cw":false,"whole_in_zone":true},"geometry":{"type":"Polygon","coordinates":[[[-0.035801,51.500319],[-0.050714,51.500319],[-0.050714,51.509024],[-0.035801,51.509024],[-0.035801,51.500319]]]}},
{"type":"Feature","properties":{"X":56,"Y":53,"lon":-0.058172,"lat":51.5220785,"WSAVGMAX":21.976530612,"WSAVG":18.516857069,"WSAVGMIN":15.21122449,"HWAVGMAX":29.2,"HWAVG":23.060416667,"HWAVGMIN":17.075,"in_cw":false,"whole_in_zone":false},"geometry":{"type":"Polygon","coordinates":[[[-0.050714,51.517729],[-0.065628,51.517729],[-0.065628,51.52643],[-0.050714,51.52643],[-0.050714,51.517729]]]}},
{"type":"Feature","properties":{"X":56,"Y":51,"lon":-0.058172,"lat":51.5046704,"WSAVGMAX":22.268367347,"WSAVG":18.686986099,"WSAVGMIN":15.293877551,"HWAVGMAX":29.725,"HWAVG":23.211458333,"HWAVGMIN":17.225,"in_cw":false,"whole_in_zone":true},"geometry":{"type":"Polygon","coordinates":[[[-0.050714,51.500319],[-0.065628,51.500319],[-0.065628,51.509024],[-0.050714,51.509024],[-0.050714,51.500319]]]}},
{"type":"Feature","properties":{"X":55,"Y":53,"lon":-0.0730858,"lat":51.5220785,"WSAVGMAX":22.020408163,"WSAVG":18.547524771,"WSAVGMIN":15.219387755,"HWAVGMAX":29.375,"HWAVG":23.191666667,"HWAVGMIN":17.225,"in_cw":false,"whole_in_zone":false},"geometry":{"type":"Polygon","coordinates":[[[-0.065628,51.517729],[-0.080542,51.517729],[-0.080542,51.52643],[-0.065628,51.52643],[-0.065628,51.517729]]]}},
{"type":"Feature","properties":{"X":55,"Y":52,"lon":-0.0730858,"lat":51.51337445,"WSAVGMAX":22.162244898,"WSAVG":18.639468722,"WSAVGMIN":15.271428571,"HWAVGMAX":29.55,"HWAVG":23.207291667,"HWAVGMIN":17.325,"in_cw":false,"whole_in_zone":true},"geometry":{"type":"Polygon","coordinates":[[[-0.065628,51.509024],[-0.080542,51.509024],[-0.080542,51.517729],[-0.065628,51.517729],[-0.065628,51.509024]]]}},
{"type":"Feature","properties":{"X":55,"Y":51,"lon":-0.0730858,"lat":51.5046704,"WSAVGMAX":22.251020408,"WSAVG":18.690150843,"WSAVGMIN":15.303061224,"HWAVGMAX":29.725,"HWAVG":23.275,"HWAVGMIN":17.3,"in_cw":false,"whole_in_zone":true},"geometry":{"type":"Polygon","coordinates":[[[-0.065628,51.500319],[-0.080542,51.500319],[-0.080542,51.509024],[-0.065628,51.509024],[-0.065628,51.500319]]]}},
{"type":"Feature","properties":{"X":54,"Y":53,"lon":-0.0879996,"lat":51.5220785,"WSAVGMAX":22.008163265,"WSAVG":18.542073351,"WSAVGMIN":15.213265306,"HWAVGMAX":29.45,"HWAVG":23.277083333,"HWAVGMIN":17.325,"in_cw":false,"whole_in_zone":false},"geometry":{"type":"Polygon","coordinates":[[[-0.080542,51.517729],[-0.095455,51.517729],[-0.095455,51.52643],[-0.080542,51.52643],[-0.080542,51.517729]]]}},
{"type":"Feature","properties":{"X":54,"Y":51,"lon":-0.0879996,"lat":51.5046704,"WSAVGMAX":22.254081633,"WSAVG":18.703909716,"WSAVGMIN":15.308163265,"HWAVGMAX":29.85,"HWAVG":23.366666667,"HWAVGMIN":17.425,"in_cw":false,"whole_in_zone":false},"geometry":{"type":"Polygon","coordinates":[[[-0.080542,51.500319],[-0.095455,51.500319],[-0.095455,51.509024],[-0.080542,51.509024],[-0.080542,51.500319]]]}}
]}
