{"type":"FeatureCollection","meta":{
 "source": "City of London INSPIRE map service: Highway Authority Subway",
 "borough": "City of London",
 "page": "https://www.mapping.cityoflondon.gov.uk/arcgis/rest/services/INSPIRE/MapServer/111",
 "api": "https://www.mapping.cityoflondon.gov.uk/arcgis/rest/services/INSPIRE/MapServer/111/query?where=1=1&geometry=<zone box>&geometryType=esriGeometryEnvelope&inSR=4326&spatialRel=esriSpatialRelIntersects&outFields=*&outSR=4326&f=geojson&resultOffset=<n>",
 "fetched": "2026-10-04",
 "licence": "Open Government Licence v3.0",
 "licence_evidence": "the City's INSPIRE record on data.gov.uk (highway-authority-subway3): [\"http://www.nationalarchives.gov.uk/doc/open-government-licence/version/3/\"] | [\"License\", \"https://inspire.ec.europa.eu/metadata-codelist/LimitationsOnPublicAccess\"]",
 "licence_url": "https://www.nationalarchives.gov.uk/doc/open-government-licence/version/3/",
 "attribution": "Contains public sector information licensed under the Open Government Licence v3.0 (City of London Corporation)",
 "zone": "the 3D model box, BNG E 532400-539900, N 176700-182300 (WGS84 -0.095, 51.474 to 0.015, 51.522)",
 "method": "walk-portals.mjs boroughs harvest city-highway-authority-subway: features that meet the zone box, WGS84 rounded to 6 decimals, whole geometries; whole_in_zone, in_cw; empty fields and ArcGIS shape measures left out; fields matching /e-?mail|phone|tel(ephone)?$|^tel|contact|^fax|mobile|^owner_?name|person|officer|case_?officer|agent_?name|applicant/i dropped",
 "counts": {
  "features": 6,
  "zone_count_at_walk": 6,
  "in_cw": 0
 },
 "fields_dropped": []
},
"features":[
{"type":"Feature","geometry":{"type":"Polygon","coordinates":[[[-0.093899,51.512528],[-0.093939,51.512534],[-0.093952,51.512492],[-0.093954,51.512475],[-0.093956,51.512467],[-0.093956,51.512456],[-0.093955,51.512453],[-0.093953,51.51245],[-0.09395,51.512445],[-0.093948,51.512439],[-0.093944,51.512429],[-0.093945,51.51242],[-0.094002,51.512418],[-0.09406,51.512414],[-0.094145,51.51241],[-0.094194,51.512407],[-0.094241,51.512404],[-0.094305,51.512396],[-0.094315,51.512396],[-0.09434,51.512394],[-0.09434,51.512397],[-0.094342,51.512401],[-0.094344,51.512407],[-0.094346,51.51241],[-0.094348,51.512412],[-0.094362,51.51241],[-0.09436,51.512404],[-0.094357,51.512399],[-0.094355,51.512395],[-0.094354,51.512392],[-0.094352,51.512386],[-0.094353,51.512378],[-0.094354,51.512374],[-0.094355,51.512371],[-0.094358,51.512366],[-0.094361,51.512361],[-0.094347,51.512356],[-0.094342,51.512363],[-0.09434,51.512368],[-0.094338,51.512372],[-0.094338,51.512378],[-0.094312,51.512379],[-0.094303,51.512379],[-0.094236,51.512378],[-0.094196,51.512381],[-0.09415,51.512382],[-0.094097,51.512385],[-0.094056,51.512388],[-0.094006,51.51239],[-0.09396,51.512392],[-0.093938,51.512393],[-0.093935,51.512394],[-0.093931,51.512393],[-0.093927,51.512392],[-0.093924,51.512391],[-0.093922,51.512388],[-0.093919,51.512385],[-0.093916,51.512379],[-0.093913,51.512372],[-0.093909,51.512365],[-0.093905,51.512359],[-0.093903,51.512352],[-0.0939,51.512346],[-0.093899,51.512341],[-0.093899,51.512335],[-0.0939,51.51233],[-0.093898,51.512285],[-0.093899,51.512282],[-0.093916,51.512243],[-0.09391,51.512243],[-0.093886,51.512248],[-0.09386,51.512239],[-0.093846,51.512269],[-0.093844,51.512274],[-0.093842,51.512279],[-0.093837,51.512289],[-0.093832,51.512299],[-0.093828,51.512305],[-0.093822,51.512311],[-0.093816,51.512316],[-0.093813,51.512319],[-0.093809,51.512321],[-0.093804,51.512322],[-0.093769,51.512325],[-0.093685,51.512329],[-0.093538,51.512339],[-0.093401,51.512349],[-0.093359,51.512354],[-0.093338,51.512359],[-0.093322,51.51236],[-0.093276,51.512362],[-0.093277,51.512381],[-0.093323,51.512379],[-0.093339,51.512378],[-0.093376,51.51238],[-0.093461,51.512375],[-0.093554,51.512369],[-0.093641,51.512363],[-0.09374,51.512357],[-0.093819,51.512352],[-0.093824,51.512351],[-0.093831,51.512351],[-0.093839,51.512352],[-0.093844,51.512353],[-0.09385,51.512356],[-0.093856,51.512359],[-0.09386,51.512363],[-0.093864,51.512369],[-0.093867,51.512374],[-0.093898,51.512428],[-0.093901,51.512435],[-0.093901,51.512438],[-0.093904,51.512442],[-0.093907,51.512447],[-0.093908,51.512452],[-0.093909,51.512457],[-0.09391,51.512474],[-0.093909,51.512479],[-0.093907,51.512485],[-0.093899,51.512528]]]},"properties":{"OBJECTID":4,"DESCRIPTION":"Subway at Queen Victoria Street (E) & Cannon Street","whole_in_zone":true,"in_cw":false}},
{"type":"Feature","geometry":{"type":"Polygon","coordinates":[[[-0.087058,51.509425],[-0.087061,51.509416],[-0.087065,51.509406],[-0.087071,51.509387],[-0.087078,51.509366],[-0.087085,51.509347],[-0.08705,51.509342],[-0.087043,51.509361],[-0.087035,51.509382],[-0.087028,51.509401],[-0.087025,51.509411],[-0.087022,51.50942],[-0.08702,51.509424],[-0.086973,51.509418],[-0.086941,51.509509],[-0.086972,51.509513],[-0.086996,51.509448],[-0.087048,51.509455],[-0.087055,51.509456],[-0.08718,51.509473],[-0.087193,51.509475],[-0.087332,51.509494],[-0.087372,51.509499],[-0.087371,51.509504],[-0.087369,51.509504],[-0.087366,51.509511],[-0.087348,51.50956],[-0.087391,51.509565],[-0.087392,51.509563],[-0.087408,51.509517],[-0.08741,51.50951],[-0.087412,51.509505],[-0.087421,51.509478],[-0.087341,51.509468],[-0.087202,51.509449],[-0.087189,51.509447],[-0.087064,51.50943],[-0.087057,51.509429],[-0.087058,51.509425]]]},"properties":{"OBJECTID":16,"DESCRIPTION":"Subway at King William Street & Lower Thames Street","whole_in_zone":true,"in_cw":false}},
{"type":"Feature","geometry":{"type":"Polygon","coordinates":[[[-0.08646,51.510948],[-0.086505,51.510956],[-0.086523,51.510959],[-0.086525,51.51096],[-0.0866,51.510973],[-0.086604,51.510974],[-0.08662,51.510976],[-0.086664,51.510983],[-0.086672,51.510968],[-0.086625,51.51096],[-0.086611,51.510957],[-0.086591,51.510954],[-0.086591,51.51095],[-0.086593,51.510944],[-0.086596,51.510938],[-0.086602,51.510927],[-0.086608,51.510917],[-0.086612,51.510913],[-0.086615,51.510908],[-0.086623,51.510901],[-0.08663,51.510894],[-0.086657,51.510869],[-0.086677,51.510848],[-0.086701,51.510827],[-0.086714,51.510825],[-0.086732,51.510831],[-0.086743,51.510834],[-0.086759,51.510838],[-0.086777,51.510843],[-0.086807,51.51085],[-0.086832,51.510855],[-0.086842,51.510857],[-0.086868,51.510863],[-0.086882,51.51087],[-0.086901,51.510881],[-0.086901,51.510881],[-0.08691,51.510885],[-0.086914,51.510888],[-0.08693,51.510897],[-0.086953,51.510907],[-0.086964,51.510912],[-0.086981,51.510896],[-0.086975,51.510894],[-0.08697,51.510892],[-0.086963,51.510889],[-0.086956,51.510886],[-0.08695,51.510882],[-0.086944,51.51088],[-0.086939,51.510877],[-0.086934,51.510874],[-0.086923,51.510868],[-0.086909,51.510859],[-0.086905,51.510856],[-0.086895,51.510854],[-0.08687,51.510845],[-0.086828,51.510832],[-0.086784,51.510817],[-0.086695,51.510787],[-0.086623,51.510763],[-0.086569,51.510744],[-0.086559,51.510739],[-0.086554,51.510736],[-0.086558,51.510733],[-0.086559,51.510733],[-0.086568,51.510728],[-0.086575,51.510723],[-0.086576,51.510722],[-0.086579,51.51072],[-0.086581,51.510718],[-0.086582,51.510716],[-0.086585,51.510714],[-0.086586,51.510711],[-0.086588,51.510709],[-0.08659,51.510707],[-0.086598,51.510698],[-0.086601,51.510693],[-0.086569,51.510687],[-0.086562,51.510693],[-0.086559,51.510697],[-0.086556,51.510701],[-0.08655,51.510707],[-0.086545,51.510711],[-0.086541,51.510714],[-0.086536,51.510716],[-0.086533,51.51072],[-0.086502,51.510693],[-0.086497,51.510696],[-0.086492,51.510699],[-0.086484,51.510703],[-0.086474,51.510707],[-0.086465,51.51071],[-0.086458,51.510713],[-0.086489,51.51074],[-0.086483,51.510742],[-0.086472,51.510746],[-0.086457,51.510751],[-0.086443,51.510755],[-0.086427,51.510759],[-0.086436,51.510777],[-0.086457,51.510771],[-0.086477,51.510765],[-0.086484,51.510762],[-0.086496,51.510757],[-0.0865,51.510756],[-0.086507,51.510753],[-0.086519,51.51076],[-0.08654,51.510767],[-0.086606,51.510788],[-0.086634,51.510797],[-0.086639,51.510799],[-0.086644,51.5108],[-0.086649,51.510804],[-0.086653,51.510807],[-0.086656,51.510811],[-0.086657,51.510815],[-0.086657,51.510819],[-0.086654,51.510822],[-0.086651,51.510825],[-0.086647,51.510827],[-0.086625,51.510849],[-0.086601,51.510874],[-0.086595,51.510879],[-0.08659,51.510885],[-0.086585,51.510889],[-0.086581,51.510894],[-0.086578,51.510897],[-0.086575,51.5109],[-0.086569,51.510908],[-0.086563,51.510917],[-0.086561,51.510921],[-0.086558,51.510926],[-0.086555,51.510932],[-0.086551,51.510937],[-0.086548,51.510942],[-0.086545,51.510946],[-0.086529,51.510943],[-0.086512,51.51094],[-0.086497,51.510938],[-0.086465,51.510932],[-0.08646,51.510948]]]},"properties":{"OBJECTID":17,"DESCRIPTION":"Subway at King William Street & Gracechurch Street","whole_in_zone":true,"in_cw":false}},
{"type":"Feature","geometry":{"type":"Polygon","coordinates":[[[-0.07917,51.509476],[-0.079141,51.509472],[-0.079121,51.509469],[-0.079083,51.509464],[-0.079065,51.509462],[-0.079053,51.50946],[-0.079053,51.50946],[-0.079034,51.509458],[-0.079027,51.509476],[-0.079007,51.509537],[-0.078992,51.509582],[-0.078956,51.509691],[-0.078953,51.509698],[-0.07894,51.509733],[-0.078952,51.509733],[-0.079097,51.509734],[-0.079099,51.5097],[-0.079061,51.509699],[-0.07906,51.509717],[-0.078978,51.509716],[-0.078988,51.509681],[-0.079003,51.509641],[-0.079027,51.509569],[-0.079035,51.509548],[-0.079038,51.509538],[-0.079056,51.509489],[-0.079074,51.509491],[-0.079113,51.509496],[-0.07913,51.509498],[-0.079161,51.5095],[-0.079165,51.509489],[-0.07917,51.509476]]]},"properties":{"OBJECTID":28,"DESCRIPTION":"Subway at Byward Street (E)","whole_in_zone":true,"in_cw":false}},
{"type":"Feature","geometry":{"type":"Polygon","coordinates":[[[-0.080608,51.509454],[-0.08064,51.509468],[-0.080668,51.509451],[-0.08068,51.509446],[-0.08072,51.50943],[-0.08073,51.509426],[-0.080708,51.509405],[-0.080696,51.50941],[-0.080659,51.509427],[-0.080646,51.509432],[-0.080641,51.509434],[-0.080608,51.509394],[-0.080552,51.509311],[-0.080488,51.509217],[-0.080478,51.509197],[-0.08046,51.509162],[-0.080428,51.509154],[-0.080392,51.50921],[-0.080352,51.509232],[-0.080323,51.509225],[-0.080311,51.509244],[-0.080325,51.509247],[-0.080234,51.509297],[-0.080211,51.50931],[-0.080246,51.509343],[-0.080248,51.509342],[-0.080254,51.50934],[-0.08026,51.509337],[-0.080267,51.509335],[-0.080275,51.50933],[-0.08031,51.509311],[-0.080344,51.509294],[-0.080324,51.50928],[-0.080444,51.509219],[-0.080454,51.509237],[-0.080505,51.509312],[-0.08055,51.509379],[-0.080589,51.509432],[-0.080608,51.509454],[-0.080608,51.509454]]]},"properties":{"OBJECTID":36,"DESCRIPTION":"Subway at Byward Street (W)","whole_in_zone":true,"in_cw":false}},
{"type":"Feature","geometry":{"type":"Polygon","coordinates":[[[-0.074662,51.511321],[-0.074769,51.51132],[-0.074825,51.511319],[-0.074825,51.511291],[-0.074821,51.511111],[-0.074829,51.511111],[-0.074955,51.511093],[-0.074944,51.51106],[-0.074819,51.511079],[-0.07477,51.511086],[-0.07477,51.511112],[-0.074778,51.511292],[-0.074767,51.511292],[-0.074662,51.511293],[-0.074662,51.511321]]]},"properties":{"OBJECTID":37,"DESCRIPTION":"Subway at Goodman's Yard","whole_in_zone":true,"in_cw":false}}
]}
