{"type":"FeatureCollection","meta":{
 "source": "City of London INSPIRE map service: Crossrail Safeguarding Area",
 "borough": "City of London",
 "page": "https://www.mapping.cityoflondon.gov.uk/arcgis/rest/services/INSPIRE/MapServer/110",
 "api": "https://www.mapping.cityoflondon.gov.uk/arcgis/rest/services/INSPIRE/MapServer/110/query?where=1=1&geometry=<zone box>&geometryType=esriGeometryEnvelope&inSR=4326&spatialRel=esriSpatialRelIntersects&outFields=*&outSR=4326&f=geojson&resultOffset=<n>",
 "fetched": "2026-10-04",
 "licence": "Open Government Licence v3.0",
 "licence_evidence": "the City's INSPIRE record on data.gov.uk (crossrail-safeguarding-area6): [\"http://www.nationalarchives.gov.uk/doc/open-government-licence/version/3/\"] | [\"License\", \"https://inspire.ec.europa.eu/metadata-codelist/LimitationsOnPublicAccess\"]",
 "licence_url": "https://www.nationalarchives.gov.uk/doc/open-government-licence/version/3/",
 "attribution": "Contains public sector information licensed under the Open Government Licence v3.0 (City of London Corporation)",
 "zone": "the 3D model box, BNG E 532400-539900, N 176700-182300 (WGS84 -0.095, 51.474 to 0.015, 51.522)",
 "method": "walk-portals.mjs boroughs harvest city-crossrail-safeguarding-area: features that meet the zone box, WGS84 rounded to 6 decimals, whole geometries; whole_in_zone, in_cw; empty fields and ArcGIS shape measures left out; fields matching /e-?mail|phone|tel(ephone)?$|^tel|contact|^fax|mobile|^owner_?name|person|officer|case_?officer|agent_?name|applicant/i dropped",
 "counts": {
  "features": 1,
  "zone_count_at_walk": 1,
  "in_cw": 0
 },
 "fields_dropped": []
},
"features":[
{"type":"Feature","geometry":{"type":"Polygon","coordinates":[[[-0.105147,51.518617],[-0.10519,51.518603],[-0.105317,51.518558],[-0.10542,51.518525],[-0.10551,51.518498],[-0.105656,51.518454],[-0.105601,51.518374],[-0.105555,51.518277],[-0.105445,51.517839],[-0.10537,51.517535],[-0.104959,51.517586],[-0.10494,51.517618],[-0.104899,51.517641],[-0.104867,51.517646],[-0.104827,51.517675],[-0.10473,51.517642],[-0.104472,51.517557],[-0.104323,51.517506],[-0.103624,51.517272],[-0.103688,51.517419],[-0.103782,51.517426],[-0.103848,51.517438],[-0.103922,51.517465],[-0.104019,51.517497],[-0.104624,51.517707],[-0.104658,51.517726],[-0.10466,51.517733],[-0.104597,51.517756],[-0.103785,51.518009],[-0.103373,51.518155],[-0.102481,51.518447],[-0.102161,51.518528],[-0.101892,51.518582],[-0.101437,51.518724],[-0.101492,51.518699],[-0.101492,51.518699],[-0.1015,51.518694],[-0.101509,51.518689],[-0.101516,51.518684],[-0.101524,51.518679],[-0.101531,51.518673],[-0.101539,51.518668],[-0.101545,51.518662],[-0.101552,51.518656],[-0.101559,51.51865],[-0.101565,51.518645],[-0.101572,51.518639],[-0.101578,51.518633],[-0.101586,51.518625],[-0.101593,51.518618],[-0.101599,51.51861],[-0.101605,51.518602],[-0.101611,51.518594],[-0.101616,51.518586],[-0.101621,51.518578],[-0.101626,51.518569],[-0.10163,51.518561],[-0.101635,51.518552],[-0.101642,51.518535],[-0.101646,51.518527],[-0.101649,51.518519],[-0.101652,51.518511],[-0.101653,51.518504],[-0.101655,51.518496],[-0.101656,51.518488],[-0.101656,51.51848],[-0.101656,51.518472],[-0.101655,51.518464],[-0.101654,51.518456],[-0.101653,51.518448],[-0.101652,51.51844],[-0.10165,51.518432],[-0.101649,51.518424],[-0.101647,51.518416],[-0.101645,51.518409],[-0.101642,51.5184],[-0.10164,51.518392],[-0.101637,51.518384],[-0.101634,51.518376],[-0.101631,51.518367],[-0.101627,51.518359],[-0.101623,51.518351],[-0.101618,51.518343],[-0.101613,51.518335],[-0.101608,51.518327],[-0.101602,51.51832],[-0.101596,51.518312],[-0.101589,51.518305],[-0.101582,51.518298],[-0.101574,51.518292],[-0.101565,51.518286],[-0.101556,51.51828],[-0.101546,51.518275],[-0.101536,51.51827],[-0.101527,51.518265],[-0.101518,51.51826],[-0.101508,51.518255],[-0.101499,51.51825],[-0.10149,51.518244],[-0.101472,51.518234],[-0.101463,51.518228],[-0.101453,51.518223],[-0.101444,51.518218],[-0.101434,51.518213],[-0.101425,51.518209],[-0.101415,51.518204],[-0.101405,51.5182],[-0.101394,51.518197],[-0.101384,51.518193],[-0.101373,51.518191],[-0.101361,51.518188],[-0.10135,51.518187],[-0.101337,51.518185],[-0.101263,51.518175],[-0.101189,51.518165],[-0.101177,51.518163],[-0.101165,51.518163],[-0.101152,51.518162],[-0.10114,51.518162],[-0.101128,51.518163],[-0.101115,51.518164],[-0.101103,51.518165],[-0.10109,51.518166],[-0.101078,51.518168],[-0.101066,51.51817],[-0.101042,51.518173],[-0.101031,51.518175],[-0.10102,51.518177],[-0.101009,51.518179],[-0.100998,51.518182],[-0.100988,51.518184],[-0.100977,51.518187],[-0.100967,51.51819],[-0.100957,51.518194],[-0.100947,51.518197],[-0.100937,51.5182],[-0.100927,51.518204],[-0.100917,51.518208],[-0.100908,51.518212],[-0.100896,51.518217],[-0.100885,51.518222],[-0.100873,51.518227],[-0.10085,51.518237],[-0.100839,51.518243],[-0.100829,51.518248],[-0.100818,51.518254],[-0.100808,51.51826],[-0.100799,51.518266],[-0.10079,51.518273],[-0.100782,51.51828],[-0.100774,51.518287],[-0.100768,51.518294],[-0.100761,51.518301],[-0.100755,51.518308],[-0.100748,51.518315],[-0.100742,51.518322],[-0.100722,51.518343],[-0.100716,51.51835],[-0.100711,51.518357],[-0.100705,51.518366],[-0.100701,51.518372],[-0.100694,51.518387],[-0.100684,51.518421],[-0.100681,51.518435],[-0.100679,51.518442],[-0.100677,51.518449],[-0.100676,51.518452],[-0.100675,51.518457],[-0.100673,51.518466],[-0.100673,51.518474],[-0.100672,51.518483],[-0.100673,51.518492],[-0.100674,51.5185],[-0.100676,51.518509],[-0.100679,51.518517],[-0.100682,51.518525],[-0.100686,51.518534],[-0.100707,51.518574],[-0.100711,51.518582],[-0.100715,51.51859],[-0.100717,51.518593],[-0.100719,51.518596],[-0.100721,51.5186],[-0.100724,51.518603],[-0.100727,51.518606],[-0.10073,51.518609],[-0.100733,51.518612],[-0.10074,51.518618],[-0.100743,51.518622],[-0.100746,51.518625],[-0.100749,51.518628],[-0.100751,51.518631],[-0.100754,51.518634],[-0.10076,51.518643],[-0.100765,51.518651],[-0.100767,51.518654],[-0.100771,51.518663],[-0.100772,51.518665],[-0.100773,51.518667],[-0.100773,51.518668],[-0.100773,51.518672],[-0.100773,51.518674],[-0.100772,51.518679],[-0.100771,51.518681],[-0.100771,51.518683],[-0.100775,51.518685],[-0.100794,51.518678],[-0.100799,51.518676],[-0.10086,51.518654],[-0.100879,51.518647],[-0.100934,51.518627],[-0.100956,51.518619],[-0.100951,51.518615],[-0.100944,51.518611],[-0.100931,51.518604],[-0.100925,51.518598],[-0.100918,51.518592],[-0.100901,51.518577],[-0.10089,51.518564],[-0.100885,51.518556],[-0.100881,51.518548],[-0.100877,51.518541],[-0.100875,51.518534],[-0.10087,51.51852],[-0.100866,51.518507],[-0.100863,51.518494],[-0.100861,51.518481],[-0.10086,51.518465],[-0.100862,51.518448],[-0.100867,51.518432],[-0.100872,51.518416],[-0.100882,51.5184],[-0.100892,51.518385],[-0.100905,51.518371],[-0.10092,51.518357],[-0.100935,51.518344],[-0.100954,51.518332],[-0.100972,51.51832],[-0.100994,51.51831],[-0.101016,51.518301],[-0.101038,51.518293],[-0.101062,51.518287],[-0.101088,51.518281],[-0.101098,51.51828],[-0.101124,51.518277],[-0.10115,51.518275],[-0.101177,51.518276],[-0.101203,51.518277],[-0.101229,51.51828],[-0.101255,51.518285],[-0.10128,51.51829],[-0.101304,51.518297],[-0.101327,51.518305],[-0.101349,51.518314],[-0.101371,51.518325],[-0.10139,51.518335],[-0.101408,51.518348],[-0.101423,51.518361],[-0.101438,51.518375],[-0.101449,51.518389],[-0.101459,51.518405],[-0.101467,51.518421],[-0.101472,51.518437],[-0.101474,51.518454],[-0.101475,51.51847],[-0.101473,51.518487],[-0.10147,51.518503],[-0.101465,51.51852],[-0.101456,51.518536],[-0.101446,51.518551],[-0.101434,51.518566],[-0.101425,51.518575],[-0.101406,51.518591],[-0.101394,51.518599],[-0.101381,51.518608],[-0.101369,51.518614],[-0.101363,51.518617],[-0.101355,51.51862],[-0.101341,51.518626],[-0.101326,51.518631],[-0.101306,51.51864],[-0.101263,51.518655],[-0.101241,51.518662],[-0.101219,51.51867],[-0.101193,51.518679],[-0.101056,51.518723],[-0.10089,51.518902],[-0.100765,51.51895],[-0.099765,51.519293],[-0.099531,51.519377],[-0.099325,51.519449],[-0.099142,51.519517],[-0.098927,51.519592],[-0.098734,51.519651],[-0.098297,51.519776],[-0.097965,51.519844],[-0.097529,51.519884],[-0.09749,51.519858],[-0.097399,51.519422],[-0.097305,51.518998],[-0.097181,51.518399],[-0.097123,51.518108],[-0.096813,51.518125],[-0.096878,51.518438],[-0.096952,51.518802],[-0.097083,51.519411],[-0.097171,51.519857],[-0.096924,51.519873],[-0.096982,51.519962],[-0.096711,51.520005],[-0.096175,51.51993],[-0.095204,51.519763],[-0.094586,51.519625],[-0.094118,51.519457],[-0.092601,51.518959],[-0.091728,51.518658],[-0.090797,51.51828],[-0.090028,51.518067],[-0.090094,51.517954],[-0.090179,51.517802],[-0.090115,51.51778],[-0.090096,51.517713],[-0.090111,51.517649],[-0.09014,51.517623],[-0.090178,51.517618],[-0.090306,51.517621],[-0.090471,51.517626],[-0.090781,51.517623],[-0.091011,51.517618],[-0.092047,51.5176],[-0.092051,51.51752],[-0.091056,51.517547],[-0.090709,51.517552],[-0.09031,51.517526],[-0.090075,51.51752],[-0.08986,51.517505],[-0.08977,51.517499],[-0.089608,51.517488],[-0.089625,51.517396],[-0.089468,51.517342],[-0.088866,51.517229],[-0.088711,51.517212],[-0.088535,51.517189],[-0.088027,51.517101],[-0.087749,51.517052],[-0.087399,51.516997],[-0.087188,51.516963],[-0.087037,51.516939],[-0.0867,51.516885],[-0.086601,51.516892],[-0.086182,51.516831],[-0.085695,51.516752],[-0.085437,51.516662],[-0.084945,51.516504],[-0.084614,51.516422],[-0.083801,51.51632],[-0.083516,51.516296],[-0.082365,51.516149],[-0.082119,51.516115],[-0.082042,51.516078],[-0.082017,51.516043],[-0.082015,51.516015],[-0.082045,51.51597],[-0.081801,51.515894],[-0.081674,51.515992],[-0.08164,51.516007],[-0.081599,51.516015],[-0.081563,51.516009],[-0.081492,51.51599],[-0.08135,51.516116],[-0.081392,51.516126],[-0.081414,51.516143],[-0.081424,51.516159],[-0.081401,51.516178],[-0.08136,51.516223],[-0.081136,51.516472],[-0.081106,51.516506],[-0.081036,51.516662],[-0.080795,51.51672],[-0.080395,51.516811],[-0.080213,51.516871],[-0.079604,51.517133],[-0.079034,51.517391],[-0.078247,51.517744],[-0.07773,51.517959],[-0.077762,51.518019],[-0.077785,51.518061],[-0.077792,51.518075],[-0.077798,51.518084],[-0.077805,51.518093],[-0.077819,51.518109],[-0.077822,51.518113],[-0.077825,51.518116],[-0.077833,51.518125],[-0.07784,51.51813],[-0.077845,51.518133],[-0.077879,51.51816],[-0.07796,51.518219],[-0.077984,51.518237],[-0.077995,51.518247],[-0.078064,51.518322],[-0.078253,51.51823],[-0.078475,51.518125],[-0.07876,51.518001],[-0.079436,51.517713],[-0.07971,51.517603],[-0.07994,51.517518],[-0.080104,51.517474],[-0.080285,51.517443],[-0.080848,51.517332],[-0.081587,51.517304],[-0.081577,51.51732],[-0.082232,51.517468],[-0.082062,51.517752],[-0.080767,51.517452],[-0.080529,51.517679],[-0.080721,51.517727],[-0.08088,51.517785],[-0.080976,51.517808],[-0.080983,51.517795],[-0.08129,51.517863],[-0.081252,51.517931],[-0.081861,51.518062],[-0.08189,51.518194],[-0.081245,51.518711],[-0.081535,51.518823],[-0.082392,51.518267],[-0.082125,51.518764],[-0.082206,51.518775],[-0.082529,51.518187],[-0.082877,51.517899],[-0.082977,51.51772],[-0.08311,51.517744],[-0.08342,51.51782],[-0.083512,51.517841],[-0.083832,51.51792],[-0.083859,51.517901],[-0.083917,51.517886],[-0.083953,51.517888],[-0.084002,51.517909],[-0.084027,51.517944],[-0.084026,51.517973],[-0.084062,51.517983],[-0.083897,51.518161],[-0.08512,51.51852],[-0.085316,51.518573],[-0.085978,51.518766],[-0.085984,51.518761],[-0.086102,51.518796],[-0.08611,51.518815],[-0.086084,51.518859],[-0.086239,51.518916],[-0.086765,51.519061],[-0.087159,51.519187],[-0.087482,51.519298],[-0.087499,51.519317],[-0.087477,51.519374],[-0.087588,51.519405],[-0.087759,51.519453],[-0.087791,51.519394],[-0.087813,51.519383],[-0.088232,51.519522],[-0.088412,51.519201],[-0.088755,51.518576],[-0.08995,51.518756],[-0.090298,51.518828],[-0.090699,51.51892],[-0.090773,51.518795],[-0.09105,51.518871],[-0.091069,51.51885],[-0.091304,51.518924],[-0.092127,51.519228],[-0.093308,51.519562],[-0.094364,51.519871],[-0.094586,51.519934],[-0.094834,51.519998],[-0.095217,51.520072],[-0.095654,51.520147],[-0.096199,51.520234],[-0.096709,51.520278],[-0.09698,51.52029],[-0.09726,51.520291],[-0.097267,51.520316],[-0.097302,51.520486],[-0.097311,51.520564],[-0.097314,51.520649],[-0.097316,51.520755],[-0.097689,51.520738],[-0.097697,51.520712],[-0.098377,51.520598],[-0.098615,51.520559],[-0.098749,51.520535],[-0.098848,51.52051],[-0.098932,51.520488],[-0.099132,51.520436],[-0.099416,51.520358],[-0.099605,51.520306],[-0.099867,51.520222],[-0.100122,51.520148],[-0.100184,51.520138],[-0.100268,51.520133],[-0.100344,51.520123],[-0.100424,51.520109],[-0.100489,51.520093],[-0.10054,51.520077],[-0.101287,51.519846],[-0.101775,51.519685],[-0.101801,51.519677],[-0.102039,51.519598],[-0.102672,51.519398],[-0.10274,51.519377],[-0.103279,51.519206],[-0.104546,51.518806],[-0.1051,51.518632],[-0.105147,51.518617]]]},"properties":{"OBJECTID_1":1,"NAME":"Crossrail Safeguarding Area","whole_in_zone":false,"in_cw":false}}
]}
