{"type":"FeatureCollection","meta":{
 "source": "London Datastore: Schools and educational institutions air quality exposure data broken down by parliamentary constituency (Greater London Authority)",
 "dataset": "20pj6",
 "page": "https://data.london.gov.uk/dataset/schools-and-educational-institutions-air-quality-exposure-data-b-20pj6",
 "resources": [
  {
   "resource": "9d5a5099-2030-4b94-b9cf-1eb3bf7d203e",
   "file": "Schools_ParliamentaryConstituencies.xlsx",
   "url": "https://data.london.gov.uk/download/20pj6/9d5a5099-2030-4b94-b9cf-1eb3bf7d203e/Schools_ParliamentaryConstituencies.xlsx",
   "size": 302719,
   "resource_date": "2017-05-02",
   "fetched": "2026-10-04"
  }
 ],
 "licence": "Open Government Licence v3",
 "licence_url": "https://www.nationalarchives.gov.uk/doc/open-government-licence/version/3/",
 "attribution": "Contains public sector information licensed under the Open Government Licence v3 (Greater London Authority). The GLA cannot warrant the quality or accuracy of the data (London Datastore terms).",
 "dataset_modified": "2017-05-02",
 "update_frequency": null,
 "geo": null,
 "theme": "occupants-organisations",
 "layers": [
  {
   "table": "Schools_ParliamentaryConstituencies.xlsx#List of schools",
   "srs": "per row",
   "columns": [
    "Easting",
    "Northing"
   ],
   "rows_read": 3261
  }
 ],
 "crs_source": "EPSG:per row",
 "crs_output": "EPSG:4326 (WGS84), 6 decimal places; BNG to WGS84 through the OS OSTN15 grid (lib.mjs bngProjector)",
 "method": "lds-harvest-auto.mjs run 20pj6: resources chosen by the written rules (harvest-log.json meta.rules: formats, dedupe, caps); every feature read (GeoPackage, GeoJSON, shapefile, or table rows with coordinate columns as points, the CRS judged per row by value); a feature is kept when it meets the zone (the 3D model box, BNG E 532400-539900, N 176700-182300): a vertex inside, an edge crossing or the box inside a polygon; whole geometries kept, whole_in_zone and in_cw added; WGS84 6 decimals through OSTN15; contact fields dropped.",
 "counts": {
  "source_features": 179,
  "no_geometry": 0,
  "in_zone": 179,
  "in_cw": 5,
  "table_rows_read": 3261,
  "note": "features made from table rows: source_features counts the zone rows only; table_rows_read counts every row read"
 },
 "attributes_in_source": "yes",
 "fields_dropped": [],
 "harvest_rules": "tools/lds-harvest-auto.mjs AUTO_RULES (feeds/london-datastore/harvest-log.json meta.rules)",
 "selection_notes": []
},
"features":[
{"type":"Feature","properties":{"URN":100000,"Local Authority name":"City of London","Establisment name":"Sir John Cass's Foundation Primary School","Easting":533498,"Northing":181201,"Type of Establishment":"Voluntary Aided School","Phase of education":"Primary","NO2ug/m3 mean 2013":62.6,"Above limit":"Yes","Parliamentary Constituences":"Cities of London and Westminster","Establishment Status":"Open","Close Date":null,"in_cw":false,"whole_in_zone":true},"geometry":{"type":"Point","coordinates":[-0.077505,51.51397]}},
{"type":"Feature","properties":{"URN":100928,"Local Authority name":"Tower Hamlets","Establisment name":"Woolmore Primary School","Easting":538273,"Northing":180944,"Type of Establishment":"Community School","Phase of education":"Primary","NO2ug/m3 mean 2013":61.8,"Above limit":"Yes","Parliamentary Constituences":"Poplar and Limehouse","Establishment Status":"Open","Close Date":null,"in_cw":false,"whole_in_zone":true},"geometry":{"type":"Point","coordinates":[-0.008835,51.510513]}},
{"type":"Feature","properties":{"URN":138980,"Local Authority name":"Tower Hamlets","Establisment name":"Al Ashraaf Secondary School","Easting":533883,"Northing":181402,"Type of Establishment":"Other Independent School","Phase of education":"Not applicable","NO2ug/m3 mean 2013":61.3,"Above limit":"Yes","Parliamentary Constituences":"Bethnal Green and Bow","Establishment Status":"Open","Close Date":null,"in_cw":false,"whole_in_zone":true},"geometry":{"type":"Point","coordinates":[-0.071883,51.515685]}},
{"type":"Feature","properties":{"URN":100893,"Local Authority name":"Tower Hamlets","Establisment name":"Canon Barnett Primary School","Easting":533888,"Northing":181473,"Type of Establishment":"Community School","Phase of education":"Primary","NO2ug/m3 mean 2013":57.2,"Above limit":"Yes","Parliamentary Constituences":"Bethnal Green and Bow","Establishment Status":"Open","Close Date":null,"in_cw":false,"whole_in_zone":true},"geometry":{"type":"Point","coordinates":[-0.071784,51.516322]}},
{"type":"Feature","properties":{"URN":100824,"Local Authority name":"Tower Hamlets","Establisment name":"English Martyrs Roman Catholic Primary School","Easting":533902,"Northing":181086,"Type of Establishment":"Voluntary Aided School","Phase of education":"Primary","NO2ug/m3 mean 2013":55.9,"Above limit":"Yes","Parliamentary Constituences":"Bermondsey and Old Southwark","Establishment Status":"Open","Close Date":null,"in_cw":false,"whole_in_zone":true},"geometry":{"type":"Point","coordinates":[-0.07173,51.512841]}},
{"type":"Feature","properties":{"URN":131198,"Local Authority name":"Tower Hamlets","Establisment name":"Green Gables Montessori Primary School","Easting":534831,"Northing":180704,"Type of Establishment":"Other Independent School","Phase of education":"Not applicable","NO2ug/m3 mean 2013":55.6,"Above limit":"Yes","Parliamentary Constituences":"Poplar and Limehouse","Establishment Status":"Open","Close Date":null,"in_cw":false,"whole_in_zone":true},"geometry":{"type":"Point","coordinates":[-0.058496,51.509188]}},
{"type":"Feature","properties":{"URN":100813,"Local Authority name":"Southwark","Establisment name":"Tower Bridge Primary School","Easting":533570,"Northing":179825,"Type of Establishment":"Community School","Phase of education":"Primary","NO2ug/m3 mean 2013":55,"Above limit":"Yes","Parliamentary Constituences":"Bermondsey and Old Southwark","Establishment Status":"Open","Close Date":null,"in_cw":false,"whole_in_zone":true},"geometry":{"type":"Point","coordinates":[-0.076989,51.501588]}},
{"type":"Feature","properties":{"URN":100849,"Local Authority name":"Southwark","Establisment name":"St Saviour's and St Olave's Church of England School","Easting":532857,"Northing":179036,"Type of Establishment":"Voluntary Aided School","Phase of education":"Secondary","NO2ug/m3 mean 2013":54.9,"Above limit":"Yes","Parliamentary Constituences":"Bermondsey and Old Southwark","Establishment Status":"Open","Close Date":null,"in_cw":false,"whole_in_zone":true},"geometry":{"type":"Point","coordinates":[-0.087552,51.494665]}},
{"type":"Feature","properties":{"URN":135409,"Local Authority name":"Southwark","Establisment name":"London Christian School","Easting":532562,"Northing":179654,"Type of Establishment":"Other Independent School","Phase of education":"Not applicable","NO2ug/m3 mean 2013":54.1,"Above limit":"Yes","Parliamentary Constituences":"Bermondsey and Old Southwark","Establishment Status":"Open","Close Date":null,"in_cw":false,"whole_in_zone":true},"geometry":{"type":"Point","coordinates":[-0.091567,51.500288]}},
{"type":"Feature","properties":{"URN":100834,"Local Authority name":"Southwark","Establisment name":"Saint Joseph's Catholic Primary School, the Borough","Easting":532485,"Northing":179893,"Type of Establishment":"Voluntary Aided School","Phase of education":"Primary","NO2ug/m3 mean 2013":53.2,"Above limit":"Yes","Parliamentary Constituences":"Bermondsey and Old Southwark","Establishment Status":"Open","Close Date":null,"in_cw":false,"whole_in_zone":true},"geometry":{"type":"Point","coordinates":[-0.092586,51.502454]}},
{"type":"Feature","properties":{"URN":140064,"Local Authority name":"Tower Hamlets","Establisment name":"Culloden Primary - A Paradigm Academy","Easting":538399,"Northing":181277,"Type of Establishment":"Academy Converter","Phase of education":"Primary","NO2ug/m3 mean 2013":52.1,"Above limit":"Yes","Parliamentary Constituences":"Poplar and Limehouse","Establishment Status":"Open","Close Date":null,"in_cw":false,"whole_in_zone":true},"geometry":{"type":"Point","coordinates":[-0.00689,51.513475]}},
{"type":"Feature","properties":{"URN":100935,"Local Authority name":"Tower Hamlets","Establisment name":"Shapla Primary School","Easting":534320,"Northing":180791,"Type of Establishment":"Community School","Phase of education":"Primary","NO2ug/m3 mean 2013":51.6,"Above limit":"Yes","Parliamentary Constituences":"Poplar and Limehouse","Establishment Status":"Open","Close Date":null,"in_cw":false,"whole_in_zone":true},"geometry":{"type":"Point","coordinates":[-0.065822,51.510091]}},
{"type":"Feature","properties":{"URN":100959,"Local Authority name":"Tower Hamlets","Establisment name":"St Paul's Whitechapel Church of England Primary School","Easting":534320,"Northing":180791,"Type of Establishment":"Voluntary Aided School","Phase of education":"Primary","NO2ug/m3 mean 2013":51.6,"Above limit":"Yes","Parliamentary Constituences":"Poplar and Limehouse","Establishment Status":"Open","Close Date":null,"in_cw":false,"whole_in_zone":true},"geometry":{"type":"Point","coordinates":[-0.065822,51.510091]}},
{"type":"Feature","properties":{"URN":100895,"Local Authority name":"Tower Hamlets","Establisment name":"Blue Gate Fields Junior School","Easting":535119,"Northing":180864,"Type of Establishment":"Community School","Phase of education":"Primary","NO2ug/m3 mean 2013":50.3,"Above limit":"Yes","Parliamentary Constituences":"Poplar and Limehouse","Establishment Status":"Open","Close Date":null,"in_cw":false,"whole_in_zone":true},"geometry":{"type":"Point","coordinates":[-0.054287,51.510557]}},
{"type":"Feature","properties":{"URN":100915,"Local Authority name":"Tower Hamlets","Establisment name":"Blue Gate Fields Infants' School","Easting":535119,"Northing":180864,"Type of Establishment":"Community School","Phase of education":"Primary","NO2ug/m3 mean 2013":50.3,"Above limit":"Yes","Parliamentary Constituences":"Poplar and Limehouse","Establishment Status":"Open","Close Date":null,"in_cw":false,"whole_in_zone":true},"geometry":{"type":"Point","coordinates":[-0.054287,51.510557]}},
{"type":"Feature","properties":{"URN":100814,"Local Authority name":"Southwark","Establisment name":"Townsend Primary School","Easting":533028,"Northing":178832,"Type of Establishment":"Community School","Phase of education":"Primary","NO2ug/m3 mean 2013":50.2,"Above limit":"Yes","Parliamentary Constituences":"Bermondsey and Old Southwark","Establishment Status":"Open","Close Date":null,"in_cw":false,"whole_in_zone":true},"geometry":{"type":"Point","coordinates":[-0.085167,51.492792]}},
{"type":"Feature","properties":{"URN":100791,"Local Authority name":"Southwark","Establisment name":"Grange Primary School","Easting":533244,"Northing":179211,"Type of Establishment":"Community School","Phase of education":"Primary","NO2ug/m3 mean 2013":49.9,"Above limit":"Yes","Parliamentary Constituences":"Bermondsey and Old Southwark","Establishment Status":"Open","Close Date":null,"in_cw":false,"whole_in_zone":true},"geometry":{"type":"Point","coordinates":[-0.081914,51.496147]}},
{"type":"Feature","properties":{"URN":100815,"Local Authority name":"Southwark","Establisment name":"Victory School","Easting":532497,"Northing":178834,"Type of Establishment":"Community School","Phase of education":"Primary","NO2ug/m3 mean 2013":49.7,"Above limit":"Yes","Parliamentary Constituences":"Bermondsey and Old Southwark","Establishment Status":"Open","Close Date":null,"in_cw":false,"whole_in_zone":true},"geometry":{"type":"Point","coordinates":[-0.09281,51.492934]}},
{"type":"Feature","properties":{"URN":131023,"Local Authority name":"Tower Hamlets","Establisment name":"Stephen Hawking School","Easting":536313,"Northing":181188,"Type of Establishment":"Community Special School","Phase of education":"Not applicable","NO2ug/m3 mean 2013":49,"Above limit":"Yes","Parliamentary Constituences":"Bethnal Green and Bow","Establishment Status":"Open","Close Date":null,"in_cw":false,"whole_in_zone":true},"geometry":{"type":"Point","coordinates":[-0.036967,51.513182]}},
{"type":"Feature","properties":{"URN":138202,"Local Authority name":"Tower Hamlets","Establisment name":"Wapping High School","Easting":534642,"Northing":181343,"Type of Establishment":"Free Schools","Phase of education":"Secondary","NO2ug/m3 mean 2013":48.6,"Above limit":"Yes","Parliamentary Constituences":"Bethnal Green and Bow","Establishment Status":"Open","Close Date":null,"in_cw":false,"whole_in_zone":true},"geometry":{"type":"Point","coordinates":[-0.060974,51.514975]}},
{"type":"Feature","properties":{"URN":138564,"Local Authority name":"Tower Hamlets","Establisment name":"Buttercup Primary School","Easting":534576,"Northing":181263,"Type of Establishment":"Other Independent School","Phase of education":"Not applicable","NO2ug/m3 mean 2013":48.5,"Above limit":"Yes","Parliamentary Constituences":"Bethnal Green and Bow","Establishment Status":"Open","Close Date":null,"in_cw":false,"whole_in_zone":true},"geometry":{"type":"Point","coordinates":[-0.061955,51.514272]}},
{"type":"Feature","properties":{"URN":133646,"Local Authority name":"Tower Hamlets","Establisment name":"Al-Mizan School","Easting":534293,"Northing":181595,"Type of Establishment":"Other Independent School","Phase of education":"Not applicable","NO2ug/m3 mean 2013":48.1,"Above limit":"Yes","Parliamentary Constituences":"Bethnal Green and Bow","Establishment Status":"Open","Close Date":null,"in_cw":false,"whole_in_zone":true},"geometry":{"type":"Point","coordinates":[-0.065904,51.517323]}},
{"type":"Feature","properties":{"URN":134810,"Local Authority name":"Tower Hamlets","Establisment name":"London East Academy","Easting":534293,"Northing":181595,"Type of Establishment":"Other Independent School","Phase of education":"Not applicable","NO2ug/m3 mean 2013":48.1,"Above limit":"Yes","Parliamentary Constituences":"Bethnal Green and Bow","Establishment Status":"Open","Close Date":null,"in_cw":false,"whole_in_zone":true},"geometry":{"type":"Point","coordinates":[-0.065904,51.517323]}},
{"type":"Feature","properties":{"URN":100727,"Local Authority name":"Lewisham","Establisment name":"St James's Hatcham Church of England Primary School","Easting":536349,"Northing":176875,"Type of Establishment":"Voluntary Aided School","Phase of education":"Primary","NO2ug/m3 mean 2013":48.1,"Above limit":"Yes","Parliamentary Constituences":"Lewisham, Deptford","Establishment Status":"Open","Close Date":null,"in_cw":false,"whole_in_zone":true},"geometry":{"type":"Point","coordinates":[-0.038114,51.474415]}},
{"type":"Feature","properties":{"URN":100982,"Local Authority name":"Tower Hamlets","Establisment name":"Madani Secondary Girls' School","Easting":534514,"Northing":181414,"Type of Establishment":"Other Independent School","Phase of education":"Not applicable","NO2ug/m3 mean 2013":47.5,"Above limit":"Yes","Parliamentary Constituences":"Bethnal Green and Bow","Establishment Status":"Open","Close Date":null,"in_cw":false,"whole_in_zone":true},"geometry":{"type":"Point","coordinates":[-0.06279,51.515643]}},
{"type":"Feature","properties":{"URN":141133,"Local Authority name":"Tower Hamlets","Establisment name":"London Enterprise Academy","Easting":534393,"Northing":181349,"Type of Establishment":"Free Schools","Phase of education":"Secondary","NO2ug/m3 mean 2013":47,"Above limit":"Yes","Parliamentary Constituences":"Bethnal Green and Bow","Establishment Status":"Open","Close Date":null,"in_cw":false,"whole_in_zone":true},"geometry":{"type":"Point","coordinates":[-0.064558,51.515088]}},
{"type":"Feature","properties":{"URN":100968,"Local Authority name":"Tower Hamlets","Establisment name":"Mulberry School for Girls","Easting":534736,"Northing":181259,"Type of Establishment":"Community School","Phase of education":"Secondary","NO2ug/m3 mean 2013":46.9,"Above limit":"Yes","Parliamentary Constituences":"Poplar and Limehouse","Establishment Status":"Open","Close Date":null,"in_cw":false,"whole_in_zone":true},"geometry":{"type":"Point","coordinates":[-0.059652,51.514198]}},
{"type":"Feature","properties":{"URN":133877,"Local Authority name":"Lewisham","Establisment name":"Goldsmiths College, University of London","Easting":536540,"Northing":176850,"Type of Establishment":"Higher Education Institutions","Phase of education":"Not applicable","NO2ug/m3 mean 2013":46.7,"Above limit":"Yes","Parliamentary Constituences":"Lewisham, Deptford","Establishment Status":"Open","Close Date":null,"in_cw":false,"whole_in_zone":true},"geometry":{"type":"Point","coordinates":[-0.035375,51.474144]}},
{"type":"Feature","properties":{"URN":100829,"Local Authority name":"Southwark","Establisment name":"St James' Church of England Primary School","Easting":534223,"Northing":179425,"Type of Establishment":"Voluntary Aided School","Phase of education":"Primary","NO2ug/m3 mean 2013":46.6,"Above limit":"Yes","Parliamentary Constituences":"Bermondsey and Old Southwark","Establishment Status":"Open","Close Date":null,"in_cw":false,"whole_in_zone":true},"geometry":{"type":"Point","coordinates":[-0.067738,51.497839]}},
{"type":"Feature","properties":{"URN":139216,"Local Authority name":"Tower Hamlets","Establisment name":"East London Islamic School","Easting":534361,"Northing":181404,"Type of Establishment":"Other Independent School","Phase of education":"Not applicable","NO2ug/m3 mean 2013":46.3,"Above limit":"Yes","Parliamentary Constituences":"Bethnal Green and Bow","Establishment Status":"Closed","Close Date":"2016-02-29","in_cw":false,"whole_in_zone":true},"geometry":{"type":"Point","coordinates":[-0.064998,51.51559]}},
{"type":"Feature","properties":{"URN":139221,"Local Authority name":"Tower Hamlets","Establisment name":"Date Palm Primary School","Easting":535238,"Northing":181937,"Type of Establishment":"Other Independent School","Phase of education":"Not applicable","NO2ug/m3 mean 2013":46.3,"Above limit":"Yes","Parliamentary Constituences":"Bethnal Green and Bow","Establishment Status":"Open","Close Date":null,"in_cw":false,"whole_in_zone":true},"geometry":{"type":"Point","coordinates":[-0.052162,51.52017]}},
{"type":"Feature","properties":{"URN":100839,"Local Authority name":"Southwark","Establisment name":"St Peter's Church of England Primary School","Easting":532484,"Northing":178081,"Type of Establishment":"Voluntary Aided School","Phase of education":"Primary","NO2ug/m3 mean 2013":46.2,"Above limit":"Yes","Parliamentary Constituences":"Camberwell and Peckham","Establishment Status":"Open","Close Date":null,"in_cw":false,"whole_in_zone":true},"geometry":{"type":"Point","coordinates":[-0.09328,51.48617]}},
{"type":"Feature","properties":{"URN":100887,"Local Authority name":"Tower Hamlets","Establisment name":"Alice Model Nursery School","Easting":535617,"Northing":182047,"Type of Establishment":"LA Nursery School","Phase of education":"Nursery","NO2ug/m3 mean 2013":46.2,"Above limit":"Yes","Parliamentary Constituences":"Bethnal Green and Bow","Establishment Status":"Open","Close Date":null,"in_cw":false,"whole_in_zone":true},"geometry":{"type":"Point","coordinates":[-0.04666,51.521068]}},
{"type":"Feature","properties":{"URN":100774,"Local Authority name":"Southwark","Establisment name":"Albion Primary School","Easting":535335,"Northing":179689,"Type of Establishment":"Community School","Phase of education":"Primary","NO2ug/m3 mean 2013":46,"Above limit":"Yes","Parliamentary Constituences":"Bermondsey and Old Southwark","Establishment Status":"Open","Close Date":null,"in_cw":false,"whole_in_zone":true},"geometry":{"type":"Point","coordinates":[-0.051627,51.499946]}},
{"type":"Feature","properties":{"URN":133307,"Local Authority name":"Tower Hamlets","Establisment name":"Mazahirul Uloom London School","Easting":535764,"Northing":182196,"Type of Establishment":"Other Independent School","Phase of education":"Not applicable","NO2ug/m3 mean 2013":45.9,"Above limit":"Yes","Parliamentary Constituences":"Bethnal Green and Bow","Establishment Status":"Open","Close Date":null,"in_cw":false,"whole_in_zone":true},"geometry":{"type":"Point","coordinates":[-0.044485,51.522372]}},
{"type":"Feature","properties":{"URN":138270,"Local Authority name":"Southwark","Establisment name":"Harris Primary Free School Peckham","Easting":533824,"Northing":176735,"Type of Establishment":"Free Schools","Phase of education":"Primary","NO2ug/m3 mean 2013":45.9,"Above limit":"Yes","Parliamentary Constituences":"Camberwell and Peckham","Establishment Status":"Open","Close Date":null,"in_cw":false,"whole_in_zone":true},"geometry":{"type":"Point","coordinates":[-0.074502,51.473759]}},
{"type":"Feature","properties":{"URN":100879,"Local Authority name":"Southwark","Establisment name":"Beormund Primary School","Easting":532777,"Northing":179711,"Type of Establishment":"Community Special School","Phase of education":"Not applicable","NO2ug/m3 mean 2013":45.8,"Above limit":"Yes","Parliamentary Constituences":"Bermondsey and Old Southwark","Establishment Status":"Open","Close Date":null,"in_cw":false,"whole_in_zone":true},"geometry":{"type":"Point","coordinates":[-0.08845,51.50075]}},
{"type":"Feature","properties":{"URN":133813,"Local Authority name":"Tower Hamlets","Establisment name":"Queen Mary and Westfield College","Easting":536016,"Northing":182267,"Type of Establishment":"Higher Education Institutions","Phase of education":"Not applicable","NO2ug/m3 mean 2013":45.7,"Above limit":"Yes","Parliamentary Constituences":"Bethnal Green and Bow","Establishment Status":"Open","Close Date":null,"in_cw":false,"whole_in_zone":true},"geometry":{"type":"Point","coordinates":[-0.040828,51.522949]}},
{"type":"Feature","properties":{"URN":131737,"Local Authority name":"Tower Hamlets","Establisment name":"Harry Gosling Primary School","Easting":534299,"Northing":181195,"Type of Establishment":"Community School","Phase of education":"Primary","NO2ug/m3 mean 2013":45.3,"Above limit":"Yes","Parliamentary Constituences":"Bethnal Green and Bow","Establishment Status":"Open","Close Date":null,"in_cw":false,"whole_in_zone":true},"geometry":{"type":"Point","coordinates":[-0.06597,51.513727]}},
{"type":"Feature","properties":{"URN":100825,"Local Authority name":"Southwark","Establisment name":"St James the Great Roman Catholic Primary School","Easting":533921,"Northing":176804,"Type of Establishment":"Voluntary Aided School","Phase of education":"Primary","NO2ug/m3 mean 2013":45.1,"Above limit":"Yes","Parliamentary Constituences":"Camberwell and Peckham","Establishment Status":"Open","Close Date":null,"in_cw":false,"whole_in_zone":true},"geometry":{"type":"Point","coordinates":[-0.07308,51.474356]}},
{"type":"Feature","properties":{"URN":100691,"Local Authority name":"Lewisham","Establisment name":"Kender Primary School","Easting":535468,"Northing":176916,"Type of Establishment":"Community School","Phase of education":"Primary","NO2ug/m3 mean 2013":45.1,"Above limit":"Yes","Parliamentary Constituences":"Lewisham, Deptford","Establishment Status":"Open","Close Date":null,"in_cw":false,"whole_in_zone":true},"geometry":{"type":"Point","coordinates":[-0.050776,51.474995]}},
{"type":"Feature","properties":{"URN":133166,"Local Authority name":"Southwark","Establisment name":"Camberwell College of Arts","Easting":533393,"Northing":176757,"Type of Establishment":"Miscellaneous","Phase of education":"Not applicable","NO2ug/m3 mean 2013":45,"Above limit":"Yes","Parliamentary Constituences":"Camberwell and Peckham","Establishment Status":"Open","Close Date":null,"in_cw":false,"whole_in_zone":true},"geometry":{"type":"Point","coordinates":[-0.080695,51.474059]}},
{"type":"Feature","properties":{"URN":139423,"Local Authority name":"Tower Hamlets","Establisment name":"Our Lady and St Joseph Catholic Primary School","Easting":537507,"Northing":180862,"Type of Establishment":"Voluntary Aided School","Phase of education":"Primary","NO2ug/m3 mean 2013":45,"Above limit":"Yes","Parliamentary Constituences":"Poplar and Limehouse","Establishment Status":"Open","Close Date":null,"in_cw":true,"whole_in_zone":true},"geometry":{"type":"Point","coordinates":[-0.019898,51.509963]}},
{"type":"Feature","properties":{"URN":100940,"Local Authority name":"Tower Hamlets","Establisment name":"Kobi Nazrul Primary School","Easting":534367,"Northing":181447,"Type of Establishment":"Community School","Phase of education":"Primary","NO2ug/m3 mean 2013":44.9,"Above limit":"Yes","Parliamentary Constituences":"Bethnal Green and Bow","Establishment Status":"Open","Close Date":null,"in_cw":false,"whole_in_zone":true},"geometry":{"type":"Point","coordinates":[-0.064895,51.515975]}},
{"type":"Feature","properties":{"URN":100821,"Local Authority name":"Southwark","Establisment name":"Oliver Goldsmith Primary School","Easting":533566,"Northing":176849,"Type of Establishment":"Community School","Phase of education":"Primary","NO2ug/m3 mean 2013":44.9,"Above limit":"Yes","Parliamentary Constituences":"Camberwell and Peckham","Establishment Status":"Open","Close Date":null,"in_cw":false,"whole_in_zone":true},"geometry":{"type":"Point","coordinates":[-0.078171,51.474845]}},
{"type":"Feature","properties":{"URN":136129,"Local Authority name":"Tower Hamlets","Establisment name":"Ebrahim Academy","Easting":534350,"Northing":181496,"Type of Establishment":"Other Independent School","Phase of education":"Not applicable","NO2ug/m3 mean 2013":44.7,"Above limit":"Yes","Parliamentary Constituences":"Bethnal Green and Bow","Establishment Status":"Open","Close Date":null,"in_cw":false,"whole_in_zone":true},"geometry":{"type":"Point","coordinates":[-0.065121,51.516419]}},
{"type":"Feature","properties":{"URN":100770,"Local Authority name":"Southwark","Establisment name":"Nell Gwynn Nursery School","Easting":534515,"Northing":176877,"Type of Establishment":"LA Nursery School","Phase of education":"Nursery","NO2ug/m3 mean 2013":44.4,"Above limit":"Yes","Parliamentary Constituences":"Camberwell and Peckham","Establishment Status":"Open","Close Date":null,"in_cw":false,"whole_in_zone":true},"geometry":{"type":"Point","coordinates":[-0.064504,51.474872]}},
{"type":"Feature","properties":{"URN":131936,"Local Authority name":"Tower Hamlets","Establisment name":"St Mary and St Michael Primary School","Easting":535206,"Northing":181217,"Type of Establishment":"Voluntary Aided School","Phase of education":"Primary","NO2ug/m3 mean 2013":44.3,"Above limit":"Yes","Parliamentary Constituences":"Poplar and Limehouse","Establishment Status":"Open","Close Date":null,"in_cw":false,"whole_in_zone":true},"geometry":{"type":"Point","coordinates":[-0.052899,51.513708]}},
{"type":"Feature","properties":{"URN":141031,"Local Authority name":"Southwark","Establisment name":"Treasure House London Cic","Easting":534648,"Northing":177671,"Type of Establishment":"Other Independent Special School","Phase of education":"Not applicable","NO2ug/m3 mean 2013":44.3,"Above limit":"Yes","Parliamentary Constituences":"Camberwell and Peckham","Establishment Status":"Open","Close Date":null,"in_cw":false,"whole_in_zone":true},"geometry":{"type":"Point","coordinates":[-0.062288,51.481975]}},
{"type":"Feature","properties":{"URN":136250,"Local Authority name":"Tower Hamlets","Establisment name":"The Pier Head Preparatory Montessori School","Easting":535460,"Northing":180620,"Type of Establishment":"Other Independent School","Phase of education":"Not applicable","NO2ug/m3 mean 2013":44.3,"Above limit":"Yes","Parliamentary Constituences":"Poplar and Limehouse","Establishment Status":"Open","Close Date":null,"in_cw":false,"whole_in_zone":true},"geometry":{"type":"Point","coordinates":[-0.04947,51.508282]}},
{"type":"Feature","properties":{"URN":138276,"Local Authority name":"Tower Hamlets","Establisment name":"Solebay Primary - A Paradigm Academy","Easting":536202,"Northing":182242,"Type of Establishment":"Free Schools","Phase of education":"Primary","NO2ug/m3 mean 2013":44.2,"Above limit":"Yes","Parliamentary Constituences":"Bethnal Green and Bow","Establishment Status":"Open","Close Date":null,"in_cw":false,"whole_in_zone":true},"geometry":{"type":"Point","coordinates":[-0.038158,51.52268]}},
{"type":"Feature","properties":{"URN":100748,"Local Authority name":"Lewisham","Establisment name":"Addey and Stanhope School","Easting":537032,"Northing":176920,"Type of Establishment":"Voluntary Aided School","Phase of education":"Secondary","NO2ug/m3 mean 2013":44.2,"Above limit":"Yes","Parliamentary Constituences":"Lewisham, Deptford","Establishment Status":"Open","Close Date":null,"in_cw":false,"whole_in_zone":true},"geometry":{"type":"Point","coordinates":[-0.028269,51.474654]}},
{"type":"Feature","properties":{"URN":100824,"Local Authority name":"Southwark","Establisment name":"English Martyrs Roman Catholic Primary School","Easting":532857,"Northing":178548,"Type of Establishment":"Voluntary Aided School","Phase of education":"Primary","NO2ug/m3 mean 2013":44.1,"Above limit":"Yes","Parliamentary Constituences":"Bermondsey and Old Southwark","Establishment Status":"Open","Close Date":null,"in_cw":false,"whole_in_zone":true},"geometry":{"type":"Point","coordinates":[-0.087735,51.49028]}},
{"type":"Feature","properties":{"URN":100097,"Local Authority name":"Greenwich","Establisment name":"Rachel McMillan Nursery School and Children's Centre","Easting":537362,"Northing":177674,"Type of Establishment":"LA Nursery School","Phase of education":"Nursery","NO2ug/m3 mean 2013":44,"Above limit":"Yes","Parliamentary Constituences":"Greenwich and Woolwich","Establishment Status":"Open","Close Date":null,"in_cw":false,"whole_in_zone":true},"geometry":{"type":"Point","coordinates":[-0.023227,51.48135]}},
{"type":"Feature","properties":{"URN":100811,"Local Authority name":"Southwark","Establisment name":"Snowsfields Primary School","Easting":533094,"Northing":179804,"Type of Establishment":"Community School","Phase of education":"Primary","NO2ug/m3 mean 2013":43.9,"Above limit":"Yes","Parliamentary Constituences":"Bermondsey and Old Southwark","Establishment Status":"Open","Close Date":null,"in_cw":false,"whole_in_zone":true},"geometry":{"type":"Point","coordinates":[-0.08385,51.501511]}},
{"type":"Feature","properties":{"URN":137682,"Local Authority name":"Tower Hamlets","Establisment name":"Sir William Burrough Primary School","Easting":536504,"Northing":181262,"Type of Establishment":"Academy Converter","Phase of education":"Primary","NO2ug/m3 mean 2013":43.8,"Above limit":"Yes","Parliamentary Constituences":"Poplar and Limehouse","Establishment Status":"Open","Close Date":null,"in_cw":false,"whole_in_zone":true},"geometry":{"type":"Point","coordinates":[-0.034187,51.513801]}},
{"type":"Feature","properties":{"URN":133289,"Local Authority name":"Tower Hamlets","Establisment name":"Bishop Challoner Catholic Federations of Boys School","Easting":535454,"Northing":181196,"Type of Establishment":"Voluntary Aided School","Phase of education":"Secondary","NO2ug/m3 mean 2013":43.7,"Above limit":"Yes","Parliamentary Constituences":"Poplar and Limehouse","Establishment Status":"Open","Close Date":null,"in_cw":false,"whole_in_zone":true},"geometry":{"type":"Point","coordinates":[-0.049335,51.51346]}},
{"type":"Feature","properties":{"URN":100832,"Local Authority name":"Southwark","Establisment name":"St Joseph's Roman Catholic Primary School","Easting":534097,"Northing":179619,"Type of Establishment":"Voluntary Aided School","Phase of education":"Primary","NO2ug/m3 mean 2013":43.6,"Above limit":"Yes","Parliamentary Constituences":"Bermondsey and Old Southwark","Establishment Status":"Open","Close Date":null,"in_cw":false,"whole_in_zone":true},"geometry":{"type":"Point","coordinates":[-0.069479,51.499612]}},
{"type":"Feature","properties":{"URN":100978,"Local Authority name":"Tower Hamlets","Establisment name":"Bishop Challoner Catholic Federations of Girls School","Easting":535328,"Northing":181182,"Type of Establishment":"Voluntary Aided School","Phase of education":"Secondary","NO2ug/m3 mean 2013":43.6,"Above limit":"Yes","Parliamentary Constituences":"Poplar and Limehouse","Establishment Status":"Open","Close Date":null,"in_cw":false,"whole_in_zone":true},"geometry":{"type":"Point","coordinates":[-0.051155,51.513364]}},
{"type":"Feature","properties":{"URN":131343,"Local Authority name":"Hackney","Establisment name":"The Lyceum","Easting":533010,"Northing":182129,"Type of Establishment":"Other Independent School","Phase of education":"Not applicable","NO2ug/m3 mean 2013":43.5,"Above limit":"Yes","Parliamentary Constituences":"Hackney South and Shoreditch","Establishment Status":"Open","Close Date":null,"in_cw":false,"whole_in_zone":true},"geometry":{"type":"Point","coordinates":[-0.084183,51.522425]}},
{"type":"Feature","properties":{"URN":135584,"Local Authority name":"Southwark","Establisment name":"Ark Globe Academy","Easting":532629,"Northing":179134,"Type of Establishment":"Academy Sponsor Led","Phase of education":"All Through","NO2ug/m3 mean 2013":43.5,"Above limit":"Yes","Parliamentary Constituences":"Bermondsey and Old Southwark","Establishment Status":"Open","Close Date":null,"in_cw":false,"whole_in_zone":true},"geometry":{"type":"Point","coordinates":[-0.090798,51.495599]}},
{"type":"Feature","properties":{"URN":141562,"Local Authority name":"Southwark","Establisment name":"Bosco Centre College","Easting":534884,"Northing":179599,"Type of Establishment":"Other Independent School","Phase of education":"Not applicable","NO2ug/m3 mean 2013":43.4,"Above limit":"Yes","Parliamentary Constituences":"Bermondsey and Old Southwark","Establishment Status":"Open","Close Date":null,"in_cw":false,"whole_in_zone":true},"geometry":{"type":"Point","coordinates":[-0.058155,51.499245]}},
{"type":"Feature","properties":{"URN":100881,"Local Authority name":"Southwark","Establisment name":"Cherry Garden School","Easting":534329,"Northing":178851,"Type of Establishment":"Community Special School","Phase of education":"Not applicable","NO2ug/m3 mean 2013":43.4,"Above limit":"Yes","Parliamentary Constituences":"Bermondsey and Old Southwark","Establishment Status":"Open","Close Date":null,"in_cw":false,"whole_in_zone":true},"geometry":{"type":"Point","coordinates":[-0.066431,51.492655]}},
{"type":"Feature","properties":{"URN":135412,"Local Authority name":"City of London","Establisment name":"Guildhall School of Music and Drama","Easting":532448,"Northing":181789,"Type of Establishment":"Higher Education Institutions","Phase of education":"Not applicable","NO2ug/m3 mean 2013":43.3,"Above limit":"Yes","Parliamentary Constituences":"Cities of London and Westminster","Establishment Status":"Open","Close Date":null,"in_cw":false,"whole_in_zone":true},"geometry":{"type":"Point","coordinates":[-0.092407,51.519501]}},
{"type":"Feature","properties":{"URN":135315,"Local Authority name":"Southwark","Establisment name":"Ark Walworth Academy","Easting":533441,"Northing":178209,"Type of Establishment":"Academy Sponsor Led","Phase of education":"Secondary","NO2ug/m3 mean 2013":43.3,"Above limit":"Yes","Parliamentary Constituences":"Bermondsey and Old Southwark","Establishment Status":"Open","Close Date":null,"in_cw":false,"whole_in_zone":true},"geometry":{"type":"Point","coordinates":[-0.079457,51.487096]}},
{"type":"Feature","properties":{"URN":135901,"Local Authority name":"Lewisham","Establisment name":"Marathon Science School","Easting":536034,"Northing":178633,"Type of Establishment":"Other Independent School","Phase of education":"Not applicable","NO2ug/m3 mean 2013":43.2,"Above limit":"Yes","Parliamentary Constituences":"Lewisham, Deptford","Establishment Status":"Open","Close Date":null,"in_cw":false,"whole_in_zone":true},"geometry":{"type":"Point","coordinates":[-0.04197,51.490289]}},
{"type":"Feature","properties":{"URN":100911,"Local Authority name":"Tower Hamlets","Establisment name":"Marion Richardson Primary School","Easting":535682,"Northing":181244,"Type of Establishment":"Community School","Phase of education":"Primary","NO2ug/m3 mean 2013":42.9,"Above limit":"Yes","Parliamentary Constituences":"Bethnal Green and Bow","Establishment Status":"Open","Close Date":null,"in_cw":false,"whole_in_zone":true},"geometry":{"type":"Point","coordinates":[-0.046033,51.513837]}},
{"type":"Feature","properties":{"URN":100944,"Local Authority name":"Tower Hamlets","Establisment name":"Christ Church CofE School","Easting":533875,"Northing":181751,"Type of Establishment":"Voluntary Aided School","Phase of education":"Primary","NO2ug/m3 mean 2013":42.9,"Above limit":"Yes","Parliamentary Constituences":"Bethnal Green and Bow","Establishment Status":"Open","Close Date":null,"in_cw":false,"whole_in_zone":true},"geometry":{"type":"Point","coordinates":[-0.071866,51.518824]}},
{"type":"Feature","properties":{"URN":138263,"Local Authority name":"Southwark","Establisment name":"Southwark Free School","Easting":534614,"Northing":177589,"Type of Establishment":"Free Schools","Phase of education":"Primary","NO2ug/m3 mean 2013":42.9,"Above limit":"Yes","Parliamentary Constituences":"Camberwell and Peckham","Establishment Status":"Open","Close Date":null,"in_cw":false,"whole_in_zone":true},"geometry":{"type":"Point","coordinates":[-0.062809,51.481246]}},
{"type":"Feature","properties":{"URN":100767,"Local Authority name":"Southwark","Establisment name":"Kintore Way Nursery School and Children's Centre","Easting":533656,"Northing":179025,"Type of Establishment":"LA Nursery School","Phase of education":"Nursery","NO2ug/m3 mean 2013":42.8,"Above limit":"Yes","Parliamentary Constituences":"Bermondsey and Old Southwark","Establishment Status":"Open","Close Date":null,"in_cw":false,"whole_in_zone":true},"geometry":{"type":"Point","coordinates":[-0.076053,51.494378]}},
{"type":"Feature","properties":{"URN":130418,"Local Authority name":"Tower Hamlets","Establisment name":"Tower Hamlets College","Easting":537729,"Northing":180726,"Type of Establishment":"Further Education","Phase of education":"16 Plus","NO2ug/m3 mean 2013":42.8,"Above limit":"Yes","Parliamentary Constituences":"Poplar and Limehouse","Establishment Status":"Open","Close Date":null,"in_cw":true,"whole_in_zone":true},"geometry":{"type":"Point","coordinates":[-0.016754,51.508687]}},
{"type":"Feature","properties":{"URN":100939,"Local Authority name":"Tower Hamlets","Establisment name":"Bigland Green Primary School","Easting":534732,"Northing":181144,"Type of Establishment":"Community School","Phase of education":"Primary","NO2ug/m3 mean 2013":42.7,"Above limit":"Yes","Parliamentary Constituences":"Poplar and Limehouse","Establishment Status":"Open","Close Date":null,"in_cw":false,"whole_in_zone":true},"geometry":{"type":"Point","coordinates":[-0.059754,51.513165]}},
{"type":"Feature","properties":{"URN":100913,"Local Authority name":"Tower Hamlets","Establisment name":"Mayflower Primary School","Easting":537483,"Northing":181055,"Type of Establishment":"Community School","Phase of education":"Primary","NO2ug/m3 mean 2013":42.7,"Above limit":"Yes","Parliamentary Constituences":"Poplar and Limehouse","Establishment Status":"Open","Close Date":null,"in_cw":false,"whole_in_zone":true},"geometry":{"type":"Point","coordinates":[-0.020168,51.511703]}},
{"type":"Feature","properties":{"URN":100817,"Local Authority name":"Southwark","Establisment name":"Phoenix Primary School","Easting":534192,"Northing":178136,"Type of Establishment":"Community School","Phase of education":"Primary","NO2ug/m3 mean 2013":42.5,"Above limit":"Yes","Parliamentary Constituences":"Bermondsey and Old Southwark","Establishment Status":"Open","Close Date":null,"in_cw":false,"whole_in_zone":true},"geometry":{"type":"Point","coordinates":[-0.068674,51.486262]}},
{"type":"Feature","properties":{"URN":100810,"Local Authority name":"Southwark","Establisment name":"Rotherhithe Primary School","Easting":535484,"Northing":178762,"Type of Establishment":"Community School","Phase of education":"Primary","NO2ug/m3 mean 2013":42.5,"Above limit":"Yes","Parliamentary Constituences":"Bermondsey and Old Southwark","Establishment Status":"Open","Close Date":null,"in_cw":false,"whole_in_zone":true},"geometry":{"type":"Point","coordinates":[-0.049838,51.49158]}},
{"type":"Feature","properties":{"URN":131237,"Local Authority name":"Southwark","Establisment name":"Cavendish School","Easting":535379,"Northing":178763,"Type of Establishment":"Other Independent Special School","Phase of education":"Not applicable","NO2ug/m3 mean 2013":42.5,"Above limit":"Yes","Parliamentary Constituences":"Bermondsey and Old Southwark","Establishment Status":"Open","Close Date":null,"in_cw":false,"whole_in_zone":true},"geometry":{"type":"Point","coordinates":[-0.051349,51.491614]}},
{"type":"Feature","properties":{"URN":100137,"Local Authority name":"Greenwich","Establisment name":"Meridian Primary School","Easting":538861,"Northing":177987,"Type of Establishment":"Community School","Phase of education":"Primary","NO2ug/m3 mean 2013":42.4,"Above limit":"Yes","Parliamentary Constituences":"Greenwich and Woolwich","Establishment Status":"Open","Close Date":null,"in_cw":false,"whole_in_zone":true},"geometry":{"type":"Point","coordinates":[-0.001531,51.483797]}},
{"type":"Feature","properties":{"URN":100958,"Local Authority name":"Tower Hamlets","Establisment name":"St Paul with St Luke CofE Primary School","Easting":536879,"Northing":181745,"Type of Establishment":"Voluntary Aided School","Phase of education":"Primary","NO2ug/m3 mean 2013":42.2,"Above limit":"Yes","Parliamentary Constituences":"Poplar and Limehouse","Establishment Status":"Open","Close Date":null,"in_cw":false,"whole_in_zone":true},"geometry":{"type":"Point","coordinates":[-0.028599,51.51805]}},
{"type":"Feature","properties":{"URN":100822,"Local Authority name":"Southwark","Establisment name":"Boutcher Church of England Primary School","Easting":533647,"Northing":178966,"Type of Establishment":"Voluntary Aided School","Phase of education":"Primary","NO2ug/m3 mean 2013":42.1,"Above limit":"Yes","Parliamentary Constituences":"Bermondsey and Old Southwark","Establishment Status":"Open","Close Date":null,"in_cw":false,"whole_in_zone":true},"geometry":{"type":"Point","coordinates":[-0.076205,51.49385]}},
{"type":"Feature","properties":{"URN":134827,"Local Authority name":"Greenwich","Establisment name":"Bellerbys College London","Easting":537449,"Northing":177699,"Type of Establishment":"Other Independent School","Phase of education":"Not applicable","NO2ug/m3 mean 2013":42,"Above limit":"Yes","Parliamentary Constituences":"Greenwich and Woolwich","Establishment Status":"Open","Close Date":null,"in_cw":false,"whole_in_zone":true},"geometry":{"type":"Point","coordinates":[-0.021965,51.481553]}},
{"type":"Feature","properties":{"URN":136084,"Local Authority name":"Tower Hamlets","Establisment name":"Ayasofia Primary School","Easting":534898,"Northing":181701,"Type of Establishment":"Other Independent School","Phase of education":"Not applicable","NO2ug/m3 mean 2013":41.8,"Above limit":"Yes","Parliamentary Constituences":"Bethnal Green and Bow","Establishment Status":"Closed","Close Date":"2016-09-05","in_cw":false,"whole_in_zone":true},"geometry":{"type":"Point","coordinates":[-0.05715,51.518131]}},
{"type":"Feature","properties":{"URN":100795,"Local Authority name":"Southwark","Establisment name":"Ilderton Primary School","Easting":535190,"Northing":178023,"Type of Establishment":"Community School","Phase of education":"Primary","NO2ug/m3 mean 2013":41.8,"Above limit":"Yes","Parliamentary Constituences":"Camberwell and Peckham","Establishment Status":"Open","Close Date":null,"in_cw":false,"whole_in_zone":true},"geometry":{"type":"Point","coordinates":[-0.054353,51.485009]}},
{"type":"Feature","properties":{"URN":140221,"Local Authority name":"Southwark","Establisment name":"University Academy of Engineering South Bank","Easting":532760,"Northing":178326,"Type of Establishment":"Academy Sponsor Led","Phase of education":"Secondary","NO2ug/m3 mean 2013":41.7,"Above limit":"Yes","Parliamentary Constituences":"Camberwell and Peckham","Establishment Status":"Open","Close Date":null,"in_cw":false,"whole_in_zone":true},"geometry":{"type":"Point","coordinates":[-0.089215,51.488308]}},
{"type":"Feature","properties":{"URN":100169,"Local Authority name":"Greenwich","Establisment name":"St Joseph's Catholic Primary School","Easting":539329,"Northing":178289,"Type of Establishment":"Voluntary Aided School","Phase of education":"Primary","NO2ug/m3 mean 2013":41.7,"Above limit":"Yes","Parliamentary Constituences":"Greenwich and Woolwich","Establishment Status":"Open","Close Date":null,"in_cw":false,"whole_in_zone":true},"geometry":{"type":"Point","coordinates":[0.005324,51.486396]}},
{"type":"Feature","properties":{"URN":139601,"Local Authority name":"Tower Hamlets","Establisment name":"The Complete Works Independent School","Easting":533839,"Northing":182071,"Type of Establishment":"Other Independent School","Phase of education":"Not applicable","NO2ug/m3 mean 2013":41.6,"Above limit":"Yes","Parliamentary Constituences":"Bethnal Green and Bow","Establishment Status":"Open","Close Date":null,"in_cw":false,"whole_in_zone":true},"geometry":{"type":"Point","coordinates":[-0.072263,51.521708]}},
{"type":"Feature","properties":{"URN":100818,"Local Authority name":"Southwark","Establisment name":"Pilgrims' Way Primary School","Easting":535095,"Northing":177517,"Type of Establishment":"Community School","Phase of education":"Primary","NO2ug/m3 mean 2013":41.6,"Above limit":"Yes","Parliamentary Constituences":"Camberwell and Peckham","Establishment Status":"Open","Close Date":null,"in_cw":false,"whole_in_zone":true},"geometry":{"type":"Point","coordinates":[-0.055914,51.480485]}},
{"type":"Feature","properties":{"URN":100833,"Local Authority name":"Southwark","Establisment name":"St Joseph's Catholic Primary School Southwark","Easting":535330,"Northing":179141,"Type of Establishment":"Voluntary Aided School","Phase of education":"Primary","NO2ug/m3 mean 2013":41.6,"Above limit":"Yes","Parliamentary Constituences":"Bermondsey and Old Southwark","Establishment Status":"Open","Close Date":null,"in_cw":false,"whole_in_zone":true},"geometry":{"type":"Point","coordinates":[-0.051909,51.495023]}},
{"type":"Feature","properties":{"URN":100809,"Local Authority name":"Southwark","Establisment name":"Robert Browning Primary School","Easting":532525,"Northing":178379,"Type of Establishment":"Community School","Phase of education":"Primary","NO2ug/m3 mean 2013":41.5,"Above limit":"Yes","Parliamentary Constituences":"Bermondsey and Old Southwark","Establishment Status":"Open","Close Date":null,"in_cw":false,"whole_in_zone":true},"geometry":{"type":"Point","coordinates":[-0.092578,51.488839]}},
{"type":"Feature","properties":{"URN":100900,"Local Authority name":"Tower Hamlets","Establisment name":"Cyril Jackson Primary School","Easting":536813,"Northing":180888,"Type of Establishment":"Community School","Phase of education":"Primary","NO2ug/m3 mean 2013":41.4,"Above limit":"Yes","Parliamentary Constituences":"Poplar and Limehouse","Establishment Status":"Open","Close Date":null,"in_cw":false,"whole_in_zone":true},"geometry":{"type":"Point","coordinates":[-0.029882,51.510365]}},
{"type":"Feature","properties":{"URN":137441,"Local Authority name":"Lewisham","Establisment name":"Tidemill Academy","Easting":537350,"Northing":177243,"Type of Establishment":"Academy Converter","Phase of education":"Primary","NO2ug/m3 mean 2013":41.4,"Above limit":"Yes","Parliamentary Constituences":"Lewisham, Deptford","Establishment Status":"Open","Close Date":null,"in_cw":false,"whole_in_zone":true},"geometry":{"type":"Point","coordinates":[-0.023567,51.47748]}},
{"type":"Feature","properties":{"URN":100901,"Local Authority name":"Tower Hamlets","Establisment name":"The Clara Grant Primary School","Easting":537486,"Northing":182177,"Type of Establishment":"Community School","Phase of education":"Primary","NO2ug/m3 mean 2013":41.3,"Above limit":"Yes","Parliamentary Constituences":"Poplar and Limehouse","Establishment Status":"Open","Close Date":null,"in_cw":false,"whole_in_zone":true},"geometry":{"type":"Point","coordinates":[-0.019688,51.521785]}},
{"type":"Feature","properties":{"URN":131318,"Local Authority name":"Southwark","Establisment name":"Surrey Square Primary School","Easting":533192,"Northing":178386,"Type of Establishment":"Foundation School","Phase of education":"Primary","NO2ug/m3 mean 2013":41.2,"Above limit":"Yes","Parliamentary Constituences":"Bermondsey and Old Southwark","Establishment Status":"Open","Close Date":null,"in_cw":false,"whole_in_zone":true},"geometry":{"type":"Point","coordinates":[-0.082974,51.488745]}},
{"type":"Feature","properties":{"URN":131388,"Local Authority name":"Tower Hamlets","Establisment name":"Jamiatul Ummah School","Easting":534817,"Northing":181092,"Type of Establishment":"Other Independent School","Phase of education":"Not applicable","NO2ug/m3 mean 2013":41,"Above limit":"Yes","Parliamentary Constituences":"Poplar and Limehouse","Establishment Status":"Open","Close Date":null,"in_cw":false,"whole_in_zone":true},"geometry":{"type":"Point","coordinates":[-0.058549,51.512678]}},
{"type":"Feature","properties":{"URN":135260,"Local Authority name":"Southwark","Establisment name":"Southwark Inclusive Learning Service (Sils)","Easting":533743,"Northing":177638,"Type of Establishment":"Pupil Referral Unit","Phase of education":"Not applicable","NO2ug/m3 mean 2013":40.9,"Above limit":"Yes","Parliamentary Constituences":"Camberwell and Peckham","Establishment Status":"Open","Close Date":null,"in_cw":false,"whole_in_zone":true},"geometry":{"type":"Point","coordinates":[-0.075326,51.481893]}},
{"type":"Feature","properties":{"URN":100740,"Local Authority name":"Lewisham","Establisment name":"Deptford Green School","Easting":536445,"Northing":177315,"Type of Establishment":"Community School","Phase of education":"Secondary","NO2ug/m3 mean 2013":40.8,"Above limit":"Yes","Parliamentary Constituences":"Lewisham, Deptford","Establishment Status":"Open","Close Date":null,"in_cw":false,"whole_in_zone":true},"geometry":{"type":"Point","coordinates":[-0.036563,51.478346]}},
{"type":"Feature","properties":{"URN":100803,"Local Authority name":"Southwark","Establisment name":"Michael Faraday School","Easting":532828,"Northing":177988,"Type of Establishment":"Community School","Phase of education":"Primary","NO2ug/m3 mean 2013":40.7,"Above limit":"Yes","Parliamentary Constituences":"Camberwell and Peckham","Establishment Status":"Open","Close Date":null,"in_cw":false,"whole_in_zone":true},"geometry":{"type":"Point","coordinates":[-0.088363,51.485254]}},
{"type":"Feature","properties":{"URN":131747,"Local Authority name":"Southwark","Establisment name":"Harris Academy Bermondsey","Easting":534017,"Northing":178910,"Type of Establishment":"Academy Sponsor Led","Phase of education":"Secondary","NO2ug/m3 mean 2013":40.7,"Above limit":"Yes","Parliamentary Constituences":"Bermondsey and Old Southwark","Establishment Status":"Open","Close Date":null,"in_cw":false,"whole_in_zone":true},"geometry":{"type":"Point","coordinates":[-0.0709,51.493259]}},
{"type":"Feature","properties":{"URN":100678,"Local Authority name":"Lewisham","Establisment name":"Deptford Park Primary School","Easting":536327,"Northing":178410,"Type of Establishment":"Community School","Phase of education":"Primary","NO2ug/m3 mean 2013":40.6,"Above limit":"Yes","Parliamentary Constituences":"Lewisham, Deptford","Establishment Status":"Open","Close Date":null,"in_cw":false,"whole_in_zone":true},"geometry":{"type":"Point","coordinates":[-0.037838,51.488214]}},
{"type":"Feature","properties":{"URN":100934,"Local Authority name":"Tower Hamlets","Establisment name":"Osmani Primary School","Easting":534348,"Northing":182017,"Type of Establishment":"Community School","Phase of education":"Primary","NO2ug/m3 mean 2013":40.5,"Above limit":"Yes","Parliamentary Constituences":"Bethnal Green and Bow","Establishment Status":"Open","Close Date":null,"in_cw":false,"whole_in_zone":true},"geometry":{"type":"Point","coordinates":[-0.064951,51.521102]}},
{"type":"Feature","properties":{"URN":134222,"Local Authority name":"Southwark","Establisment name":"City of London Academy (Southwark)","Easting":534379,"Northing":178443,"Type of Establishment":"Academy Sponsor Led","Phase of education":"Secondary","NO2ug/m3 mean 2013":40.5,"Above limit":"Yes","Parliamentary Constituences":"Bermondsey and Old Southwark","Establishment Status":"Open","Close Date":null,"in_cw":false,"whole_in_zone":true},"geometry":{"type":"Point","coordinates":[-0.065866,51.488977]}},
{"type":"Feature","properties":{"URN":100930,"Local Authority name":"Tower Hamlets","Establisment name":"Thomas Buxton Primary School","Easting":534355,"Northing":182089,"Type of Establishment":"Community School","Phase of education":"Primary","NO2ug/m3 mean 2013":40.5,"Above limit":"Yes","Parliamentary Constituences":"Bethnal Green and Bow","Establishment Status":"Open","Close Date":null,"in_cw":false,"whole_in_zone":true},"geometry":{"type":"Point","coordinates":[-0.064823,51.521747]}},
{"type":"Feature","properties":{"URN":100873,"Local Authority name":"Southwark","Establisment name":"Spa School","Easting":534252,"Northing":178747,"Type of Establishment":"Community Special School","Phase of education":"Not applicable","NO2ug/m3 mean 2013":40.4,"Above limit":"Yes","Parliamentary Constituences":"Bermondsey and Old Southwark","Establishment Status":"Open","Close Date":null,"in_cw":false,"whole_in_zone":true},"geometry":{"type":"Point","coordinates":[-0.067579,51.491739]}},
{"type":"Feature","properties":{"URN":100174,"Local Authority name":"Greenwich","Establisment name":"St Alfege with St Peter's Church of England Primary School","Easting":538127,"Northing":177732,"Type of Establishment":"Voluntary Aided School","Phase of education":"Primary","NO2ug/m3 mean 2013":40.4,"Above limit":"Yes","Parliamentary Constituences":"Greenwich and Woolwich","Establishment Status":"Open","Close Date":null,"in_cw":false,"whole_in_zone":true},"geometry":{"type":"Point","coordinates":[-0.012195,51.481685]}},
{"type":"Feature","properties":{"URN":100685,"Local Authority name":"Lewisham","Establisment name":"Grinling Gibbons Primary School","Easting":536930,"Northing":177681,"Type of Establishment":"Community School","Phase of education":"Primary","NO2ug/m3 mean 2013":40.4,"Above limit":"Yes","Parliamentary Constituences":"Lewisham, Deptford","Establishment Status":"Open","Close Date":null,"in_cw":false,"whole_in_zone":true},"geometry":{"type":"Point","coordinates":[-0.029441,51.481517]}},
{"type":"Feature","properties":{"URN":132797,"Local Authority name":"Tower Hamlets","Establisment name":"London Islamic School","Easting":534943,"Northing":181482,"Type of Establishment":"Other Independent School","Phase of education":"Not applicable","NO2ug/m3 mean 2013":40.3,"Above limit":"Yes","Parliamentary Constituences":"Bethnal Green and Bow","Establishment Status":"Open","Close Date":null,"in_cw":false,"whole_in_zone":true},"geometry":{"type":"Point","coordinates":[-0.056585,51.516152]}},
{"type":"Feature","properties":{"URN":100667,"Local Authority name":"Lewisham","Establisment name":"Clyde Early Childhood Centre","Easting":536620,"Northing":177982,"Type of Establishment":"LA Nursery School","Phase of education":"Nursery","NO2ug/m3 mean 2013":40.3,"Above limit":"Yes","Parliamentary Constituences":"Lewisham, Deptford","Establishment Status":"Open","Close Date":null,"in_cw":false,"whole_in_zone":true},"geometry":{"type":"Point","coordinates":[-0.033786,51.484297]}},
{"type":"Feature","properties":{"URN":100827,"Local Authority name":"Southwark","Establisment name":"St George's Church of England Primary School","Easting":533123,"Northing":177455,"Type of Establishment":"Voluntary Aided School","Phase of education":"Primary","NO2ug/m3 mean 2013":40.2,"Above limit":"Yes","Parliamentary Constituences":"Camberwell and Peckham","Establishment Status":"Open","Close Date":null,"in_cw":false,"whole_in_zone":true},"geometry":{"type":"Point","coordinates":[-0.084318,51.480395]}},
{"type":"Feature","properties":{"URN":100837,"Local Authority name":"Southwark","Establisment name":"Peter Hills with St Mary's and St Paul's CofE Primary School","Easting":535947,"Northing":180402,"Type of Establishment":"Voluntary Aided School","Phase of education":"Primary","NO2ug/m3 mean 2013":40.2,"Above limit":"Yes","Parliamentary Constituences":"Bermondsey and Old Southwark","Establishment Status":"Open","Close Date":null,"in_cw":false,"whole_in_zone":true},"geometry":{"type":"Point","coordinates":[-0.042541,51.506206]}},
{"type":"Feature","properties":{"URN":100946,"Local Authority name":"Tower Hamlets","Establisment name":"The Stepney Greencoat Church of England Primary School","Easting":536632,"Northing":181305,"Type of Establishment":"Voluntary Aided School","Phase of education":"Primary","NO2ug/m3 mean 2013":40.2,"Above limit":"Yes","Parliamentary Constituences":"Poplar and Limehouse","Establishment Status":"Open","Close Date":null,"in_cw":false,"whole_in_zone":true},"geometry":{"type":"Point","coordinates":[-0.032327,51.514156]}},
{"type":"Feature","properties":{"URN":100808,"Local Authority name":"Southwark","Establisment name":"Riverside Primary School","Easting":534423,"Northing":179618,"Type of Establishment":"Community School","Phase of education":"Primary","NO2ug/m3 mean 2013":40.1,"Above limit":"Yes","Parliamentary Constituences":"Bermondsey and Old Southwark","Establishment Status":"Open","Close Date":null,"in_cw":false,"whole_in_zone":true},"geometry":{"type":"Point","coordinates":[-0.064785,51.499525]}},
{"type":"Feature","properties":{"URN":100675,"Local Authority name":"Lewisham","Establisment name":"Childeric Primary School","Easting":536358,"Northing":177160,"Type of Establishment":"Community School","Phase of education":"Primary","NO2ug/m3 mean 2013":40.1,"Above limit":"Yes","Parliamentary Constituences":"Lewisham, Deptford","Establishment Status":"Open","Close Date":null,"in_cw":false,"whole_in_zone":true},"geometry":{"type":"Point","coordinates":[-0.037875,51.476974]}},
{"type":"Feature","properties":{"URN":100169,"Local Authority name":"Lewisham","Establisment name":"St Joseph's Catholic Primary School","Easting":537224,"Northing":177395,"Type of Establishment":"Voluntary Aided School","Phase of education":"Primary","NO2ug/m3 mean 2013":40,"Above limit":"No","Parliamentary Constituences":"Greenwich and Woolwich","Establishment Status":"Open","Close Date":null,"in_cw":false,"whole_in_zone":true},"geometry":{"type":"Point","coordinates":[-0.025321,51.478876]}},
{"type":"Feature","properties":{"URN":100936,"Local Authority name":"Tower Hamlets","Establisment name":"Hermitage Primary School","Easting":534344,"Northing":180251,"Type of Establishment":"Community School","Phase of education":"Primary","NO2ug/m3 mean 2013":40,"Above limit":"No","Parliamentary Constituences":"Poplar and Limehouse","Establishment Status":"Open","Close Date":null,"in_cw":false,"whole_in_zone":true},"geometry":{"type":"Point","coordinates":[-0.065682,51.505233]}},
{"type":"Feature","properties":{"URN":100111,"Local Authority name":"Greenwich","Establisment name":"Millennium Primary School","Easting":539725,"Northing":179099,"Type of Establishment":"Community School","Phase of education":"Primary","NO2ug/m3 mean 2013":39.9,"Above limit":"No","Parliamentary Constituences":"Greenwich and Woolwich","Establishment Status":"Closed","Close Date":"2016-08-31","in_cw":false,"whole_in_zone":true},"geometry":{"type":"Point","coordinates":[0.011344,51.493577]}},
{"type":"Feature","properties":{"URN":100923,"Local Authority name":"Tower Hamlets","Establisment name":"Stewart Headlam Primary School","Easting":534719,"Northing":182243,"Type of Establishment":"Community School","Phase of education":"Primary","NO2ug/m3 mean 2013":39.8,"Above limit":"No","Parliamentary Constituences":"Bethnal Green and Bow","Establishment Status":"Open","Close Date":null,"in_cw":false,"whole_in_zone":true},"geometry":{"type":"Point","coordinates":[-0.059521,51.523044]}},
{"type":"Feature","properties":{"URN":100973,"Local Authority name":"Tower Hamlets","Establisment name":"Swanlea School","Easting":534690,"Northing":181987,"Type of Establishment":"Community School","Phase of education":"Secondary","NO2ug/m3 mean 2013":39.7,"Above limit":"No","Parliamentary Constituences":"Bethnal Green and Bow","Establishment Status":"Open","Close Date":null,"in_cw":false,"whole_in_zone":true},"geometry":{"type":"Point","coordinates":[-0.060036,51.520751]}},
{"type":"Feature","properties":{"URN":100917,"Local Authority name":"Tower Hamlets","Establisment name":"Redlands Primary School","Easting":535276,"Northing":181826,"Type of Establishment":"Community School","Phase of education":"Primary","NO2ug/m3 mean 2013":39.6,"Above limit":"No","Parliamentary Constituences":"Bethnal Green and Bow","Establishment Status":"Open","Close Date":null,"in_cw":false,"whole_in_zone":true},"geometry":{"type":"Point","coordinates":[-0.051657,51.519164]}},
{"type":"Feature","properties":{"URN":100768,"Local Authority name":"Southwark","Establisment name":"Sumner Nursery School","Easting":533573,"Northing":177117,"Type of Establishment":"LA Nursery School","Phase of education":"Nursery","NO2ug/m3 mean 2013":39.6,"Above limit":"No","Parliamentary Constituences":"Camberwell and Peckham","Establishment Status":"Open","Close Date":null,"in_cw":false,"whole_in_zone":true},"geometry":{"type":"Point","coordinates":[-0.077969,51.477251]}},
{"type":"Feature","properties":{"URN":131843,"Local Authority name":"Southwark","Establisment name":"Brunswick Park Primary School","Easting":532820,"Northing":177188,"Type of Establishment":"Community School","Phase of education":"Primary","NO2ug/m3 mean 2013":39.6,"Above limit":"No","Parliamentary Constituences":"Camberwell and Peckham","Establishment Status":"Open","Close Date":null,"in_cw":false,"whole_in_zone":true},"geometry":{"type":"Point","coordinates":[-0.088779,51.478067]}},
{"type":"Feature","properties":{"URN":100969,"Local Authority name":"Tower Hamlets","Establisment name":"Stepney Green Mathematics and Computing College","Easting":535898,"Northing":181752,"Type of Establishment":"Community School","Phase of education":"Secondary","NO2ug/m3 mean 2013":39.6,"Above limit":"No","Parliamentary Constituences":"Bethnal Green and Bow","Establishment Status":"Open","Close Date":null,"in_cw":false,"whole_in_zone":true},"geometry":{"type":"Point","coordinates":[-0.042726,51.51835]}},
{"type":"Feature","properties":{"URN":100970,"Local Authority name":"Tower Hamlets","Establisment name":"St Paul's Way Trust School","Easting":537149,"Northing":181815,"Type of Establishment":"Foundation School","Phase of education":"All Through","NO2ug/m3 mean 2013":39.5,"Above limit":"No","Parliamentary Constituences":"Poplar and Limehouse","Establishment Status":"Closed","Close Date":"2016-08-31","in_cw":false,"whole_in_zone":true},"geometry":{"type":"Point","coordinates":[-0.024683,51.518614]}},
{"type":"Feature","properties":{"URN":100826,"Local Authority name":"Southwark","Establisment name":"St Francis RC Primary School","Easting":534323,"Northing":177446,"Type of Establishment":"Voluntary Aided School","Phase of education":"Primary","NO2ug/m3 mean 2013":39.5,"Above limit":"No","Parliamentary Constituences":"Camberwell and Peckham","Establishment Status":"Open","Close Date":null,"in_cw":false,"whole_in_zone":true},"geometry":{"type":"Point","coordinates":[-0.067051,51.48003]}},
{"type":"Feature","properties":{"URN":100906,"Local Authority name":"Tower Hamlets","Establisment name":"John Scurr Primary School","Easting":535216,"Northing":182155,"Type of Establishment":"Community School","Phase of education":"Primary","NO2ug/m3 mean 2013":39.4,"Above limit":"No","Parliamentary Constituences":"Bethnal Green and Bow","Establishment Status":"Open","Close Date":null,"in_cw":false,"whole_in_zone":true},"geometry":{"type":"Point","coordinates":[-0.052395,51.522135]}},
{"type":"Feature","properties":{"URN":100629,"Local Authority name":"Tower Hamlets","Establisment name":"St Anne's Catholic Primary School","Easting":534143,"Northing":182018,"Type of Establishment":"Voluntary Aided School","Phase of education":"Primary","NO2ug/m3 mean 2013":39.3,"Above limit":"No","Parliamentary Constituences":"Vauxhall","Establishment Status":"Open","Close Date":null,"in_cw":false,"whole_in_zone":true},"geometry":{"type":"Point","coordinates":[-0.067904,51.521159]}},
{"type":"Feature","properties":{"URN":138961,"Local Authority name":"Southwark","Establisment name":"St Michael's Catholic College","Easting":534205,"Northing":179715,"Type of Establishment":"Academy Converter","Phase of education":"Secondary","NO2ug/m3 mean 2013":39.3,"Above limit":"No","Parliamentary Constituences":"Bermondsey and Old Southwark","Establishment Status":"Open","Close Date":null,"in_cw":false,"whole_in_zone":true},"geometry":{"type":"Point","coordinates":[-0.067887,51.500449]}},
{"type":"Feature","properties":{"URN":139587,"Local Authority name":"Southwark","Establisment name":"Compass School Southwark","Easting":534596,"Northing":179262,"Type of Establishment":"Free Schools","Phase of education":"Secondary","NO2ug/m3 mean 2013":39.3,"Above limit":"No","Parliamentary Constituences":"Bermondsey and Old Southwark","Establishment Status":"Open","Close Date":null,"in_cw":false,"whole_in_zone":true},"geometry":{"type":"Point","coordinates":[-0.06243,51.496285]}},
{"type":"Feature","properties":{"URN":100951,"Local Authority name":"Tower Hamlets","Establisment name":"St Edmund's Catholic School","Easting":537362,"Northing":178752,"Type of Establishment":"Voluntary Aided School","Phase of education":"Primary","NO2ug/m3 mean 2013":39.2,"Above limit":"No","Parliamentary Constituences":"Poplar and Limehouse","Establishment Status":"Open","Close Date":null,"in_cw":false,"whole_in_zone":true},"geometry":{"type":"Point","coordinates":[-0.022807,51.491037]}},
{"type":"Feature","properties":{"URN":100960,"Local Authority name":"Tower Hamlets","Establisment name":"St Peter's London Docks CofE Primary School","Easting":535063,"Northing":180371,"Type of Establishment":"Voluntary Aided School","Phase of education":"Primary","NO2ug/m3 mean 2013":39.1,"Above limit":"No","Parliamentary Constituences":"Poplar and Limehouse","Establishment Status":"Open","Close Date":null,"in_cw":false,"whole_in_zone":true},"geometry":{"type":"Point","coordinates":[-0.055282,51.50614]}},
{"type":"Feature","properties":{"URN":100941,"Local Authority name":"Tower Hamlets","Establisment name":"Smithy Street School","Easting":535263,"Northing":181775,"Type of Establishment":"Community School","Phase of education":"Primary","NO2ug/m3 mean 2013":39,"Above limit":"No","Parliamentary Constituences":"Bethnal Green and Bow","Establishment Status":"Open","Close Date":null,"in_cw":false,"whole_in_zone":true},"geometry":{"type":"Point","coordinates":[-0.051864,51.518709]}},
{"type":"Feature","properties":{"URN":134573,"Local Authority name":"Southwark","Establisment name":"The From Boyhood To Manhood Foundation","Easting":533243,"Northing":177445,"Type of Establishment":"Other Independent School","Phase of education":"Not applicable","NO2ug/m3 mean 2013":38.8,"Above limit":"No","Parliamentary Constituences":"Camberwell and Peckham","Establishment Status":"Open","Close Date":null,"in_cw":false,"whole_in_zone":true},"geometry":{"type":"Point","coordinates":[-0.082595,51.480277]}},
{"type":"Feature","properties":{"URN":100938,"Local Authority name":"Tower Hamlets","Establisment name":"Halley Primary School","Easting":536272,"Northing":181728,"Type of Establishment":"Community School","Phase of education":"Primary","NO2ug/m3 mean 2013":38.8,"Above limit":"No","Parliamentary Constituences":"Bethnal Green and Bow","Establishment Status":"Open","Close Date":null,"in_cw":false,"whole_in_zone":true},"geometry":{"type":"Point","coordinates":[-0.037349,51.518044]}},
{"type":"Feature","properties":{"URN":100771,"Local Authority name":"Southwark","Establisment name":"Grove Children & Family Centre","Easting":533239,"Northing":177431,"Type of Establishment":"LA Nursery School","Phase of education":"Nursery","NO2ug/m3 mean 2013":38.6,"Above limit":"No","Parliamentary Constituences":"Camberwell and Peckham","Establishment Status":"Open","Close Date":null,"in_cw":false,"whole_in_zone":true},"geometry":{"type":"Point","coordinates":[-0.082658,51.480152]}},
{"type":"Feature","properties":{"URN":100977,"Local Authority name":"Tower Hamlets","Establisment name":"Sir John Cass Foundation and Redcoat Church of England Secondary School","Easting":535821,"Northing":181528,"Type of Establishment":"Voluntary Aided School","Phase of education":"Secondary","NO2ug/m3 mean 2013":38.4,"Above limit":"No","Parliamentary Constituences":"Bethnal Green and Bow","Establishment Status":"Open","Close Date":null,"in_cw":false,"whole_in_zone":true},"geometry":{"type":"Point","coordinates":[-0.043922,51.516355]}},
{"type":"Feature","properties":{"URN":100904,"Local Authority name":"Tower Hamlets","Establisment name":"Harbinger Primary School","Easting":537560,"Northing":178580,"Type of Establishment":"Community School","Phase of education":"Primary","NO2ug/m3 mean 2013":38.4,"Above limit":"No","Parliamentary Constituences":"Poplar and Limehouse","Establishment Status":"Open","Close Date":null,"in_cw":false,"whole_in_zone":true},"geometry":{"type":"Point","coordinates":[-0.020024,51.489443]}},
{"type":"Feature","properties":{"URN":100782,"Local Authority name":"Southwark","Establisment name":"Cobourg Primary School","Easting":533624,"Northing":177958,"Type of Establishment":"Community School","Phase of education":"Primary","NO2ug/m3 mean 2013":38.3,"Above limit":"No","Parliamentary Constituences":"Bermondsey and Old Southwark","Establishment Status":"Open","Close Date":null,"in_cw":false,"whole_in_zone":true},"geometry":{"type":"Point","coordinates":[-0.076917,51.484797]}},
{"type":"Feature","properties":{"URN":100780,"Local Authority name":"Southwark","Establisment name":"Camelot Primary School","Easting":534575,"Northing":177497,"Type of Establishment":"Community School","Phase of education":"Primary","NO2ug/m3 mean 2013":38.3,"Above limit":"No","Parliamentary Constituences":"Camberwell and Peckham","Establishment Status":"Open","Close Date":null,"in_cw":false,"whole_in_zone":true},"geometry":{"type":"Point","coordinates":[-0.063405,51.480429]}},
{"type":"Feature","properties":{"URN":100942,"Local Authority name":"Tower Hamlets","Establisment name":"Bygrove Primary School","Easting":537579,"Northing":181154,"Type of Establishment":"Community School","Phase of education":"Primary","NO2ug/m3 mean 2013":38.3,"Above limit":"No","Parliamentary Constituences":"Poplar and Limehouse","Establishment Status":"Open","Close Date":null,"in_cw":false,"whole_in_zone":true},"geometry":{"type":"Point","coordinates":[-0.018747,51.51257]}},
{"type":"Feature","properties":{"URN":100922,"Local Authority name":"Tower Hamlets","Establisment name":"Stebon Primary School","Easting":537074,"Northing":181611,"Type of Establishment":"Community School","Phase of education":"Primary","NO2ug/m3 mean 2013":38.2,"Above limit":"No","Parliamentary Constituences":"Poplar and Limehouse","Establishment Status":"Open","Close Date":null,"in_cw":false,"whole_in_zone":true},"geometry":{"type":"Point","coordinates":[-0.025842,51.516799]}},
{"type":"Feature","properties":{"URN":131246,"Local Authority name":"Greenwich","Establisment name":"James Wolfe Primary School and Centre for the Deaf","Easting":538073,"Northing":177440,"Type of Establishment":"Community School","Phase of education":"Primary","NO2ug/m3 mean 2013":38.2,"Above limit":"No","Parliamentary Constituences":"Greenwich and Woolwich","Establishment Status":"Open","Close Date":null,"in_cw":false,"whole_in_zone":true},"geometry":{"type":"Point","coordinates":[-0.013086,51.479074]}},
{"type":"Feature","properties":{"URN":100102,"Local Authority name":"Greenwich","Establisment name":"Robert Owen Early Years Centre","Easting":539393,"Northing":178453,"Type of Establishment":"LA Nursery School","Phase of education":"Nursery","NO2ug/m3 mean 2013":38.2,"Above limit":"No","Parliamentary Constituences":"Greenwich and Woolwich","Establishment Status":"Open","Close Date":null,"in_cw":false,"whole_in_zone":true},"geometry":{"type":"Point","coordinates":[0.00631,51.487854]}},
{"type":"Feature","properties":{"URN":100885,"Local Authority name":"Tower Hamlets","Establisment name":"Old Church Nursery School","Easting":535782,"Northing":181478,"Type of Establishment":"LA Nursery School","Phase of education":"Nursery","NO2ug/m3 mean 2013":38.1,"Above limit":"No","Parliamentary Constituences":"Bethnal Green and Bow","Establishment Status":"Open","Close Date":null,"in_cw":false,"whole_in_zone":true},"geometry":{"type":"Point","coordinates":[-0.044503,51.515915]}},
{"type":"Feature","properties":{"URN":100165,"Local Authority name":"Greenwich","Establisment name":"Christ Church Church of England Primary School","Easting":539398,"Northing":178485,"Type of Establishment":"Voluntary Aided School","Phase of education":"Primary","NO2ug/m3 mean 2013":38.1,"Above limit":"No","Parliamentary Constituences":"Greenwich and Woolwich","Establishment Status":"Open","Close Date":null,"in_cw":false,"whole_in_zone":true},"geometry":{"type":"Point","coordinates":[0.006394,51.48814]}},
{"type":"Feature","properties":{"URN":100894,"Local Authority name":"Tower Hamlets","Establisment name":"Cayley Primary School","Easting":536206,"Northing":181504,"Type of Establishment":"Community School","Phase of education":"Primary","NO2ug/m3 mean 2013":38,"Above limit":"No","Parliamentary Constituences":"Bethnal Green and Bow","Establishment Status":"Open","Close Date":null,"in_cw":false,"whole_in_zone":true},"geometry":{"type":"Point","coordinates":[-0.038386,51.516047]}},
{"type":"Feature","properties":{"URN":141666,"Local Authority name":"Southwark","Establisment name":"Angel Oak Academy","Easting":533488,"Northing":177465,"Type of Establishment":"Academy Sponsor Led","Phase of education":"Primary","NO2ug/m3 mean 2013":38,"Above limit":"No","Parliamentary Constituences":"Camberwell and Peckham","Establishment Status":"Open","Close Date":null,"in_cw":false,"whole_in_zone":true},"geometry":{"type":"Point","coordinates":[-0.079061,51.480399]}},
{"type":"Feature","properties":{"URN":100961,"Local Authority name":"Tower Hamlets","Establisment name":"St Saviour's Church of England Primary School Tower Hamlets","Easting":537666,"Northing":181580,"Type of Establishment":"Voluntary Aided School","Phase of education":"Primary","NO2ug/m3 mean 2013":38,"Above limit":"No","Parliamentary Constituences":"Poplar and Limehouse","Establishment Status":"Open","Close Date":null,"in_cw":false,"whole_in_zone":true},"geometry":{"type":"Point","coordinates":[-0.017328,51.516377]}},
{"type":"Feature","properties":{"URN":100966,"Local Authority name":"Tower Hamlets","Establisment name":"Langdon Park Community School","Easting":538021,"Northing":181467,"Type of Establishment":"Community School","Phase of education":"Secondary","NO2ug/m3 mean 2013":38,"Above limit":"No","Parliamentary Constituences":"Poplar and Limehouse","Establishment Status":"Open","Close Date":null,"in_cw":false,"whole_in_zone":true},"geometry":{"type":"Point","coordinates":[-0.012259,51.515275]}},
{"type":"Feature","properties":{"URN":100878,"Local Authority name":"Southwark","Establisment name":"Haymerle School","Easting":534130,"Northing":177566,"Type of Establishment":"Community Special School","Phase of education":"Not applicable","NO2ug/m3 mean 2013":37.9,"Above limit":"No","Parliamentary Constituences":"Camberwell and Peckham","Establishment Status":"Open","Close Date":null,"in_cw":false,"whole_in_zone":true},"geometry":{"type":"Point","coordinates":[-0.069783,51.481155]}},
{"type":"Feature","properties":{"URN":100954,"Local Authority name":"Tower Hamlets","Establisment name":"St Luke's Church of England Primary School Tower Hamlets","Easting":538579,"Northing":178697,"Type of Establishment":"Voluntary Aided School","Phase of education":"Primary","NO2ug/m3 mean 2013":37.9,"Above limit":"No","Parliamentary Constituences":"Poplar and Limehouse","Establishment Status":"Open","Close Date":null,"in_cw":false,"whole_in_zone":true},"geometry":{"type":"Point","coordinates":[-0.005311,51.490246]}},
{"type":"Feature","properties":{"URN":100898,"Local Authority name":"Tower Hamlets","Establisment name":"Cubitt Town Junior School","Easting":538254,"Northing":179195,"Type of Establishment":"Community School","Phase of education":"Primary","NO2ug/m3 mean 2013":37.8,"Above limit":"No","Parliamentary Constituences":"Poplar and Limehouse","Establishment Status":"Open","Close Date":null,"in_cw":false,"whole_in_zone":true},"geometry":{"type":"Point","coordinates":[-0.009794,51.494801]}},
{"type":"Feature","properties":{"URN":100932,"Local Authority name":"Tower Hamlets","Establisment name":"Cubitt Town Infants' School","Easting":538254,"Northing":179195,"Type of Establishment":"Community School","Phase of education":"Primary","NO2ug/m3 mean 2013":37.8,"Above limit":"No","Parliamentary Constituences":"Poplar and Limehouse","Establishment Status":"Open","Close Date":null,"in_cw":false,"whole_in_zone":true},"geometry":{"type":"Point","coordinates":[-0.009794,51.494801]}},
{"type":"Feature","properties":{"URN":130352,"Local Authority name":"Tower Hamlets","Establisment name":"Arnhem Wharf Primary School","Easting":537091,"Northing":179221,"Type of Establishment":"Community School","Phase of education":"Primary","NO2ug/m3 mean 2013":37.8,"Above limit":"No","Parliamentary Constituences":"Poplar and Limehouse","Establishment Status":"Open","Close Date":null,"in_cw":false,"whole_in_zone":true},"geometry":{"type":"Point","coordinates":[-0.026526,51.495317]}},
{"type":"Feature","properties":{"URN":100920,"Local Authority name":"Tower Hamlets","Establisment name":"Manorfield Primary School","Easting":537943,"Northing":181797,"Type of Establishment":"Community School","Phase of education":"Primary","NO2ug/m3 mean 2013":37.8,"Above limit":"No","Parliamentary Constituences":"Poplar and Limehouse","Establishment Status":"Open","Close Date":null,"in_cw":false,"whole_in_zone":true},"geometry":{"type":"Point","coordinates":[-0.013253,51.518259]}},
{"type":"Feature","properties":{"URN":100880,"Local Authority name":"Southwark","Establisment name":"Tuke School","Easting":533550,"Northing":177449,"Type of Establishment":"Community Special School","Phase of education":"Not applicable","NO2ug/m3 mean 2013":37.7,"Above limit":"No","Parliamentary Constituences":"Camberwell and Peckham","Establishment Status":"Open","Close Date":null,"in_cw":false,"whole_in_zone":true},"geometry":{"type":"Point","coordinates":[-0.078175,51.48024]}},
{"type":"Feature","properties":{"URN":102766,"Local Authority name":"Newham","Establisment name":"St Luke's Primary School","Easting":539835,"Northing":181317,"Type of Establishment":"Voluntary Aided School","Phase of education":"Primary","NO2ug/m3 mean 2013":37.7,"Above limit":"No","Parliamentary Constituences":"West Ham","Establishment Status":"Open","Close Date":null,"in_cw":false,"whole_in_zone":true},"geometry":{"type":"Point","coordinates":[0.013807,51.513481]}},
{"type":"Feature","properties":{"URN":100888,"Local Authority name":"Tower Hamlets","Establisment name":"Harry Roberts Nursery School","Easting":536179,"Northing":182059,"Type of Establishment":"LA Nursery School","Phase of education":"Nursery","NO2ug/m3 mean 2013":37.6,"Above limit":"No","Parliamentary Constituences":"Bethnal Green and Bow","Establishment Status":"Open","Close Date":null,"in_cw":false,"whole_in_zone":true},"geometry":{"type":"Point","coordinates":[-0.03856,51.521041]}},
{"type":"Feature","properties":{"URN":100890,"Local Authority name":"Tower Hamlets","Establisment name":"Ben Jonson Primary School","Easting":536179,"Northing":182059,"Type of Establishment":"Community School","Phase of education":"Primary","NO2ug/m3 mean 2013":37.6,"Above limit":"No","Parliamentary Constituences":"Bethnal Green and Bow","Establishment Status":"Open","Close Date":null,"in_cw":false,"whole_in_zone":true},"geometry":{"type":"Point","coordinates":[-0.03856,51.521041]}},
{"type":"Feature","properties":{"URN":137413,"Local Authority name":"Southwark","Establisment name":"Harris Primary Academy Peckham Park","Easting":534433,"Northing":177091,"Type of Establishment":"Academy Converter","Phase of education":"Primary","NO2ug/m3 mean 2013":37.6,"Above limit":"No","Parliamentary Constituences":"Camberwell and Peckham","Establishment Status":"Open","Close Date":null,"in_cw":false,"whole_in_zone":true},"geometry":{"type":"Point","coordinates":[-0.065603,51.476814]}},
{"type":"Feature","properties":{"URN":100812,"Local Authority name":"Southwark","Establisment name":"Southwark Park School","Easting":534910,"Northing":179032,"Type of Establishment":"Community School","Phase of education":"Primary","NO2ug/m3 mean 2013":37.6,"Above limit":"No","Parliamentary Constituences":"Bermondsey and Old Southwark","Establishment Status":"Open","Close Date":null,"in_cw":false,"whole_in_zone":true},"geometry":{"type":"Point","coordinates":[-0.057997,51.494143]}},
{"type":"Feature","properties":{"URN":100974,"Local Authority name":"Tower Hamlets","Establisment name":"George Green's School","Easting":538426,"Northing":178457,"Type of Establishment":"Voluntary Controlled School","Phase of education":"Secondary","NO2ug/m3 mean 2013":37.4,"Above limit":"No","Parliamentary Constituences":"Poplar and Limehouse","Establishment Status":"Open","Close Date":null,"in_cw":false,"whole_in_zone":true},"geometry":{"type":"Point","coordinates":[-0.007607,51.488127]}},
{"type":"Feature","properties":{"URN":100931,"Local Authority name":"Tower Hamlets","Establisment name":"Seven Mills Primary School","Easting":537259,"Northing":179545,"Type of Establishment":"Community School","Phase of education":"Primary","NO2ug/m3 mean 2013":37.2,"Above limit":"No","Parliamentary Constituences":"Poplar and Limehouse","Establishment Status":"Open","Close Date":null,"in_cw":true,"whole_in_zone":true},"geometry":{"type":"Point","coordinates":[-0.023982,51.498188]}},
{"type":"Feature","properties":{"URN":100819,"Local Authority name":"Southwark","Establisment name":"Alfred Salter Primary School","Easting":535897,"Northing":179666,"Type of Establishment":"Community School","Phase of education":"Primary","NO2ug/m3 mean 2013":37.1,"Above limit":"No","Parliamentary Constituences":"Bermondsey and Old Southwark","Establishment Status":"Open","Close Date":null,"in_cw":false,"whole_in_zone":true},"geometry":{"type":"Point","coordinates":[-0.043544,51.499605]}},
{"type":"Feature","properties":{"URN":133875,"Local Authority name":"Greenwich","Establisment name":"Trinity Laban","Easting":537590,"Northing":177455,"Type of Establishment":"Higher Education Institutions","Phase of education":"Not applicable","NO2ug/m3 mean 2013":37.1,"Above limit":"No","Parliamentary Constituences":"Lewisham, Deptford","Establishment Status":"Open","Close Date":null,"in_cw":false,"whole_in_zone":true},"geometry":{"type":"Point","coordinates":[-0.020031,51.479326]}},
{"type":"Feature","properties":{"URN":100712,"Local Authority name":"Lewisham","Establisment name":"Sir Francis Drake Primary School","Easting":536041,"Northing":178131,"Type of Establishment":"Community School","Phase of education":"Primary","NO2ug/m3 mean 2013":37,"Above limit":"No","Parliamentary Constituences":"Lewisham, Deptford","Establishment Status":"Open","Close Date":null,"in_cw":false,"whole_in_zone":true},"geometry":{"type":"Point","coordinates":[-0.042063,51.485776]}},
{"type":"Feature","properties":{"URN":133574,"Local Authority name":"Tower Hamlets","Establisment name":"Lansbury Lawrence Primary School","Easting":537693,"Northing":181255,"Type of Establishment":"Community School","Phase of education":"Primary","NO2ug/m3 mean 2013":37,"Above limit":"No","Parliamentary Constituences":"Poplar and Limehouse","Establishment Status":"Open","Close Date":null,"in_cw":false,"whole_in_zone":true},"geometry":{"type":"Point","coordinates":[-0.017066,51.513449]}},
{"type":"Feature","properties":{"URN":100841,"Local Authority name":"Southwark","Establisment name":"St John's Roman Catholic Primary School","Easting":536038,"Northing":179747,"Type of Establishment":"Voluntary Aided School","Phase of education":"Primary","NO2ug/m3 mean 2013":36.5,"Above limit":"No","Parliamentary Constituences":"Bermondsey and Old Southwark","Establishment Status":"Open","Close Date":null,"in_cw":false,"whole_in_zone":true},"geometry":{"type":"Point","coordinates":[-0.041483,51.500299]}},
{"type":"Feature","properties":{"URN":102746,"Local Authority name":"Newham","Establisment name":"Star Primary School","Easting":539316,"Northing":182153,"Type of Establishment":"Community School","Phase of education":"Primary","NO2ug/m3 mean 2013":36.4,"Above limit":"No","Parliamentary Constituences":"West Ham","Establishment Status":"Open","Close Date":null,"in_cw":false,"whole_in_zone":true},"geometry":{"type":"Point","coordinates":[0.006663,51.521121]}},
{"type":"Feature","properties":{"URN":135989,"Local Authority name":"Tower Hamlets","Establisment name":"Faraday School","Easting":539499,"Northing":180747,"Type of Establishment":"Other Independent School","Phase of education":"Not applicable","NO2ug/m3 mean 2013":36.4,"Above limit":"No","Parliamentary Constituences":"Poplar and Limehouse","Establishment Status":"Open","Close Date":null,"in_cw":false,"whole_in_zone":true},"geometry":{"type":"Point","coordinates":[0.008742,51.508442]}},
{"type":"Feature","properties":{"URN":135401,"Local Authority name":"Southwark","Establisment name":"Bacon's College","Easting":536060,"Northing":179931,"Type of Establishment":"Academy Sponsor Led","Phase of education":"Secondary","NO2ug/m3 mean 2013":36.3,"Above limit":"No","Parliamentary Constituences":"Bermondsey and Old Southwark","Establishment Status":"Open","Close Date":null,"in_cw":false,"whole_in_zone":true},"geometry":{"type":"Point","coordinates":[-0.041095,51.501947]}},
{"type":"Feature","properties":{"URN":133447,"Local Authority name":"Lewisham","Establisment name":"Kings Kids Christian School","Easting":536339,"Northing":177564,"Type of Establishment":"Other Independent School","Phase of education":"Not applicable","NO2ug/m3 mean 2013":36.2,"Above limit":"No","Parliamentary Constituences":"Lewisham, Deptford","Establishment Status":"Open","Close Date":null,"in_cw":false,"whole_in_zone":true},"geometry":{"type":"Point","coordinates":[-0.037992,51.480609]}},
{"type":"Feature","properties":{"URN":137648,"Local Authority name":"Southwark","Establisment name":"Redriff Primary School","Easting":536369,"Northing":179935,"Type of Establishment":"Academy Converter","Phase of education":"Primary","NO2ug/m3 mean 2013":36.1,"Above limit":"No","Parliamentary Constituences":"Bermondsey and Old Southwark","Establishment Status":"Open","Close Date":null,"in_cw":false,"whole_in_zone":true},"geometry":{"type":"Point","coordinates":[-0.036645,51.501908]}},
{"type":"Feature","properties":{"URN":133797,"Local Authority name":"Greenwich","Establisment name":"Ravensbourne","Easting":539279,"Northing":179966,"Type of Establishment":"Higher Education Institutions","Phase of education":"Not applicable","NO2ug/m3 mean 2013":35.9,"Above limit":"No","Parliamentary Constituences":"Greenwich and Woolwich","Establishment Status":"Open","Close Date":null,"in_cw":false,"whole_in_zone":true},"geometry":{"type":"Point","coordinates":[0.005266,51.501478]}},
{"type":"Feature","properties":{"URN":137016,"Local Authority name":"Tower Hamlets","Establisment name":"Canary Wharf College","Easting":538006,"Northing":178555,"Type of Establishment":"Free Schools","Phase of education":"Primary","NO2ug/m3 mean 2013":35.9,"Above limit":"No","Parliamentary Constituences":"Poplar and Limehouse","Establishment Status":"Open","Close Date":null,"in_cw":false,"whole_in_zone":true},"geometry":{"type":"Point","coordinates":[-0.013614,51.48911]}},
{"type":"Feature","properties":{"URN":141039,"Local Authority name":"Tower Hamlets","Establisment name":"Canary Wharf College 2","Easting":538006,"Northing":178555,"Type of Establishment":"Free Schools","Phase of education":"Primary","NO2ug/m3 mean 2013":35.9,"Above limit":"No","Parliamentary Constituences":"Poplar and Limehouse","Establishment Status":"Open","Close Date":null,"in_cw":false,"whole_in_zone":true},"geometry":{"type":"Point","coordinates":[-0.013614,51.48911]}},
{"type":"Feature","properties":{"URN":138262,"Local Authority name":"Tower Hamlets","Establisment name":"City Gateway 14-19 Provision","Easting":537421,"Northing":179723,"Type of Establishment":"Free Schools - Alternative Provision","Phase of education":"Not applicable","NO2ug/m3 mean 2013":35.7,"Above limit":"No","Parliamentary Constituences":"Poplar and Limehouse","Establishment Status":"Open","Close Date":null,"in_cw":true,"whole_in_zone":true},"geometry":{"type":"Point","coordinates":[-0.02158,51.499748]}},
{"type":"Feature","properties":{"URN":100193,"Local Authority name":"Greenwich","Establisment name":"St Ursula's Convent School","Easting":538590,"Northing":177088,"Type of Establishment":"Voluntary Aided School","Phase of education":"Secondary","NO2ug/m3 mean 2013":35.6,"Above limit":"No","Parliamentary Constituences":"Greenwich and Woolwich","Establishment Status":"Open","Close Date":null,"in_cw":false,"whole_in_zone":true},"geometry":{"type":"Point","coordinates":[-0.005784,51.475785]}},
{"type":"Feature","properties":{"URN":100303,"Local Authority name":"Tower Hamlets","Establisment name":"River House Montessori School","Easting":537643,"Northing":179702,"Type of Establishment":"Other Independent School","Phase of education":"Not applicable","NO2ug/m3 mean 2013":35.4,"Above limit":"No","Parliamentary Constituences":"Poplar and Limehouse","Establishment Status":"Open","Close Date":null,"in_cw":true,"whole_in_zone":true},"geometry":{"type":"Point","coordinates":[-0.018392,51.499506]}},
{"type":"Feature","properties":{"URN":133876,"Local Authority name":"Greenwich","Establisment name":"University of Greenwich","Easting":538695,"Northing":178060,"Type of Establishment":"Higher Education Institutions","Phase of education":"Not applicable","NO2ug/m3 mean 2013":35.1,"Above limit":"No","Parliamentary Constituences":"Greenwich and Woolwich","Establishment Status":"Open","Close Date":null,"in_cw":false,"whole_in_zone":true},"geometry":{"type":"Point","coordinates":[-0.003891,51.484493]}},
{"type":"Feature","properties":{"URN":100192,"Local Authority name":"Greenwich","Establisment name":"The John Roan School","Easting":539473,"Northing":177429,"Type of Establishment":"Voluntary Controlled School","Phase of education":"Secondary","NO2ug/m3 mean 2013":33.7,"Above limit":"No","Parliamentary Constituences":"Greenwich and Woolwich","Establishment Status":"Open","Close Date":null,"in_cw":false,"whole_in_zone":true},"geometry":{"type":"Point","coordinates":[0.007057,51.478632]}},
{"type":"Feature","properties":{"URN":133086,"Local Authority name":"Greenwich","Establisment name":"Wildwood Montessori School","Easting":539835,"Northing":177566,"Type of Establishment":"Miscellaneous","Phase of education":"Not applicable","NO2ug/m3 mean 2013":33.5,"Above limit":"No","Parliamentary Constituences":"Greenwich and Woolwich","Establishment Status":"Open","Close Date":null,"in_cw":false,"whole_in_zone":true},"geometry":{"type":"Point","coordinates":[0.01232,51.479774]}}
]}
