{"type":"FeatureCollection","meta":{
 "source": "planning.data.gov.uk: Heritage at risk (heritage-at-risk)",
 "dataset": "heritage-at-risk",
 "page": "https://www.planning.data.gov.uk/dataset/heritage-at-risk",
 "typology": "geography",
 "phase": "beta",
 "api": "https://www.planning.data.gov.uk/entity.geojson?dataset=heritage-at-risk&geometry=<zone polygon WKT>&geometry_relation=intersects&limit=500&offset=<n>",
 "fetched": "2026-10-04",
 "licence": "Open Government Licence v3.0",
 "licence_url": "https://www.nationalarchives.gov.uk/doc/open-government-licence/version/3/",
 "attribution": "© Historic England 2026. Contains Ordnance Survey data © Crown copyright and database right 2026. The Historic England GIS Data contained in this material was obtained on [date]. The most publicly available up to date Historic England GIS Data can be obtained from [HistoricEngland.org.uk](https://historicengland.org.uk).",
 "why": "Heritage at Risk register entries",
 "zone": "the 3D model box, BNG E 532400-539900, N 176700-182300 (WGS84 -0.095, 51.474 to 0.015, 51.522)",
 "method": "walk-portals.mjs pdg harvest heritage-at-risk: the platform's spatial query (geometry intersects the zone box) in pages of 500; whole geometries kept (not cut), rounded to 6 decimals; in_zone, whole_in_zone, in_cw (Canary Wharf registry box -0.03, 51.498, -0.005, 51.51); fields kept as published except empty ones and fields matching /e-?mail|phone|tel(ephone)?$|^tel|contact|^fax|mobile|^owner_?name|person|officer|case_?officer|agent_?name|applicant/i",
 "counts": {
  "features": 58,
  "zone_count_at_walk": 58,
  "whole_in_zone": 53,
  "in_cw": 0,
  "pages": 1
 }
},
"features":[
{"type":"Feature","geometry":{"type":"MultiPolygon","coordinates":[[[[-0.096656,51.49091],[-0.096332,51.491025],[-0.096392,51.491079],[-0.096488,51.491226],[-0.096494,51.49124],[-0.096547,51.491312],[-0.096683,51.491253],[-0.097481,51.491059],[-0.097447,51.491006],[-0.09788,51.490898],[-0.09789,51.490905],[-0.097984,51.49088],[-0.097979,51.490872],[-0.098183,51.490818],[-0.098007,51.490453],[-0.097958,51.490466],[-0.097962,51.490472],[-0.097789,51.490521],[-0.097376,51.490634],[-0.097212,51.490686],[-0.097006,51.490354],[-0.096937,51.490247],[-0.097221,51.490181],[-0.097237,51.490196],[-0.097306,51.490177],[-0.097207,51.490035],[-0.096866,51.490121],[-0.09667,51.489824],[-0.096525,51.489599],[-0.096434,51.489473],[-0.096968,51.489306],[-0.09734,51.489176],[-0.097681,51.489032],[-0.097588,51.488969],[-0.097575,51.488976],[-0.097432,51.488868],[-0.097256,51.488914],[-0.0972,51.488836],[-0.097095,51.488707],[-0.096953,51.488503],[-0.09689,51.488425],[-0.096799,51.488297],[-0.096748,51.488316],[-0.096448,51.48839],[-0.096381,51.488286],[-0.096339,51.488296],[-0.09631,51.488251],[-0.096254,51.488265],[-0.096226,51.48822],[-0.096143,51.48824],[-0.096084,51.488137],[-0.096015,51.488157],[-0.09596,51.488092],[-0.095932,51.488065],[-0.095826,51.487933],[-0.095795,51.487884],[-0.096036,51.487808],[-0.09623,51.487757],[-0.096838,51.48759],[-0.096798,51.487526],[-0.09669,51.487337],[-0.096575,51.487128],[-0.096525,51.487033],[-0.096365,51.486717],[-0.09636,51.486716],[-0.096221,51.486445],[-0.095957,51.486539],[-0.095625,51.486654],[-0.095586,51.486596],[-0.095394,51.48666],[-0.095342,51.4866],[-0.095329,51.486604],[-0.095278,51.486544],[-0.095164,51.48651],[-0.095452,51.486431],[-0.095297,51.486218],[-0.095381,51.486217],[-0.095435,51.486198],[-0.095423,51.486182],[-0.095606,51.486122],[-0.095441,51.485873],[-0.095343,51.485823],[-0.095284,51.485666],[-0.095052,51.485703],[-0.095038,51.485669],[-0.095007,51.485674],[-0.094961,51.485565],[-0.094964,51.485564],[-0.094928,51.485472],[-0.094857,51.48548],[-0.094655,51.485513],[-0.094563,51.485526],[-0.094389,51.485554],[-0.09435,51.485446],[-0.094327,51.4854],[-0.09428,51.485409],[-0.094264,51.485346],[-0.094257,51.485335],[-0.094214,51.485226],[-0.094398,51.485198],[-0.094337,51.484997],[-0.094473,51.484977],[-0.094574,51.484964],[-0.094515,51.484854],[-0.093762,51.484977],[-0.093735,51.484757],[-0.093725,51.484604],[-0.093755,51.484424],[-0.093868,51.484194],[-0.094204,51.483637],[-0.094624,51.483705],[-0.094636,51.483627],[-0.094656,51.483514],[-0.094678,51.483515],[-0.094681,51.483495],[-0.094657,51.483494],[-0.094663,51.483464],[-0.094684,51.483463],[-0.094686,51.48343],[-0.094693,51.483408],[-0.094694,51.4834],[-0.09466,51.483185],[-0.094644,51.483115],[-0.094487,51.483122],[-0.094536,51.482901],[-0.094516,51.482416],[-0.094506,51.482386],[-0.094487,51.482302],[-0.093993,51.482325],[-0.093999,51.482401],[-0.094006,51.482457],[-0.093999,51.482457],[-0.094025,51.482639],[-0.093687,51.482657],[-0.093517,51.482686],[-0.093535,51.482845],[-0.093331,51.482863],[-0.093342,51.483021],[-0.093344,51.483041],[-0.093354,51.4831],[-0.093815,51.483066],[-0.093574,51.483494],[-0.093475,51.483722],[-0.093291,51.48405],[-0.093124,51.484291],[-0.092204,51.484109],[-0.091584,51.484056],[-0.091751,51.484351],[-0.092226,51.485053],[-0.093265,51.484764],[-0.093319,51.484919],[-0.093351,51.485028],[-0.093229,51.485063],[-0.09335,51.485223],[-0.093394,51.485272],[-0.093205,51.485328],[-0.093239,51.485376],[-0.093262,51.485405],[-0.09321,51.485421],[-0.09328,51.485507],[-0.093209,51.485532],[-0.093263,51.485597],[-0.093325,51.485577],[-0.093344,51.485601],[-0.093375,51.48559],[-0.09353,51.485777],[-0.093574,51.485833],[-0.093665,51.485802],[-0.09375,51.485937],[-0.093783,51.485996],[-0.093848,51.486104],[-0.093872,51.486163],[-0.093975,51.486125],[-0.094048,51.486188],[-0.094193,51.486371],[-0.094135,51.486389],[-0.094269,51.486566],[-0.093976,51.486671],[-0.094361,51.48717],[-0.094369,51.487178],[-0.094856,51.487784],[-0.094904,51.487871],[-0.094782,51.487898],[-0.094846,51.488003],[-0.095046,51.488157],[-0.095018,51.488166],[-0.095034,51.488183],[-0.09508,51.488239],[-0.095209,51.4884],[-0.094758,51.488589],[-0.094949,51.488888],[-0.095063,51.489084],[-0.095235,51.489391],[-0.095331,51.489555],[-0.095448,51.489762],[-0.095461,51.489781],[-0.095466,51.489792],[-0.095492,51.489831],[-0.095887,51.490379],[-0.095953,51.490483],[-0.096388,51.490308],[-0.096573,51.490485],[-0.096106,51.490667],[-0.096159,51.490719],[-0.096302,51.490875],[-0.096544,51.490789],[-0.096656,51.49091]]]]},"properties":{"entry-date":"2025-09-30","entity":7500375,"name":"Walworth Road, Walworth","dataset":"heritage-at-risk","typology":"geography","reference":"10127","prefix":"heritage-at-risk","organisation-entity":16,"quality":"authoritative","documentation-url":"https://historicengland.org.uk/listing/heritage-at-risk/search-register/list-entry/1644501","in_zone":true,"whole_in_zone":false,"in_cw":false}},
{"type":"Feature","geometry":{"type":"MultiPolygon","coordinates":[[[[-0.084122,51.512992],[-0.084268,51.513015],[-0.084294,51.512971],[-0.084142,51.512945],[-0.084122,51.512992]]]]},"properties":{"entry-date":"2021-05-27","entity":7500410,"name":"Roman wall in basement of 90 Gracechurch Street","dataset":"heritage-at-risk","typology":"geography","reference":"1002035","prefix":"heritage-at-risk","organisation-entity":16,"quality":"authoritative","documentation-url":"https://historicengland.org.uk/advice/heritage-at-risk/search-register/list-entry/36137","in_zone":true,"whole_in_zone":true,"in_cw":false}},
{"type":"Feature","geometry":{"type":"MultiPolygon","coordinates":[[[[-0.08448,51.516682],[-0.08447,51.516695],[-0.084465,51.51671],[-0.084623,51.516733],[-0.084626,51.516722],[-0.084626,51.51671],[-0.084622,51.516702],[-0.084611,51.516699],[-0.084481,51.51668],[-0.08448,51.516682]]]]},"properties":{"entry-date":"2021-12-01","entity":7500411,"name":"London Wall: section bounding All Hallows Churchyard","dataset":"heritage-at-risk","typology":"geography","reference":"1002067","prefix":"heritage-at-risk","organisation-entity":16,"quality":"authoritative","documentation-url":"https://historicengland.org.uk/advice/heritage-at-risk/search-register/list-entry/37739","in_zone":true,"whole_in_zone":true,"in_cw":false}},
{"type":"Feature","geometry":{"type":"MultiPolygon","coordinates":[[[[-0.08773,51.502741],[-0.087981,51.502774],[-0.088047,51.502553],[-0.087796,51.502523],[-0.08773,51.502741]]]]},"properties":{"entry-date":"2024-09-26","entity":7500529,"name":"Roman boat at New Guy's House, Bermondsey","dataset":"heritage-at-risk","typology":"geography","reference":"1001979","prefix":"heritage-at-risk","organisation-entity":16,"quality":"authoritative","documentation-url":"https://historicengland.org.uk/advice/heritage-at-risk/search-register/list-entry/40364","in_zone":true,"whole_in_zone":true,"in_cw":false}},
{"type":"Feature","geometry":{"type":"MultiPolygon","coordinates":[[[[0.019031,51.484588],[0.018896,51.484579],[0.01889,51.484579],[0.018887,51.484582],[0.018722,51.484569],[0.018473,51.484545],[0.018331,51.484536],[0.017924,51.484439],[0.017584,51.484361],[0.017433,51.48434],[0.017083,51.484287],[0.016652,51.484224],[0.016099,51.484139],[0.015971,51.484118],[0.015146,51.484044],[0.015139,51.484045],[0.015136,51.484049],[0.01509,51.484253],[0.014375,51.484135],[0.014349,51.484132],[0.014326,51.484125],[0.014314,51.484123],[0.014286,51.484121],[0.013733,51.48403],[0.012559,51.483834],[0.012254,51.483788],[0.011651,51.483691],[0.011323,51.483641],[0.011256,51.483628],[0.011115,51.483605],[0.01107,51.483596],[0.011047,51.483594],[0.010621,51.483534],[0.010027,51.483462],[0.009953,51.483454],[0.009866,51.48345],[0.009627,51.483426],[0.009525,51.483413],[0.009417,51.483398],[0.009421,51.483382],[0.009416,51.483377],[0.008811,51.483302],[0.008804,51.483303],[0.008801,51.483306],[0.008791,51.483336],[0.008716,51.48333],[0.008621,51.483319],[0.008615,51.483319],[0.008612,51.483321],[0.008472,51.483298],[0.008378,51.482986],[0.008422,51.482757],[0.008416,51.482657],[0.008396,51.482468],[0.008394,51.482466],[0.008266,51.482448],[0.007459,51.48231],[0.007461,51.482285],[0.007543,51.482128],[0.00757,51.482069],[0.007566,51.481967],[0.007563,51.481964],[0.007456,51.481914],[0.007296,51.481866],[0.007214,51.481846],[0.007127,51.481828],[0.006965,51.481784],[0.00689,51.481759],[0.00681,51.481739],[0.006725,51.481723],[0.006622,51.481692],[0.006484,51.481653],[0.006409,51.481621],[0.006334,51.481593],[0.006,51.481472],[0.005915,51.481443],[0.00587,51.481405],[0.005802,51.481317],[0.005755,51.481267],[0.00574,51.481247],[0.005698,51.481203],[0.005656,51.48117],[0.005635,51.481157],[0.005609,51.481144],[0.005601,51.481128],[0.005534,51.481107],[0.005612,51.480627],[0.006683,51.480687],[0.006687,51.480684],[0.006791,51.480387],[0.006811,51.480351],[0.006898,51.479979],[0.007273,51.479981],[0.00837,51.479951],[0.008508,51.479941],[0.008571,51.479919],[0.008909,51.479749],[0.009205,51.47958],[0.009567,51.479393],[0.00986,51.479255],[0.01042,51.47904],[0.010667,51.478956],[0.010903,51.478885],[0.011132,51.478827],[0.011347,51.478786],[0.011536,51.478759],[0.011767,51.478732],[0.011972,51.47871],[0.012314,51.478678],[0.012465,51.478676],[0.012535,51.47867],[0.012797,51.478675],[0.013014,51.478687],[0.014816,51.478762],[0.014999,51.478779],[0.01613,51.47894],[0.01627,51.478957],[0.016439,51.478968],[0.016605,51.478967],[0.017156,51.478955],[0.017455,51.478939],[0.017802,51.478914],[0.018102,51.478889],[0.018398,51.478858],[0.018531,51.478835],[0.018534,51.478832],[0.018534,51.478829],[0.018434,51.478627],[0.018429,51.478516],[0.018424,51.478512],[0.018418,51.478512],[0.018366,51.47852],[0.018356,51.478479],[0.018343,51.478453],[0.018502,51.478436],[0.018507,51.478433],[0.018506,51.478425],[0.018934,51.478386],[0.018938,51.478383],[0.018931,51.478343],[0.018928,51.478341],[0.018922,51.47834],[0.018823,51.478344],[0.018803,51.478331],[0.018801,51.478255],[0.018813,51.478242],[0.01881,51.478205],[0.018803,51.478202],[0.018792,51.478203],[0.018789,51.478162],[0.018747,51.477842],[0.018761,51.477796],[0.018787,51.47772],[0.018812,51.477677],[0.01885,51.477606],[0.018847,51.477522],[0.018836,51.477444],[0.019144,51.47741],[0.019148,51.477406],[0.019161,51.47737],[0.01918,51.477331],[0.019211,51.4773],[0.01925,51.47728],[0.019298,51.477268],[0.01933,51.477264],[0.019389,51.477266],[0.019447,51.477274],[0.019531,51.477282],[0.019536,51.477282],[0.01954,51.47728],[0.019541,51.477275],[0.019453,51.477105],[0.020496,51.476935],[0.020694,51.476913],[0.020745,51.477104],[0.020826,51.477377],[0.020828,51.477379],[0.021611,51.477726],[0.021623,51.477725],[0.021748,51.477617],[0.021921,51.477694],[0.021796,51.477803],[0.021795,51.477808],[0.021797,51.47781],[0.021992,51.477895],[0.022258,51.477971],[0.022344,51.478006],[0.022379,51.478023],[0.022335,51.478143],[0.022319,51.478192],[0.02228,51.47822],[0.022279,51.478223],[0.022263,51.478235],[0.021982,51.478517],[0.021923,51.478513],[0.021815,51.478494],[0.02121,51.478312],[0.021025,51.478261],[0.020902,51.478233],[0.020894,51.478234],[0.020891,51.478237],[0.020891,51.478239],[0.020959,51.478516],[0.020591,51.478499],[0.020585,51.478503],[0.020566,51.478588],[0.02019,51.478505],[0.020075,51.478481],[0.020068,51.478481],[0.020064,51.478484],[0.020064,51.478487],[0.020099,51.478628],[0.019958,51.478599],[0.019949,51.4786],[0.019946,51.478605],[0.01998,51.478739],[0.020024,51.478925],[0.020076,51.479225],[0.02008,51.479271],[0.019745,51.47932],[0.019555,51.479342],[0.019409,51.479356],[0.019403,51.479359],[0.019403,51.479363],[0.019407,51.479371],[0.019564,51.479857],[0.019603,51.479973],[0.019605,51.479975],[0.019613,51.479976],[0.019722,51.479965],[0.019905,51.479939],[0.01993,51.479939],[0.020189,51.479885],[0.020372,51.479849],[0.020416,51.480037],[0.020471,51.480262],[0.020496,51.480337],[0.020654,51.480948],[0.02069,51.481104],[0.020598,51.481203],[0.020556,51.481225],[0.020534,51.481234],[0.020507,51.481242],[0.020503,51.481246],[0.020529,51.481509],[0.020539,51.481839],[0.019913,51.481846],[0.01991,51.481848],[0.019909,51.481851],[0.019919,51.482416],[0.019913,51.482458],[0.019886,51.482558],[0.019839,51.482644],[0.019808,51.482693],[0.019777,51.482731],[0.019685,51.482833],[0.019584,51.482937],[0.019574,51.482946],[0.019565,51.482951],[0.019545,51.482954],[0.019429,51.482945],[0.019327,51.482939],[0.019113,51.482917],[0.019003,51.482914],[0.019005,51.482873],[0.019237,51.482873],[0.019243,51.482869],[0.019214,51.482602],[0.019197,51.482556],[0.019329,51.482554],[0.019333,51.482551],[0.019332,51.482393],[0.019377,51.482393],[0.019382,51.482391],[0.019384,51.482388],[0.019369,51.482131],[0.019373,51.482111],[0.019458,51.482109],[0.019462,51.482106],[0.019465,51.481719],[0.019464,51.481716],[0.019459,51.481713],[0.019444,51.48171],[0.019438,51.481711],[0.018902,51.481921],[0.018802,51.481949],[0.018682,51.481984],[0.018679,51.481986],[0.018634,51.482163],[0.018554,51.482566],[0.018466,51.482942],[0.018421,51.483369],[0.018373,51.483555],[0.018377,51.483558],[0.018768,51.48359],[0.018773,51.483586],[0.018819,51.48337],[0.018822,51.483362],[0.018838,51.483241],[0.019087,51.483256],[0.019091,51.483296],[0.019223,51.483507],[0.019252,51.483557],[0.019253,51.483628],[0.019257,51.483631],[0.019398,51.483643],[0.019344,51.483955],[0.019345,51.483958],[0.019351,51.483961],[0.019808,51.483987],[0.019803,51.484121],[0.01979,51.48421],[0.019769,51.484305],[0.019775,51.484309],[0.020001,51.484331],[0.019942,51.484403],[0.01974,51.48438],[0.019732,51.484381],[0.019672,51.48448],[0.019224,51.48442],[0.019,51.484392],[0.018995,51.484395],[0.018995,51.484398],[0.01902,51.484508],[0.019046,51.484531],[0.019031,51.484588]]]]},"properties":{"entry-date":"2021-12-01","entity":7500626,"name":"Westcombe Park, Greenwich","dataset":"heritage-at-risk","typology":"geography","reference":"9493","prefix":"heritage-at-risk","organisation-entity":16,"quality":"authoritative","documentation-url":"https://historicengland.org.uk/advice/heritage-at-risk/search-register/list-entry/3985","in_zone":true,"whole_in_zone":false,"in_cw":false}},
{"type":"Feature","geometry":{"type":"MultiPolygon","coordinates":[[[[-0.062931,51.518412],[-0.062837,51.518261],[-0.062733,51.518008],[-0.06268,51.517899],[-0.061917,51.518076],[-0.061894,51.518031],[-0.061809,51.517883],[-0.062244,51.517787],[-0.062222,51.517706],[-0.062218,51.517707],[-0.062214,51.517697],[-0.062172,51.517529],[-0.062123,51.517318],[-0.061305,51.517398],[-0.061223,51.517033],[-0.061213,51.516976],[-0.060873,51.517006],[-0.060775,51.51659],[-0.059847,51.516674],[-0.059799,51.516464],[-0.060192,51.516429],[-0.060145,51.51622],[-0.059134,51.516313],[-0.05927,51.516727],[-0.057801,51.516863],[-0.057787,51.516806],[-0.057762,51.516688],[-0.057755,51.516663],[-0.057709,51.516448],[-0.057493,51.516463],[-0.057505,51.516522],[-0.057509,51.516551],[-0.05752,51.516599],[-0.05754,51.516706],[-0.057503,51.51671],[-0.057503,51.516719],[-0.057526,51.51683],[-0.057542,51.516886],[-0.057586,51.516982],[-0.057645,51.517241],[-0.057662,51.5173],[-0.057501,51.517312],[-0.057554,51.517523],[-0.057598,51.51768],[-0.057609,51.517738],[-0.057931,51.517712],[-0.057988,51.517937],[-0.058322,51.517906],[-0.058373,51.518112],[-0.058397,51.518107],[-0.058613,51.518086],[-0.058671,51.518324],[-0.058686,51.518392],[-0.058698,51.518437],[-0.058711,51.518478],[-0.058706,51.518484],[-0.058699,51.518487],[-0.058625,51.518505],[-0.058454,51.518545],[-0.058447,51.51853],[-0.058411,51.518388],[-0.058194,51.518409],[-0.058111,51.518415],[-0.058153,51.518588],[-0.058163,51.518611],[-0.058284,51.518585],[-0.058362,51.518693],[-0.058423,51.518797],[-0.058511,51.518859],[-0.058688,51.518977],[-0.058796,51.519176],[-0.058865,51.519323],[-0.060361,51.518998],[-0.060632,51.518941],[-0.061474,51.518745],[-0.061588,51.518721],[-0.062931,51.518412]]]]},"properties":{"entry-date":"2025-09-30","entity":7501349,"name":"London Hospital, Stepney","dataset":"heritage-at-risk","typology":"geography","reference":"7457","prefix":"heritage-at-risk","organisation-entity":16,"quality":"authoritative","documentation-url":"https://historicengland.org.uk/listing/heritage-at-risk/search-register/list-entry/2003","in_zone":true,"whole_in_zone":true,"in_cw":false}},
{"type":"Feature","geometry":{"type":"MultiPolygon","coordinates":[[[[-0.090466,51.523548],[-0.090447,51.523522],[-0.090418,51.523468],[-0.090381,51.523404],[-0.090218,51.523444],[-0.090195,51.523394],[-0.090175,51.523356],[-0.090129,51.523277],[-0.089908,51.523331],[-0.089877,51.52325],[-0.089867,51.523219],[-0.08982,51.522917],[-0.089804,51.522653],[-0.089794,51.522361],[-0.089795,51.522338],[-0.08983,51.522292],[-0.089834,51.522208],[-0.089718,51.522215],[-0.089541,51.522218],[-0.08953,51.521937],[-0.089525,51.521705],[-0.089534,51.521655],[-0.089576,51.521353],[-0.089623,51.521039],[-0.089386,51.521018],[-0.089387,51.521012],[-0.089361,51.521009],[-0.088656,51.520944],[-0.088721,51.520696],[-0.088586,51.520684],[-0.088523,51.52093],[-0.088489,51.520928],[-0.088274,51.520908],[-0.087903,51.520871],[-0.087631,51.520846],[-0.087658,51.520742],[-0.087825,51.520758],[-0.087851,51.520638],[-0.087874,51.520553],[-0.087895,51.520554],[-0.087939,51.520342],[-0.087834,51.520331],[-0.087758,51.520316],[-0.087711,51.520311],[-0.087755,51.520158],[-0.087407,51.520113],[-0.087464,51.519929],[-0.086923,51.519836],[-0.08568,51.519618],[-0.085514,51.519888],[-0.085328,51.520185],[-0.085234,51.520346],[-0.085186,51.520439],[-0.085142,51.520529],[-0.085126,51.520565],[-0.085212,51.520583],[-0.08537,51.520597],[-0.08536,51.520637],[-0.085438,51.520645],[-0.085414,51.52077],[-0.085339,51.520763],[-0.085325,51.52083],[-0.085369,51.520833],[-0.085361,51.520881],[-0.085346,51.520945],[-0.085316,51.521095],[-0.085026,51.521072],[-0.084925,51.521056],[-0.084902,51.521116],[-0.084872,51.521201],[-0.084849,51.521276],[-0.084756,51.521507],[-0.084709,51.521633],[-0.084834,51.52165],[-0.085396,51.521696],[-0.085403,51.521662],[-0.085501,51.521669],[-0.085831,51.521697],[-0.08578,51.521932],[-0.085739,51.522139],[-0.085429,51.522127],[-0.085399,51.522409],[-0.085408,51.522412],[-0.085589,51.522418],[-0.085592,51.522386],[-0.085845,51.522397],[-0.085834,51.522505],[-0.08583,51.522527],[-0.085828,51.522562],[-0.085811,51.52272],[-0.086123,51.522734],[-0.086126,51.522692],[-0.086141,51.522553],[-0.086281,51.522557],[-0.086286,51.52252],[-0.086299,51.522492],[-0.086309,51.522416],[-0.086445,51.522423],[-0.08661,51.522451],[-0.086596,51.522483],[-0.086658,51.522498],[-0.086779,51.52251],[-0.086784,51.522462],[-0.08684,51.522458],[-0.086973,51.522932],[-0.086852,51.522933],[-0.086853,51.522974],[-0.086859,51.523048],[-0.086632,51.523056],[-0.08663,51.523044],[-0.086564,51.523046],[-0.086423,51.523046],[-0.086361,51.523032],[-0.086308,51.523149],[-0.086002,51.523102],[-0.08598,51.523157],[-0.085983,51.523189],[-0.085968,51.523268],[-0.085976,51.52331],[-0.086178,51.523304],[-0.086224,51.523314],[-0.086047,51.523604],[-0.085769,51.52355],[-0.085692,51.523685],[-0.085646,51.523675],[-0.085598,51.523764],[-0.085591,51.523763],[-0.085576,51.523877],[-0.085566,51.523907],[-0.085543,51.523962],[-0.085525,51.523958],[-0.085438,51.523949],[-0.085202,51.523944],[-0.085184,51.524065],[-0.085149,51.524245],[-0.085132,51.524318],[-0.085126,51.524434],[-0.085119,51.524457],[-0.085464,51.524539],[-0.08525,51.524889],[-0.08505,51.525197],[-0.084994,51.525261],[-0.084966,51.52529],[-0.084788,51.525407],[-0.084745,51.525429],[-0.084842,51.525734],[-0.08537,51.525715],[-0.085362,51.525671],[-0.085352,51.525586],[-0.085351,51.52556],[-0.085567,51.525551],[-0.085638,51.525551],[-0.085747,51.525547],[-0.086026,51.525535],[-0.086039,51.525523],[-0.086021,51.525362],[-0.086798,51.525333],[-0.086795,51.525298],[-0.086792,51.525289],[-0.086769,51.525041],[-0.086606,51.525048],[-0.086592,51.524791],[-0.086945,51.524773],[-0.086947,51.524785],[-0.086994,51.524786],[-0.086998,51.524812],[-0.087034,51.524809],[-0.087031,51.524792],[-0.08707,51.524789],[-0.087302,51.52478],[-0.087302,51.524777],[-0.087568,51.524763],[-0.087579,51.524843],[-0.088194,51.524822],[-0.088203,51.524891],[-0.088208,51.524944],[-0.088205,51.524944],[-0.088208,51.524963],[-0.08821,51.524962],[-0.088223,51.525063],[-0.088088,51.52507],[-0.088045,51.525121],[-0.088056,51.525194],[-0.088062,51.525193],[-0.088069,51.525243],[-0.088166,51.525241],[-0.088174,51.525287],[-0.088214,51.525424],[-0.08825,51.525563],[-0.088415,51.525548],[-0.088637,51.525524],[-0.088586,51.525218],[-0.088982,51.525195],[-0.088938,51.524852],[-0.088889,51.524853],[-0.088881,51.524793],[-0.088875,51.524763],[-0.088858,51.524634],[-0.088854,51.52459],[-0.088484,51.524608],[-0.087555,51.524647],[-0.087544,51.524562],[-0.086658,51.524608],[-0.085987,51.524645],[-0.085925,51.524647],[-0.085906,51.524454],[-0.085949,51.524452],[-0.085919,51.524206],[-0.085987,51.524202],[-0.086001,51.524082],[-0.086013,51.524027],[-0.086058,51.524023],[-0.086049,51.523964],[-0.086334,51.523942],[-0.086896,51.523904],[-0.086896,51.523924],[-0.086878,51.523926],[-0.086896,51.524012],[-0.08746,51.523969],[-0.087438,51.523862],[-0.08757,51.52385],[-0.087785,51.523845],[-0.088192,51.52384],[-0.088255,51.524312],[-0.089494,51.52429],[-0.089451,51.524096],[-0.089399,51.523961],[-0.089362,51.523831],[-0.089765,51.523829],[-0.089812,51.523825],[-0.089815,51.523826],[-0.08985,51.523821],[-0.089847,51.523815],[-0.089874,51.523809],[-0.089846,51.523743],[-0.090004,51.523718],[-0.090092,51.523694],[-0.090054,51.523636],[-0.090297,51.523589],[-0.090466,51.523548]]],[[[-0.086088,51.519112],[-0.086367,51.51918],[-0.086387,51.519186],[-0.08677,51.519265],[-0.08689,51.519035],[-0.086179,51.518835],[-0.086069,51.519001],[-0.086013,51.519092],[-0.086088,51.519112]]],[[[-0.084494,51.522987],[-0.084408,51.522984],[-0.08439,51.523252],[-0.084386,51.523277],[-0.084365,51.523358],[-0.084812,51.523344],[-0.084808,51.523306],[-0.084827,51.523139],[-0.084677,51.52314],[-0.08469,51.523014],[-0.08469,51.522991],[-0.084494,51.522987]]],[[[-0.084772,51.522464],[-0.084483,51.522447],[-0.084437,51.522664],[-0.084582,51.522668],[-0.084745,51.522675],[-0.084772,51.522464]]]]},"properties":{"entry-date":"2024-09-26","entity":7501440,"name":"Bunhill Fields, Finsbury Square","dataset":"heritage-at-risk","typology":"geography","reference":"4653","prefix":"heritage-at-risk","organisation-entity":16,"quality":"authoritative","documentation-url":"https://historicengland.org.uk/advice/heritage-at-risk/search-register/list-entry/8964","in_zone":true,"whole_in_zone":false,"in_cw":false}},
{"type":"Feature","geometry":{"type":"MultiPolygon","coordinates":[[[[-0.035015,51.511898],[-0.034579,51.511827],[-0.034331,51.511784],[-0.034216,51.511767],[-0.033935,51.511721],[-0.033338,51.511593],[-0.032508,51.511406],[-0.032352,51.511369],[-0.032196,51.511328],[-0.031703,51.511203],[-0.031116,51.511037],[-0.030633,51.510898],[-0.030439,51.510841],[-0.030242,51.510779],[-0.030177,51.510753],[-0.030067,51.510713],[-0.029924,51.510666],[-0.029627,51.510839],[-0.029697,51.511098],[-0.02948,51.511128],[-0.029162,51.511159],[-0.029201,51.511331],[-0.02924,51.5117],[-0.029089,51.511896],[-0.028932,51.511729],[-0.028853,51.511342],[-0.028678,51.511353],[-0.028469,51.511355],[-0.028387,51.511058],[-0.027719,51.511115],[-0.027631,51.511153],[-0.027159,51.511408],[-0.026781,51.511332],[-0.026472,51.511209],[-0.026444,51.511287],[-0.026198,51.511244],[-0.025943,51.511181],[-0.02583,51.511143],[-0.025786,51.510978],[-0.025458,51.511002],[-0.025512,51.511162],[-0.025016,51.511221],[-0.02496,51.511378],[-0.025842,51.511513],[-0.025807,51.511584],[-0.026805,51.511762],[-0.027788,51.511933],[-0.027635,51.512612],[-0.02802,51.512624],[-0.028199,51.512635],[-0.028525,51.512703],[-0.028809,51.512731],[-0.028816,51.512722],[-0.029553,51.512789],[-0.029635,51.512334],[-0.029856,51.51237],[-0.029895,51.512484],[-0.029946,51.512613],[-0.030056,51.51287],[-0.030101,51.512983],[-0.030785,51.512722],[-0.030685,51.512452],[-0.031196,51.51237],[-0.031689,51.512432],[-0.032169,51.512787],[-0.03285,51.513303],[-0.033163,51.513169],[-0.033109,51.51312],[-0.033037,51.51305],[-0.033098,51.513024],[-0.032975,51.512906],[-0.032975,51.512902],[-0.032951,51.512882],[-0.032966,51.512876],[-0.033,51.512532],[-0.034271,51.512591],[-0.034203,51.512494],[-0.034546,51.512503],[-0.035081,51.512536],[-0.035248,51.512544],[-0.035176,51.512434],[-0.035144,51.512377],[-0.035139,51.512357],[-0.035116,51.512369],[-0.035077,51.512334],[-0.034963,51.512205],[-0.035015,51.511898]]]]},"properties":{"entry-date":"2024-09-26","entity":7501621,"name":"St Anne's Church","dataset":"heritage-at-risk","typology":"geography","reference":"7425","prefix":"heritage-at-risk","organisation-entity":16,"quality":"authoritative","documentation-url":"https://historicengland.org.uk/advice/heritage-at-risk/search-register/list-entry/2014","in_zone":true,"whole_in_zone":true,"in_cw":false}},
{"type":"Feature","geometry":{"type":"MultiPolygon","coordinates":[[[[-0.073541,51.517969],[-0.074036,51.517942],[-0.074187,51.518133],[-0.07434,51.518253],[-0.074423,51.518353],[-0.074553,51.518346],[-0.074531,51.518166],[-0.074495,51.518004],[-0.074766,51.517975],[-0.074752,51.51794],[-0.074741,51.517907],[-0.074722,51.517839],[-0.074701,51.517782],[-0.07469,51.517746],[-0.074637,51.517655],[-0.074465,51.517134],[-0.07446,51.517094],[-0.074731,51.517054],[-0.074897,51.517025],[-0.075157,51.516968],[-0.075184,51.517005],[-0.075189,51.517003],[-0.075265,51.517096],[-0.075284,51.517091],[-0.075305,51.517119],[-0.075343,51.517109],[-0.075371,51.517147],[-0.075478,51.517114],[-0.075561,51.517091],[-0.075734,51.517322],[-0.075909,51.517545],[-0.075992,51.517507],[-0.076303,51.517414],[-0.07674,51.51728],[-0.076768,51.517317],[-0.076853,51.517437],[-0.077041,51.517398],[-0.077022,51.517365],[-0.077215,51.517327],[-0.077297,51.517304],[-0.077143,51.517085],[-0.076844,51.516648],[-0.076553,51.516374],[-0.076413,51.516264],[-0.075994,51.51596],[-0.075306,51.515508],[-0.07506,51.515648],[-0.075118,51.515694],[-0.075332,51.515835],[-0.075522,51.515957],[-0.075582,51.515971],[-0.075636,51.516028],[-0.075703,51.516114],[-0.075736,51.516105],[-0.075746,51.51612],[-0.075844,51.516095],[-0.075898,51.516153],[-0.075939,51.516202],[-0.075982,51.51624],[-0.075712,51.516349],[-0.075364,51.516453],[-0.075282,51.516351],[-0.075162,51.516383],[-0.075068,51.516411],[-0.074888,51.516193],[-0.074801,51.516223],[-0.074787,51.516226],[-0.07465,51.516268],[-0.074811,51.516464],[-0.074851,51.51651],[-0.074481,51.516609],[-0.074443,51.516621],[-0.074394,51.516562],[-0.074386,51.516545],[-0.074165,51.516604],[-0.07422,51.516668],[-0.074371,51.51685],[-0.073227,51.516967],[-0.073088,51.516805],[-0.07298,51.51683],[-0.072764,51.516898],[-0.0728,51.516942],[-0.072809,51.516994],[-0.073048,51.516983],[-0.073065,51.517041],[-0.073093,51.517195],[-0.073106,51.517284],[-0.073151,51.517409],[-0.073158,51.517497],[-0.073152,51.517542],[-0.073367,51.51753],[-0.07338,51.517573],[-0.073472,51.517746],[-0.073536,51.517913],[-0.073541,51.517969]]]]},"properties":{"entry-date":"2024-09-26","entity":7501622,"name":"Wentworth Street, Bethnal Green","dataset":"heritage-at-risk","typology":"geography","reference":"7462","prefix":"heritage-at-risk","organisation-entity":16,"quality":"authoritative","documentation-url":"https://historicengland.org.uk/advice/heritage-at-risk/search-register/list-entry/2030","in_zone":true,"whole_in_zone":true,"in_cw":false}},
{"type":"Feature","geometry":{"type":"MultiPolygon","coordinates":[[[[-0.070844,51.51622],[-0.070923,51.516191],[-0.071027,51.516156],[-0.071137,51.516285],[-0.071178,51.516323],[-0.071341,51.51628],[-0.071454,51.516247],[-0.07168,51.516177],[-0.071648,51.516139],[-0.072088,51.515993],[-0.072129,51.515978],[-0.072238,51.515943],[-0.072352,51.515913],[-0.072321,51.515881],[-0.071992,51.515489],[-0.071993,51.51548],[-0.071933,51.515404],[-0.071788,51.515253],[-0.072301,51.515063],[-0.072137,51.514901],[-0.071989,51.514763],[-0.071918,51.514701],[-0.071639,51.514806],[-0.071644,51.514854],[-0.07167,51.514918],[-0.071697,51.514963],[-0.071725,51.51499],[-0.071891,51.515164],[-0.071584,51.515267],[-0.071498,51.515299],[-0.071416,51.515209],[-0.070566,51.515172],[-0.070647,51.515274],[-0.070737,51.515376],[-0.070748,51.515373],[-0.070912,51.51556],[-0.070402,51.515726],[-0.069967,51.515862],[-0.069919,51.515819],[-0.069842,51.515742],[-0.069834,51.515732],[-0.069275,51.51587],[-0.069198,51.515884],[-0.069167,51.515848],[-0.069035,51.51564],[-0.068984,51.515655],[-0.068976,51.515661],[-0.068879,51.515702],[-0.068706,51.515787],[-0.068683,51.515749],[-0.068154,51.515903],[-0.068126,51.515885],[-0.06795,51.515971],[-0.067775,51.516041],[-0.067686,51.516084],[-0.067658,51.516066],[-0.067631,51.51602],[-0.067603,51.516002],[-0.066947,51.516189],[-0.066451,51.516333],[-0.066531,51.516478],[-0.066585,51.51656],[-0.066623,51.516696],[-0.066658,51.516867],[-0.066671,51.516904],[-0.066684,51.516949],[-0.066711,51.516994],[-0.066753,51.517031],[-0.066973,51.517268],[-0.067266,51.517156],[-0.068,51.516854],[-0.068323,51.516706],[-0.068606,51.516574],[-0.068679,51.516633],[-0.068822,51.516742],[-0.068878,51.516802],[-0.068978,51.516903],[-0.069084,51.516861],[-0.069076,51.516852],[-0.069177,51.516816],[-0.069166,51.516806],[-0.069235,51.516777],[-0.069278,51.516768],[-0.069334,51.516752],[-0.069306,51.516722],[-0.069275,51.516693],[-0.069241,51.516667],[-0.069349,51.51661],[-0.069187,51.516491],[-0.069143,51.516457],[-0.069073,51.516359],[-0.069485,51.516168],[-0.069646,51.516089],[-0.069725,51.516054],[-0.069792,51.51615],[-0.069861,51.516238],[-0.070006,51.516436],[-0.070147,51.516397],[-0.070198,51.516381],[-0.070463,51.516319],[-0.070479,51.516313],[-0.070489,51.516333],[-0.070544,51.51632],[-0.070594,51.516322],[-0.070682,51.516301],[-0.070685,51.516308],[-0.070705,51.516304],[-0.070686,51.516273],[-0.070794,51.516247],[-0.070785,51.516234],[-0.070844,51.51622]]]]},"properties":{"entry-date":"2024-09-26","entity":7501864,"name":"Whitechapel High Street, Aldgate","dataset":"heritage-at-risk","typology":"geography","reference":"7468","prefix":"heritage-at-risk","organisation-entity":16,"quality":"authoritative","documentation-url":"https://historicengland.org.uk/advice/heritage-at-risk/search-register/list-entry/2032","in_zone":true,"whole_in_zone":true,"in_cw":false}},
{"type":"Feature","geometry":{"type":"MultiPolygon","coordinates":[[[[-0.076728,51.521397],[-0.076662,51.52164],[-0.076647,51.52169],[-0.077078,51.521721],[-0.077416,51.521748],[-0.077419,51.521769],[-0.07793,51.521849],[-0.07815,51.521888],[-0.07821,51.521779],[-0.078251,51.521717],[-0.07836,51.521567],[-0.078402,51.521517],[-0.078453,51.521464],[-0.078467,51.521443],[-0.078507,51.521358],[-0.078579,51.521212],[-0.078605,51.521171],[-0.078643,51.521079],[-0.07823,51.521013],[-0.078266,51.520916],[-0.078129,51.520897],[-0.078183,51.520695],[-0.078226,51.520697],[-0.078238,51.520651],[-0.078299,51.520656],[-0.078353,51.520495],[-0.078416,51.520499],[-0.078456,51.520491],[-0.078803,51.520517],[-0.078848,51.520266],[-0.07891,51.519934],[-0.078927,51.519863],[-0.078724,51.519854],[-0.078727,51.51984],[-0.07842,51.519819],[-0.078337,51.519809],[-0.07829,51.519801],[-0.078229,51.519788],[-0.078163,51.519771],[-0.07812,51.519757],[-0.077983,51.519729],[-0.077284,51.5197],[-0.077252,51.520054],[-0.077227,51.520391],[-0.076989,51.520372],[-0.076918,51.520632],[-0.076942,51.520634],[-0.076848,51.520964],[-0.076801,51.521141],[-0.076793,51.521154],[-0.076775,51.521217],[-0.076728,51.521397]],[[-0.077911,51.520277],[-0.077681,51.520257],[-0.077743,51.519893],[-0.077965,51.519909],[-0.07796,51.519939],[-0.078269,51.519963],[-0.078286,51.519866],[-0.078635,51.519892],[-0.078621,51.519955],[-0.078636,51.519956],[-0.078626,51.520001],[-0.078608,51.52],[-0.078607,51.520008],[-0.07855,51.520032],[-0.078376,51.520016],[-0.078365,51.520079],[-0.078236,51.520068],[-0.078191,51.520089],[-0.077948,51.520071],[-0.077911,51.520277]],[[-0.077224,51.521277],[-0.07705,51.52126],[-0.077097,51.52117],[-0.076899,51.521146],[-0.076962,51.520922],[-0.0772,51.520949],[-0.077618,51.521003],[-0.077559,51.521126],[-0.077632,51.52113],[-0.077621,51.521175],[-0.077351,51.521145],[-0.077327,51.521201],[-0.077257,51.521194],[-0.077224,51.521277]]]]},"properties":{"entry-date":"2024-09-26","entity":7502109,"name":"Priory and Hospital of St Mary Spital, Steward Street","dataset":"heritage-at-risk","typology":"geography","reference":"1001982","prefix":"heritage-at-risk","organisation-entity":16,"quality":"authoritative","documentation-url":"https://historicengland.org.uk/advice/heritage-at-risk/search-register/list-entry/41922","in_zone":true,"whole_in_zone":true,"in_cw":false}},
{"type":"Feature","geometry":{"type":"MultiPolygon","coordinates":[[[[-0.084217,51.516692],[-0.084224,51.516701],[-0.084234,51.516709],[-0.084253,51.516712],[-0.084278,51.516711],[-0.084299,51.5167],[-0.084307,51.516681],[-0.084438,51.516701],[-0.084448,51.516674],[-0.083827,51.516581],[-0.083572,51.516547],[-0.083398,51.516518],[-0.082839,51.516442],[-0.082221,51.516351],[-0.081842,51.516293],[-0.081713,51.516275],[-0.081559,51.516248],[-0.081444,51.516223],[-0.081333,51.51619],[-0.081201,51.516145],[-0.081174,51.516172],[-0.081316,51.516225],[-0.08142,51.516254],[-0.08139,51.516288],[-0.081644,51.516346],[-0.081677,51.516307],[-0.081821,51.51633],[-0.082561,51.516432],[-0.083387,51.516551],[-0.083643,51.51659],[-0.084217,51.51667],[-0.084215,51.51668],[-0.084217,51.516692]]]]},"properties":{"entry-date":"2021-12-01","entity":7502112,"name":"London Wall: remains of Roman and medieval wall from west end of All Hallows Church to 38 Camomile Street","dataset":"heritage-at-risk","typology":"geography","reference":"1002050","prefix":"heritage-at-risk","organisation-entity":16,"quality":"authoritative","documentation-url":"https://historicengland.org.uk/advice/heritage-at-risk/search-register/list-entry/40359","in_zone":true,"whole_in_zone":true,"in_cw":false}},
{"type":"Feature","geometry":{"type":"MultiPolygon","coordinates":[[[[-0.025989,51.480424],[-0.025993,51.480471],[-0.02598,51.480472],[-0.025994,51.480588],[-0.025928,51.480591],[-0.025961,51.480889],[-0.025965,51.48094],[-0.025902,51.480942],[-0.025903,51.480962],[-0.025916,51.481079],[-0.025846,51.481082],[-0.025845,51.481092],[-0.025503,51.481107],[-0.025176,51.481119],[-0.025134,51.481202],[-0.025109,51.481239],[-0.025617,51.481354],[-0.026374,51.481493],[-0.026314,51.481564],[-0.026254,51.481608],[-0.026203,51.481654],[-0.026276,51.481676],[-0.026361,51.481699],[-0.02642,51.481713],[-0.026958,51.481662],[-0.026966,51.481584],[-0.026959,51.481325],[-0.026945,51.48119],[-0.026934,51.481129],[-0.026914,51.481115],[-0.026908,51.481041],[-0.02686,51.480657],[-0.027137,51.480633],[-0.027127,51.480623],[-0.027113,51.480465],[-0.0271,51.48038],[-0.027066,51.48038],[-0.026822,51.480395],[-0.026781,51.480145],[-0.026758,51.479922],[-0.026689,51.479731],[-0.026679,51.479606],[-0.026638,51.479609],[-0.026618,51.47952],[-0.026623,51.479464],[-0.026629,51.47944],[-0.026626,51.479424],[-0.026601,51.479109],[-0.026599,51.47907],[-0.026602,51.479067],[-0.026594,51.479064],[-0.026612,51.479041],[-0.026834,51.479109],[-0.027455,51.479323],[-0.027515,51.479231],[-0.02761,51.479124],[-0.027046,51.478929],[-0.027026,51.478737],[-0.026973,51.478181],[-0.026936,51.477879],[-0.026446,51.477896],[-0.026447,51.47766],[-0.026441,51.47766],[-0.026446,51.477594],[-0.026389,51.477593],[-0.026391,51.477446],[-0.02639,51.477436],[-0.026392,51.477361],[-0.026407,51.477361],[-0.026411,51.477287],[-0.026419,51.477284],[-0.026454,51.477281],[-0.026671,51.477274],[-0.026717,51.477271],[-0.026713,51.477217],[-0.02658,51.477222],[-0.026575,51.477126],[-0.026493,51.477125],[-0.026421,51.477097],[-0.026419,51.476978],[-0.026411,51.476842],[-0.026412,51.476715],[-0.026416,51.476573],[-0.02643,51.476286],[-0.026448,51.476134],[-0.026459,51.476057],[-0.026465,51.475972],[-0.02649,51.475893],[-0.026503,51.475859],[-0.026625,51.475846],[-0.026621,51.475755],[-0.026877,51.475751],[-0.026876,51.475634],[-0.026869,51.475526],[-0.026969,51.475521],[-0.026969,51.4755],[-0.027127,51.475523],[-0.02752,51.475519],[-0.02758,51.47552],[-0.027574,51.475362],[-0.027574,51.475242],[-0.027579,51.475169],[-0.028748,51.475349],[-0.029335,51.475471],[-0.029378,51.475379],[-0.029402,51.475313],[-0.029469,51.475158],[-0.029271,51.475125],[-0.029336,51.474978],[-0.028976,51.474914],[-0.028969,51.474927],[-0.028844,51.474908],[-0.028719,51.474886],[-0.028549,51.474852],[-0.028621,51.474721],[-0.028414,51.474658],[-0.028493,51.474506],[-0.028637,51.474335],[-0.028673,51.474288],[-0.028553,51.474245],[-0.028304,51.47416],[-0.028233,51.474132],[-0.028164,51.474077],[-0.02794,51.474277],[-0.027809,51.474503],[-0.02746,51.474438],[-0.027435,51.474491],[-0.027282,51.474456],[-0.027249,51.474515],[-0.0272,51.474597],[-0.027207,51.474598],[-0.027187,51.474636],[-0.027112,51.47479],[-0.026979,51.475074],[-0.02667,51.475026],[-0.026311,51.474973],[-0.026299,51.474809],[-0.026281,51.474666],[-0.02629,51.474611],[-0.026324,51.474545],[-0.026338,51.474522],[-0.02646,51.47442],[-0.026289,51.474312],[-0.026242,51.474285],[-0.026228,51.474295],[-0.026152,51.474254],[-0.026144,51.47426],[-0.02612,51.474285],[-0.026068,51.474343],[-0.025878,51.474398],[-0.025868,51.47439],[-0.0257,51.474433],[-0.025595,51.474448],[-0.025212,51.474518],[-0.025156,51.474469],[-0.025199,51.474426],[-0.025078,51.474345],[-0.025022,51.474314],[-0.025188,51.474189],[-0.025118,51.474151],[-0.024878,51.47401],[-0.025049,51.473886],[-0.024794,51.473749],[-0.024756,51.473726],[-0.024689,51.473692],[-0.024567,51.473565],[-0.02457,51.473564],[-0.024448,51.473433],[-0.024266,51.473226],[-0.024417,51.473129],[-0.024399,51.473117],[-0.024235,51.473022],[-0.023834,51.472792],[-0.023764,51.47275],[-0.023743,51.472731],[-0.02369,51.472701],[-0.023479,51.472847],[-0.023624,51.472984],[-0.023756,51.473106],[-0.023802,51.473158],[-0.023852,51.473222],[-0.023999,51.473485],[-0.024035,51.473581],[-0.024118,51.473739],[-0.02413,51.473784],[-0.024161,51.474063],[-0.024148,51.474253],[-0.024122,51.474497],[-0.02413,51.474554],[-0.02425,51.475006],[-0.024282,51.475079],[-0.024298,51.47508],[-0.024325,51.475222],[-0.024347,51.475316],[-0.02429,51.475319],[-0.024285,51.475494],[-0.024278,51.475578],[-0.02474,51.475582],[-0.024751,51.475581],[-0.024765,51.475582],[-0.024791,51.475587],[-0.024823,51.475597],[-0.024858,51.475614],[-0.024885,51.475631],[-0.024913,51.475653],[-0.025094,51.475826],[-0.025172,51.475903],[-0.025205,51.475952],[-0.025234,51.476018],[-0.025244,51.476111],[-0.025233,51.476257],[-0.025225,51.476322],[-0.025215,51.476662],[-0.024952,51.476655],[-0.024961,51.476916],[-0.025013,51.476916],[-0.025018,51.477216],[-0.025191,51.477216],[-0.025192,51.477291],[-0.025202,51.477604],[-0.025164,51.477607],[-0.025196,51.478101],[-0.025215,51.478343],[-0.025306,51.478341],[-0.025317,51.478411],[-0.025328,51.478601],[-0.025198,51.478585],[-0.024944,51.478559],[-0.024338,51.478491],[-0.023856,51.478436],[-0.02371,51.478417],[-0.023235,51.478367],[-0.023078,51.478346],[-0.023061,51.47841],[-0.023038,51.478414],[-0.023069,51.478485],[-0.023373,51.47852],[-0.023368,51.478535],[-0.023454,51.478562],[-0.023623,51.47861],[-0.023716,51.478623],[-0.023995,51.478654],[-0.02408,51.478662],[-0.025149,51.478786],[-0.025151,51.47878],[-0.025574,51.478836],[-0.02557,51.478887],[-0.025575,51.478911],[-0.025582,51.479046],[-0.025594,51.479047],[-0.025601,51.479101],[-0.025628,51.479365],[-0.02563,51.479451],[-0.025646,51.479451],[-0.025634,51.479498],[-0.02576,51.479497],[-0.02576,51.479541],[-0.026065,51.479539],[-0.026071,51.479692],[-0.026086,51.479763],[-0.026098,51.479834],[-0.025581,51.479866],[-0.025582,51.479884],[-0.025596,51.479987],[-0.025612,51.480082],[-0.025635,51.480249],[-0.025845,51.48024],[-0.025857,51.480332],[-0.025978,51.480327],[-0.025975,51.480359],[-0.025977,51.48038],[-0.025976,51.480406],[-0.025987,51.480405],[-0.025989,51.480424]]]]},"properties":{"entry-date":"2024-09-26","entity":7502487,"name":"Deptford High Street","dataset":"heritage-at-risk","typology":"geography","reference":"5870","prefix":"heritage-at-risk","organisation-entity":16,"quality":"authoritative","documentation-url":"https://historicengland.org.uk/advice/heritage-at-risk/search-register/list-entry/9741","in_zone":true,"whole_in_zone":false,"in_cw":false}},
{"type":"Feature","geometry":{"type":"MultiPolygon","coordinates":[[[[-0.08321,51.519827],[-0.083119,51.519852],[-0.083044,51.519883],[-0.082336,51.520346],[-0.08276,51.520515],[-0.082821,51.520527],[-0.083512,51.520589],[-0.083857,51.520617],[-0.083902,51.52063],[-0.085044,51.520756],[-0.085211,51.520334],[-0.083451,51.519829],[-0.083307,51.519822],[-0.08321,51.519827]]]]},"properties":{"entry-date":"2024-09-26","entity":7502488,"name":"Sun Street, City of London","dataset":"heritage-at-risk","typology":"geography","reference":"5984","prefix":"heritage-at-risk","organisation-entity":16,"quality":"authoritative","documentation-url":"https://historicengland.org.uk/advice/heritage-at-risk/search-register/list-entry/5086","in_zone":true,"whole_in_zone":true,"in_cw":false}},
{"type":"Feature","geometry":{"type":"MultiPolygon","coordinates":[[[[-0.030761,51.523734],[-0.030721,51.523652],[-0.030707,51.523634],[-0.029926,51.522029],[-0.029929,51.521964],[-0.029792,51.521954],[-0.029732,51.521952],[-0.029568,51.52195],[-0.027907,51.521913],[-0.027876,51.521912],[-0.027853,51.521905],[-0.027846,51.521893],[-0.027807,51.521724],[-0.027803,51.521715],[-0.027824,51.521712],[-0.027811,51.521681],[-0.027766,51.521551],[-0.027733,51.521465],[-0.027706,51.521388],[-0.027717,51.521369],[-0.027745,51.521305],[-0.027754,51.521279],[-0.027783,51.521212],[-0.027918,51.520883],[-0.027939,51.520826],[-0.027859,51.520817],[-0.027687,51.520805],[-0.027592,51.52101],[-0.02753,51.52109],[-0.027394,51.521259],[-0.027304,51.521329],[-0.027244,51.521382],[-0.027051,51.521513],[-0.026902,51.52161],[-0.026695,51.521741],[-0.026357,51.521889],[-0.026167,51.521957],[-0.025948,51.522008],[-0.025585,51.522073],[-0.025517,51.522112],[-0.025331,51.522242],[-0.024683,51.522684],[-0.024611,51.522737],[-0.024414,51.522889],[-0.024325,51.522965],[-0.02413,51.523126],[-0.024071,51.523177],[-0.024084,51.52319],[-0.024027,51.523209],[-0.023917,51.523313],[-0.023477,51.523827],[-0.023833,51.523923],[-0.023932,51.523961],[-0.024059,51.524035],[-0.024142,51.524108],[-0.024426,51.524545],[-0.024589,51.524772],[-0.024738,51.525],[-0.024764,51.525063],[-0.024758,51.525198],[-0.024001,51.525365],[-0.023841,51.525407],[-0.022704,51.525694],[-0.022696,51.525874],[-0.023415,51.526246],[-0.023542,51.526302],[-0.023642,51.52633],[-0.023671,51.526331],[-0.023798,51.526554],[-0.024233,51.527329],[-0.024251,51.527372],[-0.024859,51.52725],[-0.025139,51.527188],[-0.025322,51.52715],[-0.025468,51.527116],[-0.025511,51.527108],[-0.02573,51.527058],[-0.026327,51.526928],[-0.026256,51.526795],[-0.026212,51.526698],[-0.026029,51.526361],[-0.025834,51.526402],[-0.025753,51.526417],[-0.025629,51.526444],[-0.025595,51.526447],[-0.025552,51.526447],[-0.025515,51.526438],[-0.0255,51.526432],[-0.025488,51.526425],[-0.025329,51.526351],[-0.025073,51.525905],[-0.02506,51.525886],[-0.024818,51.525478],[-0.024767,51.525324],[-0.024761,51.525237],[-0.024836,51.525218],[-0.024848,51.525212],[-0.024858,51.525209],[-0.025066,51.525149],[-0.025192,51.525104],[-0.025268,51.525075],[-0.025531,51.52498],[-0.025951,51.524808],[-0.026044,51.524797],[-0.026132,51.524762],[-0.02657,51.524635],[-0.02657,51.524626],[-0.026876,51.524559],[-0.027837,51.524341],[-0.028133,51.524832],[-0.028508,51.525477],[-0.028804,51.525967],[-0.029025,51.52635],[-0.029602,51.526223],[-0.030013,51.526135],[-0.030546,51.526024],[-0.030576,51.526015],[-0.0311,51.525898],[-0.03105,51.525757],[-0.031004,51.525678],[-0.031012,51.525676],[-0.030908,51.525503],[-0.030697,51.52514],[-0.030967,51.52508],[-0.030921,51.524999],[-0.030862,51.524842],[-0.030793,51.524713],[-0.03077,51.524676],[-0.030728,51.524595],[-0.030701,51.524547],[-0.030687,51.524525],[-0.030604,51.524543],[-0.03056,51.524549],[-0.030514,51.524559],[-0.030482,51.524568],[-0.030458,51.524571],[-0.030405,51.524463],[-0.03035,51.524364],[-0.030327,51.524334],[-0.030118,51.524376],[-0.029997,51.524164],[-0.029921,51.524025],[-0.029889,51.523971],[-0.029868,51.523947],[-0.029959,51.523927],[-0.030425,51.523818],[-0.030761,51.523734]]]]},"properties":{"entry-date":"2024-09-26","entity":7502509,"name":"Tower Hamlets Cemetery, Bow","dataset":"heritage-at-risk","typology":"geography","reference":"7447","prefix":"heritage-at-risk","organisation-entity":16,"quality":"authoritative","documentation-url":"https://historicengland.org.uk/advice/heritage-at-risk/search-register/list-entry/2025","in_zone":true,"whole_in_zone":false,"in_cw":false}},
{"type":"Feature","geometry":{"type":"MultiPolygon","coordinates":[[[[-0.045929,51.518523],[-0.045947,51.518542],[-0.045965,51.518523],[-0.045929,51.518523]]]]},"properties":{"entry-date":"2022-12-21","entity":7502725,"name":"Drinking fountain, Stepney Green","dataset":"heritage-at-risk","typology":"geography","reference":"1065062","prefix":"heritage-at-risk","organisation-entity":16,"quality":"authoritative","documentation-url":"https://historicengland.org.uk/advice/heritage-at-risk/search-register/list-entry/82042","in_zone":true,"whole_in_zone":true,"in_cw":false}},
{"type":"Feature","geometry":{"type":"MultiPolygon","coordinates":[[[[-0.088775,51.514856],[-0.088792,51.514875],[-0.088811,51.514856],[-0.088775,51.514856]]]]},"properties":{"entry-date":"2024-09-26","entity":7502813,"name":"Church of St Margaret, Lothbury, City of London","dataset":"heritage-at-risk","typology":"geography","reference":"1064634","prefix":"heritage-at-risk","organisation-entity":16,"quality":"authoritative","documentation-url":"https://historicengland.org.uk/advice/heritage-at-risk/search-register/list-entry/23730","in_zone":true,"whole_in_zone":true,"in_cw":false}},
{"type":"Feature","geometry":{"type":"MultiPolygon","coordinates":[[[[-0.028805,51.512184],[-0.028823,51.512204],[-0.028841,51.512185],[-0.028805,51.512184]]]]},"properties":{"entry-date":"2024-09-26","entity":7502817,"name":"One Lamp Standard in front of the Star of the East Public House, Commercial Road","dataset":"heritage-at-risk","typology":"geography","reference":"1065199","prefix":"heritage-at-risk","organisation-entity":16,"quality":"authoritative","documentation-url":"https://historicengland.org.uk/advice/heritage-at-risk/search-register/list-entry/82145","in_zone":true,"whole_in_zone":true,"in_cw":false}},
{"type":"Feature","geometry":{"type":"MultiPolygon","coordinates":[[[[-0.035688,51.518702],[-0.035705,51.518722],[-0.035724,51.518703],[-0.035688,51.518702]]]]},"properties":{"entry-date":"2022-12-21","entity":7502821,"name":"Ragged School Museum, 46 and 48, Copperfield Road","dataset":"heritage-at-risk","typology":"geography","reference":"1065752","prefix":"heritage-at-risk","organisation-entity":16,"quality":"authoritative","documentation-url":"https://historicengland.org.uk/advice/heritage-at-risk/search-register/list-entry/82543","in_zone":true,"whole_in_zone":true,"in_cw":false}},
{"type":"Feature","geometry":{"type":"MultiPolygon","coordinates":[[[[-0.011842,51.477715],[-0.011859,51.477735],[-0.011878,51.477716],[-0.011842,51.477715]]]]},"properties":{"entry-date":"2021-05-27","entity":7502858,"name":"1, Greenwich South Street, Woolwich","dataset":"heritage-at-risk","typology":"geography","reference":"1079000","prefix":"heritage-at-risk","organisation-entity":16,"quality":"authoritative","documentation-url":"https://historicengland.org.uk/advice/heritage-at-risk/search-register/list-entry/50148","in_zone":true,"whole_in_zone":true,"in_cw":false}},
{"type":"Feature","geometry":{"type":"MultiPolygon","coordinates":[[[[-0.023399,51.474278],[-0.023417,51.474298],[-0.023435,51.474278],[-0.023399,51.474278]]]]},"properties":{"entry-date":"2024-09-26","entity":7502900,"name":"Holland and Company's Distillery, 14 and 16, Deptford Bridge","dataset":"heritage-at-risk","typology":"geography","reference":"1080000","prefix":"heritage-at-risk","organisation-entity":16,"quality":"authoritative","documentation-url":"https://historicengland.org.uk/advice/heritage-at-risk/search-register/list-entry/92737","in_zone":true,"whole_in_zone":true,"in_cw":false}},
{"type":"Feature","geometry":{"type":"MultiPolygon","coordinates":[[[[-0.088015,51.512752],[-0.088032,51.512771],[-0.088051,51.512752],[-0.088015,51.512752]]]]},"properties":{"entry-date":"2024-09-26","entity":7503011,"name":"Church of St Mary Woolnoth, King William Street, City of London","dataset":"heritage-at-risk","typology":"geography","reference":"1064620","prefix":"heritage-at-risk","organisation-entity":16,"quality":"authoritative","documentation-url":"https://historicengland.org.uk/advice/heritage-at-risk/search-register/list-entry/23737","in_zone":true,"whole_in_zone":true,"in_cw":false}},
{"type":"Feature","geometry":{"type":"MultiPolygon","coordinates":[[[[-0.053248,51.520299],[-0.053265,51.520319],[-0.053284,51.5203],[-0.053248,51.520299]]]]},"properties":{"entry-date":"2024-09-26","entity":7503018,"name":"Drinking fountain (on pavement outside 31-74 Mile End Road), Mile End Road, Stepney","dataset":"heritage-at-risk","typology":"geography","reference":"1065113","prefix":"heritage-at-risk","organisation-entity":16,"quality":"authoritative","documentation-url":"https://historicengland.org.uk/advice/heritage-at-risk/search-register/list-entry/49747","in_zone":true,"whole_in_zone":true,"in_cw":false}},
{"type":"Feature","geometry":{"type":"MultiPolygon","coordinates":[[[[-0.061916,51.518158],[-0.061933,51.518178],[-0.061952,51.518159],[-0.061916,51.518158]]]]},"properties":{"entry-date":"2024-09-26","entity":7503019,"name":"34, Mount Terrace, Whitechapel, E1","dataset":"heritage-at-risk","typology":"geography","reference":"1065122","prefix":"heritage-at-risk","organisation-entity":16,"quality":"authoritative","documentation-url":"https://historicengland.org.uk/advice/heritage-at-risk/search-register/list-entry/82083","in_zone":true,"whole_in_zone":true,"in_cw":false}},
{"type":"Feature","geometry":{"type":"MultiPolygon","coordinates":[[[[-0.060106,51.518686],[-0.060123,51.518706],[-0.060142,51.518687],[-0.060106,51.518686]]]]},"properties":{"entry-date":"2022-12-21","entity":7503025,"name":"Royal London Hospital - front block, Whitechapel Road, Whitechapel","dataset":"heritage-at-risk","typology":"geography","reference":"1065788","prefix":"heritage-at-risk","organisation-entity":16,"quality":"authoritative","documentation-url":"https://historicengland.org.uk/advice/heritage-at-risk/search-register/list-entry/50166","in_zone":true,"whole_in_zone":true,"in_cw":false}},
{"type":"Feature","geometry":{"type":"MultiPolygon","coordinates":[[[[0.002822,51.490676],[0.002804,51.490696],[0.002786,51.490677],[0.002822,51.490676]]]]},"properties":{"entry-date":"2021-05-27","entity":7503087,"name":"Enderby House, 100, Christchurch Way, Greenwich","dataset":"heritage-at-risk","typology":"geography","reference":"1079026","prefix":"heritage-at-risk","organisation-entity":16,"quality":"authoritative","documentation-url":"https://historicengland.org.uk/advice/heritage-at-risk/search-register/list-entry/50084","in_zone":true,"whole_in_zone":true,"in_cw":false}},
{"type":"Feature","geometry":{"type":"MultiPolygon","coordinates":[[[[-0.07198,51.511265],[-0.071997,51.511285],[-0.072016,51.511266],[-0.07198,51.511265]]]]},"properties":{"entry-date":"2022-12-21","entity":7503797,"name":"Church of the English Martyrs, Prescott Street, Stepney","dataset":"heritage-at-risk","typology":"geography","reference":"1241734","prefix":"heritage-at-risk","organisation-entity":16,"quality":"authoritative","documentation-url":"https://historicengland.org.uk/advice/heritage-at-risk/search-register/list-entry/18017","in_zone":true,"whole_in_zone":true,"in_cw":false}},
{"type":"Feature","geometry":{"type":"MultiPolygon","coordinates":[[[[-0.021128,51.514735],[-0.021146,51.514754],[-0.021164,51.514735],[-0.021128,51.514735]]]]},"properties":{"entry-date":"2022-12-21","entity":7503801,"name":"St Saviours Church, Northumbria Street, Poplar","dataset":"heritage-at-risk","typology":"geography","reference":"1242275","prefix":"heritage-at-risk","organisation-entity":16,"quality":"authoritative","documentation-url":"https://historicengland.org.uk/advice/heritage-at-risk/search-register/list-entry/49743","in_zone":true,"whole_in_zone":true,"in_cw":false}},
{"type":"Feature","geometry":{"type":"MultiPolygon","coordinates":[[[[-0.06602,51.510412],[-0.066038,51.510431],[-0.066057,51.510412],[-0.06602,51.510412]]]]},"properties":{"entry-date":"2024-09-26","entity":7503802,"name":"St Pauls Mission Room and Infant Nursery, Wellclose Square","dataset":"heritage-at-risk","typology":"geography","reference":"1242432","prefix":"heritage-at-risk","organisation-entity":16,"quality":"authoritative","documentation-url":"https://historicengland.org.uk/advice/heritage-at-risk/search-register/list-entry/210853","in_zone":true,"whole_in_zone":true,"in_cw":false}},
{"type":"Feature","geometry":{"type":"MultiPolygon","coordinates":[[[[-0.073335,51.519435],[-0.073353,51.519455],[-0.073371,51.519435],[-0.073335,51.519435]]]]},"properties":{"entry-date":"2024-09-26","entity":7503811,"name":"2, Wilkes Street, E1","dataset":"heritage-at-risk","typology":"geography","reference":"1242278","prefix":"heritage-at-risk","organisation-entity":16,"quality":"authoritative","documentation-url":"https://historicengland.org.uk/advice/heritage-at-risk/search-register/list-entry/47714","in_zone":true,"whole_in_zone":true,"in_cw":false}},
{"type":"Feature","geometry":{"type":"MultiPolygon","coordinates":[[[[-0.077816,51.518286],[-0.077834,51.518305],[-0.077852,51.518286],[-0.077816,51.518286]]]]},"properties":{"entry-date":"2022-12-21","entity":7503851,"name":"Sandys Row Synagogue, Sandys Row, Spitalfields","dataset":"heritage-at-risk","typology":"geography","reference":"1260323","prefix":"heritage-at-risk","organisation-entity":16,"quality":"authoritative","documentation-url":"https://historicengland.org.uk/advice/heritage-at-risk/search-register/list-entry/22070","in_zone":true,"whole_in_zone":true,"in_cw":false}},
{"type":"Feature","geometry":{"type":"MultiPolygon","coordinates":[[[[-0.07247,51.51986],[-0.072487,51.51988],[-0.072506,51.519861],[-0.07247,51.51986]]]]},"properties":{"entry-date":"2024-09-26","entity":7503853,"name":"19, Princelet Street, Spitalfields","dataset":"heritage-at-risk","typology":"geography","reference":"1260421","prefix":"heritage-at-risk","organisation-entity":16,"quality":"authoritative","documentation-url":"https://historicengland.org.uk/advice/heritage-at-risk/search-register/list-entry/49753","in_zone":true,"whole_in_zone":true,"in_cw":false}},
{"type":"Feature","geometry":{"type":"MultiPolygon","coordinates":[[[[-0.069281,51.516122],[-0.069298,51.516141],[-0.069317,51.516122],[-0.069281,51.516122]]]]},"properties":{"entry-date":"2022-12-21","entity":7504342,"name":"Drinking fountain set in wall of former St Mary's Churchyard, Whitechapel Road","dataset":"heritage-at-risk","typology":"geography","reference":"1357512","prefix":"heritage-at-risk","organisation-entity":16,"quality":"authoritative","documentation-url":"https://historicengland.org.uk/advice/heritage-at-risk/search-register/list-entry/48419","in_zone":true,"whole_in_zone":true,"in_cw":false}},
{"type":"Feature","geometry":{"type":"MultiPolygon","coordinates":[[[[-0.033482,51.512154],[-0.033499,51.512174],[-0.033518,51.512155],[-0.033482,51.512154]]]]},"properties":{"entry-date":"2022-12-21","entity":7504345,"name":"Limehouse District Library, Commercial Road, Limehouse","dataset":"heritage-at-risk","typology":"geography","reference":"1357807","prefix":"heritage-at-risk","organisation-entity":16,"quality":"authoritative","documentation-url":"https://historicengland.org.uk/advice/heritage-at-risk/search-register/list-entry/50168","in_zone":true,"whole_in_zone":true,"in_cw":false}},
{"type":"Feature","geometry":{"type":"MultiPolygon","coordinates":[[[[-0.032617,51.486609],[-0.032635,51.486629],[-0.032653,51.48661],[-0.032617,51.486609]]]]},"properties":{"entry-date":"2021-05-27","entity":7504369,"name":"Gate Piers to former Naval Dockyard, Grove Street SE8","dataset":"heritage-at-risk","typology":"geography","reference":"1358998","prefix":"heritage-at-risk","organisation-entity":16,"quality":"authoritative","documentation-url":"https://historicengland.org.uk/advice/heritage-at-risk/search-register/list-entry/294744","in_zone":true,"whole_in_zone":true,"in_cw":false}},
{"type":"Feature","geometry":{"type":"MultiPolygon","coordinates":[[[[-0.059836,51.479468],[-0.059853,51.479488],[-0.059872,51.479469],[-0.059836,51.479468]]]]},"properties":{"entry-date":"2024-09-26","entity":7504506,"name":"Railings and gates to Caroline Gardens, Asylum Road","dataset":"heritage-at-risk","typology":"geography","reference":"1376543","prefix":"heritage-at-risk","organisation-entity":16,"quality":"authoritative","documentation-url":"https://historicengland.org.uk/advice/heritage-at-risk/search-register/list-entry/392115","in_zone":true,"whole_in_zone":true,"in_cw":false}},
{"type":"Feature","geometry":{"type":"MultiPolygon","coordinates":[[[[-0.08074,51.497947],[-0.080757,51.497967],[-0.080776,51.497947],[-0.08074,51.497947]]]]},"properties":{"entry-date":"2024-09-26","entity":7504507,"name":"Chest tomb, St Mary Magdalene Churchyard, Bermondsey Street","dataset":"heritage-at-risk","typology":"geography","reference":"1376573","prefix":"heritage-at-risk","organisation-entity":16,"quality":"authoritative","documentation-url":"https://historicengland.org.uk/advice/heritage-at-risk/search-register/list-entry/50219","in_zone":true,"whole_in_zone":true,"in_cw":false}},
{"type":"Feature","geometry":{"type":"MultiPolygon","coordinates":[[[[-0.081165,51.498116],[-0.081182,51.498135],[-0.081201,51.498116],[-0.081165,51.498116]]]]},"properties":{"entry-date":"2024-09-26","entity":7504508,"name":"Table tomb, St Mary Magdalene Churchyard, Bermondsey Street","dataset":"heritage-at-risk","typology":"geography","reference":"1376578","prefix":"heritage-at-risk","organisation-entity":16,"quality":"authoritative","documentation-url":"https://historicengland.org.uk/advice/heritage-at-risk/search-register/list-entry/50220","in_zone":true,"whole_in_zone":true,"in_cw":false}},
{"type":"Feature","geometry":{"type":"MultiPolygon","coordinates":[[[[-0.030179,51.512517],[-0.030303,51.512906],[-0.030707,51.512751],[-0.030606,51.512473],[-0.030409,51.512507],[-0.030284,51.512519],[-0.030216,51.51252],[-0.030179,51.512517]]]]},"properties":{"entry-date":"2024-09-26","entity":7504519,"name":"Former Caird & Rayner Ltd Warehouse, 777-783, Commercial Road","dataset":"heritage-at-risk","typology":"geography","reference":"1385372","prefix":"heritage-at-risk","organisation-entity":16,"quality":"authoritative","documentation-url":"https://historicengland.org.uk/advice/heritage-at-risk/search-register/list-entry/48930","in_zone":true,"whole_in_zone":true,"in_cw":false}},
{"type":"Feature","geometry":{"type":"MultiPolygon","coordinates":[[[[-0.072952,51.484443],[-0.072969,51.484463],[-0.072988,51.484444],[-0.072952,51.484443]]]]},"properties":{"entry-date":"2024-09-26","entity":7504524,"name":"38, Glengall Road, Peckham","dataset":"heritage-at-risk","typology":"geography","reference":"1385563","prefix":"heritage-at-risk","organisation-entity":16,"quality":"authoritative","documentation-url":"https://historicengland.org.uk/advice/heritage-at-risk/search-register/list-entry/49379","in_zone":true,"whole_in_zone":true,"in_cw":false}},
{"type":"Feature","geometry":{"type":"MultiPolygon","coordinates":[[[[-0.019728,51.51146],[-0.019728,51.511463],[-0.019801,51.511459],[-0.019741,51.511034],[-0.01913,51.511066],[-0.019132,51.511097],[-0.019136,51.511096],[-0.019148,51.511191],[-0.019152,51.511202],[-0.019149,51.511202],[-0.019152,51.511262],[-0.01916,51.511262],[-0.019156,51.511202],[-0.01926,51.511206],[-0.019262,51.511209],[-0.019435,51.511204],[-0.019456,51.511379],[-0.019223,51.511393],[-0.019215,51.511319],[-0.019164,51.511321],[-0.019162,51.5113],[-0.019155,51.511301],[-0.019156,51.511321],[-0.01916,51.511321],[-0.019176,51.511491],[-0.019728,51.51146]],[[-0.019728,51.511458],[-0.019728,51.51146],[-0.019727,51.511458],[-0.019728,51.511458]],[[-0.019793,51.511455],[-0.019728,51.511458],[-0.019725,51.511444],[-0.019692,51.511201],[-0.019688,51.511188],[-0.019725,51.511187],[-0.019721,51.511162],[-0.019556,51.51117],[-0.019545,51.511066],[-0.019236,51.51108],[-0.019239,51.511086],[-0.01914,51.511096],[-0.019137,51.511071],[-0.019734,51.511039],[-0.019793,51.511455]]]]},"properties":{"entry-date":"2024-09-26","entity":7504535,"name":"Calvary Charismatic Baptist Church (former Trinity Methodist Church), including attached hall and church rooms, East India Dock Road, Poplar","dataset":"heritage-at-risk","typology":"geography","reference":"1376625","prefix":"heritage-at-risk","organisation-entity":16,"quality":"authoritative","documentation-url":"https://historicengland.org.uk/advice/heritage-at-risk/search-register/list-entry/15970","in_zone":true,"whole_in_zone":true,"in_cw":false}},
{"type":"Feature","geometry":{"type":"MultiPolygon","coordinates":[[[[-0.080537,51.49833],[-0.080554,51.49835],[-0.080573,51.498331],[-0.080537,51.49833]]]]},"properties":{"entry-date":"2024-09-26","entity":7504538,"name":"Tomb of John Sargeant, St Mary Magdalene Churchyard, Bermondsey Street","dataset":"heritage-at-risk","typology":"geography","reference":"1376580","prefix":"heritage-at-risk","organisation-entity":16,"quality":"authoritative","documentation-url":"https://historicengland.org.uk/advice/heritage-at-risk/search-register/list-entry/50221","in_zone":true,"whole_in_zone":true,"in_cw":false}},
{"type":"Feature","geometry":{"type":"MultiPolygon","coordinates":[[[[-0.092826,51.480725],[-0.092843,51.480745],[-0.092862,51.480726],[-0.092826,51.480725]]]]},"properties":{"entry-date":"2024-09-26","entity":7504542,"name":"Number 8, Addington Square and attached railings","dataset":"heritage-at-risk","typology":"geography","reference":"1376521","prefix":"heritage-at-risk","organisation-entity":16,"quality":"authoritative","documentation-url":"https://historicengland.org.uk/advice/heritage-at-risk/search-register/list-entry/393188","in_zone":true,"whole_in_zone":true,"in_cw":false}},
{"type":"Feature","geometry":{"type":"MultiPolygon","coordinates":[[[[-0.05957,51.478653],[-0.059587,51.478673],[-0.059606,51.478654],[-0.05957,51.478653]]]]},"properties":{"entry-date":"2024-09-26","entity":7504543,"name":"Office, Licensed Victuallers Almshouses, 12a, Asylum Road","dataset":"heritage-at-risk","typology":"geography","reference":"1376536","prefix":"heritage-at-risk","organisation-entity":16,"quality":"authoritative","documentation-url":"https://historicengland.org.uk/advice/heritage-at-risk/search-register/list-entry/307041","in_zone":true,"whole_in_zone":true,"in_cw":false}},
{"type":"Feature","geometry":{"type":"MultiPolygon","coordinates":[[[[-0.060772,51.479285],[-0.06079,51.479305],[-0.060808,51.479286],[-0.060772,51.479285]]]]},"properties":{"entry-date":"2024-09-26","entity":7504544,"name":"Licensed Victuallers Almshouses: Chapel, Asylum Road","dataset":"heritage-at-risk","typology":"geography","reference":"1376538","prefix":"heritage-at-risk","organisation-entity":16,"quality":"authoritative","documentation-url":"https://historicengland.org.uk/advice/heritage-at-risk/search-register/list-entry/47500","in_zone":true,"whole_in_zone":true,"in_cw":false}},
{"type":"Feature","geometry":{"type":"MultiPolygon","coordinates":[[[[-0.030269,51.511669],[-0.030286,51.511689],[-0.030305,51.51167],[-0.030269,51.511669]]]]},"properties":{"entry-date":"2024-09-26","entity":7504552,"name":"St Anne's Limehouse Parish Church, Commercial Road, Stepney","dataset":"heritage-at-risk","typology":"geography","reference":"1357808","prefix":"heritage-at-risk","organisation-entity":16,"quality":"authoritative","documentation-url":"https://historicengland.org.uk/advice/heritage-at-risk/search-register/list-entry/18019","in_zone":true,"whole_in_zone":true,"in_cw":false}},
{"type":"Feature","geometry":{"type":"MultiPolygon","coordinates":[[[[-0.054177,51.491763],[-0.054194,51.491782],[-0.054213,51.491763],[-0.054177,51.491763]]]]},"properties":{"entry-date":"2024-09-26","entity":7504571,"name":"Former Clare College Mission Church, Southwark Park","dataset":"heritage-at-risk","typology":"geography","reference":"1385919","prefix":"heritage-at-risk","organisation-entity":16,"quality":"authoritative","documentation-url":"https://historicengland.org.uk/advice/heritage-at-risk/search-register/list-entry/48375","in_zone":true,"whole_in_zone":true,"in_cw":false}},
{"type":"Feature","geometry":{"type":"MultiPolygon","coordinates":[[[[-0.060764,51.480891],[-0.060781,51.480911],[-0.0608,51.480892],[-0.060764,51.480891]]]]},"properties":{"entry-date":"2024-09-26","entity":7504582,"name":"The Kentish Drovers public house, 720, Old Kent Road, Peckham","dataset":"heritage-at-risk","typology":"geography","reference":"1385740","prefix":"heritage-at-risk","organisation-entity":16,"quality":"authoritative","documentation-url":"https://historicengland.org.uk/advice/heritage-at-risk/search-register/list-entry/49459","in_zone":true,"whole_in_zone":true,"in_cw":false}},
{"type":"Feature","geometry":{"type":"MultiPolygon","coordinates":[[[[-0.068049,51.479501],[-0.068066,51.479521],[-0.068085,51.479501],[-0.068049,51.479501]]]]},"properties":{"entry-date":"2024-09-26","entity":7504583,"name":"112, Peckham Park Road, Peckham","dataset":"heritage-at-risk","typology":"geography","reference":"1385765","prefix":"heritage-at-risk","organisation-entity":16,"quality":"authoritative","documentation-url":"https://historicengland.org.uk/advice/heritage-at-risk/search-register/list-entry/47516","in_zone":true,"whole_in_zone":true,"in_cw":false}},
{"type":"Feature","geometry":{"type":"MultiPolygon","coordinates":[[[[-0.007581,51.517482],[-0.007774,51.517475],[-0.007767,51.517401],[-0.007842,51.517398],[-0.007849,51.517474],[-0.007959,51.51747],[-0.007951,51.517395],[-0.008065,51.517391],[-0.008072,51.517465],[-0.008186,51.517461],[-0.008179,51.517386],[-0.008281,51.517382],[-0.008289,51.517461],[-0.008403,51.517457],[-0.008396,51.517377],[-0.008501,51.517373],[-0.008509,51.517449],[-0.008663,51.517443],[-0.008656,51.517369],[-0.00861,51.517371],[-0.008608,51.517353],[-0.00872,51.517349],[-0.008713,51.517284],[-0.008648,51.517286],[-0.008645,51.51725],[-0.00871,51.517247],[-0.008704,51.517183],[-0.008592,51.517187],[-0.008591,51.517172],[-0.008634,51.51717],[-0.008626,51.517096],[-0.008756,51.517091],[-0.008758,51.517119],[-0.008768,51.517126],[-0.008809,51.517125],[-0.008814,51.51716],[-0.008827,51.517163],[-0.008839,51.517173],[-0.008857,51.517351],[-0.008838,51.517363],[-0.00884,51.517397],[-0.008814,51.517399],[-0.008801,51.517404],[-0.008806,51.517438],[-0.008858,51.517435],[-0.008868,51.517428],[-0.008866,51.517401],[-0.008854,51.517397],[-0.008843,51.517397],[-0.008842,51.517364],[-0.008861,51.517352],[-0.008845,51.517176],[-0.00884,51.517166],[-0.008829,51.51716],[-0.008819,51.517158],[-0.008815,51.517125],[-0.008828,51.517122],[-0.008837,51.517115],[-0.008838,51.517113],[-0.008837,51.517097],[-0.008833,51.517091],[-0.008825,51.517088],[-0.008802,51.517086],[-0.008038,51.517117],[-0.007447,51.517139],[-0.007435,51.517144],[-0.007426,51.517152],[-0.007424,51.517157],[-0.007365,51.51716],[-0.007363,51.517155],[-0.007351,51.517146],[-0.007341,51.517144],[-0.00715,51.517151],[-0.007151,51.517155],[-0.007337,51.517148],[-0.007346,51.517149],[-0.007355,51.517154],[-0.00736,51.517164],[-0.007428,51.517161],[-0.007432,51.517153],[-0.007441,51.517146],[-0.00745,51.517143],[-0.007541,51.51714],[-0.007548,51.517214],[-0.007586,51.517212],[-0.007587,51.517227],[-0.007637,51.517226],[-0.007635,51.517202],[-0.007698,51.517199],[-0.007697,51.517193],[-0.007748,51.517192],[-0.007748,51.517197],[-0.007768,51.517196],[-0.007769,51.517203],[-0.0078,51.517202],[-0.007803,51.517218],[-0.007694,51.517222],[-0.0077,51.517283],[-0.007762,51.517282],[-0.007767,51.517326],[-0.007705,51.517328],[-0.00771,51.517389],[-0.007572,51.517393],[-0.007581,51.517482]],[[-0.008061,51.517349],[-0.007947,51.517354],[-0.007936,51.517242],[-0.00805,51.517237],[-0.008061,51.517349]],[[-0.008164,51.517234],[-0.008266,51.517229],[-0.008278,51.517341],[-0.008175,51.517346],[-0.008164,51.517234]],[[-0.008046,51.517193],[-0.007931,51.517197],[-0.007924,51.517125],[-0.008039,51.51712],[-0.008046,51.517193]],[[-0.008369,51.517107],[-0.008474,51.517103],[-0.008482,51.517176],[-0.008377,51.51718],[-0.008369,51.517107]],[[-0.008151,51.517116],[-0.008254,51.517112],[-0.008261,51.517184],[-0.008159,51.517189],[-0.008151,51.517116]]],[[[-0.00873,51.517401],[-0.008725,51.517401],[-0.008713,51.517405],[-0.008707,51.51741],[-0.008711,51.517442],[-0.008771,51.517439],[-0.008768,51.517411],[-0.008764,51.517406],[-0.008759,51.517403],[-0.008749,51.517401],[-0.00873,51.517401]]],[[[-0.008639,51.51712],[-0.008641,51.517138],[-0.008661,51.517137],[-0.00866,51.517119],[-0.008639,51.51712]]]]},"properties":{"entry-date":"2024-09-26","entity":7504688,"name":"Former Bromley Hall School, Bromley Hall Road, London","dataset":"heritage-at-risk","typology":"geography","reference":"1402561","prefix":"heritage-at-risk","organisation-entity":16,"quality":"authoritative","documentation-url":"https://historicengland.org.uk/advice/heritage-at-risk/search-register/list-entry/407060","in_zone":true,"whole_in_zone":true,"in_cw":false}},
{"type":"Feature","geometry":{"type":"MultiPolygon","coordinates":[[[[-0.080838,51.498353],[-0.080855,51.498373],[-0.080874,51.498354],[-0.080838,51.498353]]]]},"properties":{"entry-date":"2024-09-26","entity":7504957,"name":"Church of St Mary Magdalene, Bermondsey Street, Bermondsey","dataset":"heritage-at-risk","typology":"geography","reference":"1376567","prefix":"heritage-at-risk","organisation-entity":16,"quality":"authoritative","documentation-url":"https://historicengland.org.uk/advice/heritage-at-risk/search-register/list-entry/10943","in_zone":true,"whole_in_zone":true,"in_cw":false}},
{"type":"Feature","geometry":{"type":"MultiPolygon","coordinates":[[[[-0.094953,51.495022],[-0.09497,51.495042],[-0.094989,51.495023],[-0.094953,51.495022]]]]},"properties":{"entry-date":"2024-09-26","entity":7504962,"name":"The Cross and Star Church, Falmouth Road, Bermondsey","dataset":"heritage-at-risk","typology":"geography","reference":"1385523","prefix":"heritage-at-risk","organisation-entity":16,"quality":"authoritative","documentation-url":"https://historicengland.org.uk/advice/heritage-at-risk/search-register/list-entry/19823","in_zone":true,"whole_in_zone":true,"in_cw":false}},
{"type":"Feature","geometry":{"type":"MultiPolygon","coordinates":[[[[-0.009919,51.477347],[-0.009937,51.477367],[-0.009956,51.477348],[-0.009919,51.477347]]]]},"properties":{"entry-date":"2024-09-26","entity":7504993,"name":"24, Royal Hill, Greenwich","dataset":"heritage-at-risk","typology":"geography","reference":"1391248","prefix":"heritage-at-risk","organisation-entity":16,"quality":"authoritative","documentation-url":"https://historicengland.org.uk/advice/heritage-at-risk/search-register/list-entry/49594","in_zone":true,"whole_in_zone":true,"in_cw":false}},
{"type":"Feature","geometry":{"type":"MultiPolygon","coordinates":[[[[-0.094731,51.487106],[-0.094748,51.487126],[-0.094767,51.487107],[-0.094731,51.487106]]]]},"properties":{"entry-date":"2022-12-21","entity":7505002,"name":"Kennedy, 305, Walworth Road, Walworth","dataset":"heritage-at-risk","typology":"geography","reference":"1392595","prefix":"heritage-at-risk","organisation-entity":16,"quality":"authoritative","documentation-url":"https://historicengland.org.uk/advice/heritage-at-risk/search-register/list-entry/50047","in_zone":true,"whole_in_zone":true,"in_cw":false}},
{"type":"Feature","geometry":{"type":"MultiPolygon","coordinates":[[[[-0.02851,51.485983],[-0.028528,51.486002],[-0.028546,51.485983],[-0.02851,51.485983]]]]},"properties":{"entry-date":"2024-09-26","entity":7505315,"name":"Olympia Convoy's Wharf, Prince Street","dataset":"heritage-at-risk","typology":"geography","reference":"1213012","prefix":"heritage-at-risk","organisation-entity":16,"quality":"authoritative","documentation-url":"https://historicengland.org.uk/advice/heritage-at-risk/search-register/list-entry/189095","in_zone":true,"whole_in_zone":true,"in_cw":false}},
{"type":"Feature","geometry":{"type":"MultiPolygon","coordinates":[[[[-0.029409,51.517563],[-0.029426,51.517583],[-0.029445,51.517564],[-0.029409,51.517563]]]]},"properties":{"entry-date":"2024-09-26","entity":7505332,"name":"St Paul's Church, Burdett Road, Stepney","dataset":"heritage-at-risk","typology":"geography","reference":"1241881","prefix":"heritage-at-risk","organisation-entity":16,"quality":"authoritative","documentation-url":"https://historicengland.org.uk/advice/heritage-at-risk/search-register/list-entry/18021","in_zone":true,"whole_in_zone":true,"in_cw":false}},
{"type":"Feature","geometry":{"type":"MultiPolygon","coordinates":[[[[-0.059681,51.510037],[-0.059698,51.510057],[-0.059717,51.510038],[-0.059681,51.510037]]]]},"properties":{"entry-date":"2024-09-26","entity":7505420,"name":"Church of St George in the East, Cannon Street Road, Stepney","dataset":"heritage-at-risk","typology":"geography","reference":"1357779","prefix":"heritage-at-risk","organisation-entity":16,"quality":"authoritative","documentation-url":"https://historicengland.org.uk/advice/heritage-at-risk/search-register/list-entry/18016","in_zone":true,"whole_in_zone":true,"in_cw":false}},
{"type":"Feature","geometry":{"type":"MultiPolygon","coordinates":[[[[-0.085517,51.482611],[-0.085535,51.482631],[-0.085554,51.482612],[-0.085517,51.482611]]]]},"properties":{"entry-date":"2024-09-26","entity":7505451,"name":"Former library, public baths and wash-house, Wells Way","dataset":"heritage-at-risk","typology":"geography","reference":"1386038","prefix":"heritage-at-risk","organisation-entity":16,"quality":"authoritative","documentation-url":"https://historicengland.org.uk/advice/heritage-at-risk/search-register/list-entry/49383","in_zone":true,"whole_in_zone":true,"in_cw":false}}
]}
