{"type":"FeatureCollection","properties":{"survey":"RSDRA2015000255836","grid":"single-beam points","vertical_datum":"Admiralty Chart Datum (EPSG::50000)","z_cd":"height above chart datum in metres; negative = below chart datum","source":"https://datahub.admiralty.co.uk/Bathy_Data/Prodbathy/bathymetry/2015%202015-255836%20River%20Thames%20HMS%20Belfast.csv","licence":"Open Government Licence v3.0 (UKHO INSPIRE bathymetry); not for navigation"},"features":[{"type":"Feature","geometry":{"type":"Point","coordinates":[-0.080367,51.506533]},"properties":{"z_cd":-5.9}},{"type":"Feature","geometry":{"type":"Point","coordinates":[-0.07995,51.5067]},"properties":{"z_cd":-5.9}},{"type":"Feature","geometry":{"type":"Point","coordinates":[-0.081783,51.5071]},"properties":{"z_cd":-6.7}},{"type":"Feature","geometry":{"type":"Point","coordinates":[-0.080267,51.506533]},"properties":{"z_cd":-6.7}},{"type":"Feature","geometry":{"type":"Point","coordinates":[-0.081317,51.506767]},"properties":{"z_cd":-7.3}},{"type":"Feature","geometry":{"type":"Point","coordinates":[-0.08245,51.507283]},"properties":{"z_cd":-5.7}},{"type":"Feature","geometry":{"type":"Point","coordinates":[-0.080883,51.506967]},"properties":{"z_cd":-6.3}},{"type":"Feature","geometry":{"type":"Point","coordinates":[-0.08055,51.506967]},"properties":{"z_cd":-5.7}},{"type":"Feature","geometry":{"type":"Point","coordinates":[-0.081233,51.50705]},"properties":{"z_cd":-6.6}},{"type":"Feature","geometry":{"type":"Point","coordinates":[-0.0805,51.5065]},"properties":{"z_cd":-6.64}},{"type":"Feature","geometry":{"type":"Point","coordinates":[-0.0798,51.506667]},"properties":{"z_cd":-5.67}},{"type":"Feature","geometry":{"type":"Point","coordinates":[-0.081783,51.506883]},"properties":{"z_cd":-7.7}},{"type":"Feature","geometry":{"type":"Point","coordinates":[-0.080283,51.50655]},"properties":{"z_cd":-6.4}},{"type":"Feature","geometry":{"type":"Point","coordinates":[-0.079867,51.50645]},"properties":{"z_cd":-4.7}},{"type":"Feature","geometry":{"type":"Point","coordinates":[-0.07945,51.506533]},"properties":{"z_cd":-6.0}},{"type":"Feature","geometry":{"type":"Point","coordinates":[-0.080983,51.506817]},"properties":{"z_cd":-7.1}},{"type":"Feature","geometry":{"type":"Point","coordinates":[-0.0827,51.50705]},"properties":{"z_cd":-5.5}},{"type":"Feature","geometry":{"type":"Point","coordinates":[-0.08215,51.507233]},"properties":{"z_cd":-6.1}},{"type":"Feature","geometry":{"type":"Point","coordinates":[-0.08325,51.5071]},"properties":{"z_cd":-6.3}},{"type":"Feature","geometry":{"type":"Point","coordinates":[-0.080483,51.506617]},"properties":{"z_cd":-6.57}},{"type":"Feature","geometry":{"type":"Point","coordinates":[-0.079233,51.506317]},"properties":{"z_cd":-4.5}},{"type":"Feature","geometry":{"type":"Point","coordinates":[-0.079,51.5063]},"properties":{"z_cd":-5.2}},{"type":"Feature","geometry":{"type":"Point","coordinates":[-0.0821,51.506933]},"properties":{"z_cd":-7.1}},{"type":"Feature","geometry":{"type":"Point","coordinates":[-0.081483,51.506933]},"properties":{"z_cd":-7.6}},{"type":"Feature","geometry":{"type":"Point","coordinates":[-0.0795,51.5067]},"properties":{"z_cd":-6.0}},{"type":"Feature","geometry":{"type":"Point","coordinates":[-0.081167,51.506867]},"properties":{"z_cd":-7.1}},{"type":"Feature","geometry":{"type":"Point","coordinates":[-0.082983,51.50715]},"properties":{"z_cd":-5.7}},{"type":"Feature","geometry":{"type":"Point","coordinates":[-0.07985,51.506783]},"properties":{"z_cd":-5.4}},{"type":"Feature","geometry":{"type":"Point","coordinates":[-0.0807,51.506767]},"properties":{"z_cd":-6.6}}]}