{
"type": "FeatureCollection",
"name": "INSPIRE_Wrecks_and_Obstructions_UK_EEZ_Points",
"features": [
{ "type": "Feature", "properties": { "catobs": "foul ground", "catwrk": null, "valsou": 0.0, "watlev": "covers and uncovers", "wk_idn": 67327.0, "objnam": null }, "geometry": { "type": "Point", "coordinates": [ -0.0061333, 51.4844 ] } },
{ "type": "Feature", "properties": { "catobs": "foul ground", "catwrk": null, "valsou": 0.0, "watlev": "covers and uncovers", "wk_idn": 67326.0, "objnam": null }, "geometry": { "type": "Point", "coordinates": [ -0.003, 51.4855833 ] } },
{ "type": "Feature", "properties": { "catobs": "foul ground", "catwrk": null, "valsou": 0.0, "watlev": "covers and uncovers", "wk_idn": 67328.0, "objnam": null }, "geometry": { "type": "Point", "coordinates": [ -0.00715, 51.48405 ] } },
{ "type": "Feature", "properties": { "catobs": "foul ground", "catwrk": null, "valsou": 0.0, "watlev": "always under water/submerged", "wk_idn": 78610.0, "objnam": null }, "geometry": { "type": "Point", "coordinates": [ -0.0148333, 51.4837833 ] } },
{ "type": "Feature", "properties": { "catobs": "foul ground", "catwrk": null, "valsou": 0.0, "watlev": "always under water/submerged", "wk_idn": 65349.0, "objnam": null }, "geometry": { "type": "Point", "coordinates": [ -0.0148333, 51.4837833 ] } },
{ "type": "Feature", "properties": { "catobs": "foul ground", "catwrk": null, "valsou": 0.0, "watlev": "always under water/submerged", "wk_idn": 65352.0, "objnam": null }, "geometry": { "type": "Point", "coordinates": [ -0.0147333, 51.4844 ] } },
{ "type": "Feature", "properties": { "catobs": "foul ground", "catwrk": null, "valsou": 0.0, "watlev": "always under water/submerged", "wk_idn": 78604.0, "objnam": null }, "geometry": { "type": "Point", "coordinates": [ -0.0315, 51.4937 ] } },
{ "type": "Feature", "properties": { "catobs": "foul ground", "catwrk": null, "valsou": 0.0, "watlev": "always under water/submerged", "wk_idn": 78605.0, "objnam": null }, "geometry": { "type": "Point", "coordinates": [ -0.0310333, 51.4928 ] } },
{ "type": "Feature", "properties": { "catobs": "foul ground", "catwrk": null, "valsou": 0.0, "watlev": "always under water/submerged", "wk_idn": 78608.0, "objnam": null }, "geometry": { "type": "Point", "coordinates": [ -0.0189517, 51.4851292 ] } },
{ "type": "Feature", "properties": { "catobs": "foul ground", "catwrk": null, "valsou": 0.0, "watlev": "always under water/submerged", "wk_idn": 93451.0, "objnam": null }, "geometry": { "type": "Point", "coordinates": [ -0.0053585, 51.4972218 ] } },
{ "type": "Feature", "properties": { "catobs": "foul ground", "catwrk": null, "valsou": 0.0, "watlev": "always under water/submerged", "wk_idn": 78609.0, "objnam": null }, "geometry": { "type": "Point", "coordinates": [ -0.0181667, 51.4851 ] } },
{ "type": "Feature", "properties": { "catobs": "foul ground", "catwrk": null, "valsou": 0.0, "watlev": "covers and uncovers", "wk_idn": 64995.0, "objnam": null }, "geometry": { "type": "Point", "coordinates": [ -0.0556, 51.5038833 ] } },
{ "type": "Feature", "properties": { "catobs": "foul ground", "catwrk": null, "valsou": 0.0, "watlev": "covers and uncovers", "wk_idn": 64997.0, "objnam": null }, "geometry": { "type": "Point", "coordinates": [ -0.0564833, 51.5035333 ] } },
{ "type": "Feature", "properties": { "catobs": "foul ground", "catwrk": null, "valsou": 0.0, "watlev": "always under water/submerged", "wk_idn": 64993.0, "objnam": null }, "geometry": { "type": "Point", "coordinates": [ -0.0535833, 51.5044333 ] } },
{ "type": "Feature", "properties": { "catobs": "foul ground", "catwrk": null, "valsou": 0.0, "watlev": "always under water/submerged", "wk_idn": 64990.0, "objnam": null }, "geometry": { "type": "Point", "coordinates": [ -0.0517167, 51.5057833 ] } },
{ "type": "Feature", "properties": { "catobs": "foul ground", "catwrk": null, "valsou": 0.0, "watlev": "always under water/submerged", "wk_idn": 59257.0, "objnam": null }, "geometry": { "type": "Point", "coordinates": [ -0.0792, 51.50635 ] } },
{ "type": "Feature", "properties": { "catobs": "foul ground", "catwrk": null, "valsou": 0.0, "watlev": "always under water/submerged", "wk_idn": 64996.0, "objnam": null }, "geometry": { "type": "Point", "coordinates": [ -0.0556667, 51.50355 ] } },
{ "type": "Feature", "properties": { "catobs": "foul ground", "catwrk": null, "valsou": 0.0, "watlev": "always under water/submerged", "wk_idn": 64991.0, "objnam": null }, "geometry": { "type": "Point", "coordinates": [ -0.0521833, 51.5055667 ] } },
{ "type": "Feature", "properties": { "catobs": "foul ground", "catwrk": null, "valsou": 0.0, "watlev": "always under water/submerged", "wk_idn": 58982.0, "objnam": null }, "geometry": { "type": "Point", "coordinates": [ -0.0531667, 51.5028833 ] } },
{ "type": "Feature", "properties": { "catobs": null, "catwrk": null, "valsou": 6.0, "watlev": "always under water/submerged", "wk_idn": 65346.0, "objnam": null }, "geometry": { "type": "Point", "coordinates": [ -0.0243333, 51.48635 ] } },
{ "type": "Feature", "properties": { "catobs": "foul ground", "catwrk": null, "valsou": 0.0, "watlev": "always under water/submerged", "wk_idn": 34696.0, "objnam": null }, "geometry": { "type": "Point", "coordinates": [ -0.0059333, 51.4986167 ] } },
{ "type": "Feature", "properties": { "catobs": "foul ground", "catwrk": null, "valsou": 0.0, "watlev": "always under water/submerged", "wk_idn": 78606.0, "objnam": null }, "geometry": { "type": "Point", "coordinates": [ -0.0280833, 51.5031167 ] } },
{ "type": "Feature", "properties": { "catobs": "foul ground", "catwrk": null, "valsou": 0.0, "watlev": "covers and uncovers", "wk_idn": 67290.0, "objnam": null }, "geometry": { "type": "Point", "coordinates": [ -0.0025833, 51.50155 ] } },
{ "type": "Feature", "properties": { "catobs": "foul ground", "catwrk": null, "valsou": 0.0, "watlev": "always under water/submerged", "wk_idn": 67331.0, "objnam": null }, "geometry": { "type": "Point", "coordinates": [ -0.0176, 51.4855167 ] } },
{ "type": "Feature", "properties": { "catobs": "foul ground", "catwrk": null, "valsou": 0.0, "watlev": "always under water/submerged", "wk_idn": 78607.0, "objnam": null }, "geometry": { "type": "Point", "coordinates": [ -0.0191333, 51.48435 ] } },
{ "type": "Feature", "properties": { "catobs": "foul ground", "catwrk": null, "valsou": 0.0, "watlev": "always under water/submerged", "wk_idn": 67337.0, "objnam": null }, "geometry": { "type": "Point", "coordinates": [ -0.0126, 51.48485 ] } },
{ "type": "Feature", "properties": { "catobs": "foul ground", "catwrk": null, "valsou": 0.0, "watlev": "always under water/submerged", "wk_idn": 67335.0, "objnam": null }, "geometry": { "type": "Point", "coordinates": [ -0.0131333, 51.4852667 ] } },
{ "type": "Feature", "properties": { "catobs": "foul ground", "catwrk": null, "valsou": 0.0, "watlev": "always under water/submerged", "wk_idn": 78611.0, "objnam": null }, "geometry": { "type": "Point", "coordinates": [ 0.0146333, 51.4984667 ] } },
{ "type": "Feature", "properties": { "catobs": "foul ground", "catwrk": null, "valsou": 0.0, "watlev": "always under water/submerged", "wk_idn": 67338.0, "objnam": null }, "geometry": { "type": "Point", "coordinates": [ -0.0128667, 51.4845333 ] } },
{ "type": "Feature", "properties": { "catobs": "foul ground", "catwrk": null, "valsou": 0.0, "watlev": "always under water/submerged", "wk_idn": 67340.0, "objnam": null }, "geometry": { "type": "Point", "coordinates": [ -0.0122833, 51.4842333 ] } },
{ "type": "Feature", "properties": { "catobs": "foul ground", "catwrk": null, "valsou": 0.0, "watlev": "always under water/submerged", "wk_idn": 64989.0, "objnam": null }, "geometry": { "type": "Point", "coordinates": [ -0.0509333, 51.5063333 ] } },
{ "type": "Feature", "properties": { "catobs": "foul ground", "catwrk": null, "valsou": 0.0, "watlev": "always under water/submerged", "wk_idn": 64992.0, "objnam": null }, "geometry": { "type": "Point", "coordinates": [ -0.0474667, 51.50565 ] } },
{ "type": "Feature", "properties": { "catobs": "foul ground", "catwrk": null, "valsou": 0.0, "watlev": "covers and uncovers", "wk_idn": 67330.0, "objnam": null }, "geometry": { "type": "Point", "coordinates": [ -0.0114333, 51.4833667 ] } },
{ "type": "Feature", "properties": { "catobs": "foul ground", "catwrk": null, "valsou": 0.0, "watlev": "covers and uncovers", "wk_idn": 65353.0, "objnam": null }, "geometry": { "type": "Point", "coordinates": [ -0.0177167, 51.4834167 ] } },
{ "type": "Feature", "properties": { "catobs": "foul ground", "catwrk": null, "valsou": 0.0, "watlev": "covers and uncovers", "wk_idn": 65354.0, "objnam": null }, "geometry": { "type": "Point", "coordinates": [ -0.0181, 51.48365 ] } },
{ "type": "Feature", "properties": { "catobs": "foul ground", "catwrk": null, "valsou": 0.0, "watlev": "always under water/submerged", "wk_idn": 64988.0, "objnam": null }, "geometry": { "type": "Point", "coordinates": [ -0.04455, 51.5088333 ] } },
{ "type": "Feature", "properties": { "catobs": "foul ground", "catwrk": null, "valsou": 0.0, "watlev": "always under water/submerged", "wk_idn": 64987.0, "objnam": null }, "geometry": { "type": "Point", "coordinates": [ -0.0430167, 51.5090667 ] } },
{ "type": "Feature", "properties": { "catobs": "foul ground", "catwrk": null, "valsou": 0.0, "watlev": "covers and uncovers", "wk_idn": 13402.0, "objnam": null }, "geometry": { "type": "Point", "coordinates": [ 0.0107833, 51.5004333 ] } },
{ "type": "Feature", "properties": { "catobs": "foul ground", "catwrk": null, "valsou": 0.0, "watlev": "covers and uncovers", "wk_idn": 67325.0, "objnam": null }, "geometry": { "type": "Point", "coordinates": [ -0.00115, 51.4865833 ] } },
{ "type": "Feature", "properties": { "catobs": "foul ground", "catwrk": null, "valsou": 0.0, "watlev": "covers and uncovers", "wk_idn": 34692.0, "objnam": null }, "geometry": { "type": "Point", "coordinates": [ -0.0027167, 51.50115 ] } },
{ "type": "Feature", "properties": { "catobs": "foul ground", "catwrk": null, "valsou": 0.0, "watlev": "covers and uncovers", "wk_idn": 57652.0, "objnam": null }, "geometry": { "type": "Point", "coordinates": [ 0.0107833, 51.5004333 ] } },
{ "type": "Feature", "properties": { "catobs": null, "catwrk": "wreck showing any portion of hull or superstructure", "valsou": 0.0, "watlev": "covers and uncovers", "wk_idn": 58388.0, "objnam": null }, "geometry": { "type": "Point", "coordinates": [ -0.0003333, 51.5041667 ] } },
{ "type": "Feature", "properties": { "catobs": "foul ground", "catwrk": null, "valsou": 0.0, "watlev": "covers and uncovers", "wk_idn": 65355.0, "objnam": null }, "geometry": { "type": "Point", "coordinates": [ -0.0186, 51.4839167 ] } },
{ "type": "Feature", "properties": { "catobs": null, "catwrk": "wreck showing any portion of hull or superstructure", "valsou": 0.0, "watlev": "covers and uncovers", "wk_idn": 12866.0, "objnam": "BARBARA" }, "geometry": { "type": "Point", "coordinates": [ -0.0012778, 51.4863333 ] } },
{ "type": "Feature", "properties": { "catobs": "foul ground", "catwrk": null, "valsou": 0.0, "watlev": "covers and uncovers", "wk_idn": 34693.0, "objnam": null }, "geometry": { "type": "Point", "coordinates": [ -0.0018333, 51.4982833 ] } },
{ "type": "Feature", "properties": { "catobs": null, "catwrk": null, "valsou": -6.0, "watlev": "covers and uncovers", "wk_idn": 34691.0, "objnam": null }, "geometry": { "type": "Point", "coordinates": [ -0.0125, 51.4830833 ] } },
{ "type": "Feature", "properties": { "catobs": "diffuser", "catwrk": null, "valsou": -2.0, "watlev": "covers and uncovers", "wk_idn": 34689.0, "objnam": null }, "geometry": { "type": "Point", "coordinates": [ -0.0319667, 51.4931167 ] } },
{ "type": "Feature", "properties": { "catobs": "foul ground", "catwrk": null, "valsou": 0.0, "watlev": "always under water/submerged", "wk_idn": 67334.0, "objnam": null }, "geometry": { "type": "Point", "coordinates": [ -0.014, 51.4849167 ] } },
{ "type": "Feature", "properties": { "catobs": "foul ground", "catwrk": null, "valsou": 0.0, "watlev": "always under water/submerged", "wk_idn": 34697.0, "objnam": null }, "geometry": { "type": "Point", "coordinates": [ -0.0063667, 51.49925 ] } },
{ "type": "Feature", "properties": { "catobs": "foul ground", "catwrk": null, "valsou": 0.0, "watlev": "always under water/submerged", "wk_idn": 93083.0, "objnam": null }, "geometry": { "type": "Point", "coordinates": [ -0.071184, 51.5035881 ] } }
]
}
