{"type":"FeatureCollection","meta":{
 "source": "City of London INSPIRE map service: Principal Shopping Centres",
 "borough": "City of London",
 "page": "https://www.mapping.cityoflondon.gov.uk/arcgis/rest/services/INSPIRE/MapServer/122",
 "api": "https://www.mapping.cityoflondon.gov.uk/arcgis/rest/services/INSPIRE/MapServer/122/query?where=1=1&geometry=<zone box>&geometryType=esriGeometryEnvelope&inSR=4326&spatialRel=esriSpatialRelIntersects&outFields=*&outSR=4326&f=geojson&resultOffset=<n>",
 "fetched": "2026-10-04",
 "licence": "Open Government Licence v3.0",
 "licence_evidence": "the City's INSPIRE record on data.gov.uk (principal-shopping-centres8): [\"http://www.nationalarchives.gov.uk/doc/open-government-licence/version/3/\"] | [\"https://inspire.ec.europa.eu/metadata-codelist/LimitationsOnPublicAccess\", \"License\"]",
 "licence_url": "https://www.nationalarchives.gov.uk/doc/open-government-licence/version/3/",
 "attribution": "Contains public sector information licensed under the Open Government Licence v3.0 (City of London Corporation)",
 "zone": "the 3D model box, BNG E 532400-539900, N 176700-182300 (WGS84 -0.095, 51.474 to 0.015, 51.522)",
 "method": "walk-portals.mjs boroughs harvest city-principal-shopping-centres: features that meet the zone box, WGS84 rounded to 6 decimals, whole geometries; whole_in_zone, in_cw; empty fields and ArcGIS shape measures left out; fields matching /e-?mail|phone|tel(ephone)?$|^tel|contact|^fax|mobile|^owner_?name|person|officer|case_?officer|agent_?name|applicant/i dropped",
 "counts": {
  "features": 4,
  "zone_count_at_walk": 4,
  "in_cw": 0
 },
 "fields_dropped": []
},
"features":[
{"type":"Feature","geometry":{"type":"MultiPolygon","coordinates":[[[[-0.082979,51.51746],[-0.082995,51.517461],[-0.083009,51.517459],[-0.083021,51.517457],[-0.083025,51.517457],[-0.083037,51.517453],[-0.083047,51.517449],[-0.083054,51.517445],[-0.083059,51.51744],[-0.083064,51.517433],[-0.083068,51.517428],[-0.083069,51.517425],[-0.083071,51.517422],[-0.083071,51.517418],[-0.083074,51.517415],[-0.083079,51.517402],[-0.083105,51.517339],[-0.083151,51.517214],[-0.082984,51.5172],[-0.082969,51.517231],[-0.082964,51.517243],[-0.083063,51.517252],[-0.083035,51.517328],[-0.083008,51.517394],[-0.083005,51.517401],[-0.083002,51.517405],[-0.083002,51.517408],[-0.083,51.517412],[-0.082999,51.517415],[-0.082995,51.517415],[-0.082988,51.517416],[-0.08298,51.517414],[-0.082975,51.517413],[-0.082969,51.517412],[-0.082934,51.517406],[-0.082928,51.517405],[-0.082887,51.517396],[-0.082832,51.517384],[-0.082758,51.517368],[-0.082682,51.517353],[-0.082684,51.517349],[-0.082519,51.517313],[-0.082391,51.517285],[-0.08235,51.517276],[-0.0823,51.517264],[-0.08227,51.517257],[-0.082235,51.517249],[-0.082212,51.517244],[-0.082187,51.517237],[-0.082136,51.517225],[-0.082097,51.517215],[-0.08207,51.51721],[-0.082164,51.517214],[-0.082187,51.517216],[-0.082241,51.517219],[-0.082301,51.517222],[-0.082369,51.517225],[-0.082431,51.517229],[-0.082498,51.517233],[-0.082564,51.517236],[-0.082626,51.51724],[-0.082736,51.517246],[-0.082742,51.517234],[-0.082761,51.517238],[-0.082821,51.517249],[-0.082824,51.517242],[-0.082833,51.517206],[-0.082764,51.517202],[-0.082721,51.5172],[-0.082633,51.517195],[-0.082571,51.517192],[-0.082505,51.517188],[-0.082438,51.517184],[-0.082375,51.517181],[-0.082307,51.517177],[-0.082247,51.517174],[-0.08217,51.51717],[-0.082101,51.517166],[-0.08208,51.517165],[-0.082037,51.517163],[-0.082016,51.517162],[-0.082014,51.517162],[-0.081998,51.517161],[-0.08199,51.517161],[-0.081982,51.517161],[-0.081975,51.517161],[-0.081969,51.517161],[-0.081962,51.517162],[-0.081957,51.517163],[-0.081952,51.517164],[-0.081948,51.517167],[-0.081941,51.517172],[-0.08191,51.517213],[-0.081918,51.517216],[-0.081927,51.51722],[-0.081935,51.517223],[-0.081943,51.517225],[-0.081953,51.517228],[-0.081959,51.51723],[-0.081962,51.517231],[-0.081972,51.517234],[-0.081987,51.517238],[-0.082007,51.517243],[-0.082018,51.517246],[-0.08203,51.517248],[-0.082054,51.517254],[-0.082074,51.517258],[-0.082109,51.517267],[-0.082166,51.51728],[-0.082186,51.517286],[-0.082212,51.517291],[-0.082246,51.5173],[-0.082274,51.517306],[-0.082328,51.517319],[-0.082343,51.517322],[-0.082368,51.517328],[-0.08239,51.517332],[-0.082499,51.517356],[-0.08266,51.517392],[-0.082736,51.517409],[-0.082807,51.517426],[-0.082863,51.517438],[-0.082906,51.517447],[-0.082949,51.517455],[-0.082956,51.517457],[-0.082964,51.517458],[-0.082972,51.51746],[-0.082975,51.51746],[-0.082979,51.51746]]],[[[-0.081829,51.51632],[-0.081861,51.516324],[-0.082067,51.51635],[-0.082416,51.516395],[-0.082518,51.516408],[-0.082589,51.516418],[-0.082946,51.516462],[-0.082996,51.516468],[-0.083354,51.51651],[-0.083248,51.51677],[-0.083318,51.51678],[-0.083332,51.516753],[-0.083408,51.51656],[-0.083436,51.51649],[-0.08342,51.516472],[-0.083009,51.516424],[-0.08296,51.516418],[-0.082758,51.516393],[-0.082603,51.516374],[-0.082531,51.516364],[-0.082432,51.516351],[-0.08209,51.516307],[-0.081874,51.51628],[-0.08178,51.516268],[-0.081773,51.516268],[-0.081766,51.516268],[-0.081756,51.516269],[-0.081747,51.516271],[-0.08174,51.516273],[-0.081734,51.516276],[-0.081726,51.51628],[-0.08172,51.516286],[-0.081719,51.516286],[-0.081711,51.516295],[-0.081623,51.5164],[-0.081694,51.516411],[-0.081777,51.516314],[-0.081829,51.51632]]],[[[-0.084631,51.518254],[-0.084816,51.518306],[-0.084828,51.518309],[-0.084852,51.518316],[-0.085397,51.518473],[-0.085427,51.518432],[-0.084882,51.518275],[-0.084858,51.518269],[-0.084662,51.518214],[-0.084604,51.518199],[-0.084595,51.518196],[-0.084518,51.518176],[-0.084487,51.518166],[-0.084479,51.518163],[-0.084474,51.518162],[-0.084466,51.518159],[-0.084459,51.518157],[-0.08445,51.518154],[-0.084446,51.518152],[-0.084433,51.518144],[-0.084427,51.518139],[-0.084422,51.518133],[-0.08442,51.518132],[-0.084416,51.518128],[-0.084413,51.518126],[-0.084409,51.518118],[-0.084397,51.518095],[-0.084393,51.518084],[-0.084392,51.518083],[-0.084392,51.518081],[-0.084391,51.518075],[-0.084391,51.51807],[-0.084393,51.518056],[-0.084396,51.518046],[-0.0844,51.518038],[-0.084409,51.518025],[-0.084413,51.518019],[-0.084447,51.517989],[-0.084493,51.517951],[-0.084554,51.517898],[-0.084603,51.517857],[-0.084613,51.517849],[-0.084643,51.517825],[-0.084728,51.517754],[-0.084751,51.517736],[-0.08476,51.517731],[-0.084763,51.51773],[-0.084765,51.517729],[-0.084767,51.517728],[-0.084728,51.51769],[-0.084719,51.517694],[-0.084702,51.517703],[-0.084689,51.51771],[-0.08468,51.517718],[-0.084636,51.517756],[-0.084591,51.517794],[-0.084559,51.51782],[-0.084546,51.517829],[-0.084508,51.517861],[-0.084444,51.517917],[-0.084405,51.517949],[-0.084385,51.517966],[-0.084366,51.517982],[-0.084361,51.517987],[-0.08435,51.517997],[-0.084332,51.518023],[-0.084326,51.518036],[-0.084322,51.518049],[-0.084318,51.518067],[-0.084319,51.518078],[-0.084321,51.51809],[-0.084322,51.518092],[-0.084328,51.518107],[-0.084334,51.518121],[-0.084341,51.518134],[-0.084349,51.518146],[-0.084352,51.518149],[-0.08436,51.518157],[-0.084368,51.518165],[-0.084379,51.518174],[-0.084396,51.518185],[-0.084404,51.518189],[-0.084412,51.518192],[-0.084425,51.518197],[-0.084454,51.518206],[-0.084487,51.518217],[-0.084511,51.518223],[-0.084529,51.518228],[-0.084529,51.518227],[-0.084631,51.518254]]],[[[-0.084063,51.517642],[-0.084221,51.517666],[-0.084271,51.517673],[-0.084339,51.517684],[-0.084432,51.517698],[-0.084486,51.517653],[-0.084556,51.517593],[-0.084656,51.517509],[-0.084678,51.517491],[-0.084617,51.517467],[-0.084498,51.517566],[-0.084403,51.517647],[-0.084081,51.517598],[-0.083922,51.517572],[-0.083791,51.517551],[-0.083697,51.517537],[-0.083626,51.517525],[-0.083526,51.517508],[-0.083313,51.517474],[-0.0833,51.517472],[-0.083311,51.517441],[-0.083323,51.517411],[-0.083372,51.517277],[-0.083301,51.517267],[-0.083289,51.5173],[-0.08327,51.517348],[-0.083252,51.517401],[-0.083243,51.517428],[-0.083241,51.51743],[-0.083229,51.517464],[-0.083226,51.517472],[-0.083225,51.517474],[-0.083226,51.517481],[-0.083228,51.517485],[-0.083232,51.517491],[-0.083238,51.517496],[-0.083241,51.5175],[-0.083249,51.517505],[-0.083257,51.517509],[-0.083266,51.517512],[-0.083271,51.517514],[-0.083294,51.517518],[-0.083508,51.517552],[-0.083679,51.51758],[-0.083773,51.517595],[-0.083904,51.517616],[-0.084063,51.517642]]],[[[-0.080311,51.518105],[-0.080319,51.518106],[-0.080108,51.518486],[-0.080176,51.5185],[-0.080385,51.518124],[-0.080387,51.518122],[-0.080387,51.518121],[-0.080388,51.518119],[-0.080389,51.518116],[-0.08039,51.518113],[-0.080391,51.51811],[-0.080391,51.518107],[-0.080391,51.518104],[-0.080391,51.518101],[-0.08039,51.5181],[-0.080458,51.51798],[-0.080459,51.517979],[-0.080462,51.517977],[-0.080465,51.517974],[-0.080467,51.517972],[-0.08047,51.517969],[-0.080472,51.517967],[-0.080473,51.517964],[-0.080475,51.517961],[-0.080498,51.517923],[-0.080502,51.517922],[-0.080506,51.517922],[-0.080515,51.51792],[-0.08052,51.517919],[-0.080536,51.517915],[-0.080539,51.517914],[-0.080546,51.517912],[-0.080552,51.517909],[-0.08056,51.517907],[-0.080564,51.517906],[-0.080569,51.517903],[-0.080577,51.517899],[-0.081067,51.518003],[-0.081091,51.51796],[-0.080558,51.517848],[-0.080553,51.517852],[-0.080547,51.517856],[-0.080541,51.51786],[-0.080533,51.517864],[-0.080525,51.517868],[-0.080517,51.51787],[-0.080509,51.517873],[-0.080494,51.517877],[-0.080485,51.517879],[-0.080468,51.517881],[-0.080458,51.517882],[-0.080446,51.517882],[-0.080406,51.517948],[-0.080399,51.517947],[-0.080311,51.518105]]],[[[-0.081767,51.517117],[-0.081769,51.51712],[-0.081777,51.517128],[-0.081784,51.517133],[-0.08179,51.517138],[-0.081791,51.517139],[-0.081802,51.517149],[-0.081815,51.517158],[-0.081828,51.517168],[-0.081848,51.517179],[-0.081852,51.517173],[-0.081858,51.517161],[-0.081866,51.51715],[-0.08187,51.517145],[-0.081874,51.517142],[-0.081882,51.517137],[-0.081891,51.517132],[-0.081901,51.517129],[-0.081912,51.517125],[-0.081922,51.517123],[-0.081937,51.517121],[-0.08195,51.517121],[-0.081967,51.51712],[-0.081986,51.51712],[-0.081992,51.517121],[-0.082038,51.517122],[-0.082094,51.517125],[-0.082159,51.517129],[-0.08225,51.517134],[-0.082255,51.517135],[-0.082312,51.517138],[-0.082316,51.517138],[-0.08238,51.517142],[-0.082383,51.517142],[-0.082446,51.517145],[-0.082511,51.517149],[-0.082576,51.517153],[-0.082642,51.517157],[-0.082708,51.517161],[-0.082769,51.517164],[-0.082841,51.517168],[-0.082925,51.517173],[-0.082933,51.517173],[-0.082949,51.517173],[-0.082966,51.517174],[-0.082973,51.517172],[-0.082982,51.517171],[-0.082992,51.51717],[-0.082997,51.517169],[-0.082977,51.517164],[-0.082865,51.517144],[-0.082845,51.517141],[-0.082783,51.517129],[-0.082772,51.517127],[-0.08271,51.517117],[-0.082695,51.517115],[-0.082646,51.517112],[-0.082582,51.517109],[-0.082579,51.517111],[-0.082563,51.517107],[-0.082514,51.517104],[-0.082449,51.517101],[-0.082386,51.517097],[-0.082323,51.517094],[-0.082262,51.51709],[-0.082256,51.517089],[-0.082166,51.517085],[-0.082102,51.517081],[-0.082045,51.517077],[-0.082041,51.517077],[-0.081999,51.517076],[-0.081988,51.517075],[-0.081969,51.517075],[-0.081964,51.517075],[-0.081945,51.517076],[-0.081931,51.517077],[-0.081924,51.517077],[-0.081921,51.517077],[-0.081907,51.517079],[-0.0819,51.517081],[-0.08189,51.517083],[-0.081882,51.517085],[-0.08187,51.517088],[-0.08186,51.517091],[-0.081856,51.517092],[-0.081852,51.517094],[-0.081848,51.517095],[-0.081844,51.517098],[-0.081836,51.517102],[-0.081832,51.517098],[-0.081831,51.517096],[-0.081828,51.517093],[-0.081827,51.517091],[-0.081818,51.517079],[-0.081815,51.517074],[-0.081811,51.517066],[-0.081811,51.517064],[-0.081809,51.517062],[-0.081807,51.517059],[-0.081805,51.517056],[-0.081803,51.517054],[-0.0818,51.517051],[-0.081798,51.51705],[-0.081797,51.517049],[-0.081794,51.517047],[-0.081791,51.517045],[-0.081787,51.517043],[-0.081783,51.517041],[-0.081779,51.517039],[-0.081775,51.517038],[-0.081771,51.517037],[-0.081767,51.517036],[-0.081762,51.517035],[-0.081738,51.517077],[-0.081742,51.517078],[-0.081746,51.517089],[-0.081751,51.517096],[-0.081761,51.51711],[-0.081762,51.517111],[-0.081767,51.517117]]],[[[-0.080486,51.517176],[-0.08048,51.517183],[-0.080452,51.51721],[-0.08039,51.517271],[-0.080387,51.517273],[-0.080363,51.517297],[-0.080347,51.517312],[-0.080248,51.517429],[-0.080309,51.517453],[-0.080411,51.517333],[-0.080423,51.517321],[-0.080448,51.517297],[-0.080451,51.517294],[-0.080511,51.517237],[-0.080513,51.517234],[-0.080541,51.517206],[-0.080548,51.517199],[-0.080631,51.517112],[-0.080675,51.517125],[-0.080688,51.517107],[-0.080736,51.517044],[-0.08073,51.51702],[-0.080684,51.517007],[-0.080662,51.517037],[-0.080638,51.517067],[-0.080633,51.517067],[-0.080629,51.517067],[-0.080624,51.517067],[-0.080619,51.517068],[-0.080615,51.517068],[-0.08061,51.517069],[-0.080606,51.51707],[-0.080601,51.517071],[-0.080597,51.517073],[-0.080593,51.517074],[-0.080589,51.517076],[-0.080587,51.517077],[-0.080585,51.517077],[-0.080582,51.517079],[-0.080579,51.517082],[-0.080576,51.517084],[-0.080573,51.517086],[-0.08057,51.517089],[-0.080568,51.517091],[-0.080566,51.517093],[-0.080486,51.517176]]],[[[-0.08294,51.518018],[-0.083086,51.518052],[-0.083221,51.518083],[-0.083345,51.518112],[-0.083368,51.518118],[-0.083468,51.518141],[-0.083624,51.518177],[-0.083647,51.518142],[-0.08365,51.518135],[-0.083493,51.518099],[-0.083393,51.518075],[-0.08337,51.51807],[-0.083246,51.518041],[-0.083111,51.51801],[-0.082966,51.517976],[-0.08294,51.518018]]],[[[-0.082848,51.518169],[-0.082941,51.518192],[-0.082992,51.518205],[-0.083044,51.518218],[-0.08324,51.518267],[-0.083355,51.518295],[-0.083459,51.518321],[-0.083523,51.518337],[-0.08355,51.518295],[-0.083484,51.518279],[-0.08338,51.518253],[-0.083265,51.518225],[-0.083069,51.518176],[-0.083017,51.518163],[-0.082966,51.51815],[-0.082873,51.518127],[-0.082848,51.518169]]],[[[-0.081141,51.51716],[-0.081143,51.517161],[-0.081147,51.517163],[-0.08115,51.517165],[-0.081154,51.517166],[-0.081158,51.517168],[-0.081163,51.517169],[-0.081165,51.51717],[-0.081167,51.51717],[-0.081171,51.517171],[-0.081238,51.517188],[-0.081242,51.517189],[-0.081245,51.517189],[-0.081246,51.51719],[-0.081251,51.517191],[-0.081325,51.517209],[-0.081329,51.51721],[-0.081332,51.517211],[-0.081334,51.517211],[-0.081338,51.517212],[-0.081413,51.51723],[-0.081416,51.517231],[-0.081417,51.517231],[-0.081422,51.517232],[-0.081487,51.517248],[-0.081491,51.517251],[-0.081547,51.517289],[-0.081558,51.517295],[-0.081561,51.517297],[-0.081565,51.517299],[-0.081568,51.517301],[-0.081572,51.517303],[-0.081576,51.517304],[-0.081581,51.517305],[-0.081585,51.517307],[-0.08161,51.517264],[-0.0816,51.517258],[-0.081543,51.51722],[-0.081529,51.51721],[-0.081385,51.517176],[-0.081192,51.517128],[-0.081194,51.517125],[-0.081077,51.517096],[-0.081073,51.517101],[-0.08103,51.517092],[-0.081025,51.517097],[-0.081035,51.5171],[-0.081014,51.517136],[-0.081051,51.517144],[-0.081052,51.517144],[-0.081057,51.517145],[-0.081061,51.517146],[-0.081066,51.517146],[-0.081071,51.517146],[-0.081076,51.517146],[-0.08108,51.517146],[-0.081082,51.517146],[-0.081141,51.51716]]],[[[-0.08096,51.51666],[-0.080932,51.516694],[-0.080884,51.516751],[-0.08086,51.516778],[-0.08086,51.516778],[-0.080824,51.51682],[-0.080779,51.516883],[-0.080719,51.516966],[-0.08074,51.516972],[-0.080784,51.516986],[-0.080844,51.516902],[-0.080888,51.516841],[-0.080923,51.516799],[-0.080947,51.516773],[-0.080949,51.516771],[-0.080996,51.516714],[-0.081031,51.516673],[-0.081035,51.516668],[-0.081036,51.516662],[-0.081037,51.516653],[-0.081035,51.516651],[-0.081031,51.516649],[-0.08103,51.516648],[-0.081028,51.516647],[-0.08102,51.516644],[-0.080986,51.516629],[-0.08096,51.51666]]],[[[-0.083468,51.516888],[-0.083331,51.517236],[-0.083401,51.517248],[-0.083541,51.516891],[-0.083485,51.516883],[-0.083468,51.516888]]],[[[-0.081185,51.516941],[-0.081327,51.516976],[-0.081455,51.517008],[-0.081601,51.517043],[-0.081666,51.517059],[-0.081691,51.517017],[-0.081627,51.517002],[-0.081482,51.516966],[-0.081353,51.516935],[-0.081288,51.516918],[-0.081317,51.516886],[-0.08125,51.516869],[-0.081185,51.516941]]],[[[-0.083126,51.517083],[-0.083196,51.517093],[-0.08328,51.516874],[-0.08321,51.516863],[-0.083126,51.517083]]],[[[-0.083606,51.516539],[-0.083568,51.516633],[-0.083517,51.516756],[-0.083517,51.516756],[-0.083526,51.516758],[-0.083586,51.516767],[-0.083641,51.516636],[-0.083666,51.516573],[-0.083634,51.516525],[-0.083606,51.516539]]],[[[-0.079676,51.517955],[-0.079597,51.518018],[-0.079526,51.518074],[-0.079541,51.518079],[-0.079591,51.518094],[-0.079654,51.518045],[-0.07973,51.517984],[-0.079776,51.517952],[-0.079723,51.517921],[-0.079676,51.517955]]],[[[-0.080095,51.517642],[-0.080095,51.517642],[-0.080091,51.517645],[-0.08009,51.517646],[-0.080061,51.517669],[-0.080017,51.517703],[-0.079967,51.517743],[-0.079923,51.517776],[-0.079971,51.517801],[-0.079979,51.517805],[-0.080023,51.517771],[-0.080074,51.517731],[-0.080119,51.517695],[-0.080152,51.51767],[-0.080163,51.517659],[-0.080104,51.517633],[-0.080095,51.517642]]],[[[-0.07977,51.517877],[-0.079767,51.517879],[-0.079765,51.517882],[-0.079763,51.517884],[-0.07976,51.517887],[-0.079759,51.51789],[-0.079757,51.517893],[-0.079756,51.517895],[-0.079755,51.517897],[-0.079735,51.517912],[-0.079789,51.517942],[-0.079834,51.517909],[-0.079826,51.517905],[-0.079937,51.517827],[-0.079881,51.517798],[-0.07977,51.517877]]],[[[-0.080213,51.517529],[-0.080197,51.517545],[-0.080174,51.517568],[-0.080169,51.517572],[-0.080143,51.517597],[-0.080117,51.517623],[-0.080175,51.51765],[-0.080201,51.517624],[-0.080227,51.5176],[-0.080233,51.517593],[-0.080255,51.517571],[-0.080278,51.51755],[-0.080283,51.517544],[-0.080284,51.517543],[-0.080285,51.517541],[-0.080285,51.517539],[-0.080284,51.517538],[-0.080278,51.51753],[-0.080272,51.517525],[-0.080269,51.517523],[-0.080235,51.517508],[-0.080213,51.517529]]],[[[-0.081326,51.516769],[-0.081298,51.516817],[-0.081269,51.516848],[-0.081336,51.516866],[-0.081365,51.516834],[-0.081394,51.516785],[-0.081367,51.516778],[-0.081327,51.516768],[-0.081326,51.516769]]]]},"properties":{"OBJECTID_1":7,"NAME":"Principal Shopping Centres","COMPONENT":"Liverpool Street","whole_in_zone":true,"in_cw":false}},
{"type":"Feature","geometry":{"type":"MultiPolygon","coordinates":[[[[-0.087503,51.516964],[-0.087513,51.516961],[-0.087519,51.51696],[-0.08753,51.516958],[-0.087536,51.516958],[-0.087542,51.516958],[-0.087553,51.516959],[-0.087559,51.51696],[-0.087567,51.516962],[-0.087571,51.516961],[-0.087577,51.516959],[-0.087586,51.516957],[-0.087591,51.516957],[-0.087612,51.516822],[-0.087647,51.516635],[-0.087632,51.516613],[-0.087607,51.516612],[-0.087617,51.516545],[-0.087647,51.516548],[-0.087663,51.516534],[-0.087691,51.516381],[-0.087619,51.516376],[-0.087596,51.516502],[-0.087595,51.516502],[-0.087591,51.516503],[-0.087586,51.516504],[-0.087582,51.516506],[-0.087578,51.516507],[-0.087574,51.516509],[-0.087571,51.516511],[-0.087567,51.516512],[-0.087564,51.516515],[-0.087561,51.516517],[-0.087558,51.516519],[-0.087555,51.516522],[-0.087553,51.516524],[-0.087551,51.516527],[-0.087549,51.51653],[-0.087548,51.516532],[-0.087546,51.516535],[-0.087545,51.516538],[-0.087545,51.516541],[-0.087536,51.516608],[-0.087535,51.516611],[-0.087535,51.516614],[-0.087536,51.516617],[-0.087536,51.51662],[-0.087537,51.516623],[-0.087538,51.516626],[-0.08754,51.516628],[-0.087542,51.516631],[-0.087544,51.516634],[-0.087546,51.516636],[-0.087549,51.516639],[-0.087552,51.516641],[-0.087555,51.516643],[-0.087558,51.516645],[-0.087562,51.516647],[-0.087566,51.516649],[-0.08757,51.516651],[-0.087571,51.516651],[-0.087526,51.516913],[-0.087523,51.516913],[-0.087518,51.516914],[-0.087513,51.516914],[-0.087503,51.516916],[-0.087498,51.516917],[-0.086658,51.516783],[-0.086654,51.516782],[-0.086651,51.516782],[-0.086649,51.516781],[-0.086645,51.516781],[-0.08664,51.516781],[-0.086635,51.51678],[-0.086631,51.51678],[-0.086626,51.516781],[-0.086621,51.516781],[-0.086617,51.516782],[-0.086612,51.516782],[-0.086608,51.516783],[-0.086603,51.516785],[-0.086599,51.516786],[-0.086595,51.516787],[-0.086591,51.516789],[-0.086587,51.516791],[-0.086584,51.516793],[-0.086581,51.516795],[-0.086577,51.516797],[-0.086575,51.516799],[-0.086575,51.516799],[-0.086572,51.516802],[-0.08657,51.516804],[-0.086568,51.516807],[-0.086566,51.51681],[-0.086564,51.516812],[-0.086563,51.516815],[-0.086551,51.51684],[-0.08647,51.516829],[-0.08647,51.516829],[-0.086414,51.516822],[-0.08628,51.516801],[-0.086202,51.516788],[-0.086196,51.516799],[-0.086182,51.516831],[-0.086329,51.516855],[-0.086385,51.516864],[-0.086392,51.516865],[-0.086414,51.516868],[-0.086443,51.516872],[-0.08645,51.516873],[-0.08647,51.516875],[-0.086531,51.516883],[-0.086601,51.516892],[-0.086633,51.516825],[-0.087503,51.516964]]],[[[-0.087378,51.519046],[-0.087597,51.519091],[-0.087644,51.519003],[-0.087665,51.519008],[-0.087691,51.518959],[-0.087677,51.518956],[-0.087699,51.518914],[-0.087714,51.518917],[-0.087764,51.518823],[-0.087836,51.518697],[-0.087812,51.518692],[-0.087818,51.51868],[-0.087842,51.518685],[-0.087929,51.518521],[-0.088037,51.518326],[-0.088116,51.518188],[-0.088045,51.518177],[-0.087791,51.518638],[-0.08775,51.518714],[-0.087696,51.518809],[-0.087696,51.518809],[-0.08766,51.518876],[-0.087657,51.518877],[-0.087653,51.518879],[-0.087649,51.518881],[-0.087646,51.518883],[-0.087643,51.518885],[-0.08764,51.518888],[-0.087638,51.51889],[-0.087635,51.518893],[-0.087633,51.518895],[-0.087631,51.518898],[-0.087631,51.5189],[-0.087609,51.518942],[-0.087608,51.518943],[-0.087607,51.518946],[-0.087606,51.518949],[-0.087605,51.518951],[-0.087605,51.518954],[-0.087605,51.518957],[-0.087605,51.51896],[-0.087606,51.518963],[-0.087607,51.518965],[-0.087606,51.518965],[-0.087602,51.518967],[-0.087598,51.518969],[-0.087594,51.518971],[-0.087591,51.518973],[-0.087588,51.518975],[-0.087585,51.518977],[-0.087583,51.51898],[-0.08758,51.518982],[-0.087578,51.518985],[-0.087576,51.518988],[-0.087576,51.518989],[-0.087552,51.519034],[-0.087454,51.519014],[-0.087454,51.519013],[-0.087452,51.51901],[-0.08745,51.519008],[-0.087447,51.519005],[-0.087445,51.519003],[-0.087442,51.519],[-0.087439,51.518998],[-0.087435,51.518996],[-0.087432,51.518994],[-0.087428,51.518992],[-0.087424,51.518991],[-0.08742,51.518989],[-0.087416,51.518988],[-0.087411,51.518987],[-0.087409,51.518986],[-0.087201,51.518943],[-0.087179,51.518986],[-0.087386,51.519029],[-0.087378,51.519046]]],[[[-0.088382,51.517152],[-0.088421,51.517171],[-0.088429,51.517173],[-0.088433,51.517174],[-0.088446,51.517175],[-0.088535,51.517189],[-0.088629,51.517203],[-0.088633,51.517204],[-0.088644,51.517204],[-0.088647,51.517203],[-0.088649,51.517203],[-0.088651,51.517202],[-0.088656,51.5172],[-0.088658,51.517198],[-0.08866,51.517196],[-0.088662,51.517195],[-0.088663,51.517193],[-0.088663,51.517192],[-0.088664,51.517191],[-0.088703,51.517095],[-0.088707,51.517088],[-0.088758,51.516958],[-0.088688,51.516949],[-0.088633,51.517086],[-0.088605,51.517153],[-0.088554,51.517146],[-0.088463,51.517132],[-0.088457,51.517131],[-0.088448,51.517127],[-0.088449,51.517125],[-0.08845,51.517124],[-0.08845,51.517122],[-0.088451,51.517119],[-0.088451,51.517116],[-0.088451,51.517113],[-0.088451,51.51711],[-0.08845,51.51711],[-0.08845,51.517107],[-0.088449,51.517105],[-0.088448,51.517102],[-0.088446,51.517099],[-0.088444,51.517096],[-0.088442,51.517094],[-0.08844,51.517091],[-0.088437,51.517089],[-0.088434,51.517086],[-0.088431,51.517084],[-0.088428,51.517082],[-0.088424,51.51708],[-0.088421,51.517078],[-0.088417,51.517077],[-0.088413,51.517075],[-0.088408,51.517074],[-0.088404,51.517073],[-0.088399,51.517072],[-0.088399,51.517072],[-0.088395,51.517071],[-0.088368,51.517066],[-0.088357,51.51709],[-0.088355,51.517095],[-0.088337,51.517093],[-0.088351,51.517063],[-0.087841,51.516984],[-0.08784,51.516984],[-0.087831,51.516977],[-0.087843,51.516899],[-0.087846,51.516897],[-0.087849,51.516895],[-0.087852,51.516893],[-0.087854,51.51689],[-0.087857,51.516888],[-0.087859,51.516885],[-0.08786,51.516882],[-0.087862,51.51688],[-0.087863,51.516877],[-0.087864,51.516874],[-0.087864,51.516872],[-0.087865,51.516871],[-0.087865,51.516868],[-0.087896,51.516707],[-0.087896,51.516706],[-0.087872,51.516704],[-0.087824,51.516701],[-0.087801,51.516825],[-0.087793,51.516867],[-0.087775,51.516866],[-0.087756,51.516991],[-0.087798,51.517024],[-0.08807,51.517066],[-0.088133,51.517076],[-0.088331,51.517107],[-0.088379,51.517115],[-0.088376,51.517123],[-0.088374,51.517138],[-0.088382,51.517152]]],[[[-0.087992,51.519028],[-0.087888,51.519221],[-0.087904,51.519224],[-0.087921,51.519254],[-0.087944,51.519258],[-0.088152,51.518874],[-0.088153,51.518874],[-0.088157,51.518872],[-0.088161,51.518871],[-0.088164,51.518869],[-0.088168,51.518867],[-0.088171,51.518865],[-0.088174,51.518862],[-0.088177,51.51886],[-0.08818,51.518858],[-0.088182,51.518855],[-0.088184,51.518852],[-0.088186,51.51885],[-0.088186,51.518849],[-0.08825,51.51873],[-0.088251,51.518728],[-0.088252,51.518726],[-0.088253,51.518723],[-0.088254,51.51872],[-0.088254,51.518717],[-0.088254,51.518714],[-0.088254,51.518711],[-0.088253,51.518708],[-0.088252,51.518705],[-0.088251,51.518702],[-0.088249,51.5187],[-0.088248,51.518697],[-0.08832,51.518566],[-0.088322,51.518562],[-0.088325,51.518557],[-0.088507,51.518597],[-0.088529,51.518554],[-0.088281,51.518499],[-0.088254,51.518547],[-0.088253,51.518551],[-0.088163,51.518711],[-0.088182,51.518716],[-0.088118,51.518834],[-0.0881,51.51883],[-0.087992,51.519028]]],[[[-0.088263,51.517351],[-0.088264,51.517351],[-0.08841,51.517383],[-0.088383,51.517433],[-0.088382,51.517435],[-0.088381,51.517438],[-0.08838,51.517441],[-0.08838,51.517443],[-0.08838,51.517446],[-0.08838,51.517449],[-0.08838,51.517452],[-0.088381,51.517455],[-0.088381,51.517458],[-0.088383,51.517461],[-0.088384,51.517464],[-0.088386,51.517466],[-0.088388,51.517469],[-0.088391,51.517472],[-0.088393,51.517474],[-0.088396,51.517476],[-0.088399,51.517479],[-0.088403,51.517481],[-0.088406,51.517483],[-0.08841,51.517484],[-0.088414,51.517486],[-0.088418,51.517487],[-0.08842,51.517488],[-0.088415,51.517496],[-0.088415,51.517497],[-0.088344,51.517629],[-0.08815,51.517983],[-0.088128,51.518022],[-0.088164,51.518027],[-0.088207,51.518018],[-0.088262,51.517921],[-0.088412,51.517643],[-0.088483,51.517512],[-0.088511,51.517462],[-0.088452,51.517448],[-0.088484,51.517388],[-0.088501,51.517356],[-0.088288,51.517309],[-0.088263,51.517351]]],[[[-0.087894,51.517293],[-0.088153,51.517329],[-0.088167,51.517292],[-0.088164,51.517285],[-0.08816,51.517285],[-0.088136,51.517281],[-0.08791,51.517249],[-0.087755,51.517226],[-0.087631,51.517207],[-0.087413,51.517171],[-0.087202,51.517135],[-0.086988,51.5171],[-0.086965,51.51711],[-0.086953,51.517141],[-0.087002,51.517148],[-0.087183,51.517178],[-0.087388,51.517213],[-0.087616,51.517251],[-0.087738,51.51727],[-0.087894,51.517293]]],[[[-0.088838,51.517676],[-0.088942,51.517697],[-0.088978,51.517704],[-0.088963,51.517727],[-0.088936,51.517769],[-0.088901,51.517821],[-0.088887,51.51784],[-0.088866,51.517871],[-0.088914,51.517882],[-0.088933,51.517886],[-0.088934,51.517885],[-0.088969,51.517835],[-0.088999,51.517792],[-0.089005,51.517783],[-0.089031,51.517742],[-0.089039,51.51773],[-0.089052,51.517709],[-0.089054,51.517708],[-0.089055,51.517707],[-0.089056,51.517705],[-0.089057,51.517703],[-0.089058,51.517702],[-0.089058,51.517701],[-0.089059,51.517698],[-0.089059,51.517698],[-0.08906,51.517694],[-0.08906,51.517693],[-0.08906,51.517691],[-0.08906,51.51769],[-0.08906,51.517688],[-0.089059,51.517686],[-0.089058,51.517685],[-0.089058,51.517684],[-0.089056,51.517683],[-0.089054,51.51768],[-0.089051,51.517678],[-0.089048,51.517676],[-0.089044,51.517674],[-0.089039,51.517671],[-0.089033,51.517669],[-0.089027,51.517667],[-0.088995,51.517661],[-0.088965,51.517655],[-0.08886,51.517633],[-0.088759,51.517612],[-0.088701,51.517719],[-0.088678,51.517763],[-0.088672,51.517772],[-0.088644,51.517823],[-0.088712,51.517838],[-0.08874,51.517787],[-0.088769,51.517734],[-0.088804,51.517669],[-0.088838,51.517676]]],[[[-0.08897,51.517019],[-0.088957,51.517062],[-0.088956,51.517065],[-0.088944,51.517106],[-0.088934,51.517142],[-0.088932,51.517151],[-0.088918,51.517196],[-0.088916,51.517203],[-0.088911,51.517226],[-0.08891,51.517232],[-0.088911,51.517233],[-0.088912,51.517235],[-0.088914,51.517237],[-0.088915,51.51724],[-0.088916,51.517242],[-0.088918,51.517243],[-0.088919,51.517243],[-0.088922,51.517244],[-0.088924,51.517245],[-0.089108,51.517274],[-0.089106,51.517283],[-0.089244,51.517306],[-0.089259,51.517262],[-0.089164,51.517246],[-0.089163,51.517246],[-0.08916,51.517243],[-0.089157,51.517241],[-0.089153,51.517239],[-0.08915,51.517238],[-0.089146,51.517236],[-0.089142,51.517235],[-0.089137,51.517233],[-0.089133,51.517232],[-0.089129,51.517231],[-0.089126,51.517231],[-0.089124,51.517231],[-0.089119,51.51723],[-0.088988,51.517209],[-0.088989,51.517205],[-0.089003,51.517159],[-0.089015,51.517115],[-0.089028,51.51707],[-0.08904,51.517027],[-0.089055,51.516978],[-0.088983,51.516972],[-0.08897,51.517019]]],[[[-0.088459,51.518161],[-0.088389,51.518292],[-0.088457,51.518307],[-0.08848,51.518265],[-0.088564,51.51811],[-0.088585,51.51807],[-0.088564,51.518065],[-0.088518,51.518055],[-0.088459,51.518161]]],[[[-0.088487,51.518486],[-0.088504,51.518504],[-0.08855,51.518514],[-0.088551,51.518513],[-0.088583,51.51845],[-0.088501,51.518433],[-0.0885,51.518434],[-0.088499,51.518437],[-0.088498,51.51844],[-0.088498,51.518441],[-0.088415,51.518424],[-0.088416,51.518423],[-0.088418,51.51842],[-0.088419,51.518417],[-0.08842,51.518416],[-0.088352,51.518402],[-0.08835,51.518401],[-0.088347,51.518401],[-0.088345,51.518402],[-0.088343,51.518402],[-0.088341,51.518402],[-0.088338,51.518402],[-0.088336,51.518403],[-0.088334,51.518403],[-0.088331,51.518406],[-0.088329,51.518408],[-0.088328,51.51841],[-0.088302,51.51846],[-0.088351,51.51847],[-0.088379,51.518463],[-0.088487,51.518486]]],[[[-0.087838,51.516559],[-0.087835,51.51656],[-0.087833,51.516561],[-0.087831,51.516563],[-0.08783,51.516565],[-0.087829,51.516567],[-0.087828,51.516568],[-0.087828,51.51657],[-0.087828,51.516572],[-0.087829,51.516574],[-0.087829,51.516575],[-0.08783,51.516577],[-0.087827,51.516579],[-0.087814,51.516659],[-0.087878,51.516664],[-0.087885,51.516664],[-0.087896,51.516599],[-0.087899,51.516598],[-0.087903,51.516596],[-0.087907,51.516595],[-0.087911,51.516593],[-0.087912,51.516592],[-0.087915,51.516591],[-0.087917,51.516589],[-0.087921,51.516587],[-0.087924,51.516585],[-0.087926,51.516583],[-0.087929,51.51658],[-0.087931,51.516578],[-0.087933,51.516575],[-0.087935,51.516573],[-0.087937,51.516571],[-0.08794,51.516569],[-0.087943,51.516567],[-0.087945,51.516564],[-0.087947,51.516561],[-0.087949,51.516559],[-0.08795,51.516556],[-0.087951,51.516553],[-0.087952,51.51655],[-0.087953,51.516548],[-0.087955,51.516537],[-0.087883,51.516531],[-0.087881,51.516543],[-0.08787,51.516542],[-0.087868,51.516557],[-0.087865,51.516558],[-0.087862,51.516557],[-0.087859,51.516556],[-0.087856,51.516556],[-0.087853,51.516556],[-0.08785,51.516556],[-0.087847,51.516556],[-0.087844,51.516557],[-0.087841,51.516557],[-0.087838,51.516559]]]]},"properties":{"OBJECTID_1":9,"NAME":"Principal Shopping Centres","COMPONENT":"Moorgate","whole_in_zone":true,"in_cw":false}},
{"type":"Feature","geometry":{"type":"MultiPolygon","coordinates":[[[[-0.096179,51.514347],[-0.096207,51.514356],[-0.096266,51.514375],[-0.096358,51.514378],[-0.096565,51.514263],[-0.096627,51.514229],[-0.09663,51.514222],[-0.096634,51.51421],[-0.096644,51.514186],[-0.096639,51.514182],[-0.096622,51.514167],[-0.096557,51.51411],[-0.096538,51.514093],[-0.096515,51.514073],[-0.096496,51.514056],[-0.09649,51.514049],[-0.096399,51.513932],[-0.096204,51.513875],[-0.096085,51.51387],[-0.095662,51.513852],[-0.095643,51.513854],[-0.095606,51.51387],[-0.095471,51.514197],[-0.095465,51.514218],[-0.095461,51.514227],[-0.095465,51.514227],[-0.095549,51.51424],[-0.095804,51.514281],[-0.095835,51.514286],[-0.096135,51.514333],[-0.096179,51.514347]],[[-0.096479,51.514119],[-0.096498,51.514136],[-0.096498,51.514136],[-0.096563,51.514193],[-0.096566,51.514195],[-0.096564,51.514199],[-0.096564,51.514199],[-0.096562,51.514205],[-0.096517,51.514229],[-0.096332,51.514332],[-0.096285,51.51433],[-0.09624,51.514316],[-0.096239,51.514316],[-0.096239,51.514316],[-0.096211,51.514307],[-0.096168,51.514293],[-0.096165,51.514292],[-0.09616,51.514291],[-0.096156,51.51429],[-0.096153,51.51429],[-0.095853,51.514242],[-0.095822,51.514237],[-0.095822,51.514237],[-0.095567,51.514197],[-0.095567,51.514197],[-0.095546,51.514194],[-0.095669,51.513898],[-0.09608,51.513915],[-0.096186,51.51392],[-0.096345,51.513966],[-0.096426,51.514069],[-0.096426,51.514069],[-0.096432,51.514076],[-0.096433,51.514078],[-0.096435,51.51408],[-0.096438,51.514082],[-0.096479,51.514119]]],[[[-0.095129,51.514174],[-0.09534,51.514207],[-0.095342,51.514208],[-0.095346,51.514199],[-0.095359,51.51418],[-0.095462,51.513929],[-0.095324,51.513925],[-0.095221,51.513933],[-0.095169,51.513925],[-0.09514,51.51392],[-0.095094,51.513912],[-0.095097,51.513854],[-0.095097,51.513834],[-0.095097,51.513833],[-0.09471,51.51384],[-0.094703,51.513856],[-0.094691,51.513883],[-0.094695,51.513884],[-0.094699,51.513885],[-0.094704,51.513885],[-0.094713,51.513885],[-0.095024,51.51388],[-0.095022,51.51391],[-0.095022,51.513911],[-0.095022,51.513914],[-0.095023,51.513917],[-0.095023,51.51392],[-0.095024,51.513922],[-0.095025,51.513925],[-0.095027,51.513928],[-0.095029,51.513931],[-0.095031,51.513933],[-0.095033,51.513936],[-0.095036,51.513938],[-0.095039,51.513941],[-0.095042,51.513943],[-0.095045,51.513945],[-0.095049,51.513947],[-0.095053,51.513949],[-0.095057,51.51395],[-0.095061,51.513952],[-0.095065,51.513953],[-0.095069,51.513954],[-0.095074,51.513955],[-0.095074,51.513955],[-0.09512,51.513963],[-0.095122,51.513964],[-0.095151,51.513968],[-0.095202,51.513977],[-0.095205,51.513977],[-0.095209,51.513978],[-0.095214,51.513978],[-0.095219,51.513978],[-0.095224,51.513978],[-0.095228,51.513978],[-0.09523,51.513978],[-0.095327,51.51397],[-0.095371,51.513972],[-0.095295,51.514154],[-0.095147,51.51413],[-0.094973,51.514103],[-0.094941,51.514098],[-0.094941,51.514098],[-0.094842,51.514082],[-0.094823,51.514079],[-0.094823,51.514079],[-0.094644,51.514051],[-0.094644,51.514051],[-0.094619,51.514047],[-0.094599,51.51409],[-0.094626,51.514094],[-0.094805,51.514122],[-0.094824,51.514126],[-0.094923,51.514141],[-0.094955,51.514146],[-0.095129,51.514174]]],[[[-0.091846,51.513671],[-0.091926,51.513683],[-0.092185,51.513721],[-0.092236,51.513705],[-0.092315,51.51326],[-0.092243,51.513255],[-0.092169,51.513673],[-0.091942,51.513639],[-0.091864,51.513627],[-0.091448,51.513557],[-0.091443,51.513569],[-0.091484,51.51361],[-0.091846,51.513671]]],[[[-0.095169,51.513784],[-0.095289,51.513802],[-0.095304,51.513766],[-0.095324,51.513769],[-0.095412,51.513731],[-0.09554,51.513741],[-0.095543,51.513734],[-0.095661,51.51345],[-0.095663,51.513437],[-0.09568,51.513391],[-0.095613,51.513375],[-0.095613,51.513376],[-0.095611,51.513379],[-0.09561,51.513381],[-0.095593,51.513426],[-0.095592,51.513427],[-0.095591,51.51343],[-0.095591,51.513432],[-0.095591,51.513433],[-0.09559,51.513442],[-0.095486,51.513691],[-0.09542,51.513686],[-0.095418,51.513686],[-0.095414,51.513686],[-0.095409,51.513686],[-0.095404,51.513686],[-0.0954,51.513687],[-0.095395,51.513687],[-0.095391,51.513688],[-0.095386,51.513689],[-0.095382,51.51369],[-0.095378,51.513691],[-0.095373,51.513693],[-0.095371,51.513694],[-0.095309,51.513721],[-0.095305,51.513721],[-0.095301,51.513721],[-0.095296,51.513721],[-0.095291,51.513721],[-0.095287,51.513722],[-0.095282,51.513723],[-0.095278,51.513724],[-0.095273,51.513725],[-0.095269,51.513726],[-0.095265,51.513728],[-0.095261,51.513729],[-0.095257,51.513731],[-0.095254,51.513733],[-0.095251,51.513735],[-0.095248,51.513737],[-0.095245,51.51374],[-0.095242,51.513742],[-0.09524,51.513745],[-0.095238,51.513747],[-0.095237,51.513748],[-0.095187,51.51374],[-0.095113,51.513728],[-0.095112,51.513728],[-0.095107,51.513728],[-0.095103,51.513727],[-0.095098,51.513727],[-0.095093,51.513727],[-0.095088,51.513727],[-0.095084,51.513728],[-0.095079,51.513728],[-0.095075,51.513729],[-0.09507,51.51373],[-0.095066,51.513731],[-0.095062,51.513733],[-0.095058,51.513734],[-0.095054,51.513736],[-0.09505,51.513737],[-0.095015,51.513731],[-0.094776,51.513693],[-0.094775,51.513696],[-0.094773,51.513701],[-0.094763,51.513722],[-0.094761,51.513727],[-0.094757,51.513735],[-0.094757,51.513736],[-0.094997,51.513775],[-0.095088,51.51379],[-0.095096,51.513772],[-0.095169,51.513784]]],[[[-0.090674,51.513209],[-0.090634,51.513219],[-0.090389,51.513279],[-0.090349,51.513289],[-0.090172,51.513333],[-0.090137,51.513341],[-0.090141,51.513387],[-0.090177,51.513394],[-0.09036,51.513425],[-0.090402,51.513432],[-0.090655,51.513476],[-0.090699,51.513484],[-0.09077,51.513496],[-0.090783,51.51347],[-0.090798,51.513454],[-0.090795,51.513454],[-0.090791,51.513453],[-0.09079,51.513453],[-0.090718,51.51344],[-0.090718,51.51344],[-0.090674,51.513433],[-0.090662,51.513431],[-0.090433,51.513391],[-0.090421,51.513389],[-0.090421,51.513389],[-0.090379,51.513382],[-0.090379,51.513382],[-0.090255,51.513361],[-0.090375,51.513331],[-0.090415,51.513321],[-0.090415,51.513321],[-0.090427,51.513318],[-0.090648,51.513264],[-0.09066,51.513261],[-0.090701,51.513251],[-0.090771,51.513234],[-0.090775,51.513233],[-0.090779,51.513231],[-0.090762,51.513217],[-0.090745,51.513192],[-0.090674,51.513209]]],[[[-0.095643,51.513781],[-0.095636,51.513796],[-0.095653,51.513807],[-0.095717,51.513804],[-0.095963,51.513785],[-0.096081,51.513775],[-0.096289,51.513732],[-0.096269,51.513689],[-0.096268,51.513689],[-0.096266,51.51369],[-0.096065,51.513731],[-0.095954,51.51374],[-0.095727,51.513758],[-0.09584,51.513483],[-0.095845,51.513477],[-0.095846,51.513476],[-0.095848,51.513473],[-0.095849,51.51347],[-0.09585,51.513469],[-0.095864,51.513435],[-0.095796,51.51342],[-0.09578,51.513458],[-0.095772,51.513468],[-0.095643,51.513781]]],[[[-0.094187,51.513059],[-0.094186,51.513062],[-0.094249,51.513072],[-0.094404,51.513097],[-0.094409,51.513098],[-0.094421,51.513054],[-0.094205,51.513021],[-0.094198,51.513013],[-0.094112,51.513001],[-0.09409,51.513011],[-0.093999,51.512995],[-0.093919,51.512981],[-0.093853,51.512971],[-0.093833,51.512968],[-0.093815,51.512964],[-0.093802,51.512961],[-0.093779,51.512956],[-0.093775,51.512955],[-0.09376,51.512952],[-0.093764,51.512941],[-0.093765,51.512941],[-0.093768,51.512938],[-0.093771,51.512936],[-0.093774,51.512934],[-0.093777,51.512931],[-0.093779,51.512929],[-0.093781,51.512926],[-0.093783,51.512923],[-0.093784,51.512921],[-0.093785,51.51292],[-0.093798,51.51289],[-0.093798,51.512888],[-0.093799,51.512885],[-0.0938,51.512882],[-0.0938,51.512879],[-0.0938,51.512876],[-0.0938,51.512873],[-0.093799,51.51287],[-0.093798,51.512868],[-0.093797,51.512865],[-0.093795,51.512862],[-0.093794,51.512859],[-0.093791,51.512857],[-0.093789,51.512854],[-0.093787,51.512852],[-0.093786,51.512851],[-0.093809,51.512768],[-0.093738,51.512759],[-0.093736,51.512767],[-0.093743,51.51277],[-0.093741,51.512779],[-0.093732,51.512778],[-0.093721,51.512819],[-0.09373,51.51282],[-0.093728,51.512829],[-0.093719,51.512828],[-0.09371,51.512866],[-0.09372,51.512866],[-0.093717,51.512876],[-0.093728,51.512878],[-0.093715,51.512908],[-0.093701,51.512905],[-0.093682,51.512969],[-0.093701,51.51299],[-0.093733,51.512994],[-0.093754,51.512998],[-0.093776,51.513003],[-0.093791,51.513007],[-0.093814,51.513011],[-0.093837,51.513015],[-0.093902,51.513024],[-0.093979,51.513038],[-0.094072,51.513054],[-0.094077,51.513044],[-0.094187,51.513059]]],[[[-0.093139,51.514064],[-0.093122,51.514104],[-0.094127,51.514278],[-0.09414,51.514247],[-0.094097,51.514242],[-0.094103,51.514228],[-0.09314,51.514061],[-0.093139,51.514064]]],[[[-0.094301,51.513192],[-0.094304,51.513184],[-0.094312,51.513162],[-0.094317,51.513146],[-0.094245,51.513135],[-0.094146,51.513119],[-0.094141,51.513135],[-0.093964,51.513108],[-0.093968,51.513095],[-0.093854,51.513073],[-0.093828,51.513068],[-0.093758,51.513055],[-0.093696,51.513043],[-0.09367,51.513054],[-0.093659,51.513093],[-0.093652,51.513121],[-0.093639,51.513166],[-0.093635,51.513181],[-0.093621,51.513226],[-0.093616,51.513245],[-0.093617,51.513248],[-0.093621,51.513251],[-0.093626,51.513253],[-0.093624,51.51326],[-0.093682,51.513267],[-0.093683,51.513266],[-0.093692,51.513234],[-0.093692,51.513233],[-0.093706,51.51319],[-0.09371,51.513175],[-0.09371,51.513174],[-0.093723,51.51313],[-0.093723,51.513129],[-0.093723,51.513129],[-0.093723,51.513129],[-0.093732,51.513097],[-0.093745,51.513099],[-0.093833,51.513116],[-0.09384,51.513117],[-0.093904,51.51313],[-0.09395,51.513151],[-0.094124,51.51318],[-0.094176,51.513173],[-0.094301,51.513192]]],[[[-0.096127,51.514616],[-0.096189,51.514638],[-0.096197,51.514641],[-0.096201,51.514643],[-0.096202,51.514643],[-0.096205,51.514644],[-0.096209,51.514646],[-0.096214,51.514647],[-0.096218,51.514648],[-0.096223,51.514648],[-0.096228,51.514649],[-0.096274,51.514678],[-0.096272,51.514679],[-0.096331,51.514705],[-0.096375,51.514682],[-0.096342,51.514657],[-0.09625,51.514599],[-0.096244,51.514601],[-0.096239,51.514604],[-0.096225,51.514599],[-0.096159,51.514576],[-0.096102,51.514558],[-0.09608,51.514552],[-0.096057,51.514545],[-0.096025,51.514537],[-0.095991,51.514529],[-0.09596,51.514522],[-0.095929,51.514516],[-0.095875,51.514507],[-0.095849,51.514503],[-0.095822,51.514498],[-0.095781,51.514491],[-0.095741,51.514484],[-0.095636,51.514468],[-0.095537,51.514451],[-0.095521,51.514492],[-0.09552,51.514495],[-0.095619,51.514512],[-0.095722,51.514527],[-0.095762,51.514535],[-0.095804,51.514542],[-0.09583,51.514546],[-0.095856,51.514551],[-0.095909,51.514559],[-0.09594,51.514565],[-0.095967,51.514571],[-0.095998,51.514578],[-0.096029,51.514587],[-0.096049,51.514592],[-0.09607,51.514598],[-0.096127,51.514616]]],[[[-0.091201,51.51375],[-0.091263,51.513778],[-0.091415,51.513805],[-0.09187,51.513884],[-0.091876,51.513885],[-0.091877,51.513885],[-0.091884,51.513886],[-0.091885,51.513886],[-0.091889,51.513889],[-0.091892,51.513891],[-0.091896,51.513892],[-0.0919,51.513894],[-0.091904,51.513895],[-0.091908,51.513897],[-0.091913,51.513898],[-0.091917,51.513899],[-0.091922,51.513899],[-0.092024,51.513918],[-0.092042,51.513882],[-0.092035,51.513873],[-0.091938,51.513856],[-0.09194,51.513849],[-0.091919,51.513846],[-0.091436,51.513762],[-0.091271,51.513733],[-0.091201,51.51375]]],[[[-0.092875,51.513813],[-0.093017,51.513835],[-0.093029,51.513837],[-0.093104,51.513848],[-0.093107,51.513849],[-0.093186,51.513861],[-0.093231,51.513767],[-0.093236,51.51376],[-0.093249,51.51376],[-0.0933,51.513764],[-0.093308,51.513748],[-0.093337,51.513695],[-0.093369,51.513632],[-0.093397,51.513579],[-0.093327,51.513568],[-0.093301,51.513618],[-0.093301,51.513618],[-0.093301,51.513618],[-0.093286,51.513647],[-0.093268,51.513681],[-0.093258,51.513701],[-0.09325,51.513716],[-0.09325,51.513716],[-0.093242,51.513715],[-0.093238,51.513715],[-0.093233,51.513715],[-0.093228,51.513716],[-0.093224,51.513716],[-0.093219,51.513717],[-0.093214,51.513717],[-0.09321,51.513718],[-0.093206,51.513719],[-0.093201,51.513721],[-0.093197,51.513722],[-0.093193,51.513724],[-0.09319,51.513726],[-0.093186,51.513728],[-0.093183,51.51373],[-0.09318,51.513732],[-0.093177,51.513734],[-0.093174,51.513737],[-0.093172,51.513739],[-0.09317,51.513742],[-0.093169,51.513743],[-0.093168,51.513745],[-0.093167,51.513747],[-0.093164,51.513751],[-0.093164,51.513752],[-0.093162,51.513754],[-0.093137,51.513807],[-0.093127,51.513805],[-0.093039,51.513792],[-0.092895,51.51377],[-0.092875,51.513813]]],[[[-0.094808,51.514333],[-0.0948,51.514355],[-0.094877,51.514369],[-0.094928,51.514378],[-0.09498,51.514387],[-0.094976,51.514395],[-0.095073,51.514413],[-0.09514,51.514425],[-0.095215,51.514439],[-0.095471,51.514485],[-0.095491,51.514442],[-0.095235,51.514396],[-0.09516,51.514381],[-0.095093,51.51437],[-0.095079,51.514367],[-0.094997,51.514352],[-0.094947,51.514342],[-0.094891,51.514332],[-0.094838,51.514323],[-0.094808,51.514333]]],[[[-0.091268,51.513063],[-0.091228,51.513073],[-0.090991,51.513131],[-0.090951,51.513141],[-0.090883,51.513158],[-0.090898,51.513183],[-0.090899,51.513202],[-0.0909,51.513202],[-0.090904,51.513201],[-0.090909,51.5132],[-0.090909,51.5132],[-0.090977,51.513183],[-0.091018,51.513173],[-0.09103,51.51317],[-0.091241,51.513118],[-0.091254,51.513115],[-0.091254,51.513115],[-0.091295,51.513105],[-0.091388,51.513082],[-0.091457,51.513066],[-0.091447,51.513049],[-0.09139,51.513034],[-0.091268,51.513063]]],[[[-0.093884,51.513963],[-0.094024,51.513987],[-0.094402,51.514053],[-0.094438,51.51406],[-0.094457,51.514016],[-0.094421,51.51401],[-0.094324,51.513993],[-0.094319,51.513992],[-0.094318,51.513992],[-0.094315,51.513991],[-0.094188,51.513969],[-0.094184,51.513969],[-0.094183,51.513968],[-0.094179,51.513968],[-0.094049,51.513945],[-0.094045,51.513944],[-0.094044,51.513944],[-0.09404,51.513944],[-0.093903,51.51392],[-0.093884,51.513963]]],[[[-0.092581,51.513974],[-0.092567,51.514007],[-0.092782,51.514044],[-0.092923,51.514068],[-0.093072,51.514094],[-0.093085,51.514061],[-0.093088,51.514055],[-0.09309,51.514051],[-0.092929,51.514023],[-0.092821,51.514004],[-0.092782,51.513997],[-0.092586,51.513963],[-0.092581,51.513974]]],[[[-0.094223,51.514288],[-0.094643,51.51435],[-0.094655,51.514316],[-0.094637,51.514314],[-0.094641,51.514303],[-0.094256,51.514247],[-0.094252,51.514258],[-0.094235,51.514255],[-0.094223,51.514288]]],[[[-0.091273,51.513583],[-0.091277,51.513576],[-0.091279,51.51357],[-0.091321,51.513577],[-0.091326,51.513563],[-0.091334,51.513545],[-0.091243,51.513531],[-0.091055,51.513498],[-0.091043,51.513496],[-0.091043,51.513496],[-0.091,51.513489],[-0.09093,51.513477],[-0.090926,51.513476],[-0.090922,51.513476],[-0.090919,51.513475],[-0.09092,51.513494],[-0.09091,51.51352],[-0.09098,51.513532],[-0.091023,51.51354],[-0.091273,51.513583]]],[[[-0.093412,51.513031],[-0.09352,51.513056],[-0.093537,51.51306],[-0.093534,51.51307],[-0.093534,51.513071],[-0.093533,51.513072],[-0.093532,51.513075],[-0.09352,51.513118],[-0.09352,51.513119],[-0.09352,51.513119],[-0.093519,51.513119],[-0.093509,51.51316],[-0.09358,51.513168],[-0.093585,51.513148],[-0.093591,51.513126],[-0.093604,51.51308],[-0.093618,51.513041],[-0.093602,51.513031],[-0.093592,51.513024],[-0.093568,51.513018],[-0.093531,51.51301],[-0.093492,51.513001],[-0.093408,51.512982],[-0.093402,51.512991],[-0.093406,51.512995],[-0.093396,51.513028],[-0.093412,51.513031]]],[[[-0.092448,51.513738],[-0.092464,51.513753],[-0.092507,51.51376],[-0.092616,51.513775],[-0.092624,51.513776],[-0.092796,51.513801],[-0.092805,51.513803],[-0.09281,51.513791],[-0.092825,51.513759],[-0.092645,51.513733],[-0.092645,51.513733],[-0.092455,51.513706],[-0.092448,51.513738]]],[[[-0.09332,51.513852],[-0.093311,51.513866],[-0.093322,51.513879],[-0.093325,51.513884],[-0.093339,51.513887],[-0.093429,51.5139],[-0.09353,51.513914],[-0.093547,51.513871],[-0.093546,51.51387],[-0.093445,51.513856],[-0.093396,51.513849],[-0.093416,51.51381],[-0.093417,51.513808],[-0.093418,51.513805],[-0.09343,51.513781],[-0.09343,51.51378],[-0.093361,51.513768],[-0.09332,51.513852]]],[[[-0.09349,51.513229],[-0.09349,51.513231],[-0.09349,51.513231],[-0.093489,51.513231],[-0.093475,51.513287],[-0.09343,51.513372],[-0.09343,51.513374],[-0.093499,51.513386],[-0.093546,51.513298],[-0.093547,51.513295],[-0.093549,51.51329],[-0.093551,51.513279],[-0.093561,51.513238],[-0.093564,51.513229],[-0.093576,51.513184],[-0.093505,51.513176],[-0.09349,51.513229]]],[[[-0.090703,51.513687],[-0.091001,51.513737],[-0.091084,51.513721],[-0.091038,51.513714],[-0.091045,51.513698],[-0.090757,51.513649],[-0.090747,51.51367],[-0.090713,51.513664],[-0.090703,51.513687]]],[[[-0.093514,51.512938],[-0.093621,51.512958],[-0.093624,51.512949],[-0.093638,51.512908],[-0.093648,51.512872],[-0.093648,51.51287],[-0.09365,51.51286],[-0.093662,51.512795],[-0.093654,51.512795],[-0.09359,51.512794],[-0.09359,51.512794],[-0.093584,51.512827],[-0.093577,51.512863],[-0.093572,51.512879],[-0.093566,51.512901],[-0.093533,51.512894],[-0.093514,51.512938]]],[[[-0.093593,51.513329],[-0.093586,51.513339],[-0.093571,51.513374],[-0.093545,51.513433],[-0.093539,51.513445],[-0.093516,51.513496],[-0.093584,51.513511],[-0.093585,51.513509],[-0.093609,51.513458],[-0.093609,51.513457],[-0.093609,51.513457],[-0.093609,51.513457],[-0.09364,51.513386],[-0.093641,51.513386],[-0.093662,51.513342],[-0.093663,51.513339],[-0.093595,51.513326],[-0.093593,51.513329]]],[[[-0.093408,51.513418],[-0.093407,51.51342],[-0.093337,51.513548],[-0.093337,51.513551],[-0.093406,51.513562],[-0.093474,51.513436],[-0.093477,51.513431],[-0.09349,51.513402],[-0.09342,51.513391],[-0.093408,51.513418]]],[[[-0.092126,51.513904],[-0.092117,51.513929],[-0.092115,51.513935],[-0.092202,51.513947],[-0.092286,51.513956],[-0.092294,51.513911],[-0.092215,51.513902],[-0.092132,51.513891],[-0.092126,51.513904]]],[[[-0.093603,51.513288],[-0.0936,51.513297],[-0.093598,51.513302],[-0.093598,51.513303],[-0.093595,51.513311],[-0.093608,51.513313],[-0.093613,51.513313],[-0.093618,51.513314],[-0.093628,51.513316],[-0.093635,51.513317],[-0.093641,51.513318],[-0.093663,51.513322],[-0.093664,51.513322],[-0.093665,51.51332],[-0.093678,51.513281],[-0.093679,51.51328],[-0.09362,51.513273],[-0.093618,51.513281],[-0.093604,51.513285],[-0.093603,51.513288]]]]},"properties":{"OBJECTID_1":10,"NAME":"Principal Shopping Centres","COMPONENT":"Cheapside","whole_in_zone":false,"in_cw":false}},
{"type":"Feature","geometry":{"type":"MultiPolygon","coordinates":[[[[-0.083447,51.513339],[-0.083447,51.513341],[-0.083448,51.513344],[-0.083449,51.513345],[-0.083451,51.513347],[-0.083455,51.51335],[-0.083461,51.513351],[-0.083463,51.513352],[-0.083466,51.513352],[-0.083472,51.513352],[-0.083814,51.513334],[-0.083827,51.513288],[-0.083868,51.513284],[-0.083972,51.513247],[-0.083986,51.513232],[-0.084004,51.513231],[-0.084232,51.513004],[-0.084259,51.512958],[-0.084167,51.512943],[-0.083864,51.512895],[-0.083741,51.512875],[-0.083593,51.512851],[-0.083551,51.512868],[-0.083544,51.512888],[-0.083536,51.512909],[-0.08353,51.512932],[-0.083538,51.512935],[-0.083471,51.51313],[-0.083447,51.513339]],[[-0.083723,51.512918],[-0.083847,51.512939],[-0.08415,51.512987],[-0.084162,51.512989],[-0.084159,51.512992],[-0.08396,51.51319],[-0.083956,51.513191],[-0.083951,51.513192],[-0.083947,51.513194],[-0.083944,51.513195],[-0.08394,51.513197],[-0.083936,51.513199],[-0.083933,51.513201],[-0.08393,51.513204],[-0.083927,51.513206],[-0.083924,51.513208],[-0.083923,51.51321],[-0.083919,51.513215],[-0.083844,51.513241],[-0.083818,51.513243],[-0.083815,51.513243],[-0.08381,51.513244],[-0.083806,51.513245],[-0.083801,51.513246],[-0.083797,51.513247],[-0.083793,51.513248],[-0.083789,51.51325],[-0.083785,51.513251],[-0.083781,51.513253],[-0.083778,51.513255],[-0.083774,51.513257],[-0.083771,51.513259],[-0.083768,51.513262],[-0.083766,51.513264],[-0.083763,51.513267],[-0.083761,51.513269],[-0.08376,51.513272],[-0.083758,51.513275],[-0.083757,51.513278],[-0.083756,51.51328],[-0.083753,51.513292],[-0.083524,51.513304],[-0.083543,51.513136],[-0.083608,51.512944],[-0.083609,51.512942],[-0.08361,51.512939],[-0.08361,51.512936],[-0.08361,51.512933],[-0.08361,51.51293],[-0.083609,51.512927],[-0.083608,51.512924],[-0.083607,51.512921],[-0.083607,51.512921],[-0.083606,51.51292],[-0.083606,51.51292],[-0.083607,51.512918],[-0.083607,51.512916],[-0.083613,51.512901],[-0.083723,51.512918]]],[[[-0.084326,51.512514],[-0.084442,51.512546],[-0.084545,51.512575],[-0.084622,51.512486],[-0.084711,51.512357],[-0.084698,51.512357],[-0.084695,51.512352],[-0.0847,51.512351],[-0.084702,51.51235],[-0.084704,51.512349],[-0.084706,51.512348],[-0.084707,51.512347],[-0.084708,51.512346],[-0.084708,51.512343],[-0.084694,51.512319],[-0.084693,51.512317],[-0.08469,51.512315],[-0.084689,51.512315],[-0.084687,51.512314],[-0.084684,51.512314],[-0.084681,51.512315],[-0.084674,51.512316],[-0.08467,51.512312],[-0.084675,51.512307],[-0.084568,51.512277],[-0.084576,51.512264],[-0.084482,51.512238],[-0.084412,51.512219],[-0.084407,51.512226],[-0.084207,51.512178],[-0.084157,51.51227],[-0.084121,51.512337],[-0.084107,51.512334],[-0.084038,51.512434],[-0.084193,51.512472],[-0.08419,51.512476],[-0.084232,51.512488],[-0.084326,51.512514]],[[-0.084623,51.512357],[-0.084624,51.512359],[-0.084625,51.512362],[-0.084626,51.512365],[-0.084556,51.512468],[-0.084513,51.512517],[-0.084471,51.512505],[-0.084363,51.512476],[-0.084261,51.512447],[-0.084248,51.512443],[-0.084245,51.512441],[-0.084242,51.512439],[-0.084238,51.512437],[-0.084234,51.512435],[-0.08423,51.512434],[-0.084226,51.512432],[-0.084222,51.512431],[-0.084219,51.51243],[-0.084134,51.512409],[-0.084156,51.512376],[-0.084159,51.512375],[-0.084163,51.512373],[-0.084167,51.512372],[-0.08417,51.51237],[-0.084174,51.512368],[-0.084177,51.512365],[-0.08418,51.512363],[-0.084182,51.512361],[-0.084184,51.512358],[-0.084187,51.512355],[-0.084188,51.512353],[-0.084189,51.512351],[-0.084224,51.512286],[-0.084249,51.51224],[-0.084251,51.512237],[-0.084381,51.512268],[-0.084382,51.512268],[-0.084387,51.512269],[-0.084391,51.51227],[-0.084396,51.512271],[-0.084401,51.512271],[-0.084405,51.512271],[-0.08441,51.512271],[-0.084415,51.512271],[-0.084419,51.51227],[-0.084453,51.512279],[-0.0845,51.512292],[-0.084501,51.512293],[-0.084502,51.512296],[-0.084505,51.512299],[-0.084507,51.512301],[-0.08451,51.512304],[-0.084512,51.512306],[-0.084516,51.512308],[-0.084519,51.51231],[-0.084522,51.512312],[-0.084526,51.512314],[-0.08453,51.512316],[-0.084534,51.512317],[-0.084539,51.512318],[-0.084543,51.51232],[-0.08461,51.512338],[-0.084613,51.51234],[-0.084615,51.512343],[-0.084618,51.512345],[-0.084621,51.512347],[-0.084623,51.512349],[-0.084623,51.512351],[-0.084623,51.512354],[-0.084623,51.512357]]],[[[-0.083355,51.512473],[-0.083581,51.512509],[-0.083615,51.512431],[-0.083623,51.512415],[-0.083623,51.512414],[-0.083637,51.51237],[-0.083637,51.51233],[-0.083632,51.512308],[-0.083626,51.51229],[-0.083611,51.512261],[-0.083607,51.512254],[-0.083583,51.51223],[-0.083576,51.512221],[-0.083537,51.512191],[-0.083522,51.512181],[-0.083479,51.512152],[-0.083476,51.51215],[-0.083385,51.512171],[-0.083312,51.512188],[-0.083133,51.512227],[-0.083053,51.51224],[-0.083055,51.512245],[-0.083056,51.512252],[-0.083075,51.512298],[-0.083082,51.512317],[-0.083102,51.512355],[-0.083105,51.512363],[-0.083108,51.512368],[-0.083159,51.512441],[-0.083355,51.512473]],[[-0.08347,51.512212],[-0.083483,51.51222],[-0.083508,51.51224],[-0.083516,51.512247],[-0.083541,51.512273],[-0.083556,51.512301],[-0.083561,51.512316],[-0.083565,51.512333],[-0.083564,51.512366],[-0.083552,51.512405],[-0.083543,51.512425],[-0.08353,51.512455],[-0.083373,51.51243],[-0.083211,51.512403],[-0.083205,51.512395],[-0.083184,51.512365],[-0.083179,51.512358],[-0.083177,51.512354],[-0.083152,51.512305],[-0.083144,51.512287],[-0.083139,51.512273],[-0.083149,51.512271],[-0.083333,51.512231],[-0.083456,51.512203],[-0.08347,51.512212]]],[[[-0.083076,51.511682],[-0.083148,51.511685],[-0.083181,51.511687],[-0.083211,51.51169],[-0.083387,51.511705],[-0.083633,51.511734],[-0.083597,51.511808],[-0.083577,51.511848],[-0.083565,51.511875],[-0.083542,51.511923],[-0.083524,51.511956],[-0.083499,51.511989],[-0.083489,51.511998],[-0.083481,51.512004],[-0.083472,51.51201],[-0.083464,51.512016],[-0.083454,51.512021],[-0.083443,51.512027],[-0.083416,51.51204],[-0.083406,51.512044],[-0.083395,51.512048],[-0.083384,51.512052],[-0.083373,51.512055],[-0.083361,51.512058],[-0.083352,51.51206],[-0.08325,51.512081],[-0.083272,51.512124],[-0.083374,51.512103],[-0.083388,51.5121],[-0.083403,51.512096],[-0.083416,51.512092],[-0.08343,51.512087],[-0.083444,51.512082],[-0.083457,51.512077],[-0.08348,51.512067],[-0.083492,51.512061],[-0.083503,51.512054],[-0.083515,51.512047],[-0.083525,51.512041],[-0.083536,51.512033],[-0.083545,51.512026],[-0.083555,51.512018],[-0.083567,51.512006],[-0.083591,51.511972],[-0.083609,51.511939],[-0.083664,51.511824],[-0.083716,51.511717],[-0.083696,51.511696],[-0.083399,51.511661],[-0.08322,51.511645],[-0.083191,51.511643],[-0.083158,51.51164],[-0.083087,51.511637],[-0.083008,51.511633],[-0.082939,51.511629],[-0.082936,51.511647],[-0.082663,51.511649],[-0.082598,51.511649],[-0.082483,51.511657],[-0.082266,51.511674],[-0.082234,51.511696],[-0.082232,51.511783],[-0.082232,51.511919],[-0.082265,51.51194],[-0.082339,51.511946],[-0.082345,51.511923],[-0.082349,51.511902],[-0.082304,51.511898],[-0.082306,51.511716],[-0.082489,51.511702],[-0.08249,51.511702],[-0.082593,51.511695],[-0.082655,51.511694],[-0.08293,51.511692],[-0.082934,51.511692],[-0.082937,51.511692],[-0.082939,51.511692],[-0.082944,51.511692],[-0.082948,51.511691],[-0.082953,51.511691],[-0.082958,51.51169],[-0.082962,51.511689],[-0.082966,51.511688],[-0.082971,51.511686],[-0.082975,51.511685],[-0.082979,51.511683],[-0.082982,51.511681],[-0.082986,51.511679],[-0.082989,51.511677],[-0.08299,51.511677],[-0.083076,51.511682]]],[[[-0.084103,51.512858],[-0.084317,51.512891],[-0.084324,51.51289],[-0.084341,51.512861],[-0.084346,51.512861],[-0.084356,51.512851],[-0.084368,51.512858],[-0.084372,51.512849],[-0.084363,51.512844],[-0.084455,51.512701],[-0.084496,51.512641],[-0.084528,51.512599],[-0.084423,51.51257],[-0.084275,51.51253],[-0.084233,51.512518],[-0.084174,51.512502],[-0.084119,51.512488],[-0.08404,51.512467],[-0.084037,51.512467],[-0.084014,51.512468],[-0.083891,51.512437],[-0.083831,51.512421],[-0.083765,51.512405],[-0.083741,51.512457],[-0.083725,51.512491],[-0.083706,51.512532],[-0.083825,51.512552],[-0.083834,51.512512],[-0.083835,51.512507],[-0.083796,51.512501],[-0.083808,51.512474],[-0.083812,51.512465],[-0.083868,51.512479],[-0.083985,51.512509],[-0.083989,51.512511],[-0.083994,51.512511],[-0.083998,51.512512],[-0.084003,51.512513],[-0.084008,51.512513],[-0.084012,51.512513],[-0.084017,51.512513],[-0.084022,51.512513],[-0.084024,51.512513],[-0.084027,51.512513],[-0.084029,51.512512],[-0.084091,51.512529],[-0.084204,51.512559],[-0.084394,51.512612],[-0.084431,51.512622],[-0.084389,51.512683],[-0.084299,51.512823],[-0.084291,51.512828],[-0.084289,51.51283],[-0.084289,51.51283],[-0.084285,51.512832],[-0.084283,51.512835],[-0.08428,51.512837],[-0.084278,51.512839],[-0.084121,51.512815],[-0.084036,51.512801],[-0.083973,51.512791],[-0.083903,51.51278],[-0.083681,51.512746],[-0.083698,51.512706],[-0.083731,51.512631],[-0.08379,51.51264],[-0.083794,51.512626],[-0.083801,51.512596],[-0.08368,51.512576],[-0.083661,51.512618],[-0.083629,51.512694],[-0.083602,51.512756],[-0.083622,51.512783],[-0.083885,51.512824],[-0.083957,51.512835],[-0.084019,51.512845],[-0.084103,51.512858]]],[[[-0.084713,51.512194],[-0.084691,51.512241],[-0.084761,51.512253],[-0.084782,51.512206],[-0.084818,51.512126],[-0.084836,51.512129],[-0.084843,51.512114],[-0.08482,51.51211],[-0.084876,51.511987],[-0.084881,51.511988],[-0.084882,51.511984],[-0.084882,51.511981],[-0.084883,51.511977],[-0.084883,51.511973],[-0.084882,51.51197],[-0.084882,51.511966],[-0.084881,51.511962],[-0.08488,51.511959],[-0.084879,51.511955],[-0.084878,51.511952],[-0.084876,51.511948],[-0.084874,51.511945],[-0.084872,51.511941],[-0.08487,51.511938],[-0.084868,51.511935],[-0.084865,51.511931],[-0.084862,51.511928],[-0.084856,51.511923],[-0.084853,51.51192],[-0.084849,51.511917],[-0.084845,51.511914],[-0.084841,51.511911],[-0.084837,51.511909],[-0.084832,51.511906],[-0.084828,51.511904],[-0.084823,51.511902],[-0.084818,51.5119],[-0.084813,51.511898],[-0.084808,51.511896],[-0.084803,51.511894],[-0.084798,51.511893],[-0.084795,51.511892],[-0.084793,51.511891],[-0.084785,51.51189],[-0.084787,51.511885],[-0.083986,51.511756],[-0.083982,51.511755],[-0.083979,51.511755],[-0.083975,51.511755],[-0.083972,51.511755],[-0.083968,51.511755],[-0.083964,51.511755],[-0.083961,51.511755],[-0.083957,51.511755],[-0.083954,51.511755],[-0.08395,51.511756],[-0.083947,51.511756],[-0.083943,51.511757],[-0.08394,51.511758],[-0.083936,51.511758],[-0.083933,51.511759],[-0.08393,51.51176],[-0.083927,51.511761],[-0.083923,51.511762],[-0.08392,51.511763],[-0.083915,51.511766],[-0.083912,51.511767],[-0.083909,51.511769],[-0.083907,51.51177],[-0.083904,51.511772],[-0.083902,51.511773],[-0.0839,51.511775],[-0.083897,51.511777],[-0.083895,51.511779],[-0.083893,51.511781],[-0.083891,51.511783],[-0.08389,51.511785],[-0.083888,51.511787],[-0.083887,51.511789],[-0.083886,51.511791],[-0.083884,51.511793],[-0.083883,51.511797],[-0.083869,51.511825],[-0.083877,51.511827],[-0.083836,51.51191],[-0.083904,51.511924],[-0.083946,51.51184],[-0.083947,51.511837],[-0.083948,51.511834],[-0.083949,51.511831],[-0.083949,51.511828],[-0.083949,51.511825],[-0.083949,51.511822],[-0.083948,51.511819],[-0.083948,51.511818],[-0.083952,51.51181],[-0.083953,51.511808],[-0.083953,51.511806],[-0.083954,51.511805],[-0.083955,51.511804],[-0.083956,51.511804],[-0.083956,51.511803],[-0.083957,51.511803],[-0.083958,51.511802],[-0.08396,51.511801],[-0.083961,51.511801],[-0.083962,51.5118],[-0.083964,51.5118],[-0.083965,51.5118],[-0.083966,51.5118],[-0.08397,51.5118],[-0.084736,51.511923],[-0.084739,51.511925],[-0.084743,51.511926],[-0.084747,51.511928],[-0.084751,51.511929],[-0.084755,51.511931],[-0.08476,51.511932],[-0.084766,51.511933],[-0.084771,51.511935],[-0.084773,51.511935],[-0.084776,51.511937],[-0.084779,51.511938],[-0.084781,51.511938],[-0.084783,51.511939],[-0.084786,51.511941],[-0.084788,51.511942],[-0.08479,51.511943],[-0.084792,51.511944],[-0.084794,51.511946],[-0.084796,51.511947],[-0.084797,51.511948],[-0.0848,51.511952],[-0.084802,51.511953],[-0.084803,51.511955],[-0.084804,51.511956],[-0.084806,51.511958],[-0.084806,51.511959],[-0.084807,51.511962],[-0.084808,51.511963],[-0.084809,51.511965],[-0.084809,51.511967],[-0.08481,51.511969],[-0.084808,51.511971],[-0.084807,51.511974],[-0.084806,51.511975],[-0.084753,51.512094],[-0.084751,51.512097],[-0.084751,51.512098],[-0.08475,51.5121],[-0.084749,51.512103],[-0.084749,51.512106],[-0.084748,51.512109],[-0.084748,51.512112],[-0.084749,51.512113],[-0.084748,51.512114],[-0.084713,51.512194]]],[[[-0.082843,51.512571],[-0.082831,51.512583],[-0.082949,51.512603],[-0.08301,51.512613],[-0.083075,51.512624],[-0.083093,51.512586],[-0.083098,51.512572],[-0.083139,51.512482],[-0.0831,51.512455],[-0.083042,51.512363],[-0.08302,51.512306],[-0.083,51.512253],[-0.082987,51.512255],[-0.082985,51.512252],[-0.082905,51.512265],[-0.08284,51.512279],[-0.082779,51.5123],[-0.082748,51.512312],[-0.082786,51.51235],[-0.082814,51.512339],[-0.082869,51.51232],[-0.082946,51.512305],[-0.08295,51.512316],[-0.082971,51.512374],[-0.083038,51.512478],[-0.083059,51.512494],[-0.083026,51.512569],[-0.082968,51.51256],[-0.082873,51.512544],[-0.08287,51.512545],[-0.082865,51.512549],[-0.082863,51.51255],[-0.082861,51.512553],[-0.082843,51.512571]]],[[[-0.083095,51.512734],[-0.083086,51.512755],[-0.083255,51.512824],[-0.0833,51.512843],[-0.083302,51.512844],[-0.083307,51.512845],[-0.083311,51.512846],[-0.083315,51.512848],[-0.083318,51.512848],[-0.083355,51.512856],[-0.083347,51.512875],[-0.083298,51.513002],[-0.083286,51.51304],[-0.083268,51.513137],[-0.083249,51.51321],[-0.083295,51.513216],[-0.08332,51.513219],[-0.083339,51.513143],[-0.083357,51.513049],[-0.083369,51.513011],[-0.083417,51.512887],[-0.083424,51.51287],[-0.083436,51.512842],[-0.083414,51.51282],[-0.08334,51.512805],[-0.083281,51.512781],[-0.083214,51.512753],[-0.083107,51.51271],[-0.083095,51.512734]]],[[[-0.082031,51.512055],[-0.082326,51.512082],[-0.082326,51.512083],[-0.082565,51.512104],[-0.082547,51.512178],[-0.082546,51.512181],[-0.082546,51.512184],[-0.082546,51.512187],[-0.082547,51.512189],[-0.082547,51.512191],[-0.082532,51.512198],[-0.082528,51.512199],[-0.082526,51.5122],[-0.082524,51.512201],[-0.08252,51.512203],[-0.082517,51.512205],[-0.082513,51.512207],[-0.08251,51.512209],[-0.082507,51.512212],[-0.082505,51.512214],[-0.082502,51.512217],[-0.0825,51.512219],[-0.082499,51.512222],[-0.082497,51.512225],[-0.082496,51.512227],[-0.082495,51.51223],[-0.082477,51.512276],[-0.082541,51.512303],[-0.082552,51.512274],[-0.082565,51.512244],[-0.082566,51.512237],[-0.082641,51.512206],[-0.082618,51.512185],[-0.082646,51.512073],[-0.082635,51.512066],[-0.082633,51.512064],[-0.082341,51.512039],[-0.082337,51.512038],[-0.082328,51.512038],[-0.082269,51.512032],[-0.082264,51.512032],[-0.082252,51.512031],[-0.0822,51.512026],[-0.082193,51.512026],[-0.082095,51.512017],[-0.082033,51.512012],[-0.082031,51.512055]]],[[[-0.082406,51.511928],[-0.082399,51.511953],[-0.082438,51.511957],[-0.082428,51.511993],[-0.082735,51.512024],[-0.08281,51.512031],[-0.082883,51.512038],[-0.082979,51.512048],[-0.082992,51.512004],[-0.082889,51.511994],[-0.082819,51.511987],[-0.08275,51.51198],[-0.08251,51.511956],[-0.082509,51.511955],[-0.082509,51.511952],[-0.082509,51.511949],[-0.082508,51.511946],[-0.082506,51.511943],[-0.082505,51.51194],[-0.082503,51.511938],[-0.082501,51.511935],[-0.082498,51.511933],[-0.082496,51.51193],[-0.082493,51.511928],[-0.08249,51.511926],[-0.082486,51.511924],[-0.082483,51.511922],[-0.082479,51.51192],[-0.082475,51.511918],[-0.082471,51.511917],[-0.082467,51.511916],[-0.082462,51.511914],[-0.082458,51.511913],[-0.082453,51.511913],[-0.082449,51.511913],[-0.082411,51.511909],[-0.08241,51.511911],[-0.082406,51.511928]]],[[[-0.084012,51.511616],[-0.084033,51.511635],[-0.084522,51.511707],[-0.084552,51.511695],[-0.08456,51.511671],[-0.084562,51.511666],[-0.084021,51.511588],[-0.084012,51.511616]]],[[[-0.083774,51.512263],[-0.083765,51.512287],[-0.083766,51.512302],[-0.08377,51.512347],[-0.083844,51.512365],[-0.084012,51.512407],[-0.084036,51.512371],[-0.084062,51.512334],[-0.083791,51.512264],[-0.083777,51.51226],[-0.083774,51.512263]]],[[[-0.084801,51.511746],[-0.084837,51.511752],[-0.084942,51.511763],[-0.084958,51.511751],[-0.085007,51.511745],[-0.085025,51.511754],[-0.085036,51.511753],[-0.085031,51.511746],[-0.085057,51.511729],[-0.085065,51.511712],[-0.084995,51.511701],[-0.084945,51.511707],[-0.084941,51.511707],[-0.084936,51.511708],[-0.084932,51.511709],[-0.084928,51.51171],[-0.084923,51.511711],[-0.084919,51.511713],[-0.084915,51.511715],[-0.084852,51.511708],[-0.084818,51.511702],[-0.084631,51.511674],[-0.084627,51.511673],[-0.084624,51.511672],[-0.084622,51.511672],[-0.084618,51.511672],[-0.084613,51.511671],[-0.084608,51.511671],[-0.084604,51.511671],[-0.084599,51.511671],[-0.084594,51.511672],[-0.08459,51.511672],[-0.084589,51.511672],[-0.084587,51.511675],[-0.084581,51.511692],[-0.084571,51.511718],[-0.084604,51.511723],[-0.084606,51.511716],[-0.084801,51.511746]]],[[[-0.084763,51.512649],[-0.084697,51.512731],[-0.084629,51.512822],[-0.084691,51.512833],[-0.084699,51.512834],[-0.084888,51.512597],[-0.084822,51.512579],[-0.084763,51.512649]]],[[[-0.083167,51.512579],[-0.083142,51.512633],[-0.083238,51.512669],[-0.083264,51.512654],[-0.083288,51.512598],[-0.083322,51.512519],[-0.083201,51.512499],[-0.083167,51.512579]]],[[[-0.084871,51.51253],[-0.084883,51.512533],[-0.084864,51.512558],[-0.084931,51.512576],[-0.084948,51.512552],[-0.084949,51.512552],[-0.08495,51.512549],[-0.084952,51.512546],[-0.084953,51.512543],[-0.084954,51.51254],[-0.084955,51.512537],[-0.084955,51.512535],[-0.084955,51.512532],[-0.084954,51.512529],[-0.084954,51.512527],[-0.085037,51.512422],[-0.08504,51.512421],[-0.085043,51.512419],[-0.085047,51.512417],[-0.08505,51.512415],[-0.085053,51.512413],[-0.085056,51.512411],[-0.085059,51.512408],[-0.085061,51.512406],[-0.085062,51.512404],[-0.08508,51.512382],[-0.085015,51.512362],[-0.084997,51.512385],[-0.084988,51.512382],[-0.084871,51.51253]]],[[[-0.082676,51.512191],[-0.082706,51.512177],[-0.082757,51.512182],[-0.082776,51.512184],[-0.082811,51.512168],[-0.082825,51.5121],[-0.082794,51.512078],[-0.082692,51.512069],[-0.082678,51.512076],[-0.082653,51.512173],[-0.082676,51.512191]],[[-0.082748,51.512119],[-0.082744,51.512135],[-0.082736,51.512135],[-0.08274,51.512119],[-0.082748,51.512119]]],[[[-0.083297,51.512691],[-0.083439,51.51275],[-0.083484,51.512728],[-0.083508,51.512675],[-0.083448,51.512648],[-0.083325,51.512628],[-0.083297,51.512691]]],[[[-0.083338,51.512604],[-0.083398,51.512614],[-0.083528,51.512635],[-0.083545,51.512595],[-0.083561,51.512558],[-0.083429,51.512537],[-0.083369,51.512527],[-0.083338,51.512604]]],[[[-0.082024,51.511754],[-0.082033,51.511835],[-0.082032,51.511971],[-0.082096,51.511958],[-0.082097,51.511822],[-0.082087,51.511717],[-0.082024,51.511754]]],[[[-0.083811,51.512228],[-0.083951,51.512266],[-0.084084,51.512301],[-0.084111,51.512269],[-0.084116,51.512264],[-0.084021,51.512236],[-0.083906,51.512205],[-0.083908,51.512202],[-0.083843,51.512183],[-0.083811,51.512228]]],[[[-0.085137,51.512191],[-0.085146,51.512194],[-0.08513,51.512214],[-0.085195,51.512234],[-0.085211,51.512214],[-0.085212,51.512212],[-0.085214,51.51221],[-0.085215,51.512207],[-0.085216,51.512204],[-0.085217,51.512201],[-0.085218,51.512198],[-0.085218,51.512195],[-0.085218,51.512192],[-0.085218,51.51219],[-0.08528,51.512111],[-0.085311,51.512071],[-0.085302,51.512068],[-0.085246,51.512051],[-0.085137,51.512191]]],[[[-0.08447,51.51302],[-0.084543,51.513029],[-0.084653,51.512892],[-0.084588,51.512873],[-0.08447,51.51302]]],[[[-0.084381,51.513152],[-0.084455,51.513159],[-0.084528,51.513045],[-0.084457,51.513035],[-0.084381,51.513152]]]]},"properties":{"OBJECTID_1":12,"NAME":"Principal Shopping Centres","COMPONENT":"Leadenhall Market","whole_in_zone":true,"in_cw":false}}
]}
