{"type":"FeatureCollection","meta":{
 "source": "planning.data.gov.uk: Local nature reserve (local-nature-reserve)",
 "dataset": "local-nature-reserve",
 "page": "https://www.planning.data.gov.uk/dataset/local-nature-reserve",
 "typology": "geography",
 "phase": "beta",
 "api": "https://www.planning.data.gov.uk/entity.geojson?dataset=local-nature-reserve&geometry=<zone polygon WKT>&geometry_relation=intersects&limit=500&offset=<n>",
 "fetched": "2026-10-04",
 "licence": "Open Government Licence v3.0",
 "licence_url": "https://www.nationalarchives.gov.uk/doc/open-government-licence/version/3/",
 "attribution": "© Crown copyright and database right 2026",
 "why": "local nature reserves",
 "zone": "the 3D model box, BNG E 532400-539900, N 176700-182300 (WGS84 -0.095, 51.474 to 0.015, 51.522)",
 "method": "walk-portals.mjs pdg harvest local-nature-reserve: the platform's spatial query (geometry intersects the zone box) in pages of 500; whole geometries kept (not cut), rounded to 6 decimals; in_zone, whole_in_zone, in_cw (Canary Wharf registry box -0.03, 51.498, -0.005, 51.51); fields kept as published except empty ones and fields matching /e-?mail|phone|tel(ephone)?$|^tel|contact|^fax|mobile|^owner_?name|person|officer|case_?officer|agent_?name|applicant/i",
 "counts": {
  "features": 7,
  "zone_count_at_walk": 7,
  "whole_in_zone": 6,
  "in_cw": 0,
  "pages": 1
 }
},
"features":[
{"type":"Feature","geometry":{"type":"MultiPolygon","coordinates":[[[[-0.027764,51.521257],[-0.027919,51.52088],[-0.027747,51.520863],[-0.027727,51.520856],[-0.027697,51.520858],[-0.027628,51.520851],[-0.027599,51.520852],[-0.027599,51.520834],[-0.027594,51.520827],[-0.02759,51.520826],[-0.027574,51.520823],[-0.027438,51.52081],[-0.027428,51.52081],[-0.027417,51.520814],[-0.027402,51.520825],[-0.027391,51.520829],[-0.027149,51.520994],[-0.026752,51.521267],[-0.026628,51.521355],[-0.026576,51.521389],[-0.025907,51.521845],[-0.025958,51.521949],[-0.025949,51.521974],[-0.025885,51.521988],[-0.0258,51.522004],[-0.025691,51.522019],[-0.025627,51.522034],[-0.025507,51.522121],[-0.024683,51.522684],[-0.024611,51.522737],[-0.024553,51.522783],[-0.024472,51.522844],[-0.024325,51.522964],[-0.024071,51.523177],[-0.024084,51.52319],[-0.024027,51.523209],[-0.024106,51.52333],[-0.02443,51.523815],[-0.024631,51.524111],[-0.024714,51.524228],[-0.024847,51.524424],[-0.024901,51.524504],[-0.024972,51.524617],[-0.025054,51.524742],[-0.025263,51.525048],[-0.025898,51.524794],[-0.025992,51.52476],[-0.026108,51.524719],[-0.026308,51.524655],[-0.026356,51.524643],[-0.02638,51.524635],[-0.02647,51.524613],[-0.027101,51.524468],[-0.027436,51.524394],[-0.027913,51.524282],[-0.02865,51.524117],[-0.028657,51.524142],[-0.028815,51.524122],[-0.029459,51.524002],[-0.029941,51.523901],[-0.030647,51.52374],[-0.03066,51.523734],[-0.030661,51.523729],[-0.03066,51.523724],[-0.030646,51.523693],[-0.030155,51.522682],[-0.029904,51.522154],[-0.029843,51.522031],[-0.029822,51.52198],[-0.029816,51.521972],[-0.029813,51.521965],[-0.029804,51.521958],[-0.029792,51.521954],[-0.029732,51.521952],[-0.029569,51.52195],[-0.029299,51.521943],[-0.028638,51.52193],[-0.028214,51.521919],[-0.027907,51.521913],[-0.027876,51.521912],[-0.027866,51.52191],[-0.027854,51.521905],[-0.027849,51.5219],[-0.027846,51.521893],[-0.027822,51.521793],[-0.027818,51.521768],[-0.027807,51.521724],[-0.027803,51.521715],[-0.027824,51.521712],[-0.027806,51.521667],[-0.027781,51.521593],[-0.027719,51.521425],[-0.027707,51.521388],[-0.027731,51.521338],[-0.027764,51.521257]]]]},"properties":{"entry-date":"2026-08-20","entity":45252379,"name":"TOWER HAMLETS CEMETERY PARK","dataset":"local-nature-reserve","typology":"geography","reference":"1009443","prefix":"local-nature-reserve","organisation-entity":501910,"quality":"authoritative","in_zone":true,"whole_in_zone":false,"in_cw":false}},
{"type":"Feature","geometry":{"type":"MultiPolygon","coordinates":[[[[-0.03009,51.51835],[-0.030099,51.518344],[-0.030112,51.518342],[-0.030127,51.518345],[-0.030138,51.518353],[-0.030143,51.518359],[-0.030273,51.518598],[-0.030331,51.518626],[-0.03028,51.518661],[-0.030266,51.518642],[-0.029135,51.51941],[-0.028841,51.519246],[-0.028842,51.519204],[-0.029347,51.518858],[-0.029579,51.518701],[-0.030069,51.518366],[-0.03009,51.51835]]],[[[-0.029016,51.51949],[-0.028527,51.519822],[-0.028202,51.519639],[-0.028688,51.519308],[-0.029016,51.51949]]],[[[-0.028408,51.519903],[-0.027921,51.520234],[-0.027607,51.520048],[-0.028085,51.519722],[-0.028408,51.519903]]],[[[-0.027805,51.520313],[-0.027359,51.520619],[-0.027258,51.52069],[-0.027014,51.520615],[-0.026932,51.520582],[-0.02689,51.520562],[-0.026881,51.520556],[-0.02688,51.520542],[-0.026972,51.520481],[-0.027206,51.52032],[-0.02748,51.520135],[-0.027805,51.520313]]]]},"properties":{"entry-date":"2026-08-20","entity":45252544,"name":"ACKROYD DRIVE","dataset":"local-nature-reserve","typology":"geography","reference":"1009748","prefix":"local-nature-reserve","organisation-entity":501910,"quality":"authoritative","in_zone":true,"whole_in_zone":true,"in_cw":false}},
{"type":"Feature","geometry":{"type":"MultiPolygon","coordinates":[[[[-0.022161,51.479681],[-0.022857,51.479616],[-0.022878,51.479597],[-0.022869,51.479478],[-0.022865,51.479287],[-0.022861,51.479212],[-0.022879,51.479211],[-0.022877,51.479195],[-0.022875,51.479192],[-0.02287,51.479186],[-0.022863,51.479181],[-0.02285,51.479176],[-0.022831,51.479173],[-0.022821,51.479173],[-0.022649,51.479185],[-0.022496,51.479198],[-0.022429,51.479201],[-0.02241,51.479204],[-0.021702,51.47927],[-0.021461,51.479296],[-0.021104,51.479328],[-0.021211,51.479773],[-0.021424,51.479755],[-0.022042,51.479696],[-0.022161,51.479681]]]]},"properties":{"entry-date":"2026-08-20","entity":45252558,"name":"SUE GODFREY NATURE PARK","dataset":"local-nature-reserve","typology":"geography","reference":"1009776","prefix":"local-nature-reserve","organisation-entity":501910,"quality":"authoritative","in_zone":true,"whole_in_zone":true,"in_cw":false}},
{"type":"Feature","geometry":{"type":"MultiPolygon","coordinates":[[[[-0.013151,51.490532],[-0.009481,51.49031],[-0.009477,51.490317],[-0.009469,51.490317],[-0.009289,51.490689],[-0.008852,51.491584],[-0.008314,51.491485],[-0.008283,51.491552],[-0.008153,51.491819],[-0.008127,51.491876],[-0.008053,51.492026],[-0.008118,51.49205],[-0.008488,51.492176],[-0.008469,51.4922],[-0.008519,51.492214],[-0.008513,51.492226],[-0.008519,51.492238],[-0.008532,51.492252],[-0.008557,51.492262],[-0.008588,51.492266],[-0.008621,51.492266],[-0.008649,51.492263],[-0.008619,51.492317],[-0.008596,51.49235],[-0.008611,51.492379],[-0.008524,51.492512],[-0.008498,51.49252],[-0.00847,51.492566],[-0.008413,51.492667],[-0.008203,51.492611],[-0.008133,51.49274],[-0.008049,51.492886],[-0.007864,51.492956],[-0.007831,51.493047],[-0.008072,51.493065],[-0.008289,51.493278],[-0.009461,51.492985],[-0.009684,51.493043],[-0.009719,51.493059],[-0.009745,51.493139],[-0.009758,51.493173],[-0.009758,51.493187],[-0.009765,51.493208],[-0.009779,51.493261],[-0.009788,51.493328],[-0.009802,51.493345],[-0.009946,51.493401],[-0.010024,51.493433],[-0.010154,51.493475],[-0.010246,51.493507],[-0.010332,51.493544],[-0.010371,51.493565],[-0.010486,51.493634],[-0.010542,51.49367],[-0.010622,51.493732],[-0.010704,51.49379],[-0.01078,51.493849],[-0.010969,51.493665],[-0.010997,51.493683],[-0.011035,51.493683],[-0.011048,51.493621],[-0.011029,51.493618],[-0.011039,51.493593],[-0.011056,51.493564],[-0.011082,51.493534],[-0.011118,51.493499],[-0.011168,51.493458],[-0.011207,51.49343],[-0.011265,51.493395],[-0.01133,51.493363],[-0.011413,51.493335],[-0.011488,51.493314],[-0.011564,51.493301],[-0.011602,51.493298],[-0.013513,51.493421],[-0.014157,51.493464],[-0.014326,51.493474],[-0.014343,51.493473],[-0.014351,51.493468],[-0.014354,51.493464],[-0.014357,51.493452],[-0.014376,51.493334],[-0.014386,51.49326],[-0.014454,51.492876],[-0.014518,51.492467],[-0.01452,51.492441],[-0.014525,51.492417],[-0.014554,51.492228],[-0.014595,51.491989],[-0.014623,51.491769],[-0.014628,51.491681],[-0.014628,51.491538],[-0.014612,51.491404],[-0.014591,51.491284],[-0.014566,51.49118],[-0.014528,51.491057],[-0.014509,51.491006],[-0.014464,51.4909],[-0.014438,51.490845],[-0.014374,51.490729],[-0.014294,51.490602],[-0.014077,51.490594],[-0.014077,51.49059],[-0.013638,51.490559],[-0.013151,51.490532]]]]},"properties":{"entry-date":"2026-08-20","entity":45252685,"name":"MUDCHUTE PARK FARM","dataset":"local-nature-reserve","typology":"geography","reference":"1082909","prefix":"local-nature-reserve","organisation-entity":501910,"quality":"authoritative","in_zone":true,"whole_in_zone":true,"in_cw":false}},
{"type":"Feature","geometry":{"type":"MultiPolygon","coordinates":[[[[-0.036785,51.50607],[-0.036916,51.506116],[-0.036824,51.506392],[-0.03686,51.506404],[-0.03692,51.506414],[-0.037031,51.506426],[-0.037091,51.506377],[-0.037123,51.506382],[-0.037224,51.50614],[-0.037525,51.506189],[-0.03763,51.506204],[-0.037565,51.506353],[-0.03758,51.506352],[-0.037595,51.506345],[-0.037606,51.506336],[-0.037614,51.506322],[-0.037651,51.506279],[-0.037665,51.506264],[-0.037682,51.506249],[-0.037718,51.506224],[-0.037755,51.506202],[-0.037802,51.506181],[-0.037851,51.506165],[-0.037898,51.506153],[-0.037965,51.506141],[-0.037976,51.506141],[-0.037988,51.506134],[-0.038023,51.506012],[-0.03806,51.505898],[-0.038085,51.505805],[-0.038145,51.505767],[-0.038169,51.505697],[-0.038155,51.505695],[-0.038145,51.505682],[-0.038014,51.505659],[-0.038015,51.505651],[-0.037814,51.505617],[-0.037808,51.505626],[-0.037772,51.50562],[-0.037777,51.50561],[-0.037672,51.505592],[-0.037663,51.505553],[-0.037598,51.505531],[-0.03754,51.505508],[-0.037509,51.505492],[-0.037431,51.505456],[-0.037375,51.505424],[-0.037325,51.505392],[-0.037197,51.505305],[-0.037103,51.505364],[-0.037048,51.505522],[-0.036928,51.505635],[-0.036761,51.505796],[-0.036676,51.505881],[-0.036663,51.506027],[-0.036785,51.50607]]]]},"properties":{"entry-date":"2026-08-20","entity":45253000,"name":"LAVENDER POND","dataset":"local-nature-reserve","typology":"geography","reference":"1421565","prefix":"local-nature-reserve","organisation-entity":501910,"quality":"authoritative","in_zone":true,"whole_in_zone":true,"in_cw":false}},
{"type":"Feature","geometry":{"type":"MultiPolygon","coordinates":[[[[-0.040199,51.496201],[-0.039868,51.496199],[-0.039876,51.49609],[-0.039874,51.496085],[-0.039866,51.496076],[-0.039851,51.496068],[-0.039843,51.496066],[-0.039721,51.496064],[-0.039667,51.496061],[-0.039668,51.496034],[-0.039632,51.496032],[-0.039642,51.495877],[-0.039656,51.495623],[-0.039655,51.49562],[-0.040474,51.495456],[-0.040509,51.495518],[-0.040461,51.495527],[-0.040441,51.495781],[-0.040424,51.496041],[-0.040452,51.496046],[-0.040539,51.496199],[-0.040473,51.496196],[-0.040425,51.496215],[-0.040199,51.496201]]],[[[-0.041118,51.505369],[-0.041133,51.505361],[-0.041171,51.505327],[-0.041227,51.505286],[-0.041302,51.505244],[-0.041369,51.505216],[-0.041391,51.505208],[-0.041416,51.505203],[-0.041451,51.505192],[-0.041466,51.505189],[-0.04148,51.505181],[-0.041507,51.505154],[-0.041514,51.505144],[-0.041527,51.50511],[-0.041538,51.505054],[-0.04155,51.505016],[-0.041554,51.504987],[-0.041555,51.504963],[-0.041553,51.504925],[-0.041535,51.504855],[-0.041533,51.504834],[-0.041537,51.504792],[-0.041558,51.504749],[-0.041585,51.504702],[-0.041614,51.504664],[-0.041633,51.504623],[-0.041644,51.504587],[-0.04165,51.504488],[-0.041634,51.504431],[-0.041304,51.504294],[-0.041222,51.504302],[-0.040699,51.504087],[-0.04052,51.504264],[-0.040492,51.504253],[-0.040481,51.504254],[-0.040467,51.504191],[-0.04046,51.504152],[-0.040443,51.504086],[-0.04043,51.504026],[-0.040289,51.504036],[-0.040281,51.503993],[-0.040266,51.503994],[-0.040265,51.50398],[-0.040277,51.503979],[-0.04026,51.503892],[-0.040245,51.503893],[-0.040242,51.503879],[-0.040257,51.503877],[-0.040246,51.503831],[-0.040238,51.503788],[-0.040224,51.503789],[-0.040222,51.503781],[-0.040221,51.503775],[-0.040234,51.503773],[-0.040198,51.503588],[-0.040193,51.503572],[-0.040188,51.503565],[-0.040165,51.503545],[-0.040152,51.503538],[-0.04013,51.503531],[-0.04011,51.503528],[-0.040047,51.503534],[-0.04005,51.503545],[-0.040027,51.503547],[-0.040024,51.503536],[-0.039896,51.503547],[-0.039897,51.503557],[-0.039876,51.503559],[-0.039872,51.503549],[-0.039751,51.50356],[-0.039752,51.50357],[-0.039731,51.503572],[-0.039728,51.503562],[-0.039686,51.503565],[-0.039607,51.503573],[-0.039609,51.503582],[-0.039586,51.503585],[-0.039584,51.503574],[-0.039462,51.503584],[-0.039464,51.503595],[-0.039441,51.503598],[-0.039438,51.503587],[-0.039307,51.503598],[-0.039309,51.503608],[-0.039296,51.50361],[-0.039285,51.503611],[-0.039281,51.5036],[-0.039221,51.503607],[-0.03924,51.503695],[-0.03927,51.503851],[-0.039283,51.503849],[-0.039286,51.503857],[-0.039287,51.503863],[-0.039272,51.503865],[-0.039292,51.503954],[-0.039306,51.503953],[-0.039308,51.503961],[-0.03931,51.503971],[-0.039297,51.503972],[-0.039314,51.504059],[-0.039328,51.504058],[-0.039332,51.504072],[-0.039046,51.504095],[-0.03904,51.50407],[-0.038972,51.504076],[-0.038973,51.504086],[-0.038951,51.504088],[-0.038948,51.504078],[-0.038806,51.504089],[-0.038807,51.504099],[-0.038784,51.504101],[-0.038781,51.504091],[-0.038641,51.504102],[-0.038642,51.504112],[-0.038622,51.504113],[-0.038619,51.504104],[-0.038491,51.504115],[-0.038221,51.504135],[-0.038239,51.504219],[-0.038255,51.504218],[-0.038258,51.504233],[-0.038244,51.504234],[-0.038251,51.50427],[-0.038318,51.504265],[-0.038382,51.504575],[-0.038315,51.504581],[-0.038323,51.504622],[-0.038338,51.504621],[-0.038339,51.504627],[-0.038365,51.504625],[-0.038384,51.504717],[-0.038032,51.504744],[-0.038027,51.504725],[-0.037891,51.504736],[-0.037893,51.504756],[-0.037758,51.504767],[-0.037729,51.504625],[-0.037672,51.504628],[-0.037671,51.504622],[-0.037425,51.504642],[-0.037394,51.504648],[-0.037381,51.504652],[-0.037377,51.504655],[-0.037373,51.504666],[-0.037377,51.504686],[-0.03743,51.504681],[-0.037432,51.504687],[-0.037433,51.504693],[-0.037415,51.504695],[-0.037431,51.504772],[-0.037447,51.50477],[-0.03745,51.504783],[-0.037433,51.504785],[-0.037449,51.504862],[-0.037466,51.504861],[-0.037467,51.504875],[-0.037451,51.504876],[-0.037467,51.504954],[-0.037468,51.504956],[-0.037485,51.504955],[-0.037488,51.504969],[-0.03747,51.50497],[-0.037488,51.50506],[-0.037365,51.50507],[-0.037312,51.50503],[-0.037283,51.505005],[-0.037256,51.504989],[-0.037027,51.504889],[-0.036958,51.504855],[-0.036879,51.504809],[-0.036869,51.504801],[-0.036823,51.504771],[-0.03676,51.504719],[-0.036705,51.50467],[-0.036606,51.504572],[-0.036566,51.50453],[-0.036498,51.504453],[-0.036494,51.504446],[-0.036445,51.504384],[-0.036421,51.50435],[-0.036181,51.504371],[-0.036197,51.504398],[-0.036252,51.504513],[-0.036272,51.504535],[-0.036261,51.504537],[-0.035898,51.504568],[-0.035558,51.504599],[-0.035063,51.504642],[-0.035036,51.504643],[-0.035019,51.504647],[-0.034981,51.504488],[-0.034916,51.504311],[-0.034855,51.504112],[-0.034952,51.504102],[-0.035335,51.504056],[-0.035675,51.504018],[-0.035815,51.504004],[-0.035939,51.50399],[-0.035954,51.503987],[-0.036075,51.504174],[-0.036091,51.504212],[-0.036138,51.504304],[-0.036147,51.504319],[-0.036386,51.504298],[-0.036328,51.504208],[-0.036303,51.504165],[-0.036237,51.504029],[-0.036198,51.503931],[-0.03651,51.503905],[-0.036555,51.504124],[-0.036779,51.504106],[-0.036767,51.504047],[-0.037257,51.504009],[-0.037269,51.504068],[-0.037505,51.504049],[-0.037498,51.504035],[-0.037478,51.503947],[-0.037462,51.503866],[-0.037456,51.503866],[-0.037452,51.503849],[-0.037485,51.503847],[-0.037481,51.503827],[-0.037641,51.503814],[-0.037653,51.503869],[-0.037788,51.503858],[-0.037787,51.503849],[-0.037798,51.503848],[-0.037808,51.503848],[-0.03781,51.503856],[-0.037874,51.503852],[-0.037865,51.503805],[-0.037958,51.503797],[-0.038354,51.503766],[-0.038362,51.503809],[-0.03843,51.503805],[-0.038429,51.503795],[-0.038453,51.503792],[-0.038457,51.503801],[-0.038592,51.50379],[-0.038562,51.503622],[-0.038543,51.503541],[-0.038527,51.503542],[-0.038524,51.503529],[-0.038539,51.503527],[-0.038519,51.503432],[-0.038455,51.503438],[-0.038454,51.50342],[-0.038435,51.503341],[-0.038506,51.503334],[-0.038504,51.503325],[-0.038524,51.503323],[-0.038527,51.503332],[-0.039007,51.503292],[-0.038991,51.503209],[-0.038978,51.503209],[-0.038975,51.503196],[-0.038987,51.503195],[-0.038979,51.503157],[-0.038909,51.503163],[-0.038845,51.502853],[-0.038915,51.502848],[-0.038905,51.502805],[-0.038892,51.502806],[-0.03889,51.502791],[-0.038903,51.502791],[-0.038885,51.502706],[-0.038483,51.502736],[-0.038484,51.502744],[-0.038464,51.502746],[-0.038461,51.502738],[-0.038322,51.502748],[-0.038323,51.502757],[-0.038303,51.50276],[-0.0383,51.50275],[-0.03816,51.502761],[-0.03816,51.50277],[-0.038141,51.502772],[-0.038138,51.502763],[-0.038038,51.502773],[-0.038038,51.502771],[-0.038021,51.502773],[-0.038019,51.502759],[-0.038035,51.502758],[-0.038015,51.502669],[-0.037999,51.502671],[-0.037996,51.502657],[-0.038012,51.502655],[-0.037994,51.502563],[-0.037979,51.502564],[-0.037976,51.502551],[-0.037991,51.50255],[-0.037985,51.502508],[-0.038018,51.502504],[-0.037996,51.502395],[-0.037975,51.502301],[-0.037959,51.502302],[-0.037956,51.502292],[-0.037937,51.502293],[-0.037932,51.502263],[-0.038078,51.502106],[-0.038088,51.502085],[-0.038156,51.501839],[-0.037931,51.501755],[-0.038051,51.501637],[-0.037987,51.501257],[-0.037982,51.501241],[-0.037965,51.501243],[-0.037961,51.501191],[-0.037999,51.501189],[-0.03799,51.501065],[-0.037986,51.501034],[-0.037977,51.500889],[-0.038294,51.500788],[-0.038262,51.500317],[-0.037855,51.500452],[-0.037823,51.500429],[-0.037808,51.500421],[-0.037773,51.500407],[-0.037965,51.500381],[-0.037972,51.500342],[-0.037992,51.500275],[-0.03803,51.500189],[-0.038012,51.500188],[-0.038047,51.500113],[-0.03807,51.500102],[-0.038191,51.5001],[-0.038197,51.500091],[-0.038196,51.500035],[-0.038555,51.500061],[-0.038723,51.499947],[-0.03882,51.499859],[-0.038859,51.499818],[-0.039039,51.499609],[-0.039076,51.499502],[-0.039094,51.499359],[-0.039106,51.499114],[-0.039102,51.499114],[-0.039101,51.499019],[-0.03909,51.498953],[-0.039084,51.498664],[-0.039136,51.498664],[-0.039159,51.498144],[-0.039169,51.497879],[-0.039177,51.497833],[-0.039183,51.497715],[-0.039202,51.497443],[-0.039233,51.496781],[-0.039533,51.49664],[-0.039649,51.49658],[-0.039708,51.496553],[-0.039772,51.496528],[-0.039857,51.496502],[-0.039838,51.496374],[-0.039843,51.496274],[-0.040183,51.496275],[-0.040201,51.496271],[-0.040202,51.496276],[-0.040088,51.496303],[-0.040103,51.49643],[-0.040202,51.496403],[-0.040207,51.496474],[-0.040215,51.496549],[-0.040258,51.497148],[-0.040275,51.497148],[-0.040281,51.497213],[-0.040288,51.49732],[-0.040299,51.497447],[-0.040289,51.497449],[-0.040317,51.497848],[-0.040158,51.497948],[-0.040192,51.49854],[-0.040319,51.498593],[-0.040311,51.498601],[-0.040646,51.498741],[-0.040583,51.498842],[-0.040942,51.49899],[-0.041375,51.499166],[-0.041321,51.499219],[-0.041254,51.499279],[-0.041257,51.499282],[-0.040653,51.499874],[-0.040417,51.500111],[-0.039623,51.500898],[-0.039507,51.501011],[-0.038555,51.501956],[-0.038528,51.501981],[-0.039476,51.502372],[-0.039704,51.502468],[-0.039627,51.502543],[-0.039416,51.50274],[-0.03924,51.5029],[-0.039153,51.502982],[-0.039238,51.50307],[-0.040181,51.503465],[-0.040323,51.503522],[-0.040403,51.503734],[-0.040443,51.503846],[-0.040456,51.503874],[-0.040477,51.503895],[-0.040491,51.503906],[-0.040538,51.503932],[-0.040564,51.503942],[-0.040568,51.503945],[-0.040616,51.503963],[-0.041603,51.504376],[-0.041662,51.504398],[-0.041691,51.504406],[-0.041732,51.50442],[-0.041798,51.504437],[-0.041854,51.504426],[-0.0419,51.504419],[-0.041929,51.504423],[-0.041923,51.50443],[-0.041902,51.504442],[-0.04195,51.504439],[-0.041964,51.504446],[-0.04197,51.504441],[-0.04199,51.50445],[-0.041993,51.504446],[-0.042015,51.504455],[-0.041996,51.504471],[-0.041972,51.504497],[-0.041901,51.504561],[-0.041907,51.504567],[-0.041917,51.504582],[-0.041918,51.504586],[-0.041913,51.504596],[-0.041904,51.504603],[-0.04189,51.504609],[-0.041865,51.504611],[-0.041852,51.504608],[-0.041703,51.504751],[-0.041665,51.504793],[-0.041652,51.504815],[-0.041645,51.504835],[-0.041643,51.504861],[-0.041644,51.504871],[-0.041646,51.504873],[-0.041647,51.504886],[-0.041656,51.504908],[-0.041662,51.504918],[-0.041667,51.504926],[-0.041679,51.504939],[-0.041711,51.504962],[-0.041733,51.504974],[-0.041748,51.50498],[-0.041779,51.504955],[-0.041788,51.50495],[-0.041799,51.504948],[-0.041817,51.504948],[-0.041843,51.504953],[-0.041872,51.504964],[-0.041853,51.504984],[-0.04188,51.504995],[-0.041789,51.505085],[-0.041733,51.505126],[-0.042169,51.505303],[-0.042196,51.505324],[-0.042221,51.505384],[-0.042212,51.505383],[-0.042051,51.505395],[-0.041952,51.505396],[-0.04186,51.505393],[-0.041812,51.505395],[-0.041765,51.505399],[-0.041719,51.505409],[-0.041645,51.505433],[-0.041602,51.50545],[-0.041545,51.505478],[-0.041121,51.50553],[-0.041041,51.505533],[-0.04104,51.505515],[-0.041043,51.505498],[-0.041052,51.505465],[-0.041062,51.50545],[-0.041072,51.505439],[-0.041076,51.505429],[-0.041084,51.505418],[-0.041091,51.505409],[-0.0411,51.505402],[-0.041103,51.505391],[-0.041118,51.505369]]]]},"properties":{"entry-date":"2026-08-20","entity":45253334,"name":"RUSSIA DOCK WOODLAND","dataset":"local-nature-reserve","typology":"geography","reference":"1481607","prefix":"local-nature-reserve","organisation-entity":501910,"quality":"authoritative","in_zone":true,"whole_in_zone":true,"in_cw":false}},
{"type":"Feature","geometry":{"type":"MultiPolygon","coordinates":[[[[-0.038528,51.501981],[-0.039476,51.502372],[-0.039704,51.502468],[-0.039689,51.502483],[-0.040382,51.50277],[-0.0404,51.502752],[-0.040446,51.502712],[-0.040476,51.502672],[-0.040483,51.502657],[-0.040501,51.502617],[-0.040516,51.502562],[-0.040536,51.502321],[-0.040541,51.502216],[-0.040538,51.502181],[-0.040526,51.502145],[-0.040502,51.502093],[-0.040494,51.502063],[-0.040488,51.501987],[-0.040491,51.501949],[-0.040495,51.501928],[-0.040503,51.501899],[-0.040521,51.501851],[-0.040542,51.501808],[-0.040563,51.501773],[-0.040605,51.501722],[-0.04065,51.501679],[-0.040669,51.501664],[-0.040712,51.501619],[-0.040738,51.501585],[-0.040748,51.501565],[-0.04075,51.501554],[-0.04075,51.501543],[-0.040745,51.501525],[-0.04073,51.501502],[-0.040684,51.501442],[-0.040625,51.50146],[-0.040554,51.501477],[-0.040478,51.501486],[-0.040412,51.501487],[-0.04034,51.50148],[-0.040245,51.50146],[-0.040177,51.501432],[-0.0401,51.501396],[-0.040026,51.501349],[-0.039938,51.501283],[-0.039909,51.501254],[-0.039904,51.501246],[-0.039897,51.501239],[-0.039863,51.501188],[-0.039845,51.501148],[-0.039826,51.501113],[-0.03982,51.501099],[-0.039816,51.501076],[-0.039831,51.50102],[-0.03986,51.500962],[-0.03987,51.500945],[-0.03989,51.500919],[-0.03992,51.500889],[-0.03995,51.500865],[-0.039986,51.500839],[-0.040049,51.500803],[-0.040085,51.500786],[-0.040165,51.500755],[-0.040234,51.500733],[-0.040324,51.500712],[-0.040374,51.500705],[-0.040447,51.5007],[-0.040482,51.5007],[-0.040529,51.500703],[-0.040578,51.500708],[-0.040711,51.500734],[-0.040739,51.500724],[-0.04088,51.500581],[-0.040806,51.500552],[-0.040848,51.500314],[-0.04094,51.500178],[-0.040959,51.500154],[-0.041057,51.500052],[-0.041088,51.500012],[-0.041102,51.499984],[-0.041083,51.499928],[-0.041054,51.499858],[-0.041047,51.499836],[-0.041041,51.499811],[-0.041039,51.49979],[-0.041046,51.499768],[-0.04108,51.499716],[-0.041125,51.499661],[-0.041181,51.499557],[-0.041514,51.499221],[-0.041375,51.499166],[-0.040653,51.499874],[-0.040506,51.500022],[-0.040072,51.500453],[-0.039526,51.500994],[-0.039507,51.501011],[-0.038555,51.501956],[-0.038528,51.501981]]]]},"properties":{"entry-date":"2026-08-20","entity":45253335,"name":"STAVE HILL ECOLOGY PARK","dataset":"local-nature-reserve","typology":"geography","reference":"1481608","prefix":"local-nature-reserve","organisation-entity":501910,"quality":"authoritative","in_zone":true,"whole_in_zone":true,"in_cw":false}}
]}
