{"type":"FeatureCollection","meta":{
 "source": "OS Open Rivers (GB, GeoPackage)",
 "page": "https://www.ordnancesurvey.co.uk/products/os-open-rivers",
 "api": "https://api.os.uk/downloads/v1/products/OpenRivers/downloads?area=GB&format=GeoPackage&redirect",
 "layers": [
  {
   "table": "hydro_node",
   "srs": 27700
  },
  {
   "table": "watercourse_link",
   "srs": 27700
  }
 ],
 "fetched": "2026-10-04",
 "licence": "Open Government Licence v3.0",
 "licence_url": "https://www.ordnancesurvey.co.uk/customers/public-sector/public-sector-licensing/open-data",
 "attribution": "Contains OS data © Crown copyright and database right 2026 (OS OpenData, Open Government Licence v3.0)",
 "zone": "the 3D model box, BNG E 532400-539900, N 176700-182300 (WGS84 -0.095, 51.474 to 0.015, 51.522)",
 "method": "walk-portals.mjs national harvest os-open-rivers: the GB GeoPackage (52 MB zip, deleted after reading); watercourse links and hydro nodes with a vertex in the box (BNG); whole geometries, BNG to WGS84 through OSTN15",
 "counts": {
  "features": 34,
  "by_layer": {
   "hydro_node": 15,
   "watercourse_link": 19
  }
 }
},
"features":[
{"type":"Feature","geometry":{"type":"Point","coordinates":[-0.007964,51.522404]},"properties":{"layer":"hydro_node","id":"0E39FEC2-F0AB-44A8-BB21-EA6078F7F7D8","hydro_node_category":"junction"}},
{"type":"Feature","geometry":{"type":"Point","coordinates":[-0.002984,51.504931]},"properties":{"layer":"hydro_node","id":"B5A1DF59-7016-4F66-9CCC-E2FA1FCA85B8"}},
{"type":"Feature","geometry":{"type":"Point","coordinates":[0.007661,51.505516]},"properties":{"layer":"hydro_node","id":"D27A53BA-66BB-438E-9465-9FF7D7B36220","hydro_node_category":"junction"}},
{"type":"Feature","geometry":{"type":"Point","coordinates":[-0.022677,51.475369]},"properties":{"layer":"hydro_node","id":"50BA77A5-B278-49E9-AF32-584D691D2F91"}},
{"type":"Feature","geometry":{"type":"Point","coordinates":[-0.021938,51.475497]},"properties":{"layer":"hydro_node","id":"44F56AD8-22A6-4501-9E42-DFBC82D2D526","hydro_node_category":"junction"}},
{"type":"Feature","geometry":{"type":"Point","coordinates":[-0.022536,51.475564]},"properties":{"layer":"hydro_node","id":"FD636CB6-28D3-43BC-B9BB-02ACE1756A9E","hydro_node_category":"source"}},
{"type":"Feature","geometry":{"type":"Point","coordinates":[-0.018029,51.484987]},"properties":{"layer":"hydro_node","id":"29580287-9C6D-4D6E-9DBC-3AD6B68B0ED0","hydro_node_category":"junction"}},
{"type":"Feature","geometry":{"type":"Point","coordinates":[-0.087518,51.507946]},"properties":{"layer":"hydro_node","id":"B360B938-47EC-4634-88EC-AEDCBBCF8EEE"}},
{"type":"Feature","geometry":{"type":"Point","coordinates":[-0.061963,51.501817]},"properties":{"layer":"hydro_node","id":"834D56A0-5440-424C-A4C0-477AB237E835"}},
{"type":"Feature","geometry":{"type":"Point","coordinates":[-0.04971,51.505679]},"properties":{"layer":"hydro_node","id":"2CA1D077-829F-4697-B626-D2EA51A70BE0"}},
{"type":"Feature","geometry":{"type":"Point","coordinates":[-0.037976,51.508533]},"properties":{"layer":"hydro_node","id":"EE01B0DD-386A-4573-BFF5-DD4A59CEF8FF","hydro_node_category":"junction"}},
{"type":"Feature","geometry":{"type":"Point","coordinates":[-0.036845,51.509978]},"properties":{"layer":"hydro_node","id":"731B49B9-50ED-4FC1-9722-4DF26AC0F60E","hydro_node_category":"source"}},
{"type":"Feature","geometry":{"type":"Point","coordinates":[-0.036251,51.519785]},"properties":{"layer":"hydro_node","id":"F3B81999-2D43-4C17-84EB-57DBA4981C6D","hydro_node_category":"outlet"}},
{"type":"Feature","geometry":{"type":"Point","coordinates":[-0.036234,51.519547]},"properties":{"layer":"hydro_node","id":"BBFBD9D0-E1D2-47AA-83C0-E8EF59C2DA2A","hydro_node_category":"source"}},
{"type":"Feature","geometry":{"type":"Point","coordinates":[-0.034724,51.514947]},"properties":{"layer":"hydro_node","id":"65342D66-C3BB-4044-8062-970E7B6C4D9E","hydro_node_category":"outlet"}},
{"type":"Feature","geometry":{"type":"LineString","coordinates":[[-0.022677,51.475369],[-0.021938,51.475497]]},"properties":{"layer":"watercourse_link","id":"7375AACE-A3EC-4655-BDAA-B3F81AFF190C","flow_direction":"in direction","length":53,"fictitious":"0","form":"tidalRiver","start_node":"50BA77A5-B278-49E9-AF32-584D691D2F91","end_node":"44F56AD8-22A6-4501-9E42-DFBC82D2D526"}},
{"type":"Feature","geometry":{"type":"LineString","coordinates":[[-0.022536,51.475564],[-0.021938,51.475497]]},"properties":{"layer":"watercourse_link","id":"A2D50EB8-069D-4F7B-8B91-5BA41B06D255","flow_direction":"in direction","length":42,"fictitious":"0","form":"tidalRiver","start_node":"FD636CB6-28D3-43BC-B9BB-02ACE1756A9E","end_node":"44F56AD8-22A6-4501-9E42-DFBC82D2D526"}},
{"type":"Feature","geometry":{"type":"LineString","coordinates":[[-0.021938,51.475497],[-0.020868,51.475572],[-0.020638,51.475895],[-0.020627,51.476683],[-0.02012,51.47697],[-0.019109,51.477245],[-0.019175,51.478015],[-0.018951,51.479431],[-0.018362,51.479864],[-0.017025,51.480064],[-0.016247,51.481081],[-0.016443,51.481761],[-0.018154,51.482501],[-0.018515,51.482802],[-0.018588,51.483735],[-0.018029,51.484987]]},"properties":{"layer":"watercourse_link","id":"8472F0DA-5E5A-468F-8A75-04E0E8B0C24A","flow_direction":"in direction","length":1366,"fictitious":"0","form":"tidalRiver","watercourse_name":"Deptford Creek","start_node":"44F56AD8-22A6-4501-9E42-DFBC82D2D526","end_node":"29580287-9C6D-4D6E-9DBC-3AD6B68B0ED0"}},
{"type":"Feature","geometry":{"type":"LineString","coordinates":[[-0.037976,51.508533],[-0.032176,51.507101],[-0.031905,51.506744],[-0.030624,51.505941],[-0.030038,51.505212],[-0.029587,51.503384],[-0.03014,51.495549],[-0.02998,51.493178],[-0.029019,51.491294],[-0.02611,51.488287],[-0.023471,51.486798],[-0.020174,51.485287],[-0.018029,51.484987]]},"properties":{"layer":"watercourse_link","id":"D2610BC2-DB52-406F-8E13-C9EFF05177FE","flow_direction":"in direction","length":3330,"fictitious":"0","form":"tidalRiver","watercourse_name":"River Thames","start_node":"EE01B0DD-386A-4573-BFF5-DD4A59CEF8FF","end_node":"29580287-9C6D-4D6E-9DBC-3AD6B68B0ED0"}},
{"type":"Feature","geometry":{"type":"LineString","coordinates":[[-0.087518,51.507946],[-0.0846,51.507533],[-0.07926,51.506465],[-0.064779,51.502233],[-0.061963,51.501817]]},"properties":{"layer":"watercourse_link","id":"DD8986B7-90E8-4685-9791-0ABD774C7DEE","flow_direction":"in direction","length":1908,"fictitious":"0","form":"tidalRiver","watercourse_name":"Upper Pool","watercourse_name_alternative":"River Thames","start_node":"B360B938-47EC-4634-88EC-AEDCBBCF8EEE","end_node":"834D56A0-5440-424C-A4C0-477AB237E835"}},
{"type":"Feature","geometry":{"type":"LineString","coordinates":[[-0.061963,51.501817],[-0.059112,51.501771],[-0.056699,51.502255],[-0.054704,51.502796],[-0.04971,51.505679]]},"properties":{"layer":"watercourse_link","id":"E3F86001-7294-4A61-A533-F3229A68EA75","flow_direction":"in direction","length":997,"fictitious":"0","form":"tidalRiver","watercourse_name":"River Thames","start_node":"834D56A0-5440-424C-A4C0-477AB237E835","end_node":"2CA1D077-829F-4697-B626-D2EA51A70BE0"}},
{"type":"Feature","geometry":{"type":"LineString","coordinates":[[-0.04971,51.505679],[-0.047812,51.50723],[-0.046172,51.507584],[-0.044598,51.508232],[-0.041319,51.508643],[-0.039662,51.508661],[-0.037976,51.508533]]},"properties":{"layer":"watercourse_link","id":"FAE516A1-477B-4AA8-84CD-7A88F82B8747","flow_direction":"in direction","length":934,"fictitious":"0","form":"tidalRiver","watercourse_name":"River Thames","watercourse_name_alternative":"Lower Pool","start_node":"2CA1D077-829F-4697-B626-D2EA51A70BE0","end_node":"EE01B0DD-386A-4573-BFF5-DD4A59CEF8FF"}},
{"type":"Feature","geometry":{"type":"LineString","coordinates":[[-0.112935,51.509606],[-0.105747,51.509783],[-0.098553,51.509621],[-0.096474,51.509367],[-0.091641,51.508429],[-0.087518,51.507946]]},"properties":{"layer":"watercourse_link","id":"865921AF-22E1-4BFD-B0F1-B1CF67528D25","flow_direction":"in direction","length":1789,"fictitious":"0","form":"tidalRiver","watercourse_name":"River Thames","start_node":"AE3E5A0C-225E-45E3-8BAC-95BEEB99FCE0","end_node":"B360B938-47EC-4634-88EC-AEDCBBCF8EEE"}},
{"type":"Feature","geometry":{"type":"LineString","coordinates":[[-0.036845,51.509978],[-0.037618,51.509447],[-0.037976,51.508533]]},"properties":{"layer":"watercourse_link","id":"0657876E-308E-4A7D-8763-66814C73544E","flow_direction":"in direction","length":184,"fictitious":"0","form":"tidalRiver","watercourse_name":"River Lee Navigation","start_node":"731B49B9-50ED-4FC1-9722-4DF26AC0F60E","end_node":"EE01B0DD-386A-4573-BFF5-DD4A59CEF8FF"}},
{"type":"Feature","geometry":{"type":"LineString","coordinates":[[-0.036234,51.519547],[-0.035978,51.518656],[-0.034154,51.517322],[-0.033784,51.516794],[-0.033826,51.516169],[-0.034724,51.514947]]},"properties":{"layer":"watercourse_link","id":"2AF3E966-F804-444E-84A7-115A12BBE2D3","flow_direction":"in direction","length":579,"fictitious":"0","form":"canal","watercourse_name":"Grand Union Canal","start_node":"BBFBD9D0-E1D2-47AA-83C0-E8EF59C2DA2A","end_node":"65342D66-C3BB-4044-8062-970E7B6C4D9E"}},
{"type":"Feature","geometry":{"type":"LineString","coordinates":[[-0.03778,51.525001],[-0.036768,51.523969],[-0.036661,51.523687],[-0.036251,51.519785]]},"properties":{"layer":"watercourse_link","id":"B2C50580-AC98-4E97-B7FD-7E201E1D6AF4","flow_direction":"in direction","length":602,"fictitious":"0","form":"canal","watercourse_name":"Grand Union Canal","start_node":"F1FB71D4-16BB-41DA-AE20-30B6F74F4E6A","end_node":"F3B81999-2D43-4C17-84EB-57DBA4981C6D"}},
{"type":"Feature","geometry":{"type":"LineString","coordinates":[[-0.018029,51.484987],[-0.01534,51.484624],[-0.011569,51.48456],[-0.006444,51.485529],[-0.002446,51.487412],[-0.000795,51.489256],[-0.000554,51.491704],[-0.002111,51.494649],[-0.004554,51.498527],[-0.005118,51.500573],[-0.004925,51.501952],[-0.002984,51.504931]]},"properties":{"layer":"watercourse_link","id":"A9CA8347-12FA-48CC-A5B8-2091B9556DE3","flow_direction":"in direction","length":3232,"fictitious":"0","form":"tidalRiver","watercourse_name":"River Thames","start_node":"29580287-9C6D-4D6E-9DBC-3AD6B68B0ED0","end_node":"B5A1DF59-7016-4F66-9CCC-E2FA1FCA85B8"}},
{"type":"Feature","geometry":{"type":"LineString","coordinates":[[-0.007964,51.522404],[-0.008935,51.520785],[-0.008931,51.519975],[-0.008632,51.519695],[-0.007187,51.519018],[-0.006574,51.518534],[-0.005889,51.517623],[-0.005825,51.516989],[-0.005513,51.516659],[-0.005099,51.516576],[-0.004579,51.516713],[-0.003594,51.51778],[-0.002229,51.518002],[0.000408,51.516671],[0.002814,51.515772],[0.003834,51.515098],[0.004082,51.514622],[0.003999,51.514141],[0.00232,51.511467],[0.002295,51.510889],[0.002642,51.51059],[0.003096,51.510516],[0.003803,51.510627],[0.004335,51.510992],[0.004704,51.511891],[0.004358,51.512281],[0.00439,51.51248],[0.004971,51.513634],[0.005451,51.514081],[0.006343,51.514338],[0.00707,51.514297],[0.007403,51.514101],[0.007956,51.513182],[0.007986,51.512609],[0.006968,51.511158],[0.006237,51.510562],[0.005961,51.509912],[0.006713,51.509589],[0.008949,51.509145],[0.009441,51.508819],[0.009723,51.508],[0.009233,51.507072],[0.007661,51.505516]]},"properties":{"layer":"watercourse_link","id":"DA7FF096-9F14-4384-82EE-806651A2CBC6","flow_direction":"in direction","length":3959,"fictitious":"0","form":"tidalRiver","watercourse_name":"River Lea","watercourse_name_alternative":"Bow Creek","start_node":"0E39FEC2-F0AB-44A8-BB21-EA6078F7F7D8","end_node":"D27A53BA-66BB-438E-9465-9FF7D7B36220"}},
{"type":"Feature","geometry":{"type":"LineString","coordinates":[[-0.008205,51.522894],[-0.007964,51.522404]]},"properties":{"layer":"watercourse_link","id":"875FB6E0-D69E-4EDD-A2F4-3EA3FFFB88CA","flow_direction":"in direction","length":57,"fictitious":"0","form":"tidalRiver","watercourse_name":"River Lea","watercourse_name_alternative":"River Lee","start_node":"BA228A16-B2B0-4D73-B21B-782C82EE114E","end_node":"0E39FEC2-F0AB-44A8-BB21-EA6078F7F7D8"}},
{"type":"Feature","geometry":{"type":"LineString","coordinates":[[-0.00802,51.52289],[-0.007964,51.522404]]},"properties":{"layer":"watercourse_link","id":"7E1C1B48-496F-49D5-A0CB-C0D4417BFE6F","flow_direction":"in direction","length":54,"fictitious":"0","form":"tidalRiver","watercourse_name":"River Lea","watercourse_name_alternative":"River Lee","start_node":"F05C5357-1242-4470-91CB-03F7CEA53252","end_node":"0E39FEC2-F0AB-44A8-BB21-EA6078F7F7D8"}},
{"type":"Feature","geometry":{"type":"LineString","coordinates":[[-0.006733,51.525977],[-0.007485,51.52459],[-0.00748,51.523199],[-0.007964,51.522404]]},"properties":{"layer":"watercourse_link","id":"19FF452F-77AD-4B7B-BBC1-C459515A5772","flow_direction":"in direction","length":412,"fictitious":"0","form":"tidalRiver","watercourse_name":"Bow Creek","start_node":"66836BD7-BB23-4EFD-8A69-5F251D1CFCAF","end_node":"0E39FEC2-F0AB-44A8-BB21-EA6078F7F7D8"}},
{"type":"Feature","geometry":{"type":"LineString","coordinates":[[-0.002984,51.504931],[-0.000233,51.506016],[0.002633,51.506777],[0.005104,51.506335],[0.007661,51.505516]]},"properties":{"layer":"watercourse_link","id":"77BD0A1D-9FE9-479B-BCF0-2801541E03A3","flow_direction":"in direction","length":820,"fictitious":"0","form":"tidalRiver","watercourse_name":"River Thames","watercourse_name_alternative":"Bugsby's Reach","start_node":"B5A1DF59-7016-4F66-9CCC-E2FA1FCA85B8","end_node":"D27A53BA-66BB-438E-9465-9FF7D7B36220"}},
{"type":"Feature","geometry":{"type":"LineString","coordinates":[[0.007661,51.505516],[0.008042,51.50539],[0.010172,51.503818],[0.012313,51.501814],[0.015356,51.499512],[0.01778,51.498116],[0.020878,51.496955],[0.024064,51.496027],[0.042913,51.497111],[0.047444,51.497083],[0.051467,51.496793],[0.059629,51.496456],[0.06794,51.496878],[0.071817,51.497504],[0.073706,51.497992],[0.07624,51.499008],[0.077811,51.49988],[0.081454,51.503379],[0.085084,51.507651],[0.088197,51.50976],[0.091473,51.511166],[0.092878,51.511462],[0.095041,51.511672],[0.099699,51.511887]]},"properties":{"layer":"watercourse_link","id":"5D418EF7-7FC6-4874-A3EC-38ACC892689B","flow_direction":"in direction","length":7591,"fictitious":"0","form":"tidalRiver","watercourse_name":"Woolwich Reach","watercourse_name_alternative":"River Thames","start_node":"D27A53BA-66BB-438E-9465-9FF7D7B36220","end_node":"CCCE446E-3B51-43DE-9F07-7B6CD259BC90"}},
{"type":"Feature","geometry":{"type":"LineString","coordinates":[[-0.012381,51.464961],[-0.012703,51.465352],[-0.012622,51.465926],[-0.01429,51.466625],[-0.015537,51.467449],[-0.016974,51.469106],[-0.017493,51.469336],[-0.018219,51.469221],[-0.018807,51.469475],[-0.019349,51.469537],[-0.019944,51.470484],[-0.021679,51.471727],[-0.022109,51.472543],[-0.022195,51.47327],[-0.022809,51.473723],[-0.022637,51.47407],[-0.022935,51.475189],[-0.022677,51.475369]]},"properties":{"layer":"watercourse_link","id":"4CB7949C-24E5-4E60-B6FA-D6C81B218A44","flow_direction":"in direction","length":1505,"fictitious":"0","form":"inlandRiver","watercourse_name":"Ravensbourne River","start_node":"29623971-2F0F-48CD-871F-A5DB5A8D5AA9","end_node":"50BA77A5-B278-49E9-AF32-584D691D2F91"}}
]}
