{"type":"FeatureCollection","meta":{
 "source": "data.gov.uk: Surveyed Priority Ponds (Points) (Natural England)",
 "dgu_dataset": "surveyed-priority-ponds-points",
 "page": "https://www.data.gov.uk/dataset/b49c9822-918e-4f8e-bd0d-de8078d0371e/surveyed-priority-ponds-points",
 "api": "https://environment.data.gov.uk/spatialdata/surveyed-priority-ponds-england/wfs",
 "layers": [
  {
   "name": "dataset-29230f38-d5ba-4d48-b55e-ba9236b929d6:Surveyed_Priority_Ponds_England",
   "zone_count": 12
  }
 ],
 "fetched": "2026-10-04",
 "licence": "Open Government Licence v3.0",
 "licence_evidence": "[\"Open Government Licence\"] | [\"There are no public access constraints to this data. Use of this data is subject to the licence identified.\", \"There are no public access constraints to this data. Use of this data is subject to the licence identified.\"]",
 "attribution": "Contains public sector information licensed under the Open Government Licence v3.0 (Natural England)",
 "zone": "the 3D model box, BNG E 532400-539900, N 176700-182300 (WGS84 -0.095, 51.474 to 0.015, 51.522)",
 "method": "walk-portals.mjs dgu harvest surveyed-priority-ponds-points: the service the probe counted, read with the zone box (WFS 2.0 GetFeature in EPSG:4326, or ArcGIS query with the envelope); polygons that cross the box edge are cut at the box (clipped_to_zone: for display, not for area sums); coordinates rounded to 6 decimals; empty fields, shape measures and fields matching /e-?mail|phone|tel(ephone)?$|^tel|contact|^fax|mobile|^owner_?name|person|officer|case_?officer|agent_?name|applicant/i left out",
 "counts": {
  "features": 10,
  "probe_zone_count": 12,
  "clipped": 0
 }
},
"features":[
{"type":"Feature","geometry":{"type":"Point","coordinates":[0.003775,51.511494]},"properties":{"layer":"dataset-29230f38-d5ba-4d48-b55e-ba9236b929d6:Surveyed_Priority_Ponds_England","site_name":"unknown","survey_date":"2016-03-22T00:00:00Z","x_value":539145,"y_value":181077,"pond":1,"score_n":"<0.2","score_p":"<0.02","data_source":"cww ponds with good water quality.xlsx","pond_id":"CW1084","nearest_town":"City of London","nuts212nm":"Inner London","static_water_near_fid":318348,"static_water_near_distance":0,"static_water_pond_area_m":584.11726699,"surveytypedistance":"CWW within OS pond","in_cw":false}},
{"type":"Feature","geometry":{"type":"Point","coordinates":[-0.027448,51.520999]},"properties":{"layer":"dataset-29230f38-d5ba-4d48-b55e-ba9236b929d6:Surveyed_Priority_Ponds_England","site_name":"ScrapyardMeadowPond","survey_date":"2016-04-21T00:00:00Z","x_value":536950,"y_value":182075,"pond":1,"score_n":"<0.2","score_p":"<0.02","data_source":"cww ponds with good water quality.xlsx","pond_id":"CW1081","nearest_town":"City of London","nuts212nm":"Inner London","static_water_near_fid":-1,"static_water_near_distance":-1,"surveytypedistance":"CWW no OS pond within 30m","in_cw":false}},
{"type":"Feature","geometry":{"type":"Point","coordinates":[-0.049848,51.512254]},"properties":{"layer":"dataset-29230f38-d5ba-4d48-b55e-ba9236b929d6:Surveyed_Priority_Ponds_England","site_name":"CableStreetCommunityGardens-LargePond","survey_date":"2015-02-10T00:00:00Z","x_value":535422,"y_value":181061,"pond":1,"score_n":"<0.2","score_p":"<0.02","data_source":"cww ponds with good water quality.xlsx","pond_id":"CW1085","nearest_town":"City of London","nuts212nm":"Inner London","static_water_near_fid":-1,"static_water_near_distance":-1,"surveytypedistance":"CWW no OS pond within 30m","in_cw":false}},
{"type":"Feature","geometry":{"type":"Point","coordinates":[-0.050165,51.511909]},"properties":{"layer":"dataset-29230f38-d5ba-4d48-b55e-ba9236b929d6:Surveyed_Priority_Ponds_England","site_name":"CableStreetCommunityGardens-GreenhousePond","survey_date":"2015-10-25T00:00:00Z","x_value":535401,"y_value":181022,"pond":1,"score_n":"<0.2","score_p":"<0.02","data_source":"cww ponds with good water quality.xlsx","pond_id":"CW1086","nearest_town":"City of London","nuts212nm":"Inner London","static_water_near_fid":-1,"static_water_near_distance":-1,"surveytypedistance":"CWW no OS pond within 30m","in_cw":false}},
{"type":"Feature","geometry":{"type":"Point","coordinates":[-0.050026,51.511448]},"properties":{"layer":"dataset-29230f38-d5ba-4d48-b55e-ba9236b929d6:Surveyed_Priority_Ponds_England","site_name":"CableStreetCommunityGardens-BikePond","survey_date":"2015-10-25T00:00:00Z","x_value":535412,"y_value":180971,"pond":1,"score_n":"<0.2","score_p":"<0.02","data_source":"cww ponds with good water quality.xlsx","pond_id":"CW1087","nearest_town":"City of London","nuts212nm":"Inner London","static_water_near_fid":-1,"static_water_near_distance":-1,"surveytypedistance":"CWW no OS pond within 30m","in_cw":false}},
{"type":"Feature","geometry":{"type":"Point","coordinates":[-0.05134,51.507675]},"properties":{"layer":"dataset-29230f38-d5ba-4d48-b55e-ba9236b929d6:Surveyed_Priority_Ponds_England","site_name":"ShadwellBasin","survey_date":"2015-05-03T00:00:00Z","x_value":535332,"y_value":180549,"pond":1,"type":"basin","score_n":"<0.2","score_p":"<0.02","data_source":"cww ponds with good water quality.xlsx","pond_id":"CW1090","nearest_town":"City of London","nuts212nm":"Inner London","static_water_near_fid":318261,"static_water_near_distance":0,"static_water_pond_area_m":27353.82593706,"surveytypedistance":"CWW within OS pond","in_cw":false}},
{"type":"Feature","geometry":{"type":"Point","coordinates":[-0.038387,51.502279]},"properties":{"layer":"dataset-29230f38-d5ba-4d48-b55e-ba9236b929d6:Surveyed_Priority_Ponds_England","site_name":"unknown","survey_date":"2016-03-22T00:00:00Z","x_value":536247,"y_value":179973,"pond":1,"score_n":"<0.2","score_p":"<0.02","data_source":"cww ponds with good water quality.xlsx","pond_id":"CW1108","nearest_town":"City of London","nuts212nm":"Inner London","static_water_near_fid":318163,"static_water_near_distance":0,"static_water_pond_area_m":1640.71425298,"surveytypedistance":"CWW within OS pond","in_cw":false}},
{"type":"Feature","geometry":{"type":"Point","coordinates":[-0.03979,51.501484]},"properties":{"layer":"dataset-29230f38-d5ba-4d48-b55e-ba9236b929d6:Surveyed_Priority_Ponds_England","site_name":"unknown","survey_date":"2014-09-01T00:00:00Z","x_value":536152,"y_value":179882,"pond":1,"score_n":"<0.2","score_p":"<0.02","data_source":"cww ponds with good water quality.xlsx","pond_id":"CW1109","nearest_town":"City of London","nuts212nm":"Inner London","static_water_near_fid":318195,"static_water_near_distance":0,"static_water_pond_area_m":241.0625,"surveytypedistance":"CWW within OS pond","in_cw":false}},
{"type":"Feature","geometry":{"type":"Point","coordinates":[-0.039791,51.501457]},"properties":{"layer":"dataset-29230f38-d5ba-4d48-b55e-ba9236b929d6:Surveyed_Priority_Ponds_England","site_name":"unknown","survey_date":"2016-03-22T00:00:00Z","x_value":536152,"y_value":179879,"pond":1,"score_n":"<0.2","score_p":"<0.02","data_source":"cww ponds with good water quality.xlsx","pond_id":"CW1110","nearest_town":"City of London","nuts212nm":"Inner London","static_water_near_fid":318195,"static_water_near_distance":0,"static_water_pond_area_m":241.0625,"surveytypedistance":"CWW within OS pond","in_cw":false}},
{"type":"Feature","geometry":{"type":"Point","coordinates":[-0.038841,51.500767]},"properties":{"layer":"dataset-29230f38-d5ba-4d48-b55e-ba9236b929d6:Surveyed_Priority_Ponds_England","site_name":"unknown","survey_date":"2016-03-22T00:00:00Z","x_value":536220,"y_value":179804,"pond":1,"score_n":"<0.2","score_p":"0.02-0.05","data_source":"cww ponds with good water quality.xlsx","pond_id":"CW1111","nearest_town":"City of London","nuts212nm":"Inner London","static_water_near_fid":-1,"static_water_near_distance":-1,"surveytypedistance":"CWW no OS pond within 30m","in_cw":false}}
]}
