{"type":"FeatureCollection","meta":{
 "source": "Open Data Lewisham (JKAN): Electric vehicle chargepoints",
 "borough": "Lewisham",
 "page": "https://lb-lewisham.github.io/open-data-lewisham/datasets/vehicle-chargepoints/",
 "api": "https://raw.githubusercontent.com/lb-lewisham/open-data-lewisham/gh-pages/_datasets/data/lewisham_electric_vehicle_charging_locations.geojson",
 "fetched": "2026-10-04",
 "licence": "Open Government Licence v3.0",
 "licence_evidence": "https://www.nationalarchives.gov.uk/doc/open-government-licence/version/3/",
 "licence_url": "https://www.nationalarchives.gov.uk/doc/open-government-licence/version/3/",
 "attribution": "Contains public sector information licensed under the Open Government Licence v3.0 (London Borough of Lewisham)",
 "zone": "the 3D model box, BNG E 532400-539900, N 176700-182300 (WGS84 -0.095, 51.474 to 0.015, 51.522)",
 "method": "walk-portals.mjs boroughs harvest lewisham-ev-chargepoints: features that meet the zone box, WGS84 rounded to 6 decimals, whole geometries; whole_in_zone, in_cw; empty fields and ArcGIS shape measures left out; fields matching /e-?mail|phone|tel(ephone)?$|^tel|contact|^fax|mobile|^owner_?name|person|officer|case_?officer|agent_?name|applicant/i dropped",
 "counts": {
  "features": 17,
  "zone_count_at_walk": null,
  "in_cw": 0
 },
 "fields_dropped": [
  "email"
 ]
},
"features":[
{"type":"Feature","geometry":{"type":"Point","coordinates":[-0.026096,51.47411]},"properties":{"name":"Vanguard Street Car Park","connection_type":"CHAdeMO","kW":50,"address":"8 Vanguard St, Deptford, London","postcode":"SE8 4DQ","operator":"Chargemaster","updated":"2020-12-30T20:35:00Z","lon":-0.026096,"lat":51.47411,"whole_in_zone":true,"in_cw":false}},
{"type":"Feature","geometry":{"type":"Point","coordinates":[-0.026096,51.47411]},"properties":{"name":"Vanguard Street Car Park","connection_type":"CCS (Type 2)","kW":50,"address":"8 Vanguard St, Deptford, London","postcode":"SE8 4DQ","operator":"Chargemaster","updated":"2020-12-30T20:35:00Z","lon":-0.026096,"lat":51.47411,"whole_in_zone":true,"in_cw":false}},
{"type":"Feature","geometry":{"type":"Point","coordinates":[-0.026096,51.47411]},"properties":{"name":"Vanguard Street Car Park","connection_type":"Type 2 (Tethered Connector)","kW":43,"address":"8 Vanguard St, Deptford, London","postcode":"SE8 4DQ","operator":"Chargemaster","updated":"2020-12-30T20:35:00Z","lon":-0.026096,"lat":51.47411,"whole_in_zone":true,"in_cw":false}},
{"type":"Feature","geometry":{"type":"Point","coordinates":[-0.040206,51.488037]},"properties":{"name":"Hicks Street","connection_type":"Type 2 (Socket Only)","kW":7,"address":"Hicks Street, Lewisham","postcode":"SE8 5AG","operator":"Source London","website":"http://www.sourcelondon.net/","updated":"2020-09-08T02:47:00Z","lon":-0.040206,"lat":51.488037,"whole_in_zone":true,"in_cw":false}},
{"type":"Feature","geometry":{"type":"Point","coordinates":[-0.040206,51.488037]},"properties":{"name":"Hicks Street","connection_type":"Type 1 (J1772)","kW":3,"address":"Hicks Street, Lewisham","postcode":"SE8 5AG","operator":"Source London","website":"http://www.sourcelondon.net/","updated":"2020-09-08T02:47:00Z","lon":-0.040206,"lat":51.488037,"whole_in_zone":true,"in_cw":false}},
{"type":"Feature","geometry":{"type":"Point","coordinates":[-0.044181,51.4814]},"properties":{"name":"Juno Way","connection_type":"Type 2 (Socket Only)","kW":7,"address":"Juno Way, London","postcode":"SE14 5RW","operator":"Chargemaster","updated":"2020-06-25T10:00:00Z","lon":-0.044181,"lat":51.4814,"whole_in_zone":true,"in_cw":false}},
{"type":"Feature","geometry":{"type":"Point","coordinates":[-0.044181,51.4814]},"properties":{"name":"Juno Way","connection_type":"Type 2 (Socket Only)","kW":22,"address":"Juno Way, London","postcode":"SE14 5RW","operator":"Chargemaster","updated":"2020-06-25T10:00:00Z","lon":-0.044181,"lat":51.4814,"whole_in_zone":true,"in_cw":false}},
{"type":"Feature","geometry":{"type":"Point","coordinates":[-0.036876,51.475891]},"properties":{"name":"Clifton Road","points":1,"connection_type":"CHAdeMO","kW":50,"cost":"29p/kWh PAYG","address":"Clifton Road, London","postcode":"SE14 6JP","updated":"2019-03-07T16:45:00Z","lon":-0.036876,"lat":51.475891,"whole_in_zone":true,"in_cw":false}},
{"type":"Feature","geometry":{"type":"Point","coordinates":[-0.036876,51.475891]},"properties":{"name":"Clifton Road","points":1,"connection_type":"CCS (Type 2)","kW":50,"cost":"29p/kWh PAYG","address":"Clifton Road, London","postcode":"SE14 6JP","updated":"2019-03-07T16:45:00Z","lon":-0.036876,"lat":51.475891,"whole_in_zone":true,"in_cw":false}},
{"type":"Feature","geometry":{"type":"Point","coordinates":[-0.036876,51.475891]},"properties":{"name":"Clifton Road","points":1,"connection_type":"Type 2 (Tethered Connector)","kW":43,"cost":"29p/kWh PAYG","address":"Clifton Road, London","postcode":"SE14 6JP","updated":"2019-03-07T16:45:00Z","lon":-0.036876,"lat":51.475891,"whole_in_zone":true,"in_cw":false}},
{"type":"Feature","geometry":{"type":"Point","coordinates":[-0.022922,51.477342]},"properties":{"name":"Frankham Street Car Park","points":4,"connection_type":"Type 1 (J1772)","kW":4,"cost":"£0.059/minute; min £1.18; other tariffs available","address":"Frankham Street, Lewisham, LONDON","postcode":"SE8 4RJ","operator":"Source London","website":"http://www.sourcelondon.net/","updated":"2018-01-05T13:50:00Z","lon":-0.022922090917,"lat":51.4773420958,"whole_in_zone":true,"in_cw":false}},
{"type":"Feature","geometry":{"type":"Point","coordinates":[-0.022922,51.477342]},"properties":{"name":"Frankham Street Car Park","points":4,"connection_type":"Type 2 (Socket Only)","kW":7,"cost":"£0.059/minute; min £1.18; other tariffs available","address":"Frankham Street, Lewisham, LONDON","postcode":"SE8 4RJ","operator":"Source London","website":"http://www.sourcelondon.net/","updated":"2018-01-05T13:50:00Z","lon":-0.022922090917,"lat":51.4773420958,"whole_in_zone":true,"in_cw":false}},
{"type":"Feature","geometry":{"type":"Point","coordinates":[-0.022922,51.477342]},"properties":{"name":"Frankham Street Car Park","points":4,"connection_type":"Type 1 (J1772)","kW":4,"cost":"£0.059/minute; min £1.18; other tariffs available","address":"Frankham Street, Lewisham, LONDON","postcode":"SE8 4RJ","operator":"Source London","website":"http://www.sourcelondon.net/","updated":"2018-01-05T13:50:00Z","lon":-0.022922090917,"lat":51.4773420958,"whole_in_zone":true,"in_cw":false}},
{"type":"Feature","geometry":{"type":"Point","coordinates":[-0.022922,51.477342]},"properties":{"name":"Frankham Street Car Park","points":4,"connection_type":"Type 2 (Socket Only)","kW":7,"cost":"£0.059/minute; min £1.18; other tariffs available","address":"Frankham Street, Lewisham, LONDON","postcode":"SE8 4RJ","operator":"Source London","website":"http://www.sourcelondon.net/","updated":"2018-01-05T13:50:00Z","lon":-0.022922090917,"lat":51.4773420958,"whole_in_zone":true,"in_cw":false}},
{"type":"Feature","geometry":{"type":"Point","coordinates":[-0.022922,51.477342]},"properties":{"name":"Frankham Street Car Park","points":4,"connection_type":"Type 1 (J1772)","kW":4,"cost":"£0.059/minute; min £1.18; other tariffs available","address":"Frankham Street, Lewisham, LONDON","postcode":"SE8 4RJ","operator":"Source London","website":"http://www.sourcelondon.net/","updated":"2018-01-05T13:50:00Z","lon":-0.022922090917,"lat":51.4773420958,"whole_in_zone":true,"in_cw":false}},
{"type":"Feature","geometry":{"type":"Point","coordinates":[-0.022922,51.477342]},"properties":{"name":"Frankham Street Car Park","points":4,"connection_type":"Type 2 (Socket Only)","kW":7,"cost":"£0.059/minute; min £1.18; other tariffs available","address":"Frankham Street, Lewisham, LONDON","postcode":"SE8 4RJ","operator":"Source London","website":"http://www.sourcelondon.net/","updated":"2018-01-05T13:50:00Z","lon":-0.022922090917,"lat":51.4773420958,"whole_in_zone":true,"in_cw":false}},
{"type":"Feature","geometry":{"type":"Point","coordinates":[-0.022922,51.477342]},"properties":{"name":"Frankham Street Car Park","points":4,"connection_type":"Type 1 (J1772)","kW":4,"cost":"£0.059/minute; min £1.18; other tariffs available","address":"Frankham Street, Lewisham, LONDON","postcode":"SE8 4RJ","operator":"Source London","website":"http://www.sourcelondon.net/","updated":"2018-01-05T13:50:00Z","lon":-0.022922090917,"lat":51.4773420958,"whole_in_zone":true,"in_cw":false}}
]}
