{"type":"FeatureCollection","meta":{
 "source": "London Datastore: Low Emission Neighbourhoods (Greater London Authority)",
 "dataset": "2r4wd",
 "page": "https://data.london.gov.uk/dataset/low-emission-neighbourhoods-2r4wd",
 "resources": [
  {
   "resource": "a1eb1018-8933-4e69-96ca-97402637ad92",
   "file": "Low_Emission_Neighbourhoods.gpkg",
   "url": "https://data.london.gov.uk/download/2r4wd/a1eb1018-8933-4e69-96ca-97402637ad92/Low_Emission_Neighbourhoods.gpkg",
   "size": 110592,
   "resource_date": "2019-09-03",
   "fetched": "2026-10-04"
  }
 ],
 "licence": "Creative Commons Attribution",
 "licence_url": "https://creativecommons.org/licenses/by/4.0/",
 "attribution": "Greater London Authority, Creative Commons Attribution. The GLA cannot warrant the quality or accuracy of the data (London Datastore terms).",
 "dataset_modified": "2019-09-03",
 "update_frequency": "Annually",
 "geo": "Custom Polygons",
 "theme": "environment",
 "layers": [
  {
   "table": "Low_Emission_Neighbourhoods",
   "srs": 27700
  }
 ],
 "crs_source": "EPSG:27700",
 "crs_output": "EPSG:4326 (WGS84), 6 decimal places; BNG to WGS84 through the OS OSTN15 grid (lib.mjs bngProjector)",
 "method": "lds-harvest-auto.mjs run 2r4wd: resources chosen by the written rules (harvest-log.json meta.rules: formats, dedupe, caps); every feature read (GeoPackage, GeoJSON, shapefile, or table rows with coordinate columns as points, the CRS judged per row by value); a feature is kept when it meets the zone (the 3D model box, BNG E 532400-539900, N 176700-182300): a vertex inside, an edge crossing or the box inside a polygon; whole geometries kept, whole_in_zone and in_cw added; WGS84 6 decimals through OSTN15; contact fields dropped.",
 "counts": {
  "source_features": 8,
  "no_geometry": 0,
  "in_zone": 4,
  "in_cw": 0
 },
 "attributes_in_source": "yes",
 "fields_dropped": [],
 "harvest_rules": "tools/lds-harvest-auto.mjs AUTO_RULES (feeds/london-datastore/harvest-log.json meta.rules)",
 "selection_notes": []
},
"features":[
{"type":"Feature","properties":{"fid":1,"borough":"Islington and Hackney","classification":"Low Emission Neighbourhoods","description":"LENs deliver a package of tailored measures to reduce emissions and exposure in a pollution hotspot. This includes measures such as public realm improvements to support walking and cycling, and infras","objectid":1,"shape_area":960129.9950750567,"shape_length":4193.166001178805,"siteid":"2","sitename":"City Fringe","st_area(geom)":960129.9950750566,"st_length(geom)":0,"url":"https://zeroemissionsnetwork.com/len","runtime":"08/29/2019","in_cw":false,"whole_in_zone":false},"geometry":{"type":"Polygon","coordinates":[[[-0.083538,51.529886],[-0.086912,51.529601],[-0.086861,51.529704],[-0.089366,51.529257],[-0.090307,51.529406],[-0.092285,51.529098],[-0.091946,51.528147],[-0.091688,51.528084],[-0.090074,51.523095],[-0.087489,51.523186],[-0.087134,51.522057],[-0.081174,51.521886],[-0.07841,51.521464],[-0.07828,51.521735],[-0.07818,51.521859],[-0.076708,51.522241],[-0.076067,51.522275],[-0.074625,51.522236],[-0.074735,51.523553],[-0.072423,51.524475],[-0.073596,51.526961],[-0.073291,51.527473],[-0.07335,51.528316],[-0.075106,51.528226],[-0.076653,51.528778],[-0.07709,51.528933],[-0.077911,51.5291],[-0.077968,51.528864],[-0.079744,51.528864],[-0.079777,51.529219],[-0.079959,51.529945],[-0.083538,51.529886]]]}},
{"type":"Feature","properties":{"fid":2,"borough":"City of London","classification":"Low Emission Neighbourhoods","description":"LENs deliver a package of tailored measures to reduce emissions and exposure in a pollution hotspot. This includes measures such as public realm improvements to support walking and cycling, and infras","objectid":2,"shape_area":941654.6191943763,"shape_length":5017.050376520602,"siteid":"1","sitename":"Barbican","st_area(geom)":941654.6191943763,"st_length(geom)":0,"url":"https://www.cityoflondon.gov.uk/business/environmental-health/environmental-protection/air-quality/Pages/Low-Emission-Neighbourhood.aspx","runtime":"08/29/2019","in_cw":false,"whole_in_zone":false},"geometry":{"type":"Polygon","coordinates":[[[-0.096833,51.523354],[-0.097867,51.522901],[-0.097529,51.522364],[-0.097383,51.521933],[-0.097363,51.521626],[-0.097589,51.520935],[-0.0976,51.520669],[-0.097588,51.520178],[-0.097565,51.519933],[-0.097724,51.520038],[-0.10204,51.518657],[-0.101686,51.517731],[-0.101534,51.517443],[-0.102112,51.516144],[-0.100722,51.515692],[-0.100814,51.51506],[-0.100799,51.514651],[-0.100716,51.514262],[-0.100732,51.513894],[-0.100608,51.513708],[-0.10006,51.513515],[-0.099547,51.513241],[-0.09896,51.513191],[-0.098305,51.51318],[-0.097782,51.513151],[-0.09671,51.51295],[-0.09616,51.512778],[-0.095054,51.512596],[-0.094405,51.512443],[-0.094115,51.512336],[-0.092613,51.51198],[-0.091321,51.511724],[-0.089453,51.511405],[-0.085751,51.51064],[-0.084206,51.512963],[-0.083995,51.513158],[-0.083874,51.513283],[-0.083835,51.513517],[-0.084559,51.513511],[-0.085791,51.513472],[-0.085607,51.513713],[-0.084895,51.514311],[-0.086064,51.514217],[-0.086336,51.514466],[-0.086834,51.514844],[-0.089688,51.514818],[-0.089404,51.515345],[-0.087474,51.519196],[-0.089932,51.519952],[-0.089668,51.520765],[-0.092377,51.521013],[-0.092452,51.521566],[-0.093313,51.521356],[-0.093435,51.521562],[-0.093665,51.521545],[-0.093565,51.521584],[-0.094258,51.521473],[-0.095074,51.523101],[-0.096363,51.522836],[-0.096833,51.523354]]]}},
{"type":"Feature","properties":{"fid":3,"borough":"Greenwich","classification":"Low Emission Neighbourhoods","description":"LENs deliver a package of tailored measures to reduce emissions and exposure in a pollution hotspot. This includes measures such as public realm improvements to support walking and cycling, and infras","objectid":3,"shape_area":582601.4081057295,"shape_length":5290.031964916628,"siteid":"3","sitename":"Town C & Trafalgar Rd","st_area(geom)":582601.4081057297,"st_length(geom)":0,"url":"https://www.royalgreenwich.gov.uk/lowemissionneighbourhood","runtime":"08/29/2019","in_cw":false,"whole_in_zone":true},"geometry":{"type":"Polygon","coordinates":[[[-0.003214,51.482899],[-0.007995,51.481318],[-0.008542,51.482044],[-0.008945,51.482178],[-0.009943,51.482398],[-0.010285,51.482153],[-0.012267,51.482275],[-0.012784,51.482343],[-0.01479,51.482451],[-0.014892,51.481197],[-0.014279,51.481142],[-0.013815,51.479864],[-0.013458,51.479371],[-0.014822,51.47901],[-0.014267,51.478158],[-0.014187,51.477817],[-0.014203,51.477463],[-0.013963,51.477473],[-0.011851,51.477947],[-0.010823,51.478492],[-0.01037,51.477964],[-0.008096,51.479402],[-0.006772,51.479719],[-0.006838,51.479784],[-0.007849,51.481172],[-0.003102,51.482748],[-0.00222,51.481522],[0.001947,51.482269],[0.00186,51.482621],[0.002267,51.482593],[0.003118,51.48261],[0.003933,51.482564],[0.004187,51.482549],[0.004868,51.482559],[0.005621,51.482663],[0.006322,51.482725],[0.00812,51.483002],[0.008335,51.482871],[0.00839,51.482955],[0.008762,51.483682],[0.00782,51.485844],[0.007535,51.485944],[0.005554,51.486552],[0.005351,51.486587],[0.000431,51.486894],[-0.000073,51.486648],[-0.000623,51.48653],[-0.001054,51.486388],[-0.001308,51.486031],[-0.003363,51.48494],[-0.004655,51.484569],[-0.003214,51.482899]]]}},
{"type":"Feature","properties":{"fid":7,"borough":"Southwark","classification":"Business Low Emission Neighbourhoods","description":"LENs deliver a package of tailored measures to reduce emissions and exposure in a pollution hotspot. This includes measures such as public realm improvements to support walking and cycling, and infras","objectid":7,"shape_area":285476.8910253176,"shape_length":2358.1636827276343,"siteid":"7","sitename":"Borough High Street","st_area(geom)":285476.8910253176,"st_length(geom)":0,"url":"https://www.london.gov.uk/what-we-do/environment/pollution-and-air-quality/mayors-air-quality-fund#acc-i-54331","runtime":"08/29/2019","in_cw":false,"whole_in_zone":false},"geometry":{"type":"Polygon","coordinates":[[[-0.08925,51.507096],[-0.090848,51.507165],[-0.092101,51.505658],[-0.092961,51.504773],[-0.093609,51.503513],[-0.094426,51.502569],[-0.095552,51.501346],[-0.095781,51.500793],[-0.094219,51.499854],[-0.092784,51.499174],[-0.092348,51.499195],[-0.091527,51.499696],[-0.09047,51.500906],[-0.089835,51.501867],[-0.089167,51.503055],[-0.08793,51.504205],[-0.087286,51.504823],[-0.086785,51.505871],[-0.08647,51.506823],[-0.08925,51.507096]]]}}
]}
