{"type":"FeatureCollection","meta":{
 "source": "London Datastore: Inner Ultra Low Emissions Zone Expansion 2021 (Greater London Authority)",
 "dataset": "vdjx4",
 "page": "https://data.london.gov.uk/dataset/inner-ultra-low-emissions-zone-expansion-2021-vdjx4",
 "resources": [
  {
   "resource": "759c11e8-6070-417e-9306-fa046ea1fb82",
   "file": "InnerUltraLowEmissionZone.gpkg",
   "url": "https://data.london.gov.uk/download/vdjx4/759c11e8-6070-417e-9306-fa046ea1fb82/InnerUltraLowEmissionZone.gpkg",
   "size": 110592,
   "resource_date": "2023-12-21",
   "fetched": "2026-10-04"
  }
 ],
 "licence": "Open Government Licence v2",
 "licence_url": "https://www.nationalarchives.gov.uk/doc/open-government-licence/version/2/",
 "attribution": "Contains public sector information licensed under the Open Government Licence v2 (Greater London Authority). The GLA cannot warrant the quality or accuracy of the data (London Datastore terms).",
 "dataset_modified": "2024-01-11",
 "update_frequency": "One off",
 "geo": "Custom Polygons",
 "theme": "environment",
 "layers": [
  {
   "table": "InnerUltraLowEmissionZone",
   "srs": 27700
  }
 ],
 "crs_source": "EPSG:27700",
 "crs_output": "EPSG:4326 (WGS84), 6 decimal places; BNG to WGS84 through the OS OSTN15 grid (lib.mjs bngProjector)",
 "method": "lds-harvest-auto.mjs run vdjx4: resources chosen by the written rules (harvest-log.json meta.rules: formats, dedupe, caps); every feature read (GeoPackage, GeoJSON, shapefile, or table rows with coordinate columns as points, the CRS judged per row by value); a feature is kept when it meets the zone (the 3D model box, BNG E 532400-539900, N 176700-182300): a vertex inside, an edge crossing or the box inside a polygon; whole geometries kept, whole_in_zone and in_cw added; WGS84 6 decimals through OSTN15; contact fields dropped.",
 "counts": {
  "source_features": 1,
  "no_geometry": 0,
  "in_zone": 1,
  "in_cw": 1
 },
 "attributes_in_source": "yes",
 "fields_dropped": [],
 "harvest_rules": "tools/lds-harvest-auto.mjs AUTO_RULES (feeds/london-datastore/harvest-log.json meta.rules)",
 "selection_notes": [
  "2 format variants of a picked stem not read"
 ]
},
"features":[
{"type":"Feature","properties":{"fid":1,"OBJECTID":1,"ID":0,"SQMILES":147,"Shape_Leng":78065.9615628,"Shape_Area":381371808.119,"in_cw":true,"whole_in_zone":false},"geometry":{"type":"MultiPolygon","coordinates":[[[[-0.01737,51.601123],[-0.014942,51.600506],[-0.010617,51.600362],[-0.007082,51.600373],[-0.002876,51.600124],[-0.000444,51.599692],[0.002257,51.598901],[0.004835,51.597898],[0.009042,51.596371],[0.011901,51.595684],[0.014121,51.595255],[0.019933,51.595226],[0.021893,51.595724],[0.025514,51.596407],[0.028916,51.596029],[0.0314,51.595489],[0.033483,51.594921],[0.035312,51.593753],[0.037154,51.591627],[0.038373,51.589583],[0.039398,51.587009],[0.039581,51.584734],[0.039878,51.582751],[0.041349,51.579699],[0.043587,51.576253],[0.046013,51.573742],[0.048772,51.571193],[0.050628,51.569421],[0.052359,51.567368],[0.05457,51.564631],[0.056201,51.562899],[0.058444,51.560872],[0.060427,51.559382],[0.064024,51.557082],[0.066155,51.555093],[0.067292,51.552552],[0.068007,51.549487],[0.068212,51.547709],[0.06836,51.545967],[0.067749,51.543777],[0.066685,51.541666],[0.0664,51.540393],[0.066898,51.538823],[0.068899,51.536516],[0.071719,51.532171],[0.072706,51.526332],[0.073457,51.525325],[0.072763,51.522569],[0.073204,51.519757],[0.071852,51.516302],[0.071112,51.515037],[0.070619,51.514194],[0.071014,51.511631],[0.070931,51.509787],[0.071079,51.508492],[0.071114,51.507548],[0.071239,51.506551],[0.071296,51.505308],[0.07032,51.502592],[0.070774,51.501779],[0.070541,51.501204],[0.069218,51.500872],[0.067429,51.5003],[0.065312,51.500018],[0.063492,51.500015],[0.063503,51.498985],[0.062722,51.498759],[0.061605,51.498522],[0.062534,51.495169],[0.061568,51.495186],[0.060866,51.494737],[0.060994,51.493811],[0.060872,51.492862],[0.063307,51.487098],[0.062375,51.485339],[0.061747,51.484037],[0.061983,51.482968],[0.060087,51.479984],[0.058898,51.478834],[0.057651,51.477649],[0.056683,51.476352],[0.056033,51.474553],[0.055233,51.473183],[0.054737,51.470991],[0.054203,51.469226],[0.052643,51.467407],[0.051597,51.465615],[0.049667,51.461835],[0.049169,51.460901],[0.048581,51.46045],[0.047281,51.459337],[0.044447,51.458215],[0.042289,51.456975],[0.03625,51.452785],[0.032538,51.451075],[0.027582,51.449492],[0.021656,51.447784],[0.017758,51.446999],[0.014829,51.446269],[0.012583,51.445877],[0.006104,51.445495],[0.004386,51.44517],[-0.001074,51.445015],[-0.006471,51.445],[-0.011576,51.445158],[-0.014345,51.445488],[-0.016885,51.445851],[-0.01824,51.446051],[-0.019096,51.445959],[-0.019618,51.44572],[-0.020222,51.444878],[-0.020957,51.444961],[-0.022611,51.444812],[-0.024327,51.444521],[-0.025653,51.444082],[-0.027164,51.443291],[-0.028067,51.443413],[-0.029328,51.44315],[-0.031528,51.442193],[-0.032612,51.442069],[-0.034586,51.442386],[-0.03663,51.442421],[-0.040052,51.442087],[-0.042879,51.442383],[-0.047369,51.442316],[-0.04747,51.441288],[-0.050063,51.440409],[-0.051101,51.440035],[-0.051885,51.440297],[-0.053357,51.440182],[-0.054221,51.440123],[-0.054083,51.439375],[-0.054767,51.439316],[-0.057341,51.44021],[-0.058744,51.440624],[-0.062816,51.440742],[-0.06469,51.441042],[-0.066238,51.442026],[-0.067606,51.443255],[-0.070168,51.44312],[-0.073276,51.44349],[-0.075779,51.442815],[-0.081402,51.442062],[-0.083566,51.44192],[-0.085113,51.44159],[-0.088208,51.440931],[-0.090526,51.441182],[-0.092804,51.441041],[-0.094687,51.440823],[-0.096994,51.439974],[-0.098441,51.439323],[-0.099808,51.439238],[-0.102056,51.439807],[-0.103785,51.440581],[-0.105758,51.440932],[-0.106295,51.440302],[-0.109804,51.440607],[-0.113471,51.441198],[-0.115132,51.442254],[-0.116578,51.442988],[-0.121752,51.444242],[-0.122585,51.444717],[-0.124483,51.445194],[-0.129697,51.447209],[-0.131777,51.447739],[-0.137664,51.449643],[-0.142154,51.450992],[-0.142381,51.45238],[-0.144328,51.453405],[-0.146071,51.453858],[-0.147656,51.45399],[-0.150893,51.455425],[-0.154129,51.456896],[-0.156524,51.459525],[-0.156794,51.461268],[-0.161576,51.461059],[-0.1671,51.460755],[-0.169623,51.460523],[-0.175489,51.458401],[-0.180333,51.458051],[-0.184607,51.457727],[-0.187472,51.457132],[-0.191015,51.456619],[-0.192605,51.456643],[-0.194236,51.457059],[-0.19632,51.45738],[-0.198618,51.456878],[-0.200612,51.456731],[-0.203799,51.456602],[-0.205511,51.456928],[-0.206765,51.457748],[-0.208215,51.458444],[-0.211862,51.459636],[-0.214676,51.460318],[-0.216876,51.460742],[-0.220703,51.461687],[-0.223511,51.462546],[-0.227187,51.462992],[-0.232161,51.463671],[-0.235259,51.464392],[-0.240525,51.464861],[-0.244544,51.465276],[-0.248759,51.46502],[-0.253068,51.465262],[-0.260972,51.465131],[-0.265132,51.464837],[-0.266954,51.464722],[-0.269245,51.464259],[-0.270327,51.464204],[-0.276686,51.464333],[-0.276517,51.465821],[-0.277131,51.467605],[-0.276963,51.469058],[-0.276294,51.473237],[-0.280821,51.475291],[-0.281642,51.476119],[-0.281549,51.476866],[-0.281398,51.478068],[-0.281706,51.47896],[-0.282525,51.479859],[-0.28379,51.480978],[-0.285748,51.481823],[-0.286854,51.482655],[-0.287527,51.484405],[-0.287636,51.489091],[-0.282066,51.492063],[-0.282369,51.494587],[-0.282054,51.496925],[-0.283541,51.499716],[-0.284974,51.500943],[-0.288594,51.502984],[-0.289789,51.504492],[-0.291433,51.507675],[-0.291718,51.50917],[-0.29213,51.511838],[-0.291971,51.514569],[-0.291365,51.51708],[-0.291518,51.522122],[-0.291588,51.523295],[-0.292438,51.524904],[-0.292345,51.525861],[-0.292491,51.529555],[-0.293127,51.530806],[-0.292282,51.532107],[-0.289357,51.53423],[-0.288308,51.534889],[-0.280026,51.538672],[-0.277983,51.540025],[-0.277053,51.540545],[-0.274212,51.543414],[-0.272514,51.544667],[-0.263724,51.548312],[-0.261206,51.551599],[-0.259996,51.551972],[-0.255184,51.552752],[-0.254374,51.553095],[-0.253543,51.55397],[-0.252738,51.555662],[-0.253576,51.557555],[-0.25348,51.559227],[-0.253305,51.560178],[-0.251448,51.564055],[-0.25003,51.565382],[-0.247544,51.566339],[-0.243215,51.567836],[-0.240318,51.569106],[-0.237039,51.569944],[-0.233078,51.570737],[-0.229843,51.571915],[-0.223467,51.573289],[-0.221611,51.574149],[-0.219904,51.575542],[-0.218497,51.576586],[-0.216579,51.577551],[-0.214307,51.578829],[-0.212764,51.580403],[-0.211405,51.58166],[-0.211344,51.582701],[-0.210118,51.585403],[-0.20915,51.586843],[-0.207855,51.587888],[-0.206399,51.588683],[-0.203292,51.589451],[-0.201798,51.589783],[-0.2002,51.58983],[-0.19616,51.589697],[-0.194097,51.589984],[-0.192489,51.590315],[-0.190578,51.591066],[-0.179502,51.597319],[-0.174525,51.600614],[-0.170228,51.602605],[-0.161888,51.60565],[-0.159783,51.605778],[-0.15688,51.605662],[-0.152666,51.606098],[-0.14456,51.608662],[-0.140295,51.609801],[-0.135564,51.611182],[-0.132343,51.61326],[-0.128832,51.614613],[-0.127771,51.614926],[-0.126259,51.614264],[-0.123907,51.613653],[-0.119264,51.612448],[-0.117273,51.612345],[-0.113557,51.612605],[-0.109752,51.612259],[-0.10769,51.612475],[-0.102132,51.614515],[-0.097855,51.615901],[-0.095435,51.616249],[-0.092298,51.616556],[-0.087335,51.616617],[-0.084732,51.616148],[-0.083064,51.615127],[-0.081608,51.6145],[-0.079047,51.614284],[-0.076382,51.61406],[-0.07083,51.614572],[-0.068137,51.614882],[-0.064894,51.614722],[-0.05559,51.613646],[-0.05107,51.612683],[-0.047868,51.611565],[-0.045994,51.611392],[-0.043927,51.611748],[-0.041616,51.612455],[-0.039085,51.61298],[-0.037029,51.613052],[-0.034307,51.612723],[-0.031898,51.611724],[-0.030537,51.610246],[-0.030361,51.609036],[-0.030106,51.608357],[-0.029008,51.607381],[-0.025426,51.605606],[-0.01737,51.601123]]]]}}
]}
