{"type":"FeatureCollection","meta":{
 "source": "London Datastore: Plot Ratios in Industrial Developments April 2011 - February 2018 (Greater London Authority)",
 "dataset": "e6w0w",
 "page": "https://data.london.gov.uk/dataset/plot-ratios-in-industrial-developments-april-2011-february-2018-e6w0w",
 "resources": [
  {
   "resource": "73a10f06-a9ed-4780-9167-16a596e77255",
   "file": "Plot Ratios in Industrial Developments April 2011 - February 2018.xlsx",
   "url": "https://data.london.gov.uk/download/e6w0w/73a10f06-a9ed-4780-9167-16a596e77255/Plot%20Ratios%20in%20Industrial%20Developments%20April%202011%20-%20February%202018.xlsx",
   "size": 144583,
   "resource_date": "2018-11-13",
   "fetched": "2026-10-04"
  }
 ],
 "licence": "Open Government Licence v3",
 "licence_url": "https://www.nationalarchives.gov.uk/doc/open-government-licence/version/3/",
 "attribution": "Contains public sector information licensed under the Open Government Licence v3 (Greater London Authority). The GLA cannot warrant the quality or accuracy of the data (London Datastore terms).",
 "dataset_modified": "2018-11-13",
 "update_frequency": "One off",
 "geo": "Point Location",
 "theme": "buildings-places",
 "layers": [
  {
   "table": "Plot Ratios in Industrial Developments April 2011 - February 2018.xlsx#DATASET",
   "srs": "per row",
   "columns": [
    "Easting",
    "Northing"
   ],
   "rows_read": 396
  }
 ],
 "crs_source": "EPSG:per row",
 "crs_output": "EPSG:4326 (WGS84), 6 decimal places; BNG to WGS84 through the OS OSTN15 grid (lib.mjs bngProjector)",
 "method": "lds-harvest-auto.mjs run e6w0w: resources chosen by the written rules (harvest-log.json meta.rules: formats, dedupe, caps); every feature read (GeoPackage, GeoJSON, shapefile, or table rows with coordinate columns as points, the CRS judged per row by value); a feature is kept when it meets the zone (the 3D model box, BNG E 532400-539900, N 176700-182300): a vertex inside, an edge crossing or the box inside a polygon; whole geometries kept, whole_in_zone and in_cw added; WGS84 6 decimals through OSTN15; contact fields dropped.",
 "counts": {
  "source_features": 30,
  "no_geometry": 0,
  "in_zone": 30,
  "in_cw": 1,
  "table_rows_read": 396,
  "note": "features made from table rows: source_features counts the zone rows only; table_rows_read counts every row read"
 },
 "attributes_in_source": "yes",
 "fields_dropped": [],
 "harvest_rules": "tools/lds-harvest-auto.mjs AUTO_RULES (feeds/london-datastore/harvest-log.json meta.rules)",
 "selection_notes": []
},
"features":[
{"type":"Feature","properties":{"Planning Authority":"Greenwich","Inner / Outer":"Inner","Borough Reference":"15/0716","Permission ID":207150,"Current permission status":"Started","Permission Financial Year":"FY2015","Easting":539263,"Northing":179740,"Completed Date":null,"Completed Financial Year":null,"Maximum building height (storeys)":40,"Non Residential Exists (Yes/No)":"Yes","Residential Unit Exists (Yes/No)":"No","Open Space Exists (Yes/No)":"No","Proposed Non Residential (Yes/No)":"Yes","Proposed Residential Units (Yes/No)":"Yes","Proposed Open Space (Yes/No)":"Yes","Residential Site Area (Proposed)":64.3,"Non Res Site Area (Proposed)":11.7,"Total Open Space (Existing)":0,"Greenfield Land":0,"Total Open Space (Proposed)":3.463,"Total Site Area (Proposed)":79.463,"Existing Total Residential Units":null,"Proposed Total Residential Units":12898,"Net residential units":12898,"Proposed Residential Density":200.591,"Proposed Total Affordable Units":2928,"Existing Total Bedrooms":0,"Proposed Total Bedrooms":500,"Net non-C3 bedrooms":500,"Proposed C1 Hotel Bedrooms":500,"Proposed Serviced Apartments":null,"Proposed C1 Hall Bedrooms":null,"Proposed C2 Bedrooms":null,"Existing Total Floorspace":0,"Proposed Total Floorspace":210404,"Net floorspace":210404,"Proposed A1 Floorspace":4695,"Proposed A2 Floorspace":4695,"Proposed A3 Floorspace":4695,"Proposed A4 Floorspace":4695,"Proposed A5 Floorspace":4695,"Proposed B1A Floorspace":19915,"Proposed B1B Floorspace":19915,"Proposed B1C Floorspace":19914,"Proposed B2 Floorspace":null,"Proposed B8 Floorspace":null,"Proposed C1 Hotel Non Bedroom Fspce":null,"Proposed C2 Floorspace":null,"Proposed D1 Floorspace":49125,"Proposed D2 Floorspace":9763,"Proposed SG Floorspace":68297,"Existing A1 Floorspace":null,"Existing A2 Floorspace":null,"Existing A3 Floorspace":null,"Existing A4 Floorspace":null,"Existing A5 Floorspace":null,"Existing Total A Class Floor Space":0,"Existing B1 Floorspace":null,"Existing B1A Floorspace":null,"Existing B1B Floorspace":null,"Existing B1C Floorspace":null,"Existing B2 Floorspace":null,"Existing B8 Floorspace":null,"Existing C2 Floorspace":null,"Existing D1 Floorspace":null,"Existing D2 Floorspace":null,"Existing SG Floorspace":0,"Proposed plot ratio (all non-residential)* ":1.79832,"in_cw":false,"whole_in_zone":true},"geometry":{"type":"Point","coordinates":[0.004946,51.499451]}},
{"type":"Feature","properties":{"Planning Authority":"Greenwich","Inner / Outer":"Inner","Borough Reference":"13/0684","Permission ID":151557,"Current permission status":"Superseded","Permission Financial Year":"FY2013","Easting":538906,"Northing":179884,"Completed Date":null,"Completed Financial Year":null,"Maximum building height (storeys)":23,"Non Residential Exists (Yes/No)":"No","Residential Unit Exists (Yes/No)":"No","Open Space Exists (Yes/No)":"Yes","Proposed Non Residential (Yes/No)":"Yes","Proposed Residential Units (Yes/No)":"Yes","Proposed Open Space (Yes/No)":"Yes","Residential Site Area (Proposed)":3.405,"Non Res Site Area (Proposed)":3.405,"Total Open Space (Existing)":6.811,"Greenfield Land":0,"Total Open Space (Proposed)":3.001,"Total Site Area (Proposed)":9.811,"Existing Total Residential Units":null,"Proposed Total Residential Units":1683,"Net residential units":1683,"Proposed Residential Density":494.273,"Proposed Total Affordable Units":null,"Existing Total Bedrooms":0,"Proposed Total Bedrooms":0,"Net non-C3 bedrooms":0,"Proposed C1 Hotel Bedrooms":null,"Proposed Serviced Apartments":null,"Proposed C1 Hall Bedrooms":null,"Proposed C2 Bedrooms":null,"Existing Total Floorspace":0,"Proposed Total Floorspace":42199,"Net floorspace":42199,"Proposed A1 Floorspace":1211,"Proposed A2 Floorspace":1209,"Proposed A3 Floorspace":1209,"Proposed A4 Floorspace":1209,"Proposed A5 Floorspace":1209,"Proposed B1A Floorspace":11315,"Proposed B1B Floorspace":11314,"Proposed B1C Floorspace":11314,"Proposed B2 Floorspace":null,"Proposed B8 Floorspace":null,"Proposed C1 Hotel Non Bedroom Fspce":null,"Proposed C2 Floorspace":null,"Proposed D1 Floorspace":1209,"Proposed D2 Floorspace":1000,"Proposed SG Floorspace":null,"Existing A1 Floorspace":null,"Existing A2 Floorspace":null,"Existing A3 Floorspace":null,"Existing A4 Floorspace":null,"Existing A5 Floorspace":null,"Existing Total A Class Floor Space":0,"Existing B1 Floorspace":null,"Existing B1A Floorspace":null,"Existing B1B Floorspace":null,"Existing B1C Floorspace":null,"Existing B2 Floorspace":null,"Existing B8 Floorspace":null,"Existing C2 Floorspace":null,"Existing D1 Floorspace":null,"Existing D2 Floorspace":null,"Existing SG Floorspace":null,"Proposed plot ratio (all non-residential)* ":1.23932,"in_cw":false,"whole_in_zone":true},"geometry":{"type":"Point","coordinates":[-0.000137,51.500832]}},
{"type":"Feature","properties":{"Planning Authority":"Greenwich","Inner / Outer":"Inner","Borough Reference":"13/1372","Permission ID":152679,"Current permission status":"Completed","Permission Financial Year":"FY2014","Easting":539441,"Northing":179128,"Completed Date":"2016-11-25","Completed Financial Year":"FY2016","Maximum building height (storeys)":null,"Non Residential Exists (Yes/No)":"No","Residential Unit Exists (Yes/No)":"No","Open Space Exists (Yes/No)":"Yes","Proposed Non Residential (Yes/No)":"Yes","Proposed Residential Units (Yes/No)":"No","Proposed Open Space (Yes/No)":"No","Residential Site Area (Proposed)":0,"Non Res Site Area (Proposed)":0.4,"Total Open Space (Existing)":0.4,"Greenfield Land":0,"Total Open Space (Proposed)":0,"Total Site Area (Proposed)":0.4,"Existing Total Residential Units":null,"Proposed Total Residential Units":null,"Net residential units":null,"Proposed Residential Density":null,"Proposed Total Affordable Units":null,"Existing Total Bedrooms":0,"Proposed Total Bedrooms":0,"Net non-C3 bedrooms":0,"Proposed C1 Hotel Bedrooms":null,"Proposed Serviced Apartments":null,"Proposed C1 Hall Bedrooms":null,"Proposed C2 Bedrooms":null,"Existing Total Floorspace":0,"Proposed Total Floorspace":2634,"Net floorspace":2634,"Proposed A1 Floorspace":null,"Proposed A2 Floorspace":null,"Proposed A3 Floorspace":null,"Proposed A4 Floorspace":null,"Proposed A5 Floorspace":null,"Proposed B1A Floorspace":435,"Proposed B1B Floorspace":null,"Proposed B1C Floorspace":null,"Proposed B2 Floorspace":2060,"Proposed B8 Floorspace":null,"Proposed C1 Hotel Non Bedroom Fspce":null,"Proposed C2 Floorspace":null,"Proposed D1 Floorspace":139,"Proposed D2 Floorspace":null,"Proposed SG Floorspace":null,"Existing A1 Floorspace":null,"Existing A2 Floorspace":null,"Existing A3 Floorspace":null,"Existing A4 Floorspace":null,"Existing A5 Floorspace":null,"Existing Total A Class Floor Space":0,"Existing B1 Floorspace":null,"Existing B1A Floorspace":null,"Existing B1B Floorspace":null,"Existing B1C Floorspace":null,"Existing B2 Floorspace":null,"Existing B8 Floorspace":null,"Existing C2 Floorspace":null,"Existing D1 Floorspace":null,"Existing D2 Floorspace":null,"Existing SG Floorspace":null,"Proposed plot ratio (all non-residential)* ":0.6585,"in_cw":false,"whole_in_zone":true},"geometry":{"type":"Point","coordinates":[0.007267,51.493907]}},
{"type":"Feature","properties":{"Planning Authority":"Greenwich","Inner / Outer":"Inner","Borough Reference":"14/0293","Permission ID":220457,"Current permission status":"Started","Permission Financial Year":"FY2014","Easting":539414,"Northing":178714,"Completed Date":null,"Completed Financial Year":null,"Maximum building height (storeys)":18,"Non Residential Exists (Yes/No)":"Yes","Residential Unit Exists (Yes/No)":"No","Open Space Exists (Yes/No)":"No","Proposed Non Residential (Yes/No)":"Yes","Proposed Residential Units (Yes/No)":"Yes","Proposed Open Space (Yes/No)":"Yes","Residential Site Area (Proposed)":0.83,"Non Res Site Area (Proposed)":1.5,"Total Open Space (Existing)":0,"Greenfield Land":0,"Total Open Space (Proposed)":0.111,"Total Site Area (Proposed)":2.441,"Existing Total Residential Units":null,"Proposed Total Residential Units":272,"Net residential units":272,"Proposed Residential Density":327.711,"Proposed Total Affordable Units":40,"Existing Total Bedrooms":0,"Proposed Total Bedrooms":0,"Net non-C3 bedrooms":0,"Proposed C1 Hotel Bedrooms":null,"Proposed Serviced Apartments":null,"Proposed C1 Hall Bedrooms":null,"Proposed C2 Bedrooms":null,"Existing Total Floorspace":8970,"Proposed Total Floorspace":1707,"Net floorspace":-7263,"Proposed A1 Floorspace":null,"Proposed A2 Floorspace":null,"Proposed A3 Floorspace":null,"Proposed A4 Floorspace":null,"Proposed A5 Floorspace":null,"Proposed B1A Floorspace":null,"Proposed B1B Floorspace":null,"Proposed B1C Floorspace":1599,"Proposed B2 Floorspace":null,"Proposed B8 Floorspace":null,"Proposed C1 Hotel Non Bedroom Fspce":null,"Proposed C2 Floorspace":null,"Proposed D1 Floorspace":null,"Proposed D2 Floorspace":null,"Proposed SG Floorspace":108,"Existing A1 Floorspace":null,"Existing A2 Floorspace":null,"Existing A3 Floorspace":null,"Existing A4 Floorspace":null,"Existing A5 Floorspace":null,"Existing Total A Class Floor Space":0,"Existing B1 Floorspace":8970,"Existing B1A Floorspace":null,"Existing B1B Floorspace":null,"Existing B1C Floorspace":8970,"Existing B2 Floorspace":null,"Existing B8 Floorspace":null,"Existing C2 Floorspace":null,"Existing D1 Floorspace":null,"Existing D2 Floorspace":null,"Existing SG Floorspace":null,"Proposed plot ratio (all non-residential)* ":0.1138,"in_cw":false,"whole_in_zone":true},"geometry":{"type":"Point","coordinates":[0.006715,51.490194]}},
{"type":"Feature","properties":{"Planning Authority":"Lewisham","Inner / Outer":"Inner","Borough Reference":"12/081950","Permission ID":134670,"Current permission status":"Completed","Permission Financial Year":"FY2013","Easting":535870,"Northing":177840,"Completed Date":"2016-04-01","Completed Financial Year":"FY2016","Maximum building height (storeys)":null,"Non Residential Exists (Yes/No)":"Yes","Residential Unit Exists (Yes/No)":"No","Open Space Exists (Yes/No)":"No","Proposed Non Residential (Yes/No)":"Yes","Proposed Residential Units (Yes/No)":"No","Proposed Open Space (Yes/No)":"No","Residential Site Area (Proposed)":0,"Non Res Site Area (Proposed)":1.974,"Total Open Space (Existing)":0,"Greenfield Land":0,"Total Open Space (Proposed)":0,"Total Site Area (Proposed)":1.974,"Existing Total Residential Units":null,"Proposed Total Residential Units":null,"Net residential units":null,"Proposed Residential Density":null,"Proposed Total Affordable Units":null,"Existing Total Bedrooms":0,"Proposed Total Bedrooms":0,"Net non-C3 bedrooms":0,"Proposed C1 Hotel Bedrooms":null,"Proposed Serviced Apartments":null,"Proposed C1 Hall Bedrooms":null,"Proposed C2 Bedrooms":null,"Existing Total Floorspace":9732,"Proposed Total Floorspace":6903,"Net floorspace":-2829,"Proposed A1 Floorspace":null,"Proposed A2 Floorspace":null,"Proposed A3 Floorspace":null,"Proposed A4 Floorspace":null,"Proposed A5 Floorspace":null,"Proposed B1A Floorspace":null,"Proposed B1B Floorspace":null,"Proposed B1C Floorspace":null,"Proposed B2 Floorspace":6903,"Proposed B8 Floorspace":null,"Proposed C1 Hotel Non Bedroom Fspce":null,"Proposed C2 Floorspace":null,"Proposed D1 Floorspace":null,"Proposed D2 Floorspace":null,"Proposed SG Floorspace":null,"Existing A1 Floorspace":null,"Existing A2 Floorspace":null,"Existing A3 Floorspace":null,"Existing A4 Floorspace":null,"Existing A5 Floorspace":null,"Existing Total A Class Floor Space":0,"Existing B1 Floorspace":null,"Existing B1A Floorspace":null,"Existing B1B Floorspace":null,"Existing B1C Floorspace":null,"Existing B2 Floorspace":9732,"Existing B8 Floorspace":null,"Existing C2 Floorspace":null,"Existing D1 Floorspace":null,"Existing D2 Floorspace":null,"Existing SG Floorspace":null,"Proposed plot ratio (all non-residential)* ":0.349696,"in_cw":false,"whole_in_zone":true},"geometry":{"type":"Point","coordinates":[-0.044636,51.483202]}},
{"type":"Feature","properties":{"Planning Authority":"Lewisham","Inner / Outer":"Inner","Borough Reference":"15/092693","Permission ID":256994,"Current permission status":"Superseded","Permission Financial Year":"FY2016","Easting":536485,"Northing":178157,"Completed Date":null,"Completed Financial Year":null,"Maximum building height (storeys)":2,"Non Residential Exists (Yes/No)":"Yes","Residential Unit Exists (Yes/No)":"No","Open Space Exists (Yes/No)":"No","Proposed Non Residential (Yes/No)":"Yes","Proposed Residential Units (Yes/No)":"No","Proposed Open Space (Yes/No)":"No","Residential Site Area (Proposed)":0,"Non Res Site Area (Proposed)":0.39,"Total Open Space (Existing)":0,"Greenfield Land":0,"Total Open Space (Proposed)":0,"Total Site Area (Proposed)":0.39,"Existing Total Residential Units":null,"Proposed Total Residential Units":null,"Net residential units":null,"Proposed Residential Density":null,"Proposed Total Affordable Units":null,"Existing Total Bedrooms":0,"Proposed Total Bedrooms":0,"Net non-C3 bedrooms":0,"Proposed C1 Hotel Bedrooms":null,"Proposed Serviced Apartments":null,"Proposed C1 Hall Bedrooms":null,"Proposed C2 Bedrooms":null,"Existing Total Floorspace":1696,"Proposed Total Floorspace":5961,"Net floorspace":4265,"Proposed A1 Floorspace":null,"Proposed A2 Floorspace":null,"Proposed A3 Floorspace":null,"Proposed A4 Floorspace":null,"Proposed A5 Floorspace":null,"Proposed B1A Floorspace":null,"Proposed B1B Floorspace":null,"Proposed B1C Floorspace":null,"Proposed B2 Floorspace":null,"Proposed B8 Floorspace":5961,"Proposed C1 Hotel Non Bedroom Fspce":null,"Proposed C2 Floorspace":null,"Proposed D1 Floorspace":null,"Proposed D2 Floorspace":null,"Proposed SG Floorspace":null,"Existing A1 Floorspace":null,"Existing A2 Floorspace":null,"Existing A3 Floorspace":null,"Existing A4 Floorspace":null,"Existing A5 Floorspace":null,"Existing Total A Class Floor Space":0,"Existing B1 Floorspace":null,"Existing B1A Floorspace":null,"Existing B1B Floorspace":null,"Existing B1C Floorspace":null,"Existing B2 Floorspace":null,"Existing B8 Floorspace":1696,"Existing C2 Floorspace":null,"Existing D1 Floorspace":null,"Existing D2 Floorspace":null,"Existing SG Floorspace":null,"Proposed plot ratio (all non-residential)* ":1.52846,"in_cw":false,"whole_in_zone":true},"geometry":{"type":"Point","coordinates":[-0.035662,51.485902]}},
{"type":"Feature","properties":{"Planning Authority":"Lewisham","Inner / Outer":"Inner","Borough Reference":"16/095258","Permission ID":278608,"Current permission status":"Not started","Permission Financial Year":"FY2016","Easting":536506,"Northing":178137,"Completed Date":null,"Completed Financial Year":null,"Maximum building height (storeys)":2,"Non Residential Exists (Yes/No)":"Yes","Residential Unit Exists (Yes/No)":"No","Open Space Exists (Yes/No)":"No","Proposed Non Residential (Yes/No)":"Yes","Proposed Residential Units (Yes/No)":"No","Proposed Open Space (Yes/No)":"No","Residential Site Area (Proposed)":0,"Non Res Site Area (Proposed)":0.394,"Total Open Space (Existing)":0,"Greenfield Land":0,"Total Open Space (Proposed)":0,"Total Site Area (Proposed)":0.394,"Existing Total Residential Units":null,"Proposed Total Residential Units":null,"Net residential units":null,"Proposed Residential Density":null,"Proposed Total Affordable Units":null,"Existing Total Bedrooms":0,"Proposed Total Bedrooms":0,"Net non-C3 bedrooms":0,"Proposed C1 Hotel Bedrooms":null,"Proposed Serviced Apartments":null,"Proposed C1 Hall Bedrooms":null,"Proposed C2 Bedrooms":null,"Existing Total Floorspace":1696,"Proposed Total Floorspace":4569,"Net floorspace":2873,"Proposed A1 Floorspace":null,"Proposed A2 Floorspace":null,"Proposed A3 Floorspace":null,"Proposed A4 Floorspace":null,"Proposed A5 Floorspace":null,"Proposed B1A Floorspace":null,"Proposed B1B Floorspace":null,"Proposed B1C Floorspace":null,"Proposed B2 Floorspace":null,"Proposed B8 Floorspace":4569,"Proposed C1 Hotel Non Bedroom Fspce":null,"Proposed C2 Floorspace":null,"Proposed D1 Floorspace":null,"Proposed D2 Floorspace":null,"Proposed SG Floorspace":null,"Existing A1 Floorspace":null,"Existing A2 Floorspace":null,"Existing A3 Floorspace":null,"Existing A4 Floorspace":null,"Existing A5 Floorspace":null,"Existing Total A Class Floor Space":0,"Existing B1 Floorspace":null,"Existing B1A Floorspace":null,"Existing B1B Floorspace":null,"Existing B1C Floorspace":null,"Existing B2 Floorspace":null,"Existing B8 Floorspace":1696,"Existing C2 Floorspace":null,"Existing D1 Floorspace":null,"Existing D2 Floorspace":null,"Existing SG Floorspace":null,"Proposed plot ratio (all non-residential)* ":1.15964,"in_cw":false,"whole_in_zone":true},"geometry":{"type":"Point","coordinates":[-0.035367,51.485718]}},
{"type":"Feature","properties":{"Planning Authority":"Lewisham","Inner / Outer":"Inner","Borough Reference":"11/76357","Permission ID":121039,"Current permission status":"Not started","Permission Financial Year":"FY2011","Easting":535428,"Northing":178057,"Completed Date":null,"Completed Financial Year":null,"Maximum building height (storeys)":null,"Non Residential Exists (Yes/No)":"Yes","Residential Unit Exists (Yes/No)":"Yes","Open Space Exists (Yes/No)":"No","Proposed Non Residential (Yes/No)":"Yes","Proposed Residential Units (Yes/No)":"Yes","Proposed Open Space (Yes/No)":"Yes","Residential Site Area (Proposed)":5.4,"Non Res Site Area (Proposed)":1.35,"Total Open Space (Existing)":0,"Greenfield Land":0,"Total Open Space (Proposed)":1.009,"Total Site Area (Proposed)":7.759,"Existing Total Residential Units":7,"Proposed Total Residential Units":2372,"Net residential units":2365,"Proposed Residential Density":439.259,"Proposed Total Affordable Units":237,"Existing Total Bedrooms":0,"Proposed Total Bedrooms":150,"Net non-C3 bedrooms":150,"Proposed C1 Hotel Bedrooms":150,"Proposed Serviced Apartments":null,"Proposed C1 Hall Bedrooms":null,"Proposed C2 Bedrooms":null,"Existing Total Floorspace":25669,"Proposed Total Floorspace":47100,"Net floorspace":21431,"Proposed A1 Floorspace":2000,"Proposed A2 Floorspace":1000,"Proposed A3 Floorspace":1500,"Proposed A4 Floorspace":1500,"Proposed A5 Floorspace":300,"Proposed B1A Floorspace":5000,"Proposed B1B Floorspace":5000,"Proposed B1C Floorspace":5000,"Proposed B2 Floorspace":null,"Proposed B8 Floorspace":null,"Proposed C1 Hotel Non Bedroom Fspce":null,"Proposed C2 Floorspace":null,"Proposed D1 Floorspace":10000,"Proposed D2 Floorspace":15800,"Proposed SG Floorspace":null,"Existing A1 Floorspace":null,"Existing A2 Floorspace":null,"Existing A3 Floorspace":null,"Existing A4 Floorspace":null,"Existing A5 Floorspace":null,"Existing Total A Class Floor Space":0,"Existing B1 Floorspace":4332,"Existing B1A Floorspace":1444,"Existing B1B Floorspace":1444,"Existing B1C Floorspace":1444,"Existing B2 Floorspace":1128,"Existing B8 Floorspace":16459,"Existing C2 Floorspace":null,"Existing D1 Floorspace":null,"Existing D2 Floorspace":3750,"Existing SG Floorspace":null,"Proposed plot ratio (all non-residential)* ":3.48889,"in_cw":false,"whole_in_zone":true},"geometry":{"type":"Point","coordinates":[-0.050914,51.485258]}},
{"type":"Feature","properties":{"Planning Authority":"Lewisham","Inner / Outer":"Inner","Borough Reference":"09/73189","Permission ID":121061,"Current permission status":"Superseded","Permission Financial Year":"FY2011","Easting":536512,"Northing":178327,"Completed Date":null,"Completed Financial Year":null,"Maximum building height (storeys)":18,"Non Residential Exists (Yes/No)":"Yes","Residential Unit Exists (Yes/No)":"Yes","Open Space Exists (Yes/No)":"No","Proposed Non Residential (Yes/No)":"Yes","Proposed Residential Units (Yes/No)":"Yes","Proposed Open Space (Yes/No)":"Yes","Residential Site Area (Proposed)":3.276,"Non Res Site Area (Proposed)":0.768,"Total Open Space (Existing)":0,"Greenfield Land":0,"Total Open Space (Proposed)":0.449,"Total Site Area (Proposed)":4.493,"Existing Total Residential Units":1,"Proposed Total Residential Units":905,"Net residential units":904,"Proposed Residential Density":276.252,"Proposed Total Affordable Units":189,"Existing Total Bedrooms":0,"Proposed Total Bedrooms":0,"Net non-C3 bedrooms":0,"Proposed C1 Hotel Bedrooms":null,"Proposed Serviced Apartments":null,"Proposed C1 Hall Bedrooms":null,"Proposed C2 Bedrooms":null,"Existing Total Floorspace":10100,"Proposed Total Floorspace":16390,"Net floorspace":6290,"Proposed A1 Floorspace":1371,"Proposed A2 Floorspace":685,"Proposed A3 Floorspace":1019,"Proposed A4 Floorspace":1200,"Proposed A5 Floorspace":685,"Proposed B1A Floorspace":2994,"Proposed B1B Floorspace":2994,"Proposed B1C Floorspace":2994,"Proposed B2 Floorspace":null,"Proposed B8 Floorspace":null,"Proposed C1 Hotel Non Bedroom Fspce":null,"Proposed C2 Floorspace":null,"Proposed D1 Floorspace":1428,"Proposed D2 Floorspace":1020,"Proposed SG Floorspace":null,"Existing A1 Floorspace":1600,"Existing A2 Floorspace":null,"Existing A3 Floorspace":600,"Existing A4 Floorspace":null,"Existing A5 Floorspace":null,"Existing Total A Class Floor Space":2200,"Existing B1 Floorspace":3900,"Existing B1A Floorspace":1300,"Existing B1B Floorspace":1300,"Existing B1C Floorspace":1300,"Existing B2 Floorspace":4000,"Existing B8 Floorspace":null,"Existing C2 Floorspace":null,"Existing D1 Floorspace":null,"Existing D2 Floorspace":null,"Existing SG Floorspace":null,"Proposed plot ratio (all non-residential)* ":2.13411,"in_cw":false,"whole_in_zone":true},"geometry":{"type":"Point","coordinates":[-0.035208,51.487424]}},
{"type":"Feature","properties":{"Planning Authority":"Lewisham","Inner / Outer":"Inner","Borough Reference":"13/083358","Permission ID":284093,"Current permission status":"Not started","Permission Financial Year":"FY2014","Easting":536997,"Northing":178274,"Completed Date":null,"Completed Financial Year":null,"Maximum building height (storeys)":48,"Non Residential Exists (Yes/No)":"Yes","Residential Unit Exists (Yes/No)":"No","Open Space Exists (Yes/No)":"No","Proposed Non Residential (Yes/No)":"Yes","Proposed Residential Units (Yes/No)":"Yes","Proposed Open Space (Yes/No)":"No","Residential Site Area (Proposed)":12.96,"Non Res Site Area (Proposed)":4,"Total Open Space (Existing)":0,"Greenfield Land":0,"Total Open Space (Proposed)":0,"Total Site Area (Proposed)":16.96,"Existing Total Residential Units":null,"Proposed Total Residential Units":3500,"Net residential units":3500,"Proposed Residential Density":270.062,"Proposed Total Affordable Units":525,"Existing Total Bedrooms":0,"Proposed Total Bedrooms":0,"Net non-C3 bedrooms":0,"Proposed C1 Hotel Bedrooms":null,"Proposed Serviced Apartments":null,"Proposed C1 Hall Bedrooms":null,"Proposed C2 Bedrooms":null,"Existing Total Floorspace":60000,"Proposed Total Floorspace":61530,"Net floorspace":1530,"Proposed A1 Floorspace":2905,"Proposed A2 Floorspace":2905,"Proposed A3 Floorspace":2260,"Proposed A4 Floorspace":2260,"Proposed A5 Floorspace":null,"Proposed B1A Floorspace":15500,"Proposed B1B Floorspace":null,"Proposed B1C Floorspace":null,"Proposed B2 Floorspace":32200,"Proposed B8 Floorspace":null,"Proposed C1 Hotel Non Bedroom Fspce":null,"Proposed C2 Floorspace":null,"Proposed D1 Floorspace":650,"Proposed D2 Floorspace":650,"Proposed SG Floorspace":2200,"Existing A1 Floorspace":null,"Existing A2 Floorspace":null,"Existing A3 Floorspace":null,"Existing A4 Floorspace":null,"Existing A5 Floorspace":null,"Existing Total A Class Floor Space":0,"Existing B1 Floorspace":null,"Existing B1A Floorspace":null,"Existing B1B Floorspace":null,"Existing B1C Floorspace":null,"Existing B2 Floorspace":null,"Existing B8 Floorspace":60000,"Existing C2 Floorspace":null,"Existing D1 Floorspace":null,"Existing D2 Floorspace":null,"Existing SG Floorspace":null,"Proposed plot ratio (all non-residential)* ":1.53825,"in_cw":false,"whole_in_zone":true},"geometry":{"type":"Point","coordinates":[-0.028247,51.48683]}},
{"type":"Feature","properties":{"Planning Authority":"Lewisham","Inner / Outer":"Inner","Borough Reference":"14/088567","Permission ID":145080,"Current permission status":"Started","Permission Financial Year":"FY2014","Easting":535803,"Northing":177825,"Completed Date":null,"Completed Financial Year":null,"Maximum building height (storeys)":2,"Non Residential Exists (Yes/No)":"Yes","Residential Unit Exists (Yes/No)":"No","Open Space Exists (Yes/No)":"No","Proposed Non Residential (Yes/No)":"Yes","Proposed Residential Units (Yes/No)":"No","Proposed Open Space (Yes/No)":"No","Residential Site Area (Proposed)":0,"Non Res Site Area (Proposed)":1.4,"Total Open Space (Existing)":0,"Greenfield Land":0,"Total Open Space (Proposed)":0,"Total Site Area (Proposed)":1.4,"Existing Total Residential Units":null,"Proposed Total Residential Units":null,"Net residential units":null,"Proposed Residential Density":null,"Proposed Total Affordable Units":null,"Existing Total Bedrooms":0,"Proposed Total Bedrooms":0,"Net non-C3 bedrooms":0,"Proposed C1 Hotel Bedrooms":null,"Proposed Serviced Apartments":null,"Proposed C1 Hall Bedrooms":null,"Proposed C2 Bedrooms":null,"Existing Total Floorspace":7293,"Proposed Total Floorspace":8513,"Net floorspace":1220,"Proposed A1 Floorspace":null,"Proposed A2 Floorspace":null,"Proposed A3 Floorspace":null,"Proposed A4 Floorspace":null,"Proposed A5 Floorspace":null,"Proposed B1A Floorspace":616,"Proposed B1B Floorspace":null,"Proposed B1C Floorspace":1123,"Proposed B2 Floorspace":1135,"Proposed B8 Floorspace":5010,"Proposed C1 Hotel Non Bedroom Fspce":null,"Proposed C2 Floorspace":null,"Proposed D1 Floorspace":null,"Proposed D2 Floorspace":null,"Proposed SG Floorspace":629,"Existing A1 Floorspace":null,"Existing A2 Floorspace":null,"Existing A3 Floorspace":null,"Existing A4 Floorspace":null,"Existing A5 Floorspace":null,"Existing Total A Class Floor Space":0,"Existing B1 Floorspace":311,"Existing B1A Floorspace":null,"Existing B1B Floorspace":null,"Existing B1C Floorspace":311,"Existing B2 Floorspace":null,"Existing B8 Floorspace":6982,"Existing C2 Floorspace":null,"Existing D1 Floorspace":null,"Existing D2 Floorspace":null,"Existing SG Floorspace":null,"Proposed plot ratio (all non-residential)* ":0.608071,"in_cw":false,"whole_in_zone":true},"geometry":{"type":"Point","coordinates":[-0.045606,51.483083]}},
{"type":"Feature","properties":{"Planning Authority":"Lewisham","Inner / Outer":"Inner","Borough Reference":"15/090584","Permission ID":255034,"Current permission status":"Completed","Permission Financial Year":"FY2015","Easting":535775,"Northing":178247,"Completed Date":"2016-07-22","Completed Financial Year":"FY2016","Maximum building height (storeys)":2,"Non Residential Exists (Yes/No)":"Yes","Residential Unit Exists (Yes/No)":"No","Open Space Exists (Yes/No)":"No","Proposed Non Residential (Yes/No)":"Yes","Proposed Residential Units (Yes/No)":"No","Proposed Open Space (Yes/No)":"No","Residential Site Area (Proposed)":0,"Non Res Site Area (Proposed)":0.82,"Total Open Space (Existing)":0,"Greenfield Land":0,"Total Open Space (Proposed)":0,"Total Site Area (Proposed)":0.82,"Existing Total Residential Units":null,"Proposed Total Residential Units":null,"Net residential units":null,"Proposed Residential Density":null,"Proposed Total Affordable Units":null,"Existing Total Bedrooms":0,"Proposed Total Bedrooms":0,"Net non-C3 bedrooms":0,"Proposed C1 Hotel Bedrooms":null,"Proposed Serviced Apartments":null,"Proposed C1 Hall Bedrooms":null,"Proposed C2 Bedrooms":null,"Existing Total Floorspace":0,"Proposed Total Floorspace":1559,"Net floorspace":1559,"Proposed A1 Floorspace":null,"Proposed A2 Floorspace":null,"Proposed A3 Floorspace":null,"Proposed A4 Floorspace":null,"Proposed A5 Floorspace":null,"Proposed B1A Floorspace":455,"Proposed B1B Floorspace":null,"Proposed B1C Floorspace":1104,"Proposed B2 Floorspace":null,"Proposed B8 Floorspace":null,"Proposed C1 Hotel Non Bedroom Fspce":null,"Proposed C2 Floorspace":null,"Proposed D1 Floorspace":null,"Proposed D2 Floorspace":null,"Proposed SG Floorspace":null,"Existing A1 Floorspace":null,"Existing A2 Floorspace":null,"Existing A3 Floorspace":null,"Existing A4 Floorspace":null,"Existing A5 Floorspace":null,"Existing Total A Class Floor Space":0,"Existing B1 Floorspace":null,"Existing B1A Floorspace":0,"Existing B1B Floorspace":null,"Existing B1C Floorspace":0,"Existing B2 Floorspace":null,"Existing B8 Floorspace":null,"Existing C2 Floorspace":null,"Existing D1 Floorspace":null,"Existing D2 Floorspace":null,"Existing SG Floorspace":null,"Proposed plot ratio (all non-residential)* ":0.190122,"in_cw":false,"whole_in_zone":true},"geometry":{"type":"Point","coordinates":[-0.045847,51.486882]}},
{"type":"Feature","properties":{"Planning Authority":"Newham","Inner / Outer":"Inner","Borough Reference":"13/01466/","Permission ID":136616,"Current permission status":"Completed","Permission Financial Year":"FY2013","Easting":538440,"Northing":181942,"Completed Date":"2013-10-08","Completed Financial Year":"FY2013","Maximum building height (storeys)":null,"Non Residential Exists (Yes/No)":"Yes","Residential Unit Exists (Yes/No)":"No","Open Space Exists (Yes/No)":"No","Proposed Non Residential (Yes/No)":"Yes","Proposed Residential Units (Yes/No)":"No","Proposed Open Space (Yes/No)":"No","Residential Site Area (Proposed)":0,"Non Res Site Area (Proposed)":4.111,"Total Open Space (Existing)":0,"Greenfield Land":0,"Total Open Space (Proposed)":0,"Total Site Area (Proposed)":4.111,"Existing Total Residential Units":null,"Proposed Total Residential Units":null,"Net residential units":null,"Proposed Residential Density":null,"Proposed Total Affordable Units":null,"Existing Total Bedrooms":0,"Proposed Total Bedrooms":0,"Net non-C3 bedrooms":0,"Proposed C1 Hotel Bedrooms":null,"Proposed Serviced Apartments":null,"Proposed C1 Hall Bedrooms":null,"Proposed C2 Bedrooms":null,"Existing Total Floorspace":41110,"Proposed Total Floorspace":41110,"Net floorspace":0,"Proposed A1 Floorspace":null,"Proposed A2 Floorspace":null,"Proposed A3 Floorspace":null,"Proposed A4 Floorspace":null,"Proposed A5 Floorspace":null,"Proposed B1A Floorspace":null,"Proposed B1B Floorspace":null,"Proposed B1C Floorspace":null,"Proposed B2 Floorspace":null,"Proposed B8 Floorspace":41110,"Proposed C1 Hotel Non Bedroom Fspce":null,"Proposed C2 Floorspace":null,"Proposed D1 Floorspace":null,"Proposed D2 Floorspace":null,"Proposed SG Floorspace":null,"Existing A1 Floorspace":null,"Existing A2 Floorspace":null,"Existing A3 Floorspace":null,"Existing A4 Floorspace":null,"Existing A5 Floorspace":null,"Existing Total A Class Floor Space":0,"Existing B1 Floorspace":null,"Existing B1A Floorspace":null,"Existing B1B Floorspace":null,"Existing B1C Floorspace":null,"Existing B2 Floorspace":null,"Existing B8 Floorspace":41110,"Existing C2 Floorspace":null,"Existing D1 Floorspace":null,"Existing D2 Floorspace":null,"Existing SG Floorspace":null,"Proposed plot ratio (all non-residential)* ":1,"in_cw":false,"whole_in_zone":true},"geometry":{"type":"Point","coordinates":[-0.006038,51.519441]}},
{"type":"Feature","properties":{"Planning Authority":"Newham","Inner / Outer":"Inner","Borough Reference":"16/04038","Permission ID":337460,"Current permission status":"Not started","Permission Financial Year":"FY2017","Easting":539082,"Northing":182153,"Completed Date":null,"Completed Financial Year":null,"Maximum building height (storeys)":3,"Non Residential Exists (Yes/No)":"Yes","Residential Unit Exists (Yes/No)":"No","Open Space Exists (Yes/No)":"No","Proposed Non Residential (Yes/No)":"Yes","Proposed Residential Units (Yes/No)":"No","Proposed Open Space (Yes/No)":"No","Residential Site Area (Proposed)":0,"Non Res Site Area (Proposed)":0.4,"Total Open Space (Existing)":0,"Greenfield Land":0,"Total Open Space (Proposed)":0,"Total Site Area (Proposed)":0.4,"Existing Total Residential Units":null,"Proposed Total Residential Units":null,"Net residential units":null,"Proposed Residential Density":null,"Proposed Total Affordable Units":null,"Existing Total Bedrooms":0,"Proposed Total Bedrooms":0,"Net non-C3 bedrooms":0,"Proposed C1 Hotel Bedrooms":null,"Proposed Serviced Apartments":null,"Proposed C1 Hall Bedrooms":null,"Proposed C2 Bedrooms":null,"Existing Total Floorspace":0,"Proposed Total Floorspace":1644,"Net floorspace":1644,"Proposed A1 Floorspace":null,"Proposed A2 Floorspace":null,"Proposed A3 Floorspace":null,"Proposed A4 Floorspace":null,"Proposed A5 Floorspace":null,"Proposed B1A Floorspace":null,"Proposed B1B Floorspace":null,"Proposed B1C Floorspace":null,"Proposed B2 Floorspace":null,"Proposed B8 Floorspace":1644,"Proposed C1 Hotel Non Bedroom Fspce":null,"Proposed C2 Floorspace":null,"Proposed D1 Floorspace":null,"Proposed D2 Floorspace":null,"Proposed SG Floorspace":null,"Existing A1 Floorspace":null,"Existing A2 Floorspace":null,"Existing A3 Floorspace":null,"Existing A4 Floorspace":null,"Existing A5 Floorspace":null,"Existing Total A Class Floor Space":0,"Existing B1 Floorspace":null,"Existing B1A Floorspace":null,"Existing B1B Floorspace":null,"Existing B1C Floorspace":null,"Existing B2 Floorspace":null,"Existing B8 Floorspace":0,"Existing C2 Floorspace":null,"Existing D1 Floorspace":null,"Existing D2 Floorspace":null,"Existing SG Floorspace":null,"Proposed plot ratio (all non-residential)* ":0.411,"in_cw":false,"whole_in_zone":true},"geometry":{"type":"Point","coordinates":[0.003292,51.521179]}},
{"type":"Feature","properties":{"Planning Authority":"Newham","Inner / Outer":"Inner","Borough Reference":"12/00298/LTGDC","Permission ID":127176,"Current permission status":"Completed","Permission Financial Year":"FY2012","Easting":539082,"Northing":182186,"Completed Date":"2014-04-02","Completed Financial Year":"FY2014","Maximum building height (storeys)":null,"Non Residential Exists (Yes/No)":"Yes","Residential Unit Exists (Yes/No)":"No","Open Space Exists (Yes/No)":"No","Proposed Non Residential (Yes/No)":"Yes","Proposed Residential Units (Yes/No)":"No","Proposed Open Space (Yes/No)":"No","Residential Site Area (Proposed)":0,"Non Res Site Area (Proposed)":3.314,"Total Open Space (Existing)":0,"Greenfield Land":0,"Total Open Space (Proposed)":0,"Total Site Area (Proposed)":3.314,"Existing Total Residential Units":null,"Proposed Total Residential Units":null,"Net residential units":null,"Proposed Residential Density":null,"Proposed Total Affordable Units":null,"Existing Total Bedrooms":0,"Proposed Total Bedrooms":0,"Net non-C3 bedrooms":0,"Proposed C1 Hotel Bedrooms":null,"Proposed Serviced Apartments":null,"Proposed C1 Hall Bedrooms":null,"Proposed C2 Bedrooms":null,"Existing Total Floorspace":8973,"Proposed Total Floorspace":10620,"Net floorspace":1647,"Proposed A1 Floorspace":null,"Proposed A2 Floorspace":null,"Proposed A3 Floorspace":null,"Proposed A4 Floorspace":null,"Proposed A5 Floorspace":null,"Proposed B1A Floorspace":null,"Proposed B1B Floorspace":null,"Proposed B1C Floorspace":3540,"Proposed B2 Floorspace":3540,"Proposed B8 Floorspace":3540,"Proposed C1 Hotel Non Bedroom Fspce":null,"Proposed C2 Floorspace":null,"Proposed D1 Floorspace":null,"Proposed D2 Floorspace":null,"Proposed SG Floorspace":null,"Existing A1 Floorspace":null,"Existing A2 Floorspace":null,"Existing A3 Floorspace":null,"Existing A4 Floorspace":null,"Existing A5 Floorspace":null,"Existing Total A Class Floor Space":0,"Existing B1 Floorspace":null,"Existing B1A Floorspace":null,"Existing B1B Floorspace":null,"Existing B1C Floorspace":null,"Existing B2 Floorspace":null,"Existing B8 Floorspace":8973,"Existing C2 Floorspace":null,"Existing D1 Floorspace":null,"Existing D2 Floorspace":null,"Existing SG Floorspace":null,"Proposed plot ratio (all non-residential)* ":0.320459,"in_cw":false,"whole_in_zone":true},"geometry":{"type":"Point","coordinates":[0.003305,51.521476]}},
{"type":"Feature","properties":{"Planning Authority":"Newham","Inner / Outer":"Inner","Borough Reference":"13/01461","Permission ID":137631,"Current permission status":"Completed","Permission Financial Year":"FY2013","Easting":539737,"Northing":181088,"Completed Date":"2017-03-31","Completed Financial Year":"FY2016","Maximum building height (storeys)":16,"Non Residential Exists (Yes/No)":"Yes","Residential Unit Exists (Yes/No)":"No","Open Space Exists (Yes/No)":"No","Proposed Non Residential (Yes/No)":"Yes","Proposed Residential Units (Yes/No)":"Yes","Proposed Open Space (Yes/No)":"No","Residential Site Area (Proposed)":0.727,"Non Res Site Area (Proposed)":0.073,"Total Open Space (Existing)":0,"Greenfield Land":0,"Total Open Space (Proposed)":0,"Total Site Area (Proposed)":0.8,"Existing Total Residential Units":null,"Proposed Total Residential Units":336,"Net residential units":336,"Proposed Residential Density":462.173,"Proposed Total Affordable Units":null,"Existing Total Bedrooms":0,"Proposed Total Bedrooms":0,"Net non-C3 bedrooms":0,"Proposed C1 Hotel Bedrooms":null,"Proposed Serviced Apartments":null,"Proposed C1 Hall Bedrooms":null,"Proposed C2 Bedrooms":null,"Existing Total Floorspace":5579,"Proposed Total Floorspace":2637,"Net floorspace":-2942,"Proposed A1 Floorspace":null,"Proposed A2 Floorspace":null,"Proposed A3 Floorspace":65,"Proposed A4 Floorspace":null,"Proposed A5 Floorspace":null,"Proposed B1A Floorspace":null,"Proposed B1B Floorspace":null,"Proposed B1C Floorspace":2572,"Proposed B2 Floorspace":null,"Proposed B8 Floorspace":null,"Proposed C1 Hotel Non Bedroom Fspce":null,"Proposed C2 Floorspace":null,"Proposed D1 Floorspace":null,"Proposed D2 Floorspace":null,"Proposed SG Floorspace":null,"Existing A1 Floorspace":null,"Existing A2 Floorspace":null,"Existing A3 Floorspace":null,"Existing A4 Floorspace":null,"Existing A5 Floorspace":null,"Existing Total A Class Floor Space":0,"Existing B1 Floorspace":5579,"Existing B1A Floorspace":null,"Existing B1B Floorspace":null,"Existing B1C Floorspace":5579,"Existing B2 Floorspace":null,"Existing B8 Floorspace":null,"Existing C2 Floorspace":null,"Existing D1 Floorspace":null,"Existing D2 Floorspace":null,"Existing SG Floorspace":null,"Proposed plot ratio (all non-residential)* ":3.61233,"in_cw":false,"whole_in_zone":true},"geometry":{"type":"Point","coordinates":[0.012305,51.511447]}},
{"type":"Feature","properties":{"Planning Authority":"Southwark","Inner / Outer":"Inner","Borough Reference":"15-AP-2474","Permission ID":336256,"Current permission status":"Not started","Permission Financial Year":"FY2016","Easting":533484,"Northing":179037,"Completed Date":null,"Completed Financial Year":null,"Maximum building height (storeys)":9,"Non Residential Exists (Yes/No)":"Yes","Residential Unit Exists (Yes/No)":"No","Open Space Exists (Yes/No)":"No","Proposed Non Residential (Yes/No)":"Yes","Proposed Residential Units (Yes/No)":"Yes","Proposed Open Space (Yes/No)":"Yes","Residential Site Area (Proposed)":1.085,"Non Res Site Area (Proposed)":0.495,"Total Open Space (Existing)":0,"Greenfield Land":0,"Total Open Space (Proposed)":0.398,"Total Site Area (Proposed)":1.978,"Existing Total Residential Units":null,"Proposed Total Residential Units":406,"Net residential units":406,"Proposed Residential Density":374.194,"Proposed Total Affordable Units":135,"Existing Total Bedrooms":0,"Proposed Total Bedrooms":0,"Net non-C3 bedrooms":0,"Proposed C1 Hotel Bedrooms":null,"Proposed Serviced Apartments":null,"Proposed C1 Hall Bedrooms":null,"Proposed C2 Bedrooms":null,"Existing Total Floorspace":19708,"Proposed Total Floorspace":19465,"Net floorspace":-243,"Proposed A1 Floorspace":1046,"Proposed A2 Floorspace":162,"Proposed A3 Floorspace":162,"Proposed A4 Floorspace":null,"Proposed A5 Floorspace":null,"Proposed B1A Floorspace":14111,"Proposed B1B Floorspace":null,"Proposed B1C Floorspace":null,"Proposed B2 Floorspace":null,"Proposed B8 Floorspace":3100,"Proposed C1 Hotel Non Bedroom Fspce":null,"Proposed C2 Floorspace":null,"Proposed D1 Floorspace":884,"Proposed D2 Floorspace":null,"Proposed SG Floorspace":null,"Existing A1 Floorspace":null,"Existing A2 Floorspace":null,"Existing A3 Floorspace":null,"Existing A4 Floorspace":null,"Existing A5 Floorspace":null,"Existing Total A Class Floor Space":0,"Existing B1 Floorspace":5566,"Existing B1A Floorspace":5566,"Existing B1B Floorspace":null,"Existing B1C Floorspace":null,"Existing B2 Floorspace":null,"Existing B8 Floorspace":4182,"Existing C2 Floorspace":null,"Existing D1 Floorspace":533,"Existing D2 Floorspace":null,"Existing SG Floorspace":9427,"Proposed plot ratio (all non-residential)* ":3.93232,"in_cw":false,"whole_in_zone":true},"geometry":{"type":"Point","coordinates":[-0.078525,51.494527]}},
{"type":"Feature","properties":{"Planning Authority":"Southwark","Inner / Outer":"Inner","Borough Reference":"11-AP-0695","Permission ID":115882,"Current permission status":"Completed","Permission Financial Year":"FY2011","Easting":533493,"Northing":179059,"Completed Date":"2013-06-02","Completed Financial Year":"FY2013","Maximum building height (storeys)":null,"Non Residential Exists (Yes/No)":"Yes","Residential Unit Exists (Yes/No)":"No","Open Space Exists (Yes/No)":"No","Proposed Non Residential (Yes/No)":"Yes","Proposed Residential Units (Yes/No)":"No","Proposed Open Space (Yes/No)":"No","Residential Site Area (Proposed)":0,"Non Res Site Area (Proposed)":0.056,"Total Open Space (Existing)":0,"Greenfield Land":0,"Total Open Space (Proposed)":0,"Total Site Area (Proposed)":0.056,"Existing Total Residential Units":null,"Proposed Total Residential Units":null,"Net residential units":null,"Proposed Residential Density":null,"Proposed Total Affordable Units":null,"Existing Total Bedrooms":0,"Proposed Total Bedrooms":0,"Net non-C3 bedrooms":0,"Proposed C1 Hotel Bedrooms":null,"Proposed Serviced Apartments":null,"Proposed C1 Hall Bedrooms":null,"Proposed C2 Bedrooms":null,"Existing Total Floorspace":1936,"Proposed Total Floorspace":1936,"Net floorspace":0,"Proposed A1 Floorspace":null,"Proposed A2 Floorspace":null,"Proposed A3 Floorspace":null,"Proposed A4 Floorspace":null,"Proposed A5 Floorspace":null,"Proposed B1A Floorspace":null,"Proposed B1B Floorspace":null,"Proposed B1C Floorspace":null,"Proposed B2 Floorspace":null,"Proposed B8 Floorspace":1762,"Proposed C1 Hotel Non Bedroom Fspce":null,"Proposed C2 Floorspace":null,"Proposed D1 Floorspace":174,"Proposed D2 Floorspace":null,"Proposed SG Floorspace":null,"Existing A1 Floorspace":null,"Existing A2 Floorspace":null,"Existing A3 Floorspace":null,"Existing A4 Floorspace":null,"Existing A5 Floorspace":null,"Existing Total A Class Floor Space":0,"Existing B1 Floorspace":null,"Existing B1A Floorspace":null,"Existing B1B Floorspace":null,"Existing B1C Floorspace":null,"Existing B2 Floorspace":null,"Existing B8 Floorspace":1936,"Existing C2 Floorspace":null,"Existing D1 Floorspace":null,"Existing D2 Floorspace":null,"Existing SG Floorspace":null,"Proposed plot ratio (all non-residential)* ":3.45714,"in_cw":false,"whole_in_zone":true},"geometry":{"type":"Point","coordinates":[-0.078387,51.494722]}},
{"type":"Feature","properties":{"Planning Authority":"Southwark","Inner / Outer":"Inner","Borough Reference":"12-AP-2737","Permission ID":136645,"Current permission status":"Started","Permission Financial Year":"FY2013","Easting":534593,"Northing":179041,"Completed Date":null,"Completed Financial Year":null,"Maximum building height (storeys)":9,"Non Residential Exists (Yes/No)":"Yes","Residential Unit Exists (Yes/No)":"No","Open Space Exists (Yes/No)":"No","Proposed Non Residential (Yes/No)":"Yes","Proposed Residential Units (Yes/No)":"Yes","Proposed Open Space (Yes/No)":"Yes","Residential Site Area (Proposed)":3.03,"Non Res Site Area (Proposed)":0.294,"Total Open Space (Existing)":0,"Greenfield Land":0,"Total Open Space (Proposed)":0.16,"Total Site Area (Proposed)":3.484,"Existing Total Residential Units":null,"Proposed Total Residential Units":800,"Net residential units":800,"Proposed Residential Density":264.026,"Proposed Total Affordable Units":219,"Existing Total Bedrooms":0,"Proposed Total Bedrooms":0,"Net non-C3 bedrooms":0,"Proposed C1 Hotel Bedrooms":null,"Proposed Serviced Apartments":null,"Proposed C1 Hall Bedrooms":null,"Proposed C2 Bedrooms":null,"Existing Total Floorspace":33363,"Proposed Total Floorspace":8240,"Net floorspace":-25123,"Proposed A1 Floorspace":200,"Proposed A2 Floorspace":250,"Proposed A3 Floorspace":300,"Proposed A4 Floorspace":null,"Proposed A5 Floorspace":null,"Proposed B1A Floorspace":3370,"Proposed B1B Floorspace":null,"Proposed B1C Floorspace":null,"Proposed B2 Floorspace":null,"Proposed B8 Floorspace":3370,"Proposed C1 Hotel Non Bedroom Fspce":null,"Proposed C2 Floorspace":null,"Proposed D1 Floorspace":350,"Proposed D2 Floorspace":400,"Proposed SG Floorspace":null,"Existing A1 Floorspace":null,"Existing A2 Floorspace":null,"Existing A3 Floorspace":null,"Existing A4 Floorspace":null,"Existing A5 Floorspace":null,"Existing Total A Class Floor Space":0,"Existing B1 Floorspace":563,"Existing B1A Floorspace":null,"Existing B1B Floorspace":null,"Existing B1C Floorspace":563,"Existing B2 Floorspace":null,"Existing B8 Floorspace":32800,"Existing C2 Floorspace":null,"Existing D1 Floorspace":null,"Existing D2 Floorspace":null,"Existing SG Floorspace":null,"Proposed plot ratio (all non-residential)* ":2.80272,"in_cw":false,"whole_in_zone":true},"geometry":{"type":"Point","coordinates":[-0.062558,51.4943]}},
{"type":"Feature","properties":{"Planning Authority":"Southwark","Inner / Outer":"Inner","Borough Reference":"14-AP-1552","Permission ID":151261,"Current permission status":"Started","Permission Financial Year":"FY2014","Easting":533568,"Northing":178545,"Completed Date":null,"Completed Financial Year":null,"Maximum building height (storeys)":null,"Non Residential Exists (Yes/No)":"Yes","Residential Unit Exists (Yes/No)":"No","Open Space Exists (Yes/No)":"No","Proposed Non Residential (Yes/No)":"Yes","Proposed Residential Units (Yes/No)":"No","Proposed Open Space (Yes/No)":"No","Residential Site Area (Proposed)":0,"Non Res Site Area (Proposed)":0.708,"Total Open Space (Existing)":0,"Greenfield Land":0,"Total Open Space (Proposed)":0,"Total Site Area (Proposed)":0.708,"Existing Total Residential Units":null,"Proposed Total Residential Units":null,"Net residential units":null,"Proposed Residential Density":null,"Proposed Total Affordable Units":null,"Existing Total Bedrooms":0,"Proposed Total Bedrooms":0,"Net non-C3 bedrooms":0,"Proposed C1 Hotel Bedrooms":null,"Proposed Serviced Apartments":null,"Proposed C1 Hall Bedrooms":null,"Proposed C2 Bedrooms":null,"Existing Total Floorspace":7000,"Proposed Total Floorspace":6111,"Net floorspace":-889,"Proposed A1 Floorspace":null,"Proposed A2 Floorspace":null,"Proposed A3 Floorspace":null,"Proposed A4 Floorspace":null,"Proposed A5 Floorspace":null,"Proposed B1A Floorspace":4179,"Proposed B1B Floorspace":null,"Proposed B1C Floorspace":null,"Proposed B2 Floorspace":null,"Proposed B8 Floorspace":1932,"Proposed C1 Hotel Non Bedroom Fspce":null,"Proposed C2 Floorspace":null,"Proposed D1 Floorspace":null,"Proposed D2 Floorspace":null,"Proposed SG Floorspace":null,"Existing A1 Floorspace":null,"Existing A2 Floorspace":null,"Existing A3 Floorspace":null,"Existing A4 Floorspace":null,"Existing A5 Floorspace":null,"Existing Total A Class Floor Space":0,"Existing B1 Floorspace":null,"Existing B1A Floorspace":null,"Existing B1B Floorspace":null,"Existing B1C Floorspace":null,"Existing B2 Floorspace":null,"Existing B8 Floorspace":null,"Existing C2 Floorspace":null,"Existing D1 Floorspace":null,"Existing D2 Floorspace":null,"Existing SG Floorspace":7000,"Proposed plot ratio (all non-residential)* ":0.863136,"in_cw":false,"whole_in_zone":true},"geometry":{"type":"Point","coordinates":[-0.077502,51.490085]}},
{"type":"Feature","properties":{"Planning Authority":"Tower Hamlets","Inner / Outer":"Inner","Borough Reference":"PA/14/00150","Permission ID":282620,"Current permission status":"Lapsed","Permission Financial Year":"FY2013","Easting":537855,"Northing":182079,"Completed Date":null,"Completed Financial Year":null,"Maximum building height (storeys)":null,"Non Residential Exists (Yes/No)":"Yes","Residential Unit Exists (Yes/No)":"No","Open Space Exists (Yes/No)":"No","Proposed Non Residential (Yes/No)":"Yes","Proposed Residential Units (Yes/No)":"No","Proposed Open Space (Yes/No)":"No","Residential Site Area (Proposed)":0,"Non Res Site Area (Proposed)":0.42,"Total Open Space (Existing)":0,"Greenfield Land":0,"Total Open Space (Proposed)":0,"Total Site Area (Proposed)":0.42,"Existing Total Residential Units":null,"Proposed Total Residential Units":null,"Net residential units":null,"Proposed Residential Density":null,"Proposed Total Affordable Units":null,"Existing Total Bedrooms":0,"Proposed Total Bedrooms":0,"Net non-C3 bedrooms":0,"Proposed C1 Hotel Bedrooms":null,"Proposed Serviced Apartments":null,"Proposed C1 Hall Bedrooms":null,"Proposed C2 Bedrooms":null,"Existing Total Floorspace":1983,"Proposed Total Floorspace":2802,"Net floorspace":819,"Proposed A1 Floorspace":null,"Proposed A2 Floorspace":null,"Proposed A3 Floorspace":null,"Proposed A4 Floorspace":null,"Proposed A5 Floorspace":null,"Proposed B1A Floorspace":null,"Proposed B1B Floorspace":null,"Proposed B1C Floorspace":2802,"Proposed B2 Floorspace":null,"Proposed B8 Floorspace":null,"Proposed C1 Hotel Non Bedroom Fspce":null,"Proposed C2 Floorspace":null,"Proposed D1 Floorspace":null,"Proposed D2 Floorspace":null,"Proposed SG Floorspace":null,"Existing A1 Floorspace":null,"Existing A2 Floorspace":null,"Existing A3 Floorspace":null,"Existing A4 Floorspace":null,"Existing A5 Floorspace":null,"Existing Total A Class Floor Space":0,"Existing B1 Floorspace":null,"Existing B1A Floorspace":null,"Existing B1B Floorspace":null,"Existing B1C Floorspace":null,"Existing B2 Floorspace":1983,"Existing B8 Floorspace":null,"Existing C2 Floorspace":null,"Existing D1 Floorspace":null,"Existing D2 Floorspace":null,"Existing SG Floorspace":null,"Proposed plot ratio (all non-residential)* ":0.667143,"in_cw":false,"whole_in_zone":true},"geometry":{"type":"Point","coordinates":[-0.014411,51.520815]}},
{"type":"Feature","properties":{"Planning Authority":"Tower Hamlets","Inner / Outer":"Inner","Borough Reference":"PA/10/02860","Permission ID":284022,"Current permission status":"Completed","Permission Financial Year":"FY2011","Easting":537922,"Northing":179554,"Completed Date":"2012-12-21","Completed Financial Year":"FY2012","Maximum building height (storeys)":12,"Non Residential Exists (Yes/No)":"Yes","Residential Unit Exists (Yes/No)":"No","Open Space Exists (Yes/No)":"No","Proposed Non Residential (Yes/No)":"Yes","Proposed Residential Units (Yes/No)":"No","Proposed Open Space (Yes/No)":"No","Residential Site Area (Proposed)":0,"Non Res Site Area (Proposed)":0.481,"Total Open Space (Existing)":0,"Greenfield Land":0,"Total Open Space (Proposed)":0,"Total Site Area (Proposed)":0.481,"Existing Total Residential Units":null,"Proposed Total Residential Units":null,"Net residential units":null,"Proposed Residential Density":null,"Proposed Total Affordable Units":null,"Existing Total Bedrooms":0,"Proposed Total Bedrooms":0,"Net non-C3 bedrooms":0,"Proposed C1 Hotel Bedrooms":null,"Proposed Serviced Apartments":null,"Proposed C1 Hall Bedrooms":null,"Proposed C2 Bedrooms":null,"Existing Total Floorspace":14247,"Proposed Total Floorspace":16413,"Net floorspace":2166,"Proposed A1 Floorspace":null,"Proposed A2 Floorspace":null,"Proposed A3 Floorspace":null,"Proposed A4 Floorspace":null,"Proposed A5 Floorspace":null,"Proposed B1A Floorspace":null,"Proposed B1B Floorspace":null,"Proposed B1C Floorspace":null,"Proposed B2 Floorspace":null,"Proposed B8 Floorspace":16413,"Proposed C1 Hotel Non Bedroom Fspce":null,"Proposed C2 Floorspace":null,"Proposed D1 Floorspace":null,"Proposed D2 Floorspace":null,"Proposed SG Floorspace":null,"Existing A1 Floorspace":null,"Existing A2 Floorspace":null,"Existing A3 Floorspace":null,"Existing A4 Floorspace":null,"Existing A5 Floorspace":null,"Existing Total A Class Floor Space":0,"Existing B1 Floorspace":14247,"Existing B1A Floorspace":14247,"Existing B1B Floorspace":null,"Existing B1C Floorspace":null,"Existing B2 Floorspace":null,"Existing B8 Floorspace":null,"Existing C2 Floorspace":null,"Existing D1 Floorspace":null,"Existing D2 Floorspace":null,"Existing SG Floorspace":null,"Proposed plot ratio (all non-residential)* ":3.41227,"in_cw":true,"whole_in_zone":true},"geometry":{"type":"Point","coordinates":[-0.014433,51.498108]}},
{"type":"Feature","properties":{"Planning Authority":"Tower Hamlets","Inner / Outer":"Inner","Borough Reference":"PA/13/00803","Permission ID":140805,"Current permission status":"Started","Permission Financial Year":"FY2013","Easting":537658,"Northing":179405,"Completed Date":null,"Completed Financial Year":null,"Maximum building height (storeys)":null,"Non Residential Exists (Yes/No)":"Yes","Residential Unit Exists (Yes/No)":"No","Open Space Exists (Yes/No)":"No","Proposed Non Residential (Yes/No)":"Yes","Proposed Residential Units (Yes/No)":"No","Proposed Open Space (Yes/No)":"No","Residential Site Area (Proposed)":0,"Non Res Site Area (Proposed)":0.45,"Total Open Space (Existing)":0,"Greenfield Land":0,"Total Open Space (Proposed)":0,"Total Site Area (Proposed)":0.45,"Existing Total Residential Units":null,"Proposed Total Residential Units":null,"Net residential units":null,"Proposed Residential Density":null,"Proposed Total Affordable Units":null,"Existing Total Bedrooms":0,"Proposed Total Bedrooms":0,"Net non-C3 bedrooms":0,"Proposed C1 Hotel Bedrooms":null,"Proposed Serviced Apartments":null,"Proposed C1 Hall Bedrooms":null,"Proposed C2 Bedrooms":null,"Existing Total Floorspace":5086,"Proposed Total Floorspace":10313,"Net floorspace":5227,"Proposed A1 Floorspace":null,"Proposed A2 Floorspace":null,"Proposed A3 Floorspace":null,"Proposed A4 Floorspace":null,"Proposed A5 Floorspace":null,"Proposed B1A Floorspace":null,"Proposed B1B Floorspace":null,"Proposed B1C Floorspace":null,"Proposed B2 Floorspace":null,"Proposed B8 Floorspace":10313,"Proposed C1 Hotel Non Bedroom Fspce":null,"Proposed C2 Floorspace":null,"Proposed D1 Floorspace":null,"Proposed D2 Floorspace":null,"Proposed SG Floorspace":null,"Existing A1 Floorspace":null,"Existing A2 Floorspace":null,"Existing A3 Floorspace":null,"Existing A4 Floorspace":null,"Existing A5 Floorspace":null,"Existing Total A Class Floor Space":0,"Existing B1 Floorspace":5086,"Existing B1A Floorspace":5086,"Existing B1B Floorspace":null,"Existing B1C Floorspace":null,"Existing B2 Floorspace":null,"Existing B8 Floorspace":null,"Existing C2 Floorspace":null,"Existing D1 Floorspace":null,"Existing D2 Floorspace":null,"Existing SG Floorspace":null,"Proposed plot ratio (all non-residential)* ":2.29178,"in_cw":false,"whole_in_zone":true},"geometry":{"type":"Point","coordinates":[-0.018292,51.496833]}},
{"type":"Feature","properties":{"Planning Authority":"Tower Hamlets","Inner / Outer":"Inner","Borough Reference":"PA/12/02055","Permission ID":136011,"Current permission status":"Started","Permission Financial Year":"FY2013","Easting":537666,"Northing":179244,"Completed Date":null,"Completed Financial Year":null,"Maximum building height (storeys)":null,"Non Residential Exists (Yes/No)":"Yes","Residential Unit Exists (Yes/No)":"No","Open Space Exists (Yes/No)":"No","Proposed Non Residential (Yes/No)":"Yes","Proposed Residential Units (Yes/No)":"No","Proposed Open Space (Yes/No)":"No","Residential Site Area (Proposed)":0,"Non Res Site Area (Proposed)":0.5,"Total Open Space (Existing)":0,"Greenfield Land":0,"Total Open Space (Proposed)":0,"Total Site Area (Proposed)":0.5,"Existing Total Residential Units":null,"Proposed Total Residential Units":null,"Net residential units":null,"Proposed Residential Density":null,"Proposed Total Affordable Units":null,"Existing Total Bedrooms":0,"Proposed Total Bedrooms":0,"Net non-C3 bedrooms":0,"Proposed C1 Hotel Bedrooms":null,"Proposed Serviced Apartments":null,"Proposed C1 Hall Bedrooms":null,"Proposed C2 Bedrooms":null,"Existing Total Floorspace":3150,"Proposed Total Floorspace":8000,"Net floorspace":4850,"Proposed A1 Floorspace":null,"Proposed A2 Floorspace":null,"Proposed A3 Floorspace":null,"Proposed A4 Floorspace":null,"Proposed A5 Floorspace":null,"Proposed B1A Floorspace":null,"Proposed B1B Floorspace":null,"Proposed B1C Floorspace":null,"Proposed B2 Floorspace":null,"Proposed B8 Floorspace":8000,"Proposed C1 Hotel Non Bedroom Fspce":null,"Proposed C2 Floorspace":null,"Proposed D1 Floorspace":null,"Proposed D2 Floorspace":null,"Proposed SG Floorspace":null,"Existing A1 Floorspace":null,"Existing A2 Floorspace":null,"Existing A3 Floorspace":null,"Existing A4 Floorspace":null,"Existing A5 Floorspace":null,"Existing Total A Class Floor Space":0,"Existing B1 Floorspace":3150,"Existing B1A Floorspace":3150,"Existing B1B Floorspace":null,"Existing B1C Floorspace":null,"Existing B2 Floorspace":null,"Existing B8 Floorspace":null,"Existing C2 Floorspace":null,"Existing D1 Floorspace":null,"Existing D2 Floorspace":null,"Existing SG Floorspace":null,"Proposed plot ratio (all non-residential)* ":1.6,"in_cw":false,"whole_in_zone":true},"geometry":{"type":"Point","coordinates":[-0.01824,51.495384]}},
{"type":"Feature","properties":{"Planning Authority":"Tower Hamlets","Inner / Outer":"Inner","Borough Reference":"PA/13/01861","Permission ID":158676,"Current permission status":"Completed","Permission Financial Year":"FY2013","Easting":538639,"Northing":180593,"Completed Date":"2016-10-14","Completed Financial Year":"FY2016","Maximum building height (storeys)":null,"Non Residential Exists (Yes/No)":"Yes","Residential Unit Exists (Yes/No)":"No","Open Space Exists (Yes/No)":"No","Proposed Non Residential (Yes/No)":"Yes","Proposed Residential Units (Yes/No)":"No","Proposed Open Space (Yes/No)":"No","Residential Site Area (Proposed)":0,"Non Res Site Area (Proposed)":0.516,"Total Open Space (Existing)":0,"Greenfield Land":0,"Total Open Space (Proposed)":0,"Total Site Area (Proposed)":0.516,"Existing Total Residential Units":null,"Proposed Total Residential Units":null,"Net residential units":null,"Proposed Residential Density":null,"Proposed Total Affordable Units":null,"Existing Total Bedrooms":0,"Proposed Total Bedrooms":0,"Net non-C3 bedrooms":0,"Proposed C1 Hotel Bedrooms":null,"Proposed Serviced Apartments":null,"Proposed C1 Hall Bedrooms":null,"Proposed C2 Bedrooms":null,"Existing Total Floorspace":0,"Proposed Total Floorspace":5167,"Net floorspace":5167,"Proposed A1 Floorspace":null,"Proposed A2 Floorspace":null,"Proposed A3 Floorspace":null,"Proposed A4 Floorspace":null,"Proposed A5 Floorspace":null,"Proposed B1A Floorspace":null,"Proposed B1B Floorspace":null,"Proposed B1C Floorspace":null,"Proposed B2 Floorspace":null,"Proposed B8 Floorspace":5167,"Proposed C1 Hotel Non Bedroom Fspce":null,"Proposed C2 Floorspace":null,"Proposed D1 Floorspace":null,"Proposed D2 Floorspace":null,"Proposed SG Floorspace":null,"Existing A1 Floorspace":null,"Existing A2 Floorspace":null,"Existing A3 Floorspace":null,"Existing A4 Floorspace":null,"Existing A5 Floorspace":null,"Existing Total A Class Floor Space":0,"Existing B1 Floorspace":null,"Existing B1A Floorspace":null,"Existing B1B Floorspace":null,"Existing B1C Floorspace":null,"Existing B2 Floorspace":null,"Existing B8 Floorspace":null,"Existing C2 Floorspace":null,"Existing D1 Floorspace":null,"Existing D2 Floorspace":null,"Existing SG Floorspace":null,"Proposed plot ratio (all non-residential)* ":1.00136,"in_cw":false,"whole_in_zone":true},"geometry":{"type":"Point","coordinates":[-0.003702,51.507269]}},
{"type":"Feature","properties":{"Planning Authority":"Tower Hamlets","Inner / Outer":"Inner","Borough Reference":"PA/10/01864","Permission ID":133202,"Current permission status":"Superseded","Permission Financial Year":"FY2011","Easting":539333,"Northing":181241,"Completed Date":null,"Completed Financial Year":null,"Maximum building height (storeys)":26,"Non Residential Exists (Yes/No)":"Yes","Residential Unit Exists (Yes/No)":"No","Open Space Exists (Yes/No)":"No","Proposed Non Residential (Yes/No)":"Yes","Proposed Residential Units (Yes/No)":"Yes","Proposed Open Space (Yes/No)":"Yes","Residential Site Area (Proposed)":2.7,"Non Res Site Area (Proposed)":0.409,"Total Open Space (Existing)":0,"Greenfield Land":0,"Total Open Space (Proposed)":2.78,"Total Site Area (Proposed)":5.889,"Existing Total Residential Units":null,"Proposed Total Residential Units":1706,"Net residential units":1706,"Proposed Residential Density":631.852,"Proposed Total Affordable Units":253,"Existing Total Bedrooms":0,"Proposed Total Bedrooms":0,"Net non-C3 bedrooms":0,"Proposed C1 Hotel Bedrooms":null,"Proposed Serviced Apartments":null,"Proposed C1 Hall Bedrooms":null,"Proposed C2 Bedrooms":null,"Existing Total Floorspace":62700,"Proposed Total Floorspace":21916,"Net floorspace":-40784,"Proposed A1 Floorspace":370,"Proposed A2 Floorspace":370,"Proposed A3 Floorspace":370,"Proposed A4 Floorspace":370,"Proposed A5 Floorspace":372,"Proposed B1A Floorspace":2616,"Proposed B1B Floorspace":2616,"Proposed B1C Floorspace":2616,"Proposed B2 Floorspace":null,"Proposed B8 Floorspace":null,"Proposed C1 Hotel Non Bedroom Fspce":null,"Proposed C2 Floorspace":null,"Proposed D1 Floorspace":8145,"Proposed D2 Floorspace":1801,"Proposed SG Floorspace":2270,"Existing A1 Floorspace":null,"Existing A2 Floorspace":null,"Existing A3 Floorspace":null,"Existing A4 Floorspace":null,"Existing A5 Floorspace":null,"Existing Total A Class Floor Space":0,"Existing B1 Floorspace":null,"Existing B1A Floorspace":null,"Existing B1B Floorspace":null,"Existing B1C Floorspace":null,"Existing B2 Floorspace":62700,"Existing B8 Floorspace":null,"Existing C2 Floorspace":null,"Existing D1 Floorspace":null,"Existing D2 Floorspace":null,"Existing SG Floorspace":null,"Proposed plot ratio (all non-residential)* ":5.35844,"in_cw":false,"whole_in_zone":true},"geometry":{"type":"Point","coordinates":[0.006547,51.512922]}},
{"type":"Feature","properties":{"Planning Authority":"Tower Hamlets","Inner / Outer":"Inner","Borough Reference":"PA/12/02494","Permission ID":157308,"Current permission status":"Started","Permission Financial Year":"FY2013","Easting":537646,"Northing":181945,"Completed Date":null,"Completed Financial Year":null,"Maximum building height (storeys)":9,"Non Residential Exists (Yes/No)":"Yes","Residential Unit Exists (Yes/No)":"No","Open Space Exists (Yes/No)":"No","Proposed Non Residential (Yes/No)":"Yes","Proposed Residential Units (Yes/No)":"Yes","Proposed Open Space (Yes/No)":"No","Residential Site Area (Proposed)":0.147,"Non Res Site Area (Proposed)":0.03,"Total Open Space (Existing)":0,"Greenfield Land":0,"Total Open Space (Proposed)":0,"Total Site Area (Proposed)":0.177,"Existing Total Residential Units":null,"Proposed Total Residential Units":73,"Net residential units":73,"Proposed Residential Density":496.599,"Proposed Total Affordable Units":23,"Existing Total Bedrooms":0,"Proposed Total Bedrooms":0,"Net non-C3 bedrooms":0,"Proposed C1 Hotel Bedrooms":null,"Proposed Serviced Apartments":null,"Proposed C1 Hall Bedrooms":null,"Proposed C2 Bedrooms":null,"Existing Total Floorspace":2190,"Proposed Total Floorspace":1400,"Net floorspace":-790,"Proposed A1 Floorspace":100,"Proposed A2 Floorspace":null,"Proposed A3 Floorspace":null,"Proposed A4 Floorspace":null,"Proposed A5 Floorspace":null,"Proposed B1A Floorspace":null,"Proposed B1B Floorspace":null,"Proposed B1C Floorspace":1300,"Proposed B2 Floorspace":null,"Proposed B8 Floorspace":null,"Proposed C1 Hotel Non Bedroom Fspce":null,"Proposed C2 Floorspace":null,"Proposed D1 Floorspace":null,"Proposed D2 Floorspace":null,"Proposed SG Floorspace":null,"Existing A1 Floorspace":null,"Existing A2 Floorspace":null,"Existing A3 Floorspace":null,"Existing A4 Floorspace":null,"Existing A5 Floorspace":null,"Existing Total A Class Floor Space":0,"Existing B1 Floorspace":2190,"Existing B1A Floorspace":null,"Existing B1B Floorspace":null,"Existing B1C Floorspace":2190,"Existing B2 Floorspace":null,"Existing B8 Floorspace":null,"Existing C2 Floorspace":null,"Existing D1 Floorspace":null,"Existing D2 Floorspace":null,"Existing SG Floorspace":null,"Proposed plot ratio (all non-residential)* ":4.66667,"in_cw":false,"whole_in_zone":true},"geometry":{"type":"Point","coordinates":[-0.017473,51.519661]}},
{"type":"Feature","properties":{"Planning Authority":"Tower Hamlets","Inner / Outer":"Inner","Borough Reference":"PA/12/02294","Permission ID":140790,"Current permission status":"Lapsed","Permission Financial Year":"FY2013","Easting":533810,"Northing":182029,"Completed Date":null,"Completed Financial Year":null,"Maximum building height (storeys)":null,"Non Residential Exists (Yes/No)":"Yes","Residential Unit Exists (Yes/No)":"No","Open Space Exists (Yes/No)":"No","Proposed Non Residential (Yes/No)":"Yes","Proposed Residential Units (Yes/No)":"No","Proposed Open Space (Yes/No)":"No","Residential Site Area (Proposed)":0,"Non Res Site Area (Proposed)":0.11,"Total Open Space (Existing)":0,"Greenfield Land":0,"Total Open Space (Proposed)":0,"Total Site Area (Proposed)":0.11,"Existing Total Residential Units":null,"Proposed Total Residential Units":null,"Net residential units":null,"Proposed Residential Density":null,"Proposed Total Affordable Units":null,"Existing Total Bedrooms":0,"Proposed Total Bedrooms":0,"Net non-C3 bedrooms":0,"Proposed C1 Hotel Bedrooms":null,"Proposed Serviced Apartments":null,"Proposed C1 Hall Bedrooms":null,"Proposed C2 Bedrooms":null,"Existing Total Floorspace":3490,"Proposed Total Floorspace":4920,"Net floorspace":1430,"Proposed A1 Floorspace":null,"Proposed A2 Floorspace":null,"Proposed A3 Floorspace":null,"Proposed A4 Floorspace":250,"Proposed A5 Floorspace":null,"Proposed B1A Floorspace":2194,"Proposed B1B Floorspace":null,"Proposed B1C Floorspace":null,"Proposed B2 Floorspace":null,"Proposed B8 Floorspace":2476,"Proposed C1 Hotel Non Bedroom Fspce":null,"Proposed C2 Floorspace":null,"Proposed D1 Floorspace":null,"Proposed D2 Floorspace":null,"Proposed SG Floorspace":null,"Existing A1 Floorspace":null,"Existing A2 Floorspace":null,"Existing A3 Floorspace":null,"Existing A4 Floorspace":250,"Existing A5 Floorspace":null,"Existing Total A Class Floor Space":250,"Existing B1 Floorspace":null,"Existing B1A Floorspace":null,"Existing B1B Floorspace":null,"Existing B1C Floorspace":null,"Existing B2 Floorspace":3142,"Existing B8 Floorspace":null,"Existing C2 Floorspace":null,"Existing D1 Floorspace":98,"Existing D2 Floorspace":null,"Existing SG Floorspace":null,"Proposed plot ratio (all non-residential)* ":4.47273,"in_cw":false,"whole_in_zone":true},"geometry":{"type":"Point","coordinates":[-0.072697,51.521337]}},
{"type":"Feature","properties":{"Planning Authority":"Tower Hamlets","Inner / Outer":"Inner","Borough Reference":"PA/14/00074","Permission ID":282832,"Current permission status":"Not started","Permission Financial Year":"FY2014","Easting":538851,"Northing":181126,"Completed Date":null,"Completed Financial Year":null,"Maximum building height (storeys)":12,"Non Residential Exists (Yes/No)":"Yes","Residential Unit Exists (Yes/No)":"No","Open Space Exists (Yes/No)":"No","Proposed Non Residential (Yes/No)":"Yes","Proposed Residential Units (Yes/No)":"No","Proposed Open Space (Yes/No)":"No","Residential Site Area (Proposed)":0,"Non Res Site Area (Proposed)":0.94,"Total Open Space (Existing)":0,"Greenfield Land":0,"Total Open Space (Proposed)":0,"Total Site Area (Proposed)":0.94,"Existing Total Residential Units":null,"Proposed Total Residential Units":null,"Net residential units":null,"Proposed Residential Density":null,"Proposed Total Affordable Units":null,"Existing Total Bedrooms":0,"Proposed Total Bedrooms":0,"Net non-C3 bedrooms":0,"Proposed C1 Hotel Bedrooms":null,"Proposed Serviced Apartments":null,"Proposed C1 Hall Bedrooms":null,"Proposed C2 Bedrooms":null,"Existing Total Floorspace":0,"Proposed Total Floorspace":37653,"Net floorspace":37653,"Proposed A1 Floorspace":null,"Proposed A2 Floorspace":null,"Proposed A3 Floorspace":null,"Proposed A4 Floorspace":null,"Proposed A5 Floorspace":null,"Proposed B1A Floorspace":13283,"Proposed B1B Floorspace":null,"Proposed B1C Floorspace":null,"Proposed B2 Floorspace":null,"Proposed B8 Floorspace":24370,"Proposed C1 Hotel Non Bedroom Fspce":null,"Proposed C2 Floorspace":null,"Proposed D1 Floorspace":null,"Proposed D2 Floorspace":null,"Proposed SG Floorspace":null,"Existing A1 Floorspace":null,"Existing A2 Floorspace":null,"Existing A3 Floorspace":null,"Existing A4 Floorspace":null,"Existing A5 Floorspace":null,"Existing Total A Class Floor Space":0,"Existing B1 Floorspace":null,"Existing B1A Floorspace":null,"Existing B1B Floorspace":null,"Existing B1C Floorspace":null,"Existing B2 Floorspace":null,"Existing B8 Floorspace":null,"Existing C2 Floorspace":null,"Existing D1 Floorspace":null,"Existing D2 Floorspace":null,"Existing SG Floorspace":0,"Proposed plot ratio (all non-residential)* ":4.00564,"in_cw":false,"whole_in_zone":true},"geometry":{"type":"Point","coordinates":[-0.000439,51.512007]}},
{"type":"Feature","properties":{"Planning Authority":"Tower Hamlets","Inner / Outer":"Inner","Borough Reference":"PA/12/00090","Permission ID":140788,"Current permission status":"Lapsed","Permission Financial Year":"FY2013","Easting":533971,"Northing":182061,"Completed Date":null,"Completed Financial Year":null,"Maximum building height (storeys)":null,"Non Residential Exists (Yes/No)":"Yes","Residential Unit Exists (Yes/No)":"No","Open Space Exists (Yes/No)":"No","Proposed Non Residential (Yes/No)":"Yes","Proposed Residential Units (Yes/No)":"No","Proposed Open Space (Yes/No)":"No","Residential Site Area (Proposed)":0,"Non Res Site Area (Proposed)":0.36,"Total Open Space (Existing)":0,"Greenfield Land":0,"Total Open Space (Proposed)":0,"Total Site Area (Proposed)":0.36,"Existing Total Residential Units":null,"Proposed Total Residential Units":null,"Net residential units":null,"Proposed Residential Density":null,"Proposed Total Affordable Units":null,"Existing Total Bedrooms":0,"Proposed Total Bedrooms":0,"Net non-C3 bedrooms":0,"Proposed C1 Hotel Bedrooms":null,"Proposed Serviced Apartments":null,"Proposed C1 Hall Bedrooms":null,"Proposed C2 Bedrooms":null,"Existing Total Floorspace":800,"Proposed Total Floorspace":10410,"Net floorspace":9610,"Proposed A1 Floorspace":null,"Proposed A2 Floorspace":null,"Proposed A3 Floorspace":null,"Proposed A4 Floorspace":null,"Proposed A5 Floorspace":null,"Proposed B1A Floorspace":null,"Proposed B1B Floorspace":null,"Proposed B1C Floorspace":null,"Proposed B2 Floorspace":null,"Proposed B8 Floorspace":10175,"Proposed C1 Hotel Non Bedroom Fspce":null,"Proposed C2 Floorspace":null,"Proposed D1 Floorspace":235,"Proposed D2 Floorspace":null,"Proposed SG Floorspace":null,"Existing A1 Floorspace":null,"Existing A2 Floorspace":null,"Existing A3 Floorspace":null,"Existing A4 Floorspace":null,"Existing A5 Floorspace":null,"Existing Total A Class Floor Space":0,"Existing B1 Floorspace":null,"Existing B1A Floorspace":null,"Existing B1B Floorspace":null,"Existing B1C Floorspace":null,"Existing B2 Floorspace":null,"Existing B8 Floorspace":800,"Existing C2 Floorspace":null,"Existing D1 Floorspace":null,"Existing D2 Floorspace":null,"Existing SG Floorspace":null,"Proposed plot ratio (all non-residential)* ":2.89167,"in_cw":false,"whole_in_zone":true},"geometry":{"type":"Point","coordinates":[-0.070365,51.521587]}}
]}
