{"type":"FeatureCollection","meta":{
 "source": "City of London INSPIRE map service: Thames Policy Area",
 "borough": "City of London",
 "page": "https://www.mapping.cityoflondon.gov.uk/arcgis/rest/services/INSPIRE/MapServer/128",
 "api": "https://www.mapping.cityoflondon.gov.uk/arcgis/rest/services/INSPIRE/MapServer/128/query?where=1=1&geometry=<zone box>&geometryType=esriGeometryEnvelope&inSR=4326&spatialRel=esriSpatialRelIntersects&outFields=*&outSR=4326&f=geojson&resultOffset=<n>",
 "fetched": "2026-10-04",
 "licence": "Open Government Licence v3.0",
 "licence_evidence": "the City's INSPIRE record on data.gov.uk (thames-policy-area7): [\"http://www.nationalarchives.gov.uk/doc/open-government-licence/version/3/\"] | [\"https://inspire.ec.europa.eu/metadata-codelist/LimitationsOnPublicAccess\", \"License\"]",
 "licence_url": "https://www.nationalarchives.gov.uk/doc/open-government-licence/version/3/",
 "attribution": "Contains public sector information licensed under the Open Government Licence v3.0 (City of London Corporation)",
 "zone": "the 3D model box, BNG E 532400-539900, N 176700-182300 (WGS84 -0.095, 51.474 to 0.015, 51.522)",
 "method": "walk-portals.mjs boroughs harvest city-thames-policy-area: features that meet the zone box, WGS84 rounded to 6 decimals, whole geometries; whole_in_zone, in_cw; empty fields and ArcGIS shape measures left out; fields matching /e-?mail|phone|tel(ephone)?$|^tel|contact|^fax|mobile|^owner_?name|person|officer|case_?officer|agent_?name|applicant/i dropped",
 "counts": {
  "features": 6,
  "zone_count_at_walk": 6,
  "in_cw": 0
 },
 "fields_dropped": []
},
"features":[
{"type":"Feature","geometry":{"type":"Polygon","coordinates":[[[-0.078458,51.509573],[-0.078419,51.509622],[-0.078354,51.509704],[-0.078289,51.509776],[-0.078235,51.509829],[-0.078152,51.509901],[-0.078069,51.509967],[-0.077991,51.51002],[-0.077943,51.510049],[-0.077882,51.510084],[-0.077833,51.510104],[-0.07777,51.510124],[-0.077725,51.510136],[-0.077663,51.510149],[-0.077661,51.510149],[-0.077614,51.510155],[-0.077553,51.510158],[-0.077448,51.51017],[-0.076928,51.510208],[-0.076913,51.510231],[-0.076903,51.510255],[-0.076885,51.510289],[-0.076878,51.510325],[-0.076893,51.510479],[-0.076817,51.51049],[-0.076816,51.51049],[-0.076238,51.510559],[-0.076215,51.510483],[-0.076171,51.510487],[-0.076163,51.510455],[-0.076143,51.510364],[-0.076137,51.510365],[-0.076082,51.510102],[-0.075879,51.510119],[-0.075793,51.510122],[-0.075788,51.510097],[-0.075781,51.510012],[-0.075779,51.509979],[-0.075774,51.509932],[-0.075754,51.509872],[-0.075729,51.509875],[-0.075655,51.509825],[-0.075661,51.509796],[-0.075544,51.509735],[-0.075495,51.509764],[-0.075436,51.509794],[-0.075329,51.509835],[-0.075075,51.50991],[-0.074836,51.509992],[-0.074485,51.50994],[-0.074482,51.509939],[-0.074472,51.509936],[-0.074458,51.509932],[-0.074436,51.50993],[-0.074411,51.509932],[-0.074374,51.509943],[-0.074333,51.509959],[-0.074293,51.509983],[-0.074237,51.510007],[-0.074162,51.510032],[-0.074082,51.510053],[-0.0739,51.510088],[-0.073805,51.510099],[-0.073668,51.510108],[-0.073558,51.510107],[-0.073335,51.510102],[-0.073253,51.510099],[-0.073133,51.510094],[-0.073109,51.510094],[-0.073084,51.510093],[-0.07306,51.510093],[-0.073019,51.510098],[-0.072996,51.510104],[-0.072975,51.510111],[-0.072946,51.510126],[-0.072883,51.510183],[-0.072823,51.510256],[-0.072802,51.510287],[-0.072779,51.510335],[-0.072768,51.510369],[-0.072762,51.510412],[-0.072771,51.510665],[-0.072826,51.510661],[-0.072831,51.51066],[-0.072852,51.510659],[-0.072873,51.510657],[-0.072894,51.510656],[-0.072941,51.510655],[-0.072977,51.510654],[-0.073222,51.510654],[-0.073646,51.510652],[-0.074061,51.510651],[-0.074498,51.510649],[-0.074925,51.510702],[-0.074923,51.510712],[-0.074964,51.510714],[-0.07497,51.510724],[-0.075013,51.51073],[-0.075049,51.510735],[-0.075131,51.510747],[-0.075188,51.510756],[-0.075211,51.510759],[-0.075228,51.510762],[-0.07529,51.510773],[-0.075369,51.510787],[-0.075421,51.510797],[-0.075474,51.510807],[-0.075588,51.51083],[-0.075594,51.510831],[-0.075606,51.510833],[-0.075695,51.510851],[-0.075742,51.51086],[-0.075823,51.510877],[-0.076045,51.510921],[-0.076409,51.510992],[-0.076791,51.511065],[-0.077139,51.511131],[-0.077617,51.511224],[-0.078048,51.511303],[-0.0782,51.51127],[-0.078366,51.511236],[-0.078535,51.511206],[-0.079063,51.511113],[-0.079139,51.511099],[-0.079279,51.511075],[-0.079394,51.511056],[-0.080204,51.510978],[-0.080241,51.510861],[-0.08034,51.510602],[-0.080397,51.510434],[-0.080486,51.510124],[-0.080551,51.509873],[-0.080553,51.509868],[-0.080561,51.509846],[-0.080573,51.509824],[-0.080586,51.509804],[-0.080602,51.509783],[-0.08062,51.509763],[-0.080639,51.509745],[-0.080663,51.509727],[-0.080676,51.509717],[-0.080334,51.5096],[-0.080261,51.50954],[-0.080261,51.50954],[-0.080259,51.50954],[-0.080053,51.509606],[-0.079954,51.509625],[-0.079859,51.509637],[-0.079694,51.509646],[-0.079042,51.509628],[-0.078802,51.509616],[-0.078668,51.509604],[-0.078458,51.509573]]]},"properties":{"OBJECTID":1,"NAME":"Thames Policy Area","COMPONENT":"Mark Lane to Mansell Street","whole_in_zone":true,"in_cw":false}},
{"type":"Feature","geometry":{"type":"MultiPolygon","coordinates":[[[[-0.104126,51.509598],[-0.104101,51.509606],[-0.104071,51.509621],[-0.104097,51.509637],[-0.10414,51.509648],[-0.104195,51.50965],[-0.104191,51.509749],[-0.104187,51.509865],[-0.104409,51.509868],[-0.104647,51.50987],[-0.104651,51.509868],[-0.104647,51.509864],[-0.104649,51.509829],[-0.104653,51.509657],[-0.104666,51.509657],[-0.104682,51.509656],[-0.104698,51.509654],[-0.104711,51.509652],[-0.104724,51.509649],[-0.10474,51.509646],[-0.104753,51.50964],[-0.104763,51.509635],[-0.104773,51.509629],[-0.104767,51.509625],[-0.104761,51.509622],[-0.104751,51.509617],[-0.10474,51.509614],[-0.104726,51.509609],[-0.104713,51.509606],[-0.104698,51.509604],[-0.104685,51.509603],[-0.104669,51.509602],[-0.104656,51.509602],[-0.104658,51.50953],[-0.10467,51.509224],[-0.104673,51.509123],[-0.104679,51.509123],[-0.104694,51.509121],[-0.104705,51.50912],[-0.104721,51.509118],[-0.104737,51.509115],[-0.104748,51.509112],[-0.104761,51.509109],[-0.104772,51.509104],[-0.104782,51.509098],[-0.104773,51.509093],[-0.104769,51.509092],[-0.104765,51.50909],[-0.104755,51.509086],[-0.104744,51.509081],[-0.104734,51.509079],[-0.104724,51.509076],[-0.104709,51.509073],[-0.104693,51.509072],[-0.104684,51.509071],[-0.104675,51.50907],[-0.104679,51.508957],[-0.104681,51.508914],[-0.104682,51.508907],[-0.10469,51.508751],[-0.104696,51.508631],[-0.104723,51.508631],[-0.104725,51.508615],[-0.104743,51.508603],[-0.104744,51.508557],[-0.10472,51.508544],[-0.104722,51.508526],[-0.104703,51.508525],[-0.104703,51.508523],[-0.10471,51.508404],[-0.104493,51.508413],[-0.104231,51.50842],[-0.104226,51.508518],[-0.104226,51.50852],[-0.104206,51.508519],[-0.104205,51.508533],[-0.104184,51.508542],[-0.10418,51.508595],[-0.104201,51.508608],[-0.104202,51.508626],[-0.104229,51.508626],[-0.104218,51.508858],[-0.104216,51.508919],[-0.104215,51.508927],[-0.104212,51.509059],[-0.104193,51.509059],[-0.10415,51.509064],[-0.104119,51.509073],[-0.104107,51.509083],[-0.10411,51.509091],[-0.104119,51.509096],[-0.10416,51.50911],[-0.104187,51.509115],[-0.104211,51.509115],[-0.104204,51.509404],[-0.104197,51.509591],[-0.104161,51.50959],[-0.104126,51.509598]]],[[[-0.087859,51.506893],[-0.087857,51.506899],[-0.087845,51.506934],[-0.087823,51.506998],[-0.08776,51.507176],[-0.087692,51.507368],[-0.087559,51.507742],[-0.087529,51.507828],[-0.087517,51.507864],[-0.087768,51.507886],[-0.087981,51.507906],[-0.088006,51.507836],[-0.088088,51.5076],[-0.088153,51.507412],[-0.088221,51.507217],[-0.088307,51.506968],[-0.088309,51.506964],[-0.088316,51.506942],[-0.088317,51.506938],[-0.088329,51.506908],[-0.088347,51.50686],[-0.088376,51.506865],[-0.088392,51.506816],[-0.088402,51.506791],[-0.088376,51.506787],[-0.088436,51.506632],[-0.088439,51.506624],[-0.088441,51.50662],[-0.088442,51.506618],[-0.088443,51.506618],[-0.088445,51.506612],[-0.088436,51.50661],[-0.088439,51.506602],[-0.088448,51.506603],[-0.088451,51.506595],[-0.087939,51.506526],[-0.087927,51.506561],[-0.087963,51.506566],[-0.087911,51.506722],[-0.087887,51.506719],[-0.087878,51.506746],[-0.087867,51.506745],[-0.087849,51.506807],[-0.087885,51.506812],[-0.087859,51.506893]]]]},"properties":{"OBJECTID":4,"NAME":"Thames Policy Area","COMPONENT":"Thames Bridges and the Southern Bridgeheads","whole_in_zone":false,"in_cw":false}},
{"type":"Feature","geometry":{"type":"Polygon","coordinates":[[[-0.094838,51.511132],[-0.094924,51.511144],[-0.095539,51.511197],[-0.095631,51.511198],[-0.095643,51.511202],[-0.095703,51.511219],[-0.095766,51.511235],[-0.095808,51.511244],[-0.095854,51.51125],[-0.0959,51.511255],[-0.096131,51.511275],[-0.096196,51.511281],[-0.096404,51.511298],[-0.096398,51.511349],[-0.096395,51.511355],[-0.096395,51.511366],[-0.096396,51.511376],[-0.096397,51.51138],[-0.096401,51.51139],[-0.096407,51.5114],[-0.096415,51.511409],[-0.096424,51.511417],[-0.096432,51.511424],[-0.096445,51.511431],[-0.096458,51.511437],[-0.096473,51.511442],[-0.096488,51.511446],[-0.096953,51.511492],[-0.096986,51.511494],[-0.097018,51.511498],[-0.09705,51.511503],[-0.097061,51.511506],[-0.097093,51.511512],[-0.097124,51.51152],[-0.097151,51.511532],[-0.097152,51.511533],[-0.097167,51.511541],[-0.097181,51.511552],[-0.097193,51.511563],[-0.097203,51.511574],[-0.097213,51.511587],[-0.097221,51.511598],[-0.097222,51.5116],[-0.097231,51.511616],[-0.097238,51.511632],[-0.097243,51.511649],[-0.097245,51.511667],[-0.097232,51.511883],[-0.097244,51.511883],[-0.09739,51.511886],[-0.097616,51.511894],[-0.097841,51.511903],[-0.097997,51.511913],[-0.098362,51.511936],[-0.098512,51.509601],[-0.097812,51.509541],[-0.097646,51.509525],[-0.097319,51.509494],[-0.097156,51.509477],[-0.096993,51.509461],[-0.096829,51.509441],[-0.096664,51.509419],[-0.096507,51.509398],[-0.096351,51.509375],[-0.096195,51.509352],[-0.096039,51.509328],[-0.095873,51.5093],[-0.095849,51.509296],[-0.095274,51.510194],[-0.095223,51.510275],[-0.095186,51.510334],[-0.095171,51.510357],[-0.095064,51.510594],[-0.095007,51.510746],[-0.094838,51.511132]]]},"properties":{"OBJECTID":6,"NAME":"Thames Policy Area","COMPONENT":"Millennium Bridge to Queenhithe","whole_in_zone":false,"in_cw":false}},
{"type":"Feature","geometry":{"type":"Polygon","coordinates":[[[-0.0871,51.50973],[-0.087582,51.509794],[-0.087871,51.50983],[-0.088154,51.509878],[-0.088331,51.509911],[-0.088557,51.509945],[-0.088723,51.509988],[-0.088979,51.510062],[-0.089363,51.510174],[-0.089582,51.510233],[-0.089785,51.510293],[-0.090074,51.510361],[-0.090189,51.510384],[-0.090298,51.510408],[-0.091229,51.510567],[-0.091229,51.510568],[-0.091496,51.510613],[-0.09205,51.510717],[-0.092503,51.510798],[-0.092942,51.510882],[-0.09308,51.510904],[-0.093366,51.510949],[-0.093965,51.511025],[-0.094513,51.511089],[-0.094838,51.511132],[-0.095007,51.510746],[-0.095064,51.510594],[-0.095171,51.510357],[-0.095186,51.510334],[-0.095223,51.510275],[-0.095274,51.510194],[-0.095849,51.509296],[-0.095708,51.50927],[-0.095706,51.509269],[-0.095584,51.509243],[-0.09546,51.509216],[-0.095361,51.509195],[-0.095263,51.509174],[-0.09511,51.50914],[-0.094957,51.509105],[-0.0948,51.50907],[-0.094642,51.509035],[-0.094549,51.509014],[-0.094455,51.508993],[-0.09438,51.508976],[-0.094303,51.508959],[-0.094233,51.508943],[-0.094162,51.508928],[-0.094093,51.508912],[-0.094025,51.508895],[-0.093895,51.508859],[-0.093767,51.508822],[-0.093468,51.508739],[-0.093053,51.508621],[-0.092852,51.50857],[-0.092558,51.50849],[-0.092557,51.50849],[-0.092406,51.50845],[-0.092362,51.50844],[-0.092317,51.508429],[-0.092274,51.50842],[-0.09223,51.508409],[-0.092189,51.5084],[-0.092147,51.508389],[-0.092102,51.508383],[-0.091977,51.508368],[-0.091803,51.508345],[-0.091682,51.508331],[-0.091495,51.50831],[-0.09099,51.50825],[-0.090752,51.50822],[-0.090498,51.508188],[-0.09026,51.508161],[-0.090062,51.508138],[-0.08988,51.508118],[-0.089654,51.508093],[-0.089487,51.508074],[-0.089318,51.508056],[-0.089166,51.50804],[-0.089001,51.508022],[-0.088956,51.508017],[-0.088865,51.508008],[-0.088689,51.507988],[-0.088515,51.507969],[-0.088352,51.507949],[-0.088193,51.507929],[-0.088084,51.507919],[-0.087981,51.507906],[-0.087981,51.507906],[-0.087981,51.507906],[-0.087768,51.507886],[-0.087741,51.507963],[-0.087669,51.508163],[-0.087596,51.50837],[-0.087522,51.508573],[-0.087457,51.508751],[-0.087397,51.508916],[-0.087383,51.508953],[-0.087372,51.508985],[-0.087368,51.508994],[-0.087361,51.509013],[-0.087331,51.509094],[-0.087329,51.509108],[-0.087317,51.509135],[-0.08721,51.509428],[-0.08717,51.50954],[-0.087157,51.509576],[-0.087142,51.509618],[-0.087117,51.509685],[-0.0871,51.509728],[-0.0871,51.50973]]]},"properties":{"OBJECTID":7,"NAME":"Thames Policy Area","COMPONENT":"Queenhithe to London Bridge","whole_in_zone":false,"in_cw":false}},
{"type":"Feature","geometry":{"type":"Polygon","coordinates":[[[-0.087517,51.507864],[-0.087432,51.507857],[-0.087261,51.507844],[-0.087092,51.507833],[-0.087013,51.507827],[-0.086922,51.50782],[-0.086898,51.507818],[-0.086887,51.507817],[-0.086658,51.507796],[-0.086382,51.507775],[-0.085928,51.507742],[-0.085741,51.507728],[-0.085456,51.507706],[-0.084972,51.507673],[-0.084684,51.507617],[-0.08459,51.507598],[-0.084528,51.507585],[-0.084485,51.507577],[-0.084294,51.507542],[-0.084112,51.507511],[-0.083997,51.50749],[-0.083894,51.507473],[-0.083866,51.50747],[-0.083859,51.507469],[-0.083856,51.507468],[-0.083789,51.50746],[-0.083695,51.507449],[-0.083624,51.50744],[-0.083557,51.507431],[-0.083429,51.507414],[-0.083246,51.507389],[-0.083152,51.507377],[-0.083016,51.507358],[-0.082929,51.507346],[-0.082815,51.507328],[-0.082723,51.507314],[-0.082662,51.507304],[-0.082568,51.507291],[-0.082508,51.507281],[-0.082382,51.507263],[-0.082168,51.507231],[-0.082049,51.507211],[-0.08135,51.508355],[-0.081118,51.508761],[-0.081307,51.509165],[-0.081326,51.509161],[-0.081377,51.509152],[-0.081428,51.509143],[-0.081514,51.509129],[-0.081571,51.509122],[-0.081628,51.509115],[-0.081686,51.509108],[-0.081743,51.509103],[-0.081815,51.509098],[-0.08187,51.509095],[-0.081924,51.509093],[-0.081978,51.509091],[-0.082033,51.50909],[-0.082111,51.509096],[-0.082258,51.509108],[-0.082367,51.509119],[-0.082433,51.509127],[-0.084898,51.509436],[-0.086264,51.509606],[-0.086332,51.509614],[-0.086342,51.509615],[-0.086826,51.509693],[-0.087098,51.509729],[-0.0871,51.50973],[-0.0871,51.509728],[-0.087117,51.509685],[-0.087142,51.509618],[-0.087157,51.509576],[-0.08717,51.50954],[-0.08721,51.509428],[-0.087317,51.509135],[-0.087329,51.509108],[-0.087331,51.509094],[-0.087361,51.509013],[-0.087368,51.508994],[-0.087372,51.508985],[-0.087383,51.508953],[-0.087397,51.508916],[-0.087457,51.508751],[-0.087522,51.508573],[-0.087596,51.50837],[-0.087669,51.508163],[-0.087741,51.507963],[-0.087768,51.507886],[-0.087517,51.507864]]]},"properties":{"OBJECTID":8,"NAME":"Thames Policy Area","COMPONENT":"London Bridge to Water Lane","whole_in_zone":true,"in_cw":false}},
{"type":"Feature","geometry":{"type":"Polygon","coordinates":[[[-0.078458,51.509573],[-0.078668,51.509604],[-0.078802,51.509616],[-0.079042,51.509628],[-0.079694,51.509646],[-0.079859,51.509637],[-0.079954,51.509625],[-0.080053,51.509606],[-0.080259,51.50954],[-0.080261,51.50954],[-0.080261,51.50954],[-0.080361,51.509495],[-0.080814,51.509304],[-0.080889,51.509278],[-0.080935,51.509262],[-0.080983,51.509246],[-0.081031,51.509232],[-0.081079,51.509218],[-0.081174,51.509194],[-0.081225,51.509182],[-0.081275,51.509171],[-0.081307,51.509165],[-0.081118,51.508761],[-0.08135,51.508355],[-0.082049,51.507211],[-0.081977,51.507199],[-0.081863,51.507183],[-0.081729,51.507163],[-0.08156,51.507139],[-0.08154,51.507136],[-0.081443,51.507119],[-0.081352,51.507101],[-0.081267,51.507085],[-0.081133,51.507061],[-0.080924,51.507022],[-0.080806,51.506997],[-0.080683,51.506973],[-0.080561,51.506951],[-0.080478,51.50693],[-0.080355,51.506906],[-0.080259,51.506884],[-0.080209,51.506871],[-0.079784,51.507582],[-0.079582,51.507699],[-0.079553,51.507715],[-0.07942,51.507792],[-0.079343,51.507907],[-0.079248,51.507891],[-0.079085,51.508253],[-0.079139,51.508264],[-0.079137,51.508267],[-0.079167,51.508277],[-0.079176,51.50828],[-0.079175,51.508294],[-0.079155,51.50832],[-0.079134,51.508347],[-0.079129,51.508354],[-0.079101,51.508346],[-0.079083,51.508371],[-0.07908,51.508376],[-0.079015,51.508461],[-0.078999,51.508482],[-0.07887,51.508652],[-0.078865,51.508659],[-0.078854,51.508673],[-0.078731,51.508833],[-0.078786,51.508856],[-0.078799,51.508875],[-0.078766,51.508869],[-0.078751,51.508883],[-0.078742,51.508894],[-0.078718,51.508932],[-0.078763,51.508948],[-0.079098,51.509063],[-0.079043,51.509121],[-0.079003,51.509107],[-0.078996,51.509109],[-0.078989,51.509111],[-0.078987,51.509112],[-0.078981,51.509116],[-0.078976,51.50912],[-0.07897,51.509124],[-0.078964,51.509132],[-0.07896,51.509139],[-0.078951,51.509162],[-0.078937,51.509195],[-0.078951,51.509196],[-0.078919,51.509272],[-0.078902,51.509315],[-0.078901,51.509316],[-0.078864,51.509404],[-0.078847,51.509445],[-0.078841,51.509459],[-0.078733,51.509449],[-0.078692,51.509443],[-0.078579,51.509423],[-0.078458,51.509573]]]},"properties":{"OBJECTID":9,"NAME":"Thames Policy Area","COMPONENT":"Water Lane to All Hallows by the Tower","whole_in_zone":true,"in_cw":false}}
]}
