{"type":"FeatureCollection","meta":{
 "source": "London Datastore: Archaeological Priority Areas (Historic England)",
 "dataset": "e550x",
 "page": "https://data.london.gov.uk/dataset/archaeological-priority-areas-e550x",
 "resources": [
  {
   "resource": "23bbf75b-68c6-4c0e-961a-486c27055dd2",
   "file": "Newham.zip",
   "url": "https://data.london.gov.uk/download/e550x/23bbf75b-68c6-4c0e-961a-486c27055dd2/Newham.zip",
   "size": 71006636,
   "resource_date": "2017-01-26",
   "fetched": "2026-10-04",
   "entries": 8,
   "cache": "deleted after reading (over 20 MB)"
  }
 ],
 "licence": "Open Government Licence v3",
 "licence_url": "https://www.nationalarchives.gov.uk/doc/open-government-licence/version/3/",
 "attribution": "Contains public sector information licensed under the Open Government Licence v3 (Historic England). The GLA cannot warrant the quality or accuracy of the data (London Datastore terms).",
 "dataset_modified": "2017-07-27",
 "update_frequency": null,
 "geo": "Local Authority",
 "theme": "heritage",
 "layers": [
  {
   "table": "Newham_APAs",
   "srs": 27700
  }
 ],
 "crs_source": "EPSG:27700",
 "crs_output": "EPSG:4326 (WGS84), 6 decimal places; BNG to WGS84 through the OS OSTN15 grid (lib.mjs bngProjector)",
 "method": "lds-harvest-auto.mjs run e550x: resources chosen by the written rules (harvest-log.json meta.rules: formats, dedupe, caps); every feature read (GeoPackage, GeoJSON, shapefile, or table rows with coordinate columns as points, the CRS judged per row by value); a feature is kept when it meets the zone (the 3D model box, BNG E 532400-539900, N 176700-182300): a vertex inside, an edge crossing or the box inside a polygon; whole geometries kept, whole_in_zone and in_cw added; WGS84 6 decimals through OSTN15; contact fields dropped.",
 "counts": {
  "source_features": 33,
  "no_geometry": 0,
  "in_zone": 3,
  "in_cw": 0
 },
 "attributes_in_source": "yes",
 "fields_dropped": [],
 "harvest_rules": "tools/lds-harvest-auto.mjs AUTO_RULES (feeds/london-datastore/harvest-log.json meta.rules)",
 "selection_notes": [
  "hand rule: one zip per borough; Newham is the only zone borough in the dataset"
 ]
},
"features":[
{"type":"Feature","properties":{"OBJECTID":2617,"DesigUID":"DLO35894","PrefRef":"DLO35894","Name":"Royal Docks","Grade":"Tier III","Descriptio":"Summary and Definition\r\n\r\n\tThe Royal Docks Archaeological Priority Area is defined by the natural to","xgCreated":"2013:05:30:14:58:20 pbooth","xgEdited":"2016:11:28:16:13:38 pbooth","xgLockedBy":null,"SHAPE_Leng":15054.636278,"SHAPE_Area":6205427.38666,"in_cw":false,"whole_in_zone":false},"geometry":{"type":"Polygon","coordinates":[[[0.036463,51.509366],[0.036804,51.509312],[0.037281,51.509316],[0.037786,51.509319],[0.038245,51.509347],[0.038658,51.509411],[0.039177,51.509503],[0.039398,51.509547],[0.039532,51.509562],[0.039703,51.509541],[0.039834,51.509497],[0.039937,51.509448],[0.040052,51.50947],[0.040168,51.509497],[0.040254,51.509508],[0.04033,51.509507],[0.040397,51.509494],[0.0405,51.509468],[0.040612,51.509406],[0.040877,51.509366],[0.041428,51.509333],[0.042094,51.509303],[0.042666,51.509287],[0.043873,51.509213],[0.044891,51.509171],[0.045891,51.509142],[0.04629,51.509129],[0.046557,51.509124],[0.046757,51.509121],[0.04692,51.509136],[0.047044,51.509152],[0.047132,51.509186],[0.047209,51.50922],[0.047277,51.509243],[0.047344,51.509247],[0.047421,51.509252],[0.047477,51.509245],[0.047525,51.509238],[0.047572,51.50922],[0.047647,51.509195],[0.047712,51.509164],[0.047882,51.509125],[0.048137,51.509073],[0.048803,51.509049],[0.04986,51.509019],[0.051097,51.50898],[0.052859,51.508931],[0.053772,51.508891],[0.054315,51.508882],[0.054505,51.508878],[0.054601,51.508895],[0.05466,51.508923],[0.054699,51.508934],[0.054747,51.508957],[0.054824,51.508974],[0.054882,51.508997],[0.054959,51.509001],[0.054988,51.509001],[0.055035,51.509006],[0.055092,51.508993],[0.055158,51.50898],[0.055205,51.508961],[0.055233,51.508949],[0.055289,51.50893],[0.055421,51.508892],[0.055601,51.508865],[0.055819,51.508838],[0.056971,51.508805],[0.057323,51.508787],[0.058618,51.508753],[0.060017,51.508704],[0.06153,51.508654],[0.062223,51.508639],[0.062197,51.508262],[0.062935,51.50824],[0.06292,51.507907],[0.062924,51.507641],[0.06264,51.50745],[0.062618,51.506951],[0.063352,51.505487],[0.063761,51.504061],[0.064194,51.502507],[0.064105,51.501895],[0.064932,51.501809],[0.06499,51.501403],[0.065305,51.501455],[0.065324,51.501369],[0.065423,51.501367],[0.065474,51.501147],[0.065554,51.500713],[0.065636,51.50035],[0.065709,51.500096],[0.065448,51.500063],[0.065542,51.499619],[0.065613,51.499322],[0.065663,51.49925],[0.065798,51.499205],[0.065912,51.499203],[0.065996,51.499197],[0.066029,51.499091],[0.066081,51.498886],[0.066556,51.498898],[0.068717,51.499077],[0.068665,51.499278],[0.068733,51.499276],[0.068667,51.499501],[0.068659,51.499658],[0.068682,51.499815],[0.068747,51.499919],[0.06885,51.499993],[0.068974,51.500038],[0.069106,51.500088],[0.069162,51.500149],[0.068894,51.500811],[0.068585,51.500711],[0.068402,51.501381],[0.067674,51.504173],[0.067672,51.504287],[0.066203,51.506888],[0.066174,51.507254],[0.065854,51.50726],[0.065836,51.50736],[0.065667,51.507497],[0.065692,51.507896],[0.065683,51.508201],[0.065695,51.508517],[0.06599,51.508507],[0.066184,51.508495],[0.066621,51.508463],[0.066963,51.508439],[0.067419,51.50839],[0.067779,51.508354],[0.068073,51.508325],[0.068339,51.50829],[0.068642,51.508255],[0.068908,51.508221],[0.069182,51.508186],[0.069297,51.508184],[0.069431,51.508206],[0.06948,51.508228],[0.069607,51.508309],[0.069679,51.508415],[0.069769,51.508515],[0.069849,51.508585],[0.069965,51.50863],[0.070091,51.508676],[0.070197,51.508698],[0.070283,51.508708],[0.070398,51.508718],[0.070474,51.508717],[0.070541,51.508715],[0.070617,51.508702],[0.070721,51.508688],[0.070815,51.508663],[0.070909,51.508626],[0.070993,51.508588],[0.071114,51.508533],[0.071311,51.508452],[0.071528,51.508412],[0.07188,51.508394],[0.072298,51.508375],[0.072833,51.508401],[0.073282,51.508405],[0.073996,51.508387],[0.074644,51.508381],[0.075052,51.508356],[0.075575,51.508323],[0.076232,51.508294],[0.077269,51.508257],[0.077973,51.508233],[0.078287,51.508227],[0.078532,51.50836],[0.08018,51.508331],[0.084258,51.506725],[0.084006,51.506352],[0.083649,51.505786],[0.083146,51.505194],[0.082775,51.504744],[0.082014,51.50385],[0.081453,51.503227],[0.080876,51.502615],[0.079731,51.50159],[0.079191,51.501082],[0.079015,51.500916],[0.078487,51.500508],[0.077861,51.500079],[0.077464,51.499769],[0.077253,51.499635],[0.076853,51.499393],[0.076668,51.499285],[0.076343,51.499108],[0.075675,51.498773],[0.075304,51.498601],[0.074881,51.498418],[0.074481,51.49827],[0.074134,51.498155],[0.073455,51.497919],[0.072982,51.497749],[0.072477,51.497583],[0.071865,51.4974],[0.071339,51.497261],[0.07109,51.497199],[0.070487,51.497066],[0.069416,51.496861],[0.068989,51.496787],[0.067866,51.496647],[0.066396,51.496532],[0.065451,51.496515],[0.064466,51.496528],[0.063951,51.496544],[0.062648,51.496587],[0.061882,51.496542],[0.061252,51.496527],[0.06083,51.496501],[0.060181,51.496477],[0.059413,51.49644],[0.058655,51.496432],[0.058234,51.496458],[0.057418,51.496528],[0.054188,51.496774],[0.053938,51.496791],[0.053383,51.496816],[0.053061,51.496857],[0.052703,51.496884],[0.052479,51.496892],[0.051807,51.496928],[0.051424,51.496933],[0.050697,51.496963],[0.049991,51.496973],[0.049391,51.496992],[0.048952,51.496983],[0.048548,51.496983],[0.048185,51.496976],[0.047803,51.496982],[0.047219,51.496976],[0.046618,51.496984],[0.0457,51.496984],[0.04537,51.496986],[0.044604,51.497009],[0.043464,51.497014],[0.042891,51.497037],[0.041792,51.49704],[0.041221,51.497022],[0.039835,51.496924],[0.039416,51.49688],[0.037834,51.496715],[0.03672,51.496577],[0.035508,51.496408],[0.034488,51.496304],[0.031949,51.496027],[0.030382,51.495886],[0.029591,51.495831],[0.029068,51.495786],[0.028613,51.495762],[0.027876,51.495746],[0.027282,51.495766],[0.026752,51.495777],[0.026158,51.495821],[0.025053,51.495948],[0.023182,51.49632],[0.021929,51.496549],[0.020488,51.496973],[0.019802,51.497192],[0.018918,51.497497],[0.018088,51.49785],[0.016937,51.49844],[0.015558,51.499256],[0.015556,51.499257],[0.015077,51.499718],[0.013797,51.500777],[0.012621,51.501657],[0.012619,51.501657],[0.012446,51.501871],[0.011248,51.50291],[0.010587,51.503539],[0.009951,51.504079],[0.009166,51.504652],[0.00885,51.504865],[0.008607,51.505014],[0.008224,51.505232],[0.007625,51.505511],[0.00832,51.506123],[0.00879,51.506519],[0.009272,51.506959],[0.00937,51.507086],[0.009373,51.507092],[0.009618,51.507007],[0.009675,51.507228],[0.009759,51.507381],[0.009842,51.507515],[0.009912,51.507679],[0.01006,51.507879],[0.010162,51.50809],[0.010343,51.508329],[0.010427,51.508473],[0.010494,51.508588],[0.010855,51.509395],[0.01119,51.509296],[0.011961,51.509057],[0.012422,51.508924],[0.013288,51.508671],[0.013661,51.508776],[0.014195,51.508924],[0.014235,51.509173],[0.014738,51.509128],[0.015091,51.509122],[0.015425,51.509134],[0.015884,51.509174],[0.016574,51.509263],[0.01716,51.50936],[0.017774,51.509445],[0.018445,51.509529],[0.019029,51.50959],[0.01968,51.50965],[0.020406,51.509691],[0.021295,51.509747],[0.022012,51.509788],[0.022948,51.509838],[0.023627,51.509868],[0.02441,51.509902],[0.025135,51.509919],[0.02586,51.50993],[0.026633,51.509946],[0.02752,51.509967],[0.028645,51.509971],[0.029704,51.509982],[0.030752,51.509982],[0.03161,51.509973],[0.031943,51.509967],[0.032353,51.509966],[0.032771,51.509941],[0.03318,51.509916],[0.033692,51.50986],[0.033996,51.509825],[0.034601,51.509719],[0.0353,51.50957],[0.035971,51.509446],[0.036463,51.509366]],[[0.026827,51.502251],[0.02706,51.502241],[0.027117,51.503111],[0.027184,51.504065],[0.026774,51.504075],[0.02665,51.504068],[0.026451,51.503774],[0.025991,51.503169],[0.025505,51.502532],[0.025438,51.502429],[0.026656,51.502266],[0.026827,51.502251]]]}},
{"type":"Feature","properties":{"OBJECTID":2618,"DesigUID":"DLO36013","PrefRef":"DLO36013","Name":"Thames Ironworks","Grade":"Tier II","Descriptio":"Summary and Definition\r\n\r\n\tThe Thames Ironworks Archaeological Priority Area covers an area on the L","xgCreated":"2013:08:21:16:58:18 pbooth","xgEdited":"2016:11:28:16:16:45 pbooth","xgLockedBy":null,"SHAPE_Leng":2595.0322383,"SHAPE_Area":185201.786116,"in_cw":false,"whole_in_zone":true},"geometry":{"type":"Polygon","coordinates":[[[0.012859,51.509721],[0.013222,51.509296],[0.013661,51.508776],[0.013288,51.508671],[0.012422,51.508924],[0.011961,51.509057],[0.01119,51.509296],[0.010855,51.509395],[0.010494,51.508588],[0.010427,51.508473],[0.010343,51.508329],[0.010162,51.50809],[0.01006,51.507879],[0.009912,51.507679],[0.009842,51.507515],[0.009759,51.507381],[0.009675,51.507228],[0.009618,51.507007],[0.009373,51.507092],[0.00968,51.507668],[0.009791,51.507898],[0.009854,51.507993],[0.009894,51.50808],[0.009924,51.508183],[0.009932,51.508236],[0.009932,51.508418],[0.009923,51.508443],[0.009891,51.508512],[0.009836,51.508599],[0.009781,51.508667],[0.00965,51.508801],[0.009382,51.508988],[0.0093,51.509037],[0.009209,51.509085],[0.00908,51.509143],[0.008873,51.509216],[0.008539,51.509298],[0.008082,51.509382],[0.006913,51.509561],[0.006486,51.50966],[0.006267,51.509723],[0.006168,51.509773],[0.006107,51.50982],[0.006038,51.509925],[0.006017,51.509977],[0.006006,51.510024],[0.006007,51.510065],[0.00602,51.510115],[0.006033,51.510151],[0.006158,51.510357],[0.006512,51.510733],[0.006968,51.511139],[0.00725,51.511428],[0.007479,51.51173],[0.007647,51.512037],[0.007778,51.5125],[0.007802,51.512849],[0.007723,51.51328],[0.007646,51.513492],[0.007445,51.513743],[0.007345,51.513844],[0.007208,51.513955],[0.006946,51.51413],[0.006828,51.514189],[0.006743,51.514221],[0.00664,51.514252],[0.00653,51.514277],[0.006482,51.514284],[0.006481,51.514572],[0.006478,51.515053],[0.006685,51.515094],[0.007541,51.515261],[0.008195,51.515387],[0.008398,51.515128],[0.009449,51.513792],[0.009703,51.513481],[0.010182,51.512902],[0.01064,51.512359],[0.011179,51.511713],[0.011305,51.511556],[0.01184,51.510925],[0.012334,51.510349],[0.012859,51.509721]]]}},
{"type":"Feature","properties":{"OBJECTID":2619,"DesigUID":"DLO35895","PrefRef":"DLO35895","Name":"Canning Town / Newham Way","Grade":"Tier III","Descriptio":"Summary and Definition\r\n\r\n\tThe Canning Town / Newham Way Archaeological Priority Area covers the are","xgCreated":"2013:05:30:15:43:54 pbooth","xgEdited":"2016:11:28:16:28:06 pbooth","xgLockedBy":null,"SHAPE_Leng":16886.8534551,"SHAPE_Area":4651254.11283,"in_cw":false,"whole_in_zone":false},"geometry":{"type":"Polygon","coordinates":[[[0.004401,51.521185],[0.004495,51.520713],[0.004857,51.520707],[0.005294,51.520682],[0.005856,51.52066],[0.006304,51.520659],[0.006733,51.520657],[0.007467,51.52043],[0.008642,51.520047],[0.009084,51.519915],[0.009681,51.519827],[0.00978,51.519707],[0.010332,51.519673],[0.01075,51.519654],[0.011407,51.519631],[0.012217,51.519605],[0.01242,51.519251],[0.012589,51.51898],[0.012761,51.518763],[0.013305,51.518332],[0.013432,51.518204],[0.013511,51.518031],[0.013968,51.517821],[0.014549,51.517573],[0.014981,51.517422],[0.01551,51.517312],[0.016023,51.517274],[0.016642,51.517269],[0.017282,51.517282],[0.0195,51.517226],[0.020473,51.517239],[0.021142,51.517263],[0.022592,51.517291],[0.023967,51.517327],[0.024843,51.517312],[0.024962,51.517306],[0.024979,51.517157],[0.02498,51.517062],[0.024967,51.516985],[0.024958,51.516895],[0.024936,51.516726],[0.024937,51.516631],[0.024948,51.516571],[0.024964,51.516485],[0.024988,51.516386],[0.025015,51.516249],[0.025054,51.516147],[0.025149,51.515827],[0.025304,51.515881],[0.025454,51.515938],[0.025634,51.516009],[0.025861,51.516089],[0.025914,51.5161],[0.026039,51.516118],[0.026173,51.516128],[0.026268,51.516132],[0.026402,51.516136],[0.026516,51.516131],[0.026706,51.516119],[0.026873,51.516116],[0.027111,51.5161],[0.027377,51.516089],[0.027482,51.51609],[0.027587,51.516098],[0.027731,51.516119],[0.028019,51.516152],[0.028168,51.516177],[0.028277,51.516181],[0.028397,51.516182],[0.028558,51.516173],[0.028692,51.516177],[0.028854,51.516177],[0.029036,51.516185],[0.029212,51.516191],[0.029422,51.516194],[0.029713,51.516192],[0.029918,51.516188],[0.03016,51.516178],[0.030384,51.516165],[0.030597,51.516146],[0.03083,51.516125],[0.031101,51.516102],[0.031305,51.51609],[0.031661,51.51606],[0.031951,51.516046],[0.031996,51.5162],[0.032035,51.516309],[0.032068,51.516409],[0.032064,51.516439],[0.032078,51.516543],[0.032101,51.516837],[0.032091,51.517141],[0.033049,51.517253],[0.033644,51.517332],[0.034115,51.517413],[0.034855,51.517561],[0.035655,51.517755],[0.036168,51.517925],[0.036739,51.518111],[0.037535,51.518418],[0.038196,51.518704],[0.038575,51.518864],[0.039021,51.519029],[0.039466,51.519188],[0.040114,51.519379],[0.040761,51.519558],[0.041156,51.519658],[0.041551,51.519746],[0.042099,51.519856],[0.042838,51.519968],[0.04349,51.520052],[0.044294,51.520121],[0.044992,51.52015],[0.04566,51.520162],[0.046364,51.520144],[0.047286,51.520081],[0.048378,51.519972],[0.04946,51.519858],[0.049884,51.5198],[0.04982,51.51941],[0.049816,51.519352],[0.049671,51.519212],[0.049517,51.519066],[0.04947,51.51898],[0.049464,51.518849],[0.049433,51.518582],[0.049871,51.518566],[0.050184,51.518539],[0.050769,51.518508],[0.051287,51.518467],[0.052104,51.518399],[0.052869,51.518338],[0.053278,51.51831],[0.05328,51.518323],[0.053338,51.518346],[0.053629,51.518335],[0.053855,51.518318],[0.054031,51.518309],[0.054378,51.518282],[0.05519,51.518232],[0.056246,51.518175],[0.05637,51.518166],[0.056403,51.518273],[0.056382,51.51833],[0.056356,51.51839],[0.056741,51.518414],[0.056774,51.518429],[0.057529,51.518475],[0.058289,51.518521],[0.058527,51.518535],[0.05851,51.518163],[0.058416,51.518108],[0.058365,51.51799],[0.058411,51.517827],[0.058491,51.51774],[0.058598,51.517738],[0.058916,51.5177],[0.058778,51.517164],[0.058974,51.517132],[0.05896,51.516971],[0.058876,51.516967],[0.05894,51.516705],[0.059007,51.516323],[0.059185,51.51571],[0.059478,51.514259],[0.059505,51.513849],[0.059943,51.513251],[0.059971,51.513194],[0.060033,51.513207],[0.060118,51.513067],[0.060342,51.513135],[0.060561,51.512806],[0.060486,51.512775],[0.060665,51.512541],[0.060766,51.512561],[0.061185,51.511868],[0.061344,51.511479],[0.061103,51.511394],[0.061309,51.511088],[0.060967,51.51093],[0.061008,51.510805],[0.061243,51.510787],[0.061219,51.510749],[0.06111,51.510708],[0.061112,51.510589],[0.061156,51.510536],[0.061145,51.510303],[0.061165,51.510251],[0.061203,51.510231],[0.061146,51.510165],[0.061124,51.510004],[0.061173,51.509913],[0.061361,51.509847],[0.061488,51.509802],[0.061582,51.509672],[0.061715,51.509575],[0.061881,51.509548],[0.062116,51.509525],[0.062239,51.509537],[0.062264,51.509413],[0.062241,51.508914],[0.062223,51.508639],[0.06153,51.508654],[0.060017,51.508704],[0.058618,51.508753],[0.057323,51.508787],[0.056971,51.508805],[0.055819,51.508838],[0.055601,51.508865],[0.055421,51.508892],[0.055289,51.50893],[0.055233,51.508949],[0.055205,51.508961],[0.055158,51.50898],[0.055092,51.508993],[0.055035,51.509006],[0.054988,51.509001],[0.054959,51.509001],[0.054882,51.508997],[0.054824,51.508974],[0.054747,51.508957],[0.054699,51.508934],[0.05466,51.508923],[0.054601,51.508895],[0.054505,51.508878],[0.054315,51.508882],[0.053772,51.508891],[0.052859,51.508931],[0.051097,51.50898],[0.04986,51.509019],[0.048803,51.509049],[0.048137,51.509073],[0.047882,51.509125],[0.047712,51.509164],[0.047647,51.509195],[0.047572,51.50922],[0.047525,51.509238],[0.047477,51.509245],[0.047421,51.509252],[0.047344,51.509247],[0.047277,51.509243],[0.047209,51.50922],[0.047132,51.509186],[0.047044,51.509152],[0.04692,51.509136],[0.046757,51.509121],[0.046557,51.509124],[0.04629,51.509129],[0.045891,51.509142],[0.044891,51.509171],[0.043873,51.509213],[0.042666,51.509287],[0.042094,51.509303],[0.041428,51.509333],[0.040877,51.509366],[0.040612,51.509406],[0.0405,51.509468],[0.040397,51.509494],[0.04033,51.509507],[0.040254,51.509508],[0.040168,51.509497],[0.040052,51.50947],[0.039937,51.509448],[0.039834,51.509497],[0.039703,51.509541],[0.039532,51.509562],[0.039398,51.509547],[0.039177,51.509503],[0.038658,51.509411],[0.038245,51.509347],[0.037786,51.509319],[0.037281,51.509316],[0.036804,51.509312],[0.036463,51.509366],[0.035971,51.509446],[0.0353,51.50957],[0.034601,51.509719],[0.033996,51.509825],[0.033692,51.50986],[0.03318,51.509916],[0.032771,51.509941],[0.032353,51.509966],[0.031943,51.509967],[0.03161,51.509973],[0.030752,51.509982],[0.029704,51.509982],[0.028645,51.509971],[0.02752,51.509967],[0.026633,51.509946],[0.02586,51.50993],[0.025135,51.509919],[0.02441,51.509902],[0.023627,51.509868],[0.022948,51.509838],[0.022012,51.509788],[0.021295,51.509747],[0.020406,51.509691],[0.01968,51.50965],[0.019029,51.50959],[0.018445,51.509529],[0.017774,51.509445],[0.01716,51.50936],[0.016574,51.509263],[0.015884,51.509174],[0.015425,51.509134],[0.015091,51.509122],[0.014738,51.509128],[0.014235,51.509173],[0.014195,51.508924],[0.013661,51.508776],[0.013222,51.509296],[0.012859,51.509721],[0.012334,51.510349],[0.01184,51.510925],[0.011305,51.511556],[0.011179,51.511713],[0.01064,51.512359],[0.010182,51.512902],[0.009703,51.513481],[0.009449,51.513792],[0.008398,51.515128],[0.008195,51.515387],[0.007541,51.515261],[0.006685,51.515094],[0.006478,51.515053],[0.006481,51.514572],[0.006482,51.514284],[0.006436,51.514291],[0.006333,51.514298],[0.006184,51.514296],[0.005905,51.514222],[0.005621,51.514079],[0.00554,51.514032],[0.005476,51.513987],[0.005363,51.513893],[0.005113,51.51363],[0.004976,51.513531],[0.004908,51.513465],[0.004861,51.513405],[0.004823,51.513342],[0.004776,51.513208],[0.004694,51.512691],[0.004689,51.512392],[0.004703,51.512188],[0.004695,51.511993],[0.004551,51.51148],[0.004458,51.511252],[0.004408,51.5111],[0.004347,51.510988],[0.004285,51.510905],[0.004107,51.510721],[0.00403,51.510669],[0.003965,51.510637],[0.003896,51.510608],[0.003739,51.510567],[0.003566,51.510548],[0.003313,51.510544],[0.003096,51.510545],[0.002617,51.510612],[0.00253,51.510638],[0.00248,51.51066],[0.00241,51.510703],[0.002334,51.510797],[0.002285,51.510884],[0.00225,51.511019],[0.002261,51.5112],[0.002281,51.511284],[0.002331,51.511432],[0.002381,51.51155],[0.002509,51.511799],[0.002789,51.512313],[0.003313,51.513105],[0.003522,51.513484],[0.003637,51.513675],[0.003834,51.513981],[0.004008,51.514231],[0.004051,51.514307],[0.004085,51.514386],[0.004117,51.514488],[0.004139,51.514638],[0.004075,51.514808],[0.004027,51.514893],[0.003925,51.51504],[0.003835,51.515131],[0.003642,51.51528],[0.003205,51.515573],[0.00301,51.515678],[0.002693,51.515829],[0.002573,51.515881],[0.002338,51.515979],[0.00198,51.516115],[0.001739,51.516205],[0.000599,51.516587],[-0.000635,51.517175],[-0.001427,51.517569],[-0.002054,51.517898],[-0.00219,51.517948],[-0.002267,51.517965],[-0.002333,51.517974],[-0.002402,51.517977],[-0.002504,51.517974],[-0.003225,51.517876],[-0.003446,51.517805],[-0.003622,51.517736],[-0.003676,51.517704],[-0.003775,51.517623],[-0.003972,51.517343],[-0.004104,51.517132],[-0.004193,51.517035],[-0.004451,51.51676],[-0.004529,51.516698],[-0.004579,51.516667],[-0.004653,51.516634],[-0.004828,51.516584],[-0.00497,51.516561],[-0.005041,51.516559],[-0.005153,51.516563],[-0.005285,51.516577],[-0.005348,51.51659],[-0.005594,51.51671],[-0.00566,51.516754],[-0.0057,51.516794],[-0.005731,51.516836],[-0.005756,51.516885],[-0.00577,51.516937],[-0.005793,51.517427],[-0.005873,51.517616],[-0.006002,51.51782],[-0.00635,51.518302],[-0.006707,51.518671],[-0.006786,51.518748],[-0.006945,51.518874],[-0.007165,51.519011],[-0.007526,51.519194],[-0.007711,51.51928],[-0.007901,51.519365],[-0.008572,51.519649],[-0.008822,51.519788],[-0.008895,51.519891],[-0.008974,51.520248],[-0.008993,51.520422],[-0.009011,51.520591],[-0.008983,51.520751],[-0.008848,51.521017],[-0.008687,51.521289],[-0.008335,51.521798],[-0.00769,51.522875],[-0.007724,51.522984],[-0.007825,51.523106],[-0.007891,51.523193],[-0.008048,51.523366],[-0.008109,51.523555],[-0.008093,51.523742],[-0.00807,51.523949],[-0.007907,51.524858],[-0.007822,51.525094],[-0.007578,51.525409],[-0.007418,51.525696],[-0.007367,51.525824],[-0.005813,51.526135],[-0.003816,51.526684],[-0.002871,51.526918],[-0.002158,51.52709],[-0.001862,51.527311],[-0.001479,51.527561],[-0.000239,51.528009],[0.000188,51.528169],[0.000491,51.528342],[0.000502,51.528586],[0.000564,51.528906],[0.000654,51.529225],[0.000813,51.529377],[0.001101,51.529634],[0.001217,51.529894],[0.001081,51.530271],[0.001124,51.530738],[0.001634,51.53061],[0.002343,51.530461],[0.002957,51.530338],[0.003393,51.530271],[0.004113,51.530169],[0.00488,51.530049],[0.004727,51.529917],[0.004781,51.529619],[0.004855,51.529362],[0.004888,51.529028],[0.004904,51.528719],[0.004898,51.528594],[0.004805,51.528423],[0.004817,51.5274],[0.004832,51.526234],[0.004865,51.52546],[0.004823,51.524937],[0.004769,51.524575],[0.004685,51.523964],[0.004654,51.523691],[0.004714,51.523101],[0.004662,51.522786],[0.004465,51.522201],[0.004384,51.521887],[0.004359,51.521751],[0.00434,51.521531],[0.004401,51.521185]],[[0.042103,51.514824],[0.042111,51.514681],[0.042121,51.514574],[0.04217,51.514404],[0.042238,51.514221],[0.042315,51.51403],[0.042393,51.513844],[0.042471,51.513676],[0.042568,51.513493],[0.042679,51.513318],[0.042815,51.513149],[0.042956,51.513004],[0.043191,51.512825],[0.04339,51.512693],[0.043623,51.512573],[0.043866,51.512459],[0.0441,51.512377],[0.044397,51.512286],[0.044831,51.512192],[0.045166,51.512118],[0.045486,51.512136],[0.045384,51.512189],[0.045243,51.512247],[0.045117,51.512297],[0.045005,51.512353],[0.044917,51.512417],[0.04483,51.512484],[0.044771,51.51255],[0.044745,51.512616],[0.044734,51.512694],[0.044737,51.512753],[0.044744,51.512812],[0.044756,51.512854],[0.044787,51.512913],[0.044799,51.512972],[0.044798,51.513043],[0.044767,51.513095],[0.044697,51.513128],[0.044602,51.513154],[0.044513,51.51317],[0.044442,51.513192],[0.0444,51.51322],[0.044373,51.513256],[0.044352,51.513304],[0.044345,51.513361],[0.044337,51.513504],[0.044331,51.513587],[0.044337,51.513727],[0.044384,51.513821],[0.044425,51.513868],[0.044465,51.513927],[0.04452,51.513967],[0.044584,51.514017],[0.044662,51.514069],[0.044732,51.514133],[0.044778,51.514213],[0.0448,51.514272],[0.044794,51.514349],[0.044754,51.514415],[0.044705,51.514485],[0.044655,51.514539],[0.044577,51.514609],[0.044462,51.514703],[0.044305,51.514822],[0.044163,51.51494],[0.044095,51.515022],[0.044079,51.515081],[0.044043,51.51524],[0.04402,51.51538],[0.043968,51.515491],[0.043896,51.515572],[0.043847,51.515665],[0.043831,51.515719],[0.043828,51.515761],[0.04383,51.51582],[0.043834,51.515909],[0.043828,51.515987],[0.043808,51.516071],[0.04377,51.516175],[0.043731,51.516271],[0.043712,51.516379],[0.043702,51.516462],[0.043697,51.516578],[0.042884,51.516607],[0.042541,51.516625],[0.042346,51.516628],[0.042188,51.516607],[0.042018,51.516545],[0.041837,51.51645],[0.041915,51.516377],[0.041974,51.516314],[0.04206,51.516208],[0.042131,51.516091],[0.042179,51.515986],[0.042193,51.515885],[0.042208,51.515789],[0.042193,51.515659],[0.042185,51.515492],[0.04217,51.515362],[0.042144,51.515204],[0.042124,51.515083],[0.042113,51.514949],[0.042103,51.514824]]]}}
]}
